{"type":"FeatureCollection","features":[{"type":"Feature","properties":{"id":"ABW:ADM0:13396579B60449062665213","name":"Aruba","countryCode":"ABW","adminLevel":0,"sourceCode":"13396579B60449062665213","parentId":"ABW:ADM1:ABW-5150"},"geometry":{"type":"Polygon","coordinates":[[[-70.04878,12.62075],[-70.03111,12.60516],[-70.02291,12.60177],[-70.01321,12.58528],[-69.98802,12.55897],[-69.95794,12.54432],[-69.95619,12.53765],[-69.94719,12.5399],[-69.94684,12.53963],[-69.93934,12.53018],[-69.93021,12.52514],[-69.9287,12.52352],[-69.92731,12.51595],[-69.92033,12.50841],[-69.91576,12.49702],[-69.8802,12.45356],[-69.87682,12.4274],[-69.88662,12.41894],[-69.88762,12.42085],[-69.89814,12.42256],[-69.90954,12.43164],[-69.921,12.43111],[-69.92691,12.43596],[-69.92405,12.43824],[-69.92648,12.43997],[-69.92805,12.44037],[-69.92467,12.44037],[-69.92467,12.44721],[-69.95857,12.4632],[-70.02766,12.52294],[-70.04809,12.53116],[-70.05809,12.53718],[-70.06089,12.54343],[-70.04481,12.57834],[-70.05339,12.6106],[-70.05958,12.61691],[-70.05577,12.62309],[-70.04878,12.62075]]]}}],"admin1":{"type":"FeatureCollection","features":[{"type":"Feature","properties":{"id":"ABW:ADM1:ABW-5150","name":"Aruba","countryCode":"ABW"},"geometry":{"type":"Polygon","coordinates":[[[-70.04878,12.62075],[-70.03111,12.60516],[-70.02291,12.60177],[-70.01321,12.58528],[-69.98802,12.55897],[-69.95794,12.54432],[-69.95619,12.53765],[-69.94719,12.5399],[-69.94684,12.53963],[-69.93934,12.53018],[-69.93021,12.52514],[-69.9287,12.52352],[-69.92731,12.51595],[-69.92033,12.50841],[-69.91576,12.49702],[-69.8802,12.45356],[-69.87682,12.4274],[-69.88662,12.41894],[-69.88762,12.42085],[-69.89814,12.42256],[-69.90954,12.43164],[-69.921,12.43111],[-69.92691,12.43596],[-69.92405,12.43824],[-69.92648,12.43997],[-69.92805,12.44037],[-69.92467,12.44037],[-69.92467,12.44721],[-69.95857,12.4632],[-70.02766,12.52294],[-70.04809,12.53116],[-70.05809,12.53718],[-70.06089,12.54343],[-70.04481,12.57834],[-70.05339,12.6106],[-70.05958,12.61691],[-70.05577,12.62309],[-70.04878,12.62075]]]}}]}}
