{"type":"FeatureCollection","features":[{"type":"Feature","properties":{"id":"AIA:ADM0:96724787B47890879031639","name":"Anguilla","countryCode":"AIA","adminLevel":0,"sourceCode":"96724787B47890879031639","parentId":"AIA:ADM1:AIA-5124"},"geometry":{"type":"MultiPolygon","coordinates":[[[[-63.16255,18.1709],[-63.15555,18.17133],[-63.1467,18.1794],[-63.138,18.18232],[-63.13129,18.19109],[-63.09392,18.19497],[-63.0906,18.20193],[-63.09527,18.20385],[-63.08921,18.20863],[-63.07569,18.21208],[-63.06738,18.21904],[-63.06792,18.22834],[-63.07229,18.23179],[-63.06911,18.2351],[-63.05377,18.24625],[-63.02803,18.257],[-63.02161,18.2544],[-63.00405,18.26129],[-63.00137,18.25647],[-62.98792,18.26323],[-62.98083,18.26272],[-62.9728,18.27162],[-62.97289,18.26927],[-62.98337,18.25231],[-62.98698,18.24979],[-62.98622,18.24771],[-62.99291,18.23688],[-63.00056,18.22736],[-63.00679,18.22344],[-63.00785,18.22371],[-63.00957,18.22169],[-63.01154,18.22045],[-63.03767,18.21296],[-63.09952,18.17617],[-63.10237,18.18041],[-63.10309,18.1809],[-63.103,18.18123],[-63.10326,18.18102],[-63.10912,18.18504],[-63.11384,18.18985],[-63.13683,18.17341],[-63.13771,18.17313],[-63.13826,18.17308],[-63.13835,18.17293],[-63.1505,18.16909],[-63.16411,18.16929],[-63.16255,18.1709]],[[-63.12824,18.18392],[-63.13457,18.18422],[-63.14014,18.17824],[-63.13466,18.18059],[-63.12824,18.18392]],[[-63.08364,18.20312],[-63.08957,18.20474],[-63.08932,18.19864],[-63.08685,18.19806],[-63.08364,18.20312]],[[-63.02111,18.22736],[-63.02718,18.22228],[-63.01999,18.22428],[-63.02111,18.22736]],[[-62.99664,18.23747],[-62.99947,18.23585],[-62.99812,18.23614],[-62.99664,18.23747]],[[-63.02821,18.23973],[-63.02794,18.23755],[-63.02565,18.23738],[-63.02821,18.23973]]],[[[-63.17048,18.26548],[-63.17028,18.26546],[-63.16847,18.26257],[-63.16837,18.26211],[-63.16955,18.26173],[-63.17102,18.26154],[-63.17419,18.2633],[-63.17429,18.26452],[-63.17342,18.26434],[-63.17281,18.26458],[-63.17236,18.26458],[-63.17198,18.2649],[-63.17048,18.26548]]],[[[-63.19103,18.26831],[-63.18835,18.26884],[-63.18643,18.26843],[-63.1845,18.26805],[-63.18137,18.26708],[-63.17965,18.26645],[-63.18096,18.26602],[-63.18684,18.26542],[-63.18895,18.26687],[-63.18971,18.26747],[-63.1902,18.26773],[-63.19103,18.26831]]],[[[-63.25454,18.28439],[-63.24514,18.27992],[-63.23827,18.28159],[-63.25083,18.27372],[-63.25035,18.27406],[-63.25198,18.27445],[-63.25166,18.2732],[-63.25203,18.27297],[-63.25542,18.27414],[-63.26195,18.2786],[-63.26205,18.2791],[-63.25454,18.28439]]],[[[-62.94451,18.2955],[-62.93778,18.29132],[-62.93469,18.29471],[-62.93423,18.29462],[-62.93483,18.28899],[-62.93047,18.29014],[-62.93333,18.29212],[-62.93162,18.29324],[-62.93105,18.2929],[-62.93054,18.29072],[-62.92706,18.29054],[-62.92679,18.29038],[-62.94723,18.28439],[-62.95068,18.27825],[-62.95088,18.27812],[-62.95842,18.27609],[-62.95887,18.27654],[-62.95576,18.2805],[-62.95626,18.28229],[-62.9561,18.2825],[-62.95784,18.28822],[-62.95068,18.29213],[-62.95068,18.29213],[-62.95068,18.29213],[-62.94451,18.2955]],[[-62.95468,18.28285],[-62.95338,18.28404],[-62.95572,18.28665],[-62.95468,18.28285]]]]}}],"admin1":{"type":"FeatureCollection","features":[{"type":"Feature","properties":{"id":"AIA:ADM1:AIA-5124","name":"The Farrington","countryCode":"AIA"},"geometry":{"type":"MultiPolygon","coordinates":[[[[-63.1467,18.1794],[-63.138,18.18232],[-63.13129,18.19109],[-63.09392,18.19497],[-63.0906,18.20193],[-63.09527,18.20385],[-63.08921,18.20863],[-63.07569,18.21208],[-63.06738,18.21904],[-63.06792,18.22834],[-63.07229,18.23179],[-63.06911,18.2351],[-63.05377,18.24625],[-63.02803,18.257],[-63.02161,18.2544],[-63.00405,18.26129],[-63.00137,18.25647],[-62.98792,18.26323],[-62.98083,18.26272],[-62.9728,18.27162],[-62.97289,18.26927],[-62.98337,18.25231],[-62.98698,18.24979],[-62.98622,18.24771],[-62.99291,18.23688],[-63.00056,18.22736],[-63.00679,18.22344],[-63.00785,18.22371],[-63.00957,18.22169],[-63.01154,18.22045],[-63.03767,18.21296],[-63.09952,18.17617],[-63.10237,18.18041],[-63.10309,18.1809],[-63.103,18.18123],[-63.10326,18.18102],[-63.10912,18.18504],[-63.11384,18.18985],[-63.13683,18.17341],[-63.13771,18.17313],[-63.13826,18.17308],[-63.13835,18.17293],[-63.1505,18.16909],[-63.16411,18.16929],[-63.16255,18.1709],[-63.15555,18.17133],[-63.1467,18.1794]],[[-63.14014,18.17824],[-63.13466,18.18059],[-63.12824,18.18392],[-63.13457,18.18422],[-63.14014,18.17824]],[[-63.08932,18.19864],[-63.08685,18.19806],[-63.08364,18.20312],[-63.08957,18.20474],[-63.08932,18.19864]],[[-63.01999,18.22428],[-63.02111,18.22736],[-63.02718,18.22228],[-63.01999,18.22428]],[[-62.99812,18.23614],[-62.99664,18.23747],[-62.99947,18.23585],[-62.99812,18.23614]],[[-63.02565,18.23738],[-63.02821,18.23973],[-63.02794,18.23755],[-63.02565,18.23738]]],[[[-63.16847,18.26257],[-63.16837,18.26211],[-63.16955,18.26173],[-63.17102,18.26154],[-63.17419,18.2633],[-63.17429,18.26452],[-63.17342,18.26434],[-63.17281,18.26458],[-63.17236,18.26458],[-63.17198,18.2649],[-63.17048,18.26548],[-63.17028,18.26546],[-63.16847,18.26257]]],[[[-63.18643,18.26843],[-63.1845,18.26805],[-63.18137,18.26708],[-63.17965,18.26645],[-63.18096,18.26602],[-63.18684,18.26542],[-63.18895,18.26687],[-63.18971,18.26747],[-63.1902,18.26773],[-63.19103,18.26831],[-63.18835,18.26884],[-63.18643,18.26843]]],[[[-63.25083,18.27372],[-63.25035,18.27406],[-63.25198,18.27445],[-63.25166,18.2732],[-63.25203,18.27297],[-63.25542,18.27414],[-63.26195,18.2786],[-63.26205,18.2791],[-63.25454,18.28439],[-63.24514,18.27992],[-63.23827,18.28159],[-63.25083,18.27372]]],[[[-62.93423,18.29462],[-62.93483,18.28899],[-62.93047,18.29014],[-62.93333,18.29212],[-62.93162,18.29324],[-62.93105,18.2929],[-62.93054,18.29072],[-62.92706,18.29054],[-62.92679,18.29038],[-62.94723,18.28439],[-62.95068,18.27825],[-62.95088,18.27812],[-62.95842,18.27609],[-62.95887,18.27654],[-62.95576,18.2805],[-62.95626,18.28229],[-62.9561,18.2825],[-62.95784,18.28822],[-62.95068,18.29213],[-62.94451,18.2955],[-62.93778,18.29132],[-62.93469,18.29471],[-62.93423,18.29462]],[[-62.95468,18.28285],[-62.95338,18.28404],[-62.95572,18.28665],[-62.95468,18.28285]]]]}}]}}
