{"type":"FeatureCollection","features":[{"type":"Feature","properties":{"id":"ALA:ADM0:ALA","name":"Åland","countryCode":"ALA","adminLevel":0,"sourceCode":"ALA"},"geometry":{"type":"MultiPolygon","coordinates":[[[[20.2776,60.14216],[20.2776,60.06647],[20.20191,60.08755],[20.22242,60.1496],[20.2776,60.14216]]],[[[19.6395,60.22093],[19.67107,60.15811],[19.52703,60.14863],[19.56788,60.25511],[19.6395,60.22093]]],[[[20.42791,60.26569],[20.39291,60.19676],[20.34539,60.2377],[20.3589,60.26569],[20.42791,60.26569]]],[[[20.81886,60.23216],[20.79054,60.23871],[20.78728,60.28632],[20.85304,60.26569],[20.81886,60.23216]]],[[[20.20875,60.22468],[20.05787,60.19062],[20.02369,60.31346],[20.01629,60.18374],[19.91456,60.21821],[20.01002,60.15583],[20.0442,60.17634],[20.05047,60.09781],[19.9485,60.04767],[19.76303,60.07392],[19.64698,60.26569],[19.79656,60.29979],[19.81422,60.19062],[19.93434,60.28242],[19.77735,60.35505],[19.88234,60.40559],[20.2776,60.27871],[20.20875,60.22468]]],[[[20.87525,59.91413],[20.89747,59.94013],[20.92018,59.90925],[20.91236,59.90449],[20.87525,59.91413]]],[[[20.98357,59.94278],[20.98276,59.92154],[20.91326,59.94843],[20.99586,59.9499],[20.98357,59.94278]]],[[[20.61012,60.04499],[20.58717,60.00812],[20.50082,60.01268],[20.54493,60.0561],[20.61012,60.04499]]],[[[20.42408,60.05524],[20.46258,60.0668],[20.39015,60.02822],[20.42408,60.05524]]],[[[20.52117,60.04804],[20.47136,60.04133],[20.46974,60.05736],[20.54184,60.07099],[20.52117,60.04804]]],[[[20.68336,60.13052],[20.67156,60.1092],[20.63551,60.14395],[20.65992,60.14973],[20.68336,60.13052]]],[[[20.68377,60.2294],[20.7059,60.21825],[20.71632,60.2093],[20.67066,60.1992],[20.68377,60.2294]]],[[[20.77735,60.32648],[20.74,60.3124],[20.73268,60.31436],[20.75717,60.36612],[20.77735,60.32648]]],[[[20.28131,59.97662],[20.33945,60.02011],[20.44706,59.99518],[20.30665,59.95362],[20.28131,59.97662]]],[[[20.03365,60.06363],[20.16326,60.08785],[20.22522,60.00548],[20.17512,59.97144],[20.03365,60.06363]]],[[[21.08863,60.48013],[21.08823,60.45222],[21.06495,60.45478],[21.0643,60.47435],[21.08863,60.48013]]]]}}],"admin1":{"type":"FeatureCollection","features":[]}}
