{"type":"FeatureCollection","features":[{"type":"Feature","properties":{"id":"ALB:ADM2:67620474B15717375113052","name":"Shkodër","countryCode":"ALB","adminLevel":2,"sourceCode":"67620474B15717375113052","parentId":"ALB:ADM1:ALB-1498"},"geometry":{"type":"Polygon","coordinates":[[[19.36311,41.86495],[19.36877,41.88536],[19.33929,41.89783],[19.33816,41.91484],[19.3597,41.92618],[19.34383,41.93865],[19.34043,41.96473],[19.3597,41.96473],[19.37898,41.97154],[19.37218,41.98288],[19.37444,41.99535],[19.36424,42.0237],[19.36877,42.03957],[19.36537,42.05658],[19.37218,42.07359],[19.41186,42.07132],[19.46403,42.05772],[19.4765,42.05772],[19.47536,42.0838],[19.46461,42.09127],[19.47855,42.10753],[19.47994,42.11914],[19.48479,42.12674],[19.51878,42.12571],[19.52187,42.13292],[19.55999,42.13292],[19.58265,42.16589],[19.59501,42.19576],[19.6084,42.21636],[19.60943,42.2246],[19.62076,42.22769],[19.61664,42.24211],[19.6187,42.25241],[19.62591,42.25241],[19.62797,42.26889],[19.63621,42.27507],[19.63827,42.27095],[19.65063,42.27713],[19.64651,42.28331],[19.65063,42.29258],[19.66093,42.29258],[19.66299,42.2998],[19.67329,42.30804],[19.66917,42.29671],[19.69698,42.3204],[19.69802,42.31422],[19.71141,42.31731],[19.70729,42.34203],[19.70111,42.35027],[19.69802,42.3616],[19.70111,42.38323],[19.69905,42.39559],[19.70214,42.40589],[19.71965,42.42134],[19.7248,42.42134],[19.73819,42.43473],[19.75055,42.43679],[19.7612,42.45448],[19.77752,42.46269],[19.78762,42.4863],[19.83163,42.46406],[19.82722,42.45012],[19.80469,42.42437],[19.82401,42.3793],[19.8224,42.35355],[19.84332,42.31814],[19.84171,42.28756],[19.83366,42.26986],[19.83527,42.24411],[19.86585,42.23767],[19.88517,42.23767],[19.91092,42.21836],[19.88517,42.1749],[19.88195,42.1588],[19.88838,42.13305],[19.86424,42.11213],[19.85298,42.09282],[19.81435,42.0558],[19.76606,42.04292],[19.76124,42.0059],[19.72422,41.99625],[19.75556,41.93009],[19.72195,41.9253],[19.71617,41.89807],[19.68042,41.92662],[19.64374,41.92382],[19.60197,41.94772],[19.57626,41.94706],[19.56005,41.92382],[19.5681,41.8691],[19.54235,41.84496],[19.53888,41.83283],[19.46551,41.85545],[19.45118,41.86254],[19.43295,41.8686],[19.36596,41.85257],[19.36311,41.86495]]]}},{"type":"Feature","properties":{"id":"ALB:ADM2:67620474B1879164611880","name":"Delvinë","countryCode":"ALB","adminLevel":2,"sourceCode":"67620474B1879164611880","parentId":"ALB:ADM1:ALB-1504"},"geometry":{"type":"Polygon","coordinates":[[[19.93111,40.09947],[19.91806,40.05202],[19.95127,40.0105],[20.00466,39.97017],[20.00703,39.91797],[20.04143,39.88238],[20.08889,39.84798],[20.10193,39.85272],[20.11498,39.86221],[20.13159,39.84679],[20.15057,39.85391],[20.15413,39.87408],[20.19803,39.87526],[20.22768,39.84798],[20.25853,39.84798],[20.27158,39.86696],[20.24429,39.90373],[20.24548,39.92509],[20.15176,39.97373],[20.0699,40.04846],[20.00347,40.05795],[19.9833,40.04609],[19.93111,40.09947]]]}},{"type":"Feature","properties":{"id":"ALB:ADM2:67620474B20431026689517","name":"Lezhë","countryCode":"ALB","adminLevel":2,"sourceCode":"67620474B20431026689517","parentId":"ALB:ADM1:ALB-1528"},"geometry":{"type":"Polygon","coordinates":[[[19.54235,41.84496],[19.5681,41.8691],[19.56005,41.92382],[19.57626,41.94706],[19.60197,41.94772],[19.64374,41.92382],[19.68042,41.92662],[19.71617,41.89807],[19.72195,41.9253],[19.75556,41.93009],[19.75109,41.94286],[19.78248,41.94854],[19.80102,41.93824],[19.81956,41.93309],[19.85871,41.94442],[19.86151,41.95172],[19.86875,41.90885],[19.85641,41.89071],[19.83972,41.8849],[19.84335,41.84499],[19.83464,41.84354],[19.78094,41.81886],[19.7657,41.83265],[19.75554,41.83265],[19.7403,41.81886],[19.70752,41.8191],[19.70845,41.81399],[19.72889,41.79866],[19.73075,41.7903],[19.70752,41.77822],[19.70845,41.75036],[19.71635,41.74618],[19.71681,41.73503],[19.72239,41.72853],[19.72239,41.71784],[19.74375,41.70159],[19.75629,41.70298],[19.7628,41.69834],[19.76094,41.68673],[19.72239,41.68719],[19.72053,41.68254],[19.71356,41.68162],[19.71588,41.67651],[19.66665,41.67418],[19.64854,41.66629],[19.60999,41.66675],[19.60395,41.66164],[19.56835,41.66556],[19.56761,41.67374],[19.57814,41.68765],[19.57778,41.69392],[19.5789,41.69457],[19.58022,41.715],[19.5765,41.71632],[19.57634,41.71894],[19.57114,41.75239],[19.5712,41.75966],[19.58478,41.76692],[19.58953,41.76569],[19.59897,41.77871],[19.59978,41.79975],[19.59164,41.81879],[19.58522,41.81855],[19.53888,41.83283],[19.54235,41.84496]]]}},{"type":"Feature","properties":{"id":"ALB:ADM2:67620474B23103740146981","name":"Përmet","countryCode":"ALB","adminLevel":2,"sourceCode":"67620474B23103740146981","parentId":"ALB:ADM1:ALB-1525"},"geometry":{"type":"Polygon","coordinates":[[[20.09663,40.4716],[20.10193,40.44943],[20.06753,40.4352],[20.07702,40.40435],[20.08414,40.36165],[20.10312,40.35334],[20.16244,40.27623],[20.12566,40.25488],[20.16718,40.22641],[20.24429,40.24183],[20.32377,40.19082],[20.36292,40.1837],[20.3736,40.14574],[20.44952,40.11964],[20.47799,40.06982],[20.49935,40.06626],[20.51951,40.07575],[20.55036,40.0627],[20.61086,40.06388],[20.6334,40.08761],[20.58595,40.13744],[20.5551,40.15523],[20.51477,40.16947],[20.54443,40.20387],[20.52782,40.22166],[20.529,40.25844],[20.50172,40.27267],[20.50291,40.30233],[20.49816,40.33318],[20.51358,40.3486],[20.47681,40.38656],[20.46969,40.42808],[20.41735,40.43003],[20.40444,40.44217],[20.38091,40.44141],[20.34143,40.4194],[20.33839,40.40345],[20.33991,40.38447],[20.28676,40.36701],[20.25108,40.39206],[20.23893,40.4118],[20.21008,40.41408],[20.1835,40.44445],[20.14327,40.47938],[20.09788,40.48341],[20.09663,40.4716]]]}},{"type":"Feature","properties":{"id":"ALB:ADM2:67620474B25662331989090","name":"Tepelenë","countryCode":"ALB","adminLevel":2,"sourceCode":"67620474B25662331989090","parentId":"ALB:ADM1:ALB-1525"},"geometry":{"type":"Polygon","coordinates":[[[19.92916,40.51886],[19.77807,40.4091],[19.80654,40.36877],[19.75316,40.34267],[19.83739,40.27267],[19.81841,40.25844],[19.84569,40.25132],[19.84451,40.2098],[19.88128,40.1837],[20.00228,40.16709],[20.02482,40.21217],[20.16718,40.22641],[20.12566,40.25488],[20.16244,40.27623],[20.10312,40.35334],[20.08414,40.36165],[20.07702,40.40435],[20.06753,40.4352],[20.10193,40.44943],[20.09663,40.4716],[20.06771,40.47066],[20.06336,40.48404],[20.01192,40.48773],[19.95953,40.49608],[19.92916,40.51886]]]}},{"type":"Feature","properties":{"id":"ALB:ADM2:67620474B28188595050305","name":"Gjirokastër","countryCode":"ALB","adminLevel":2,"sourceCode":"67620474B28188595050305","parentId":"ALB:ADM1:ALB-1525"},"geometry":{"type":"Polygon","coordinates":[[[20.16718,40.22641],[20.02482,40.21217],[20.00228,40.16709],[19.88128,40.1837],[19.89908,40.14218],[19.93111,40.09947],[19.9833,40.04609],[20.00347,40.05795],[20.0699,40.04846],[20.15176,39.97373],[20.24548,39.92509],[20.24429,39.90373],[20.27158,39.86696],[20.32496,39.84798],[20.32259,39.80646],[20.39851,39.77799],[20.41986,39.78866],[20.43291,39.81239],[20.42224,39.8456],[20.34987,39.92034],[20.34394,39.95474],[20.33208,39.98678],[20.41156,39.9844],[20.41037,40.01406],[20.42461,40.04135],[20.47799,40.06982],[20.44952,40.11964],[20.3736,40.14574],[20.36292,40.1837],[20.32377,40.19082],[20.24429,40.24183],[20.16718,40.22641]]]}},{"type":"Feature","properties":{"id":"ALB:ADM2:67620474B3220488890929","name":"Berat","countryCode":"ALB","adminLevel":2,"sourceCode":"67620474B3220488890929","parentId":"ALB:ADM1:ALB-1523"},"geometry":{"type":"Polygon","coordinates":[[[19.9678,40.87086],[19.97006,40.85784],[19.98592,40.84789],[19.98437,40.82923],[19.95856,40.80715],[19.95856,40.79751],[19.97691,40.78507],[19.97193,40.77418],[19.94332,40.75366],[19.93492,40.76205],[19.90756,40.76859],[19.84159,40.81048],[19.84358,40.83695],[19.83303,40.83894],[19.83198,40.84457],[19.80936,40.84956],[19.80669,40.84255],[19.776,40.83721],[19.76999,40.8252],[19.76799,40.80584],[19.71194,40.80318],[19.73783,40.7937],[19.73404,40.77851],[19.75681,40.75574],[19.7758,40.69576],[19.82666,40.66083],[19.82666,40.64944],[19.84868,40.62591],[19.82363,40.60693],[19.85096,40.59554],[19.85172,40.55834],[19.86083,40.54467],[19.92916,40.51886],[19.95953,40.49608],[20.01192,40.48773],[20.06336,40.48404],[20.06771,40.47066],[20.09663,40.4716],[20.09788,40.48341],[20.12089,40.51607],[20.12151,40.53099],[20.11405,40.53131],[20.11467,40.55587],[20.10876,40.55898],[20.10845,40.57889],[20.07642,40.60719],[20.07673,40.61434],[20.15385,40.61527],[20.1694,40.62522],[20.16847,40.65445],[20.16225,40.65694],[20.1607,40.67498],[20.15465,40.68893],[20.15693,40.71018],[20.1706,40.72309],[20.16908,40.75498],[20.12125,40.7527],[20.11745,40.76789],[20.09012,40.78838],[20.08404,40.81951],[20.02862,40.82179],[20.04456,40.83774],[20.04001,40.85216],[20.0533,40.86878],[19.9678,40.87086]]]}},{"type":"Feature","properties":{"id":"ALB:ADM2:67620474B34590160208903","name":"Elbasan","countryCode":"ALB","adminLevel":2,"sourceCode":"67620474B34590160208903","parentId":"ALB:ADM1:ALB-1524"},"geometry":{"type":"Polygon","coordinates":[[[19.824,41.11821],[19.85207,41.11067],[19.86562,41.0992],[19.88335,41.07731],[19.88335,41.0356],[19.86145,41.01892],[19.8625,40.99285],[19.80932,40.99285],[19.81245,40.9793],[19.80202,40.95219],[19.80306,40.923],[19.80828,40.90319],[19.81766,40.89797],[19.81349,40.86044],[19.87084,40.86357],[19.89169,40.85627],[19.93548,40.86878],[19.9678,40.87086],[20.0533,40.86878],[20.07311,40.89902],[20.07103,40.92612],[20.06164,40.94176],[20.07103,40.94906],[20.11169,40.93864],[20.1315,40.93864],[20.15131,40.95323],[20.29624,40.93759],[20.3588,40.96157],[20.35984,40.97409],[20.34837,41.01371],[20.19823,41.10963],[20.22325,41.12631],[20.19823,41.18679],[20.19093,41.24518],[20.17321,41.27124],[20.14401,41.27228],[20.11699,41.26786],[20.10645,41.25838],[20.08432,41.25733],[20.0664,41.23309],[20.01582,41.24679],[20.00317,41.23098],[20.00211,41.20568],[19.9431,41.17407],[19.89462,41.17407],[19.87775,41.1572],[19.82084,41.14772],[19.824,41.11821]]]}},{"type":"Feature","properties":{"id":"ALB:ADM2:67620474B36949901982284","name":"Kuçovë","countryCode":"ALB","adminLevel":2,"sourceCode":"67620474B36949901982284","parentId":"ALB:ADM1:ALB-1523"},"geometry":{"type":"Polygon","coordinates":[[[19.81349,40.86044],[19.80936,40.84956],[19.83198,40.84457],[19.83303,40.83894],[19.84358,40.83695],[19.84159,40.81048],[19.90756,40.76859],[19.93492,40.76205],[19.94332,40.75366],[19.97193,40.77418],[19.97691,40.78507],[19.95856,40.79751],[19.95856,40.80715],[19.98437,40.82923],[19.98592,40.84789],[19.97006,40.85784],[19.9678,40.87086],[19.93548,40.86878],[19.89169,40.85627],[19.87084,40.86357],[19.81349,40.86044]]]}},{"type":"Feature","properties":{"id":"ALB:ADM2:67620474B41402008781007","name":"Devoll","countryCode":"ALB","adminLevel":2,"sourceCode":"67620474B41402008781007","parentId":"ALB:ADM1:ALB-1521"},"geometry":{"type":"Polygon","coordinates":[[[20.80304,40.48146],[20.80779,40.44469],[20.82439,40.43283],[20.85998,40.44706],[20.86591,40.47197],[20.96438,40.45537],[21.00115,40.49689],[20.99166,40.52061],[21.02013,40.52773],[21.04386,40.55264],[21.06877,40.55739],[21.08657,40.67246],[21.00727,40.72537],[20.95641,40.70639],[20.92404,40.70093],[20.88371,40.63094],[20.87303,40.59654],[20.88371,40.58349],[20.88371,40.56332],[20.87659,40.55146],[20.90269,40.54197],[20.87303,40.50756],[20.80304,40.48146]]]}},{"type":"Feature","properties":{"id":"ALB:ADM2:67620474B45959085094100","name":"Durrës","countryCode":"ALB","adminLevel":2,"sourceCode":"67620474B45959085094100","parentId":"ALB:ADM1:ALB-1494"},"geometry":{"type":"Polygon","coordinates":[[[19.54434,41.57429],[19.55427,41.56566],[19.57758,41.5566],[19.59441,41.52854],[19.59441,41.51386],[19.55988,41.49357],[19.58103,41.46724],[19.58923,41.46378],[19.59182,41.43702],[19.61006,41.39328],[19.63219,41.37642],[19.63219,41.31002],[19.62587,41.28578],[19.57107,41.24784],[19.52989,41.27333],[19.5139,41.27333],[19.51336,41.27668],[19.50294,41.29413],[19.48805,41.30646],[19.47193,41.3111],[19.45004,41.3111],[19.43165,41.31371],[19.41896,41.32258],[19.41424,41.3415],[19.41424,41.36889],[19.42372,41.37886],[19.41608,41.39032],[19.41082,41.39166],[19.41082,41.39167],[19.39912,41.39986],[19.39482,41.41195],[19.40642,41.40038],[19.41838,41.40088],[19.42279,41.39827],[19.42601,41.4012],[19.42872,41.40131],[19.44516,41.41519],[19.44467,41.41816],[19.44664,41.41995],[19.44339,41.42592],[19.44093,41.44086],[19.44692,41.4434],[19.46833,41.44273],[19.48278,41.46212],[19.48927,41.46613],[19.50864,41.48688],[19.51661,41.51341],[19.51417,41.52998],[19.50717,41.53628],[19.49635,41.53876],[19.48243,41.54385],[19.46803,41.55427],[19.452,41.57477],[19.4495,41.57717],[19.54434,41.57429]]]}},{"type":"Feature","properties":{"id":"ALB:ADM2:67620474B51082079967557","name":"Tropojë","countryCode":"ALB","adminLevel":2,"sourceCode":"67620474B51082079967557","parentId":"ALB:ADM1:ALB-1502"},"geometry":{"type":"Polygon","coordinates":[[[20.35272,42.31004],[20.34845,42.32542],[20.33103,42.32977],[20.30708,42.31453],[20.29112,42.32396],[20.26136,42.31743],[20.25483,42.32396],[20.24177,42.32904],[20.24612,42.3363],[20.23524,42.34937],[20.24395,42.35299],[20.24612,42.36751],[20.23887,42.38202],[20.21056,42.39944],[20.21056,42.40815],[20.22145,42.41033],[20.22798,42.41831],[20.22145,42.43355],[20.19259,42.45216],[20.19163,42.45521],[20.19696,42.46205],[20.19011,42.47004],[20.18326,42.47214],[20.18022,42.48602],[20.16861,42.49325],[20.16595,42.49934],[20.16747,42.5041],[20.14458,42.51811],[20.12415,42.52229],[20.12275,42.52693],[20.09906,42.53297],[20.08792,42.55062],[20.08002,42.55666],[20.05401,42.55805],[20.04797,42.54876],[20.0359,42.54783],[20.02614,42.54273],[20.01267,42.54273],[20.01593,42.52972],[20.01035,42.51997],[20.01035,42.51254],[20.00431,42.50836],[19.98109,42.51486],[19.95601,42.51021],[19.94068,42.51904],[19.9235,42.513],[19.91746,42.5065],[19.90724,42.50836],[19.90074,42.50092],[19.90028,42.48653],[19.88355,42.49582],[19.87427,42.49164],[19.87009,42.4842],[19.85662,42.48513],[19.84965,42.4777],[19.84268,42.48095],[19.83664,42.47909],[19.83804,42.47399],[19.82722,42.45012],[19.80469,42.42437],[19.82401,42.3793],[19.8224,42.35355],[19.84332,42.31814],[19.84171,42.28756],[19.83366,42.26986],[19.83527,42.24411],[19.86585,42.23767],[19.88517,42.23767],[19.92154,42.25962],[19.9442,42.26374],[19.9545,42.25756],[20.02867,42.2555],[20.06472,42.24005],[20.10386,42.21533],[20.13373,42.21224],[20.18627,42.18546],[20.23159,42.17722],[20.2388,42.21945],[20.25631,42.23284],[20.27279,42.26889],[20.29958,42.28846],[20.33939,42.28787],[20.35211,42.30392],[20.35272,42.31004]]]}},{"type":"Feature","properties":{"id":"ALB:ADM2:67620474B51228836218093","name":"Has","countryCode":"ALB","adminLevel":2,"sourceCode":"67620474B51228836218093","parentId":"ALB:ADM1:ALB-1502"},"geometry":{"type":"Polygon","coordinates":[[[20.23983,42.16383],[20.25916,42.16548],[20.28236,42.15535],[20.29333,42.14016],[20.2984,42.1081],[20.34101,42.087],[20.36253,42.08194],[20.39502,42.07983],[20.42033,42.08278],[20.43383,42.07519],[20.44944,42.08152],[20.45071,42.08953],[20.49459,42.12413],[20.5372,42.14987],[20.53762,42.1621],[20.54506,42.16113],[20.54684,42.16677],[20.53603,42.18241],[20.52633,42.20987],[20.51474,42.22325],[20.49965,42.22877],[20.49958,42.23901],[20.49134,42.2418],[20.47461,42.26011],[20.4642,42.26249],[20.43594,42.28108],[20.40286,42.28474],[20.39586,42.29627],[20.37645,42.30471],[20.35272,42.31004],[20.35211,42.30392],[20.33939,42.28787],[20.29958,42.28846],[20.27279,42.26889],[20.25631,42.23284],[20.2388,42.21945],[20.23159,42.17722],[20.23983,42.16383]]]}},{"type":"Feature","properties":{"id":"ALB:ADM2:67620474B5524789266710","name":"Kavajë","countryCode":"ALB","adminLevel":2,"sourceCode":"67620474B5524789266710","parentId":"ALB:ADM1:ALB-1529"},"geometry":{"type":"Polygon","coordinates":[[[19.52989,41.27333],[19.57107,41.24784],[19.57423,41.22992],[19.63852,41.21095],[19.67435,41.18987],[19.67751,41.15088],[19.70175,41.12664],[19.73653,41.11399],[19.69359,41.0721],[19.69046,41.05124],[19.68003,41.03769],[19.66335,41.05124],[19.58307,41.04916],[19.54657,41.03873],[19.47254,41.03769],[19.46107,41.01266],[19.44947,41.00844],[19.44777,41.00947],[19.4406,41.02066],[19.44125,41.02603],[19.44549,41.03071],[19.45639,41.10668],[19.45118,41.12271],[19.44549,41.12946],[19.44117,41.13736],[19.4419,41.14387],[19.46372,41.15131],[19.46713,41.16266],[19.46713,41.17588],[19.49972,41.22533],[19.50953,41.23729],[19.51661,41.25641],[19.5139,41.27333],[19.52989,41.27333]]]}},{"type":"Feature","properties":{"id":"ALB:ADM2:67620474B55788488782298","name":"Mat","countryCode":"ALB","adminLevel":2,"sourceCode":"67620474B55788488782298","parentId":"ALB:ADM1:ALB-1526"},"geometry":{"type":"Polygon","coordinates":[[[19.7628,41.69834],[19.80335,41.6779],[19.80335,41.61444],[19.82579,41.59761],[19.82579,41.57688],[19.89659,41.50825],[19.92033,41.49702],[19.93242,41.49573],[19.99263,41.45019],[19.99263,41.41963],[20.02319,41.41752],[20.05376,41.39012],[20.05586,41.36799],[20.07062,41.35639],[20.08853,41.39012],[20.12437,41.38696],[20.12753,41.40803],[20.11804,41.41647],[20.18233,41.45124],[20.18444,41.48497],[20.17706,41.5071],[20.19498,41.51659],[20.20025,41.53556],[20.18233,41.54715],[20.20657,41.57139],[20.20025,41.5872],[20.16758,41.61144],[20.17074,41.63146],[20.19287,41.66308],[20.18022,41.69891],[20.1739,41.75582],[20.16582,41.76673],[20.14586,41.77133],[20.0883,41.73757],[20.053,41.73373],[20.03075,41.7038],[20.00312,41.70917],[19.99238,41.71531],[19.94172,41.68538],[19.92254,41.68615],[19.91793,41.69459],[19.83966,41.68768],[19.83121,41.69382],[19.83198,41.70533],[19.82354,41.71301],[19.80819,41.71147],[19.7628,41.69834]]]}},{"type":"Feature","properties":{"id":"ALB:ADM2:67620474B60153855067708","name":"Bulqizë","countryCode":"ALB","adminLevel":2,"sourceCode":"67620474B60153855067708","parentId":"ALB:ADM1:ALB-1526"},"geometry":{"type":"Polygon","coordinates":[[[20.12437,41.38696],[20.12858,41.37536],[20.15072,41.35007],[20.17917,41.35323],[20.19709,41.34269],[20.2266,41.33637],[20.24241,41.34164],[20.29089,41.36799],[20.30037,41.35955],[20.33304,41.35745],[20.34147,41.36482],[20.39101,41.38801],[20.40787,41.3859],[20.42789,41.36272],[20.4437,41.35112],[20.48375,41.35428],[20.50061,41.32794],[20.5238,41.32688],[20.52907,41.34164],[20.54066,41.34375],[20.56806,41.38274],[20.56701,41.3996],[20.56174,41.41647],[20.54488,41.42911],[20.53855,41.44281],[20.51537,41.43965],[20.51431,41.45546],[20.50588,41.47021],[20.50799,41.48602],[20.4711,41.50183],[20.46662,41.53437],[20.44588,41.56342],[20.43995,41.57824],[20.44054,41.58713],[20.4518,41.5978],[20.44706,41.60551],[20.40378,41.60729],[20.39608,41.61025],[20.31427,41.60432],[20.30419,41.59602],[20.30715,41.57113],[20.30123,41.5646],[20.23424,41.55808],[20.22001,41.54978],[20.20637,41.53437],[20.20025,41.53556],[20.19498,41.51659],[20.17706,41.5071],[20.18444,41.48497],[20.18233,41.45124],[20.11804,41.41647],[20.12753,41.40803],[20.12437,41.38696]]]}},{"type":"Feature","properties":{"id":"ALB:ADM2:67620474B60363170083379","name":"Gramsh","countryCode":"ALB","adminLevel":2,"sourceCode":"67620474B60363170083379","parentId":"ALB:ADM1:ALB-1524"},"geometry":{"type":"Polygon","coordinates":[[[20.0533,40.86878],[20.04001,40.85216],[20.04456,40.83774],[20.02862,40.82179],[20.08404,40.81951],[20.09012,40.78838],[20.11745,40.76789],[20.12125,40.7527],[20.16908,40.75498],[20.1706,40.72309],[20.21995,40.72309],[20.24121,40.70031],[20.32017,40.70335],[20.3065,40.7155],[20.31182,40.72461],[20.33459,40.73068],[20.37331,40.73752],[20.4462,40.73828],[20.47201,40.76485],[20.47918,40.80533],[20.45189,40.84803],[20.39614,40.89667],[20.39377,40.92158],[20.3588,40.96157],[20.29624,40.93759],[20.15131,40.95323],[20.1315,40.93864],[20.11169,40.93864],[20.07103,40.94906],[20.06164,40.94176],[20.07103,40.92612],[20.07311,40.89902],[20.0533,40.86878]]]}},{"type":"Feature","properties":{"id":"ALB:ADM2:67620474B62055143354216","name":"Skrapar","countryCode":"ALB","adminLevel":2,"sourceCode":"67620474B62055143354216","parentId":"ALB:ADM1:ALB-1523"},"geometry":{"type":"Polygon","coordinates":[[[20.09788,40.48341],[20.14327,40.47938],[20.1835,40.44445],[20.21008,40.41408],[20.23893,40.4118],[20.25108,40.39206],[20.28676,40.36701],[20.33991,40.38447],[20.33839,40.40345],[20.34143,40.4194],[20.38091,40.44141],[20.40444,40.44217],[20.41735,40.43003],[20.46969,40.42808],[20.44715,40.45537],[20.46138,40.48146],[20.4602,40.50282],[20.44122,40.52536],[20.4424,40.55264],[20.45783,40.56451],[20.40681,40.58586],[20.39258,40.61077],[20.33682,40.66297],[20.32017,40.70335],[20.24121,40.70031],[20.21995,40.72309],[20.1706,40.72309],[20.15693,40.71018],[20.15465,40.68893],[20.1607,40.67498],[20.16225,40.65694],[20.16847,40.65445],[20.1694,40.62522],[20.15385,40.61527],[20.07673,40.61434],[20.07642,40.60719],[20.10845,40.57889],[20.10876,40.55898],[20.11467,40.55587],[20.11405,40.53131],[20.12151,40.53099],[20.12089,40.51607],[20.09788,40.48341]]]}},{"type":"Feature","properties":{"id":"ALB:ADM2:67620474B62137861373373","name":"Malësi e Madhe","countryCode":"ALB","adminLevel":2,"sourceCode":"67620474B62137861373373","parentId":"ALB:ADM1:ALB-1498"},"geometry":{"type":"Polygon","coordinates":[[[19.78762,42.4863],[19.76646,42.50047],[19.76085,42.52023],[19.74128,42.54083],[19.75467,42.56349],[19.75055,42.58306],[19.76497,42.57688],[19.7763,42.5944],[19.76394,42.60264],[19.75364,42.63869],[19.72377,42.66341],[19.69905,42.64796],[19.68153,42.63251],[19.65475,42.63045],[19.61973,42.58821],[19.61149,42.57379],[19.60634,42.53568],[19.59295,42.52435],[19.56102,42.51199],[19.55381,42.49963],[19.55484,42.48212],[19.51672,42.44298],[19.49509,42.44194],[19.47861,42.41928],[19.47655,42.40177],[19.4508,42.38426],[19.42196,42.37911],[19.41784,42.35542],[19.40857,42.34718],[19.40651,42.32967],[19.42711,42.32143],[19.42814,42.31628],[19.41475,42.31216],[19.38693,42.28434],[19.38796,42.27713],[19.36324,42.24829],[19.35706,42.2349],[19.36015,42.22563],[19.35809,42.21842],[19.38693,42.19679],[19.42505,42.18134],[19.42814,42.15971],[19.45183,42.14838],[19.45286,42.14322],[19.46625,42.14116],[19.46419,42.13395],[19.47243,42.13498],[19.46831,42.13086],[19.48479,42.12674],[19.51878,42.12571],[19.52187,42.13292],[19.55999,42.13292],[19.58265,42.16589],[19.59501,42.19576],[19.6084,42.21636],[19.60943,42.2246],[19.62076,42.22769],[19.61664,42.24211],[19.6187,42.25241],[19.62591,42.25241],[19.62797,42.26889],[19.63621,42.27507],[19.63827,42.27095],[19.65063,42.27713],[19.64651,42.28331],[19.65063,42.29258],[19.66093,42.29258],[19.66299,42.2998],[19.67329,42.30804],[19.66917,42.29671],[19.69698,42.3204],[19.69802,42.31422],[19.71141,42.31731],[19.70729,42.34203],[19.70111,42.35027],[19.69802,42.3616],[19.70111,42.38323],[19.69905,42.39559],[19.70214,42.40589],[19.71965,42.42134],[19.7248,42.42134],[19.73819,42.43473],[19.75055,42.43679],[19.7612,42.45448],[19.77752,42.46269],[19.78762,42.4863]]]}},{"type":"Feature","properties":{"id":"ALB:ADM2:67620474B66777869203493","name":"Kurbin","countryCode":"ALB","adminLevel":2,"sourceCode":"67620474B66777869203493","parentId":"ALB:ADM1:ALB-1528"},"geometry":{"type":"Polygon","coordinates":[[[19.56835,41.66556],[19.60395,41.66164],[19.60999,41.66675],[19.64854,41.66629],[19.66665,41.67418],[19.71588,41.67651],[19.71356,41.68162],[19.72053,41.68254],[19.72239,41.68719],[19.76094,41.68673],[19.7628,41.69834],[19.80335,41.6779],[19.80335,41.61444],[19.82579,41.59761],[19.82579,41.57688],[19.79212,41.57645],[19.75241,41.55228],[19.72823,41.55271],[19.72133,41.55616],[19.67514,41.55444],[19.66089,41.56739],[19.55427,41.56566],[19.54434,41.57429],[19.55694,41.5832],[19.5652,41.58511],[19.56893,41.59166],[19.59139,41.60753],[19.59218,41.61047],[19.5923,41.60859],[19.59604,41.60273],[19.60304,41.60175],[19.61297,41.60529],[19.60499,41.63215],[19.60011,41.63911],[19.59164,41.63264],[19.58709,41.64069],[19.56282,41.65705],[19.56835,41.66556]]]}},{"type":"Feature","properties":{"id":"ALB:ADM2:67620474B70468291702657","name":"Sarandë","countryCode":"ALB","adminLevel":2,"sourceCode":"67620474B70468291702657","parentId":"ALB:ADM1:ALB-1504"},"geometry":{"type":"Polygon","coordinates":[[[19.84451,40.10541],[19.83976,40.1232],[19.85756,40.14574],[19.89908,40.14218],[19.93111,40.09947],[19.91806,40.05202],[19.95127,40.0105],[20.00466,39.97017],[20.00703,39.91797],[20.04143,39.88238],[20.08889,39.84798],[20.10193,39.85272],[20.11498,39.86221],[20.13159,39.84679],[20.15057,39.85391],[20.15413,39.87408],[20.19803,39.87526],[20.22768,39.84798],[20.25853,39.84798],[20.27158,39.86696],[20.32496,39.84798],[20.32259,39.80646],[20.30361,39.79697],[20.32021,39.7768],[20.31191,39.75782],[20.3392,39.73291],[20.3392,39.71393],[20.28581,39.68071],[20.28344,39.6641],[20.27276,39.65698],[20.25022,39.66173],[20.23243,39.65224],[20.22768,39.63682],[20.18853,39.638],[20.14227,39.64393],[20.12899,39.65182],[20.12135,39.65681],[20.11906,39.65772],[20.10431,39.66647],[20.10306,39.66212],[20.09653,39.66596],[20.08888,39.67308],[20.04461,39.68089],[20.02166,39.68769],[20.01002,39.69355],[20.0044,39.69278],[19.99985,39.69351],[19.99684,39.69257],[19.99586,39.68671],[19.9894,39.68671],[19.99517,39.73172],[19.9943,39.73205],[20.0027,39.74824],[19.98561,39.75373],[19.98259,39.75591],[19.98686,39.76731],[20.00228,39.77443],[20.00134,39.79792],[20.00791,39.81584],[20.01415,39.82662],[20.01367,39.8316],[20.01417,39.83295],[20.01629,39.84504],[20.00978,39.86567],[19.99928,39.87141],[19.98373,39.87238],[19.96168,39.87857],[19.96022,39.88105],[19.95997,39.88508],[19.95883,39.88935],[19.95484,39.89281],[19.94117,39.89899],[19.93116,39.90192],[19.91805,39.9023],[19.93467,39.93221],[19.93221,39.93517],[19.94117,39.94001],[19.92384,39.95283],[19.8768,40.02237],[19.87045,40.03473],[19.86345,40.04536],[19.85524,40.04987],[19.84451,40.05012],[19.84451,40.10541]]]}},{"type":"Feature","properties":{"id":"ALB:ADM2:67620474B72354996665991","name":"Mallakastër","countryCode":"ALB","adminLevel":2,"sourceCode":"67620474B72354996665991","parentId":"ALB:ADM1:ALB-1495"},"geometry":{"type":"Polygon","coordinates":[[[19.71126,40.52189],[19.73181,40.51705],[19.70808,40.4874],[19.75197,40.48621],[19.75435,40.46723],[19.74011,40.44943],[19.73774,40.42808],[19.77807,40.4091],[19.92916,40.51886],[19.86083,40.54467],[19.85172,40.55834],[19.85096,40.59554],[19.82363,40.60693],[19.84868,40.62591],[19.82666,40.64944],[19.66343,40.64944],[19.69076,40.61756],[19.68089,40.60845],[19.70367,40.59326],[19.68165,40.55226],[19.71126,40.52189]]]}},{"type":"Feature","properties":{"id":"ALB:ADM2:67620474B72762453157270","name":"Vlorë","countryCode":"ALB","adminLevel":2,"sourceCode":"67620474B72762453157270","parentId":"ALB:ADM1:ALB-1504"},"geometry":{"type":"MultiPolygon","coordinates":[[[[19.35345,40.65504],[19.41277,40.62909],[19.44057,40.64206],[19.45169,40.62538],[19.48691,40.59943],[19.52769,40.60313],[19.52769,40.57904],[19.5592,40.58645],[19.5592,40.56792],[19.57612,40.55758],[19.63534,40.55454],[19.63382,40.54315],[19.6566,40.54467],[19.65432,40.53328],[19.67915,40.53494],[19.68463,40.52915],[19.71126,40.52189],[19.73181,40.51705],[19.70808,40.4874],[19.75197,40.48621],[19.75435,40.46723],[19.74011,40.44943],[19.73774,40.42808],[19.77807,40.4091],[19.80654,40.36877],[19.75316,40.34267],[19.83739,40.27267],[19.81841,40.25844],[19.84569,40.25132],[19.84451,40.2098],[19.88128,40.1837],[19.89908,40.14218],[19.85756,40.14574],[19.83976,40.1232],[19.84451,40.10541],[19.84451,40.05012],[19.82325,40.0506],[19.81975,40.05111],[19.79908,40.05926],[19.80454,40.06346],[19.77735,40.07779],[19.77312,40.07123],[19.7724,40.06978],[19.76754,40.0717],[19.76726,40.07245],[19.76246,40.07685],[19.75636,40.0799],[19.74936,40.08462],[19.74806,40.08861],[19.7409,40.10041],[19.73268,40.11026],[19.72902,40.10822],[19.71909,40.11603],[19.67441,40.12712],[19.58463,40.16681],[19.56577,40.17984],[19.53571,40.18763],[19.48954,40.20597],[19.47625,40.21369],[19.38111,40.29523],[19.36997,40.30903],[19.36508,40.31737],[19.35157,40.36205],[19.34425,40.37434],[19.30926,40.40082],[19.29689,40.41356],[19.29518,40.41755],[19.29518,40.41869],[19.28968,40.42036],[19.30526,40.4326],[19.32466,40.43504],[19.34264,40.43261],[19.36668,40.41337],[19.3838,40.39741],[19.39324,40.3863],[19.4065,40.36262],[19.41027,40.3526],[19.41091,40.33251],[19.42322,40.3302],[19.42359,40.33002],[19.42389,40.33008],[19.44057,40.32695],[19.44547,40.33413],[19.46559,40.3415],[19.47495,40.34837],[19.48162,40.43911],[19.47877,40.45392],[19.45314,40.46532],[19.41879,40.49189],[19.3994,40.51304],[19.40906,40.51787],[19.44428,40.49748],[19.44428,40.51039],[19.44606,40.51114],[19.45265,40.52985],[19.4546,40.55386],[19.44215,40.57306],[19.4157,40.58348],[19.39161,40.57832],[19.3864,40.55073],[19.37924,40.56615],[19.30983,40.64435],[19.30437,40.65314],[19.30579,40.65652],[19.35345,40.65504]]],[[[19.38941,40.53027],[19.3864,40.54328],[19.39017,40.53985],[19.38941,40.53027]]]]}},{"type":"Feature","properties":{"id":"ALB:ADM2:67620474B73280275449109","name":"Pukë","countryCode":"ALB","adminLevel":2,"sourceCode":"67620474B73280275449109","parentId":"ALB:ADM1:ALB-1498"},"geometry":{"type":"Polygon","coordinates":[[[20.16979,42.00417],[20.16361,42.04331],[20.15743,42.05464],[20.16052,42.0773],[20.177,42.0876],[20.18833,42.10408],[20.19554,42.11644],[20.20069,42.13601],[20.21099,42.14425],[20.2285,42.14838],[20.23983,42.16383],[20.23159,42.17722],[20.18627,42.18546],[20.13373,42.21224],[20.10386,42.21533],[20.06472,42.24005],[20.02867,42.2555],[19.9545,42.25756],[19.9442,42.26374],[19.92154,42.25962],[19.88517,42.23767],[19.91092,42.21836],[19.88517,42.1749],[19.88195,42.1588],[19.88838,42.13305],[19.86424,42.11213],[19.85298,42.09282],[19.81435,42.0558],[19.76606,42.04292],[19.76124,42.0059],[19.72422,41.99625],[19.75109,41.94286],[19.78248,41.94854],[19.80102,41.93824],[19.81956,41.93309],[19.85871,41.94442],[19.86386,41.95781],[19.89064,41.95884],[19.90197,41.96914],[19.9236,41.97017],[19.92463,41.94442],[19.94214,41.92073],[19.92669,41.9094],[19.92051,41.89086],[19.93287,41.8785],[19.96686,41.85893],[19.99364,41.86408],[19.99571,41.87541],[20.0091,41.87541],[20.04103,41.91867],[20.08635,41.92176],[20.09253,41.96914],[20.15537,41.9918],[20.16979,42.00417]]]}},{"type":"Feature","properties":{"id":"ALB:ADM2:67620474B73435711419495","name":"Lushnjë","countryCode":"ALB","adminLevel":2,"sourceCode":"67620474B73435711419495","parentId":"ALB:ADM1:ALB-1495"},"geometry":{"type":"MultiPolygon","coordinates":[[[[19.4604,40.93195],[19.45376,40.92966],[19.45323,40.93445],[19.45528,40.93305],[19.46471,40.95025],[19.46998,40.95673],[19.47722,40.975],[19.47495,40.9958],[19.46998,41.00072],[19.45379,41.00585],[19.44947,41.00844],[19.46107,41.01266],[19.47254,41.03769],[19.54657,41.03873],[19.58307,41.04916],[19.66335,41.05124],[19.68003,41.03769],[19.69567,41.01058],[19.72382,40.99181],[19.7478,41.00015],[19.7551,41.00849],[19.7697,41.00849],[19.80932,40.99285],[19.81245,40.9793],[19.80202,40.95219],[19.80306,40.923],[19.80828,40.90319],[19.81766,40.89797],[19.81349,40.86044],[19.80669,40.84255],[19.776,40.83721],[19.76999,40.8252],[19.76799,40.80584],[19.71194,40.80318],[19.70326,40.78983],[19.66723,40.76047],[19.62118,40.79583],[19.59583,40.79383],[19.58582,40.80584],[19.58315,40.82987],[19.56914,40.85589],[19.51375,40.85856],[19.48973,40.85189],[19.46904,40.8659],[19.45903,40.8619],[19.44368,40.8699],[19.44101,40.85789],[19.42787,40.87226],[19.43474,40.87226],[19.43784,40.88654],[19.43767,40.88345],[19.43914,40.88007],[19.44093,40.87226],[19.45411,40.88581],[19.5066,40.9051],[19.52345,40.92064],[19.52516,40.94526],[19.51466,40.96491],[19.50147,40.98298],[19.49545,41.00263],[19.49204,40.97695],[19.47967,40.95392],[19.45902,40.92996],[19.4604,40.93195]]],[[[19.42767,40.91595],[19.43403,40.91722],[19.43539,40.9134],[19.42726,40.89338],[19.42726,40.87292],[19.40498,40.89726],[19.41452,40.91393],[19.43094,40.92586],[19.43246,40.9216],[19.42767,40.91595]]]]}},{"type":"Feature","properties":{"id":"ALB:ADM2:67620474B73468897065558","name":"Dibër","countryCode":"ALB","adminLevel":2,"sourceCode":"67620474B73468897065558","parentId":"ALB:ADM1:ALB-1526"},"geometry":{"type":"Polygon","coordinates":[[[20.21614,41.85996],[20.19421,41.86189],[20.18193,41.84117],[20.16044,41.8404],[20.12284,41.82659],[20.16582,41.80126],[20.16505,41.78975],[20.17195,41.78284],[20.16582,41.76673],[20.1739,41.75582],[20.18022,41.69891],[20.19287,41.66308],[20.17074,41.63146],[20.16758,41.61144],[20.20025,41.5872],[20.20657,41.57139],[20.18233,41.54715],[20.20637,41.53437],[20.22001,41.54978],[20.23424,41.55808],[20.30123,41.5646],[20.30715,41.57113],[20.30419,41.59602],[20.31427,41.60432],[20.39608,41.61025],[20.40378,41.60729],[20.44706,41.60551],[20.4518,41.5978],[20.44054,41.58713],[20.43995,41.57824],[20.44588,41.56342],[20.46662,41.53437],[20.47552,41.54919],[20.48856,41.55334],[20.51109,41.55156],[20.53065,41.56816],[20.55436,41.56994],[20.5591,41.57943],[20.55673,41.59247],[20.54191,41.61322],[20.54132,41.62507],[20.52531,41.64167],[20.51524,41.64226],[20.52472,41.66183],[20.53124,41.69265],[20.52709,41.70155],[20.52057,41.70155],[20.52413,41.71281],[20.51346,41.72763],[20.52235,41.73771],[20.5348,41.77031],[20.5757,41.7881],[20.5757,41.79521],[20.56224,41.82699],[20.53649,41.81463],[20.51486,41.81669],[20.49426,41.84347],[20.42112,41.85584],[20.42112,41.83317],[20.40052,41.81772],[20.37683,41.80948],[20.36138,41.81772],[20.3552,41.83111],[20.3449,41.83729],[20.33872,41.85172],[20.3449,41.86614],[20.32533,41.88056],[20.28824,41.89086],[20.26146,41.86923],[20.24807,41.86305],[20.21614,41.85996]]]}},{"type":"Feature","properties":{"id":"ALB:ADM2:67620474B77805918454880","name":"Pogradec","countryCode":"ALB","adminLevel":2,"sourceCode":"67620474B77805918454880","parentId":"ALB:ADM1:ALB-1521"},"geometry":{"type":"Polygon","coordinates":[[[20.39377,40.92158],[20.39614,40.89667],[20.45189,40.84803],[20.47918,40.80533],[20.51358,40.81956],[20.5468,40.79939],[20.57408,40.79821],[20.5812,40.78279],[20.62509,40.78397],[20.65475,40.80651],[20.68322,40.80295],[20.70339,40.82193],[20.7283,40.81837],[20.78525,40.78634],[20.79118,40.816],[20.83744,40.83973],[20.8849,40.84091],[20.84456,40.90023],[20.76745,40.90972],[20.68322,40.89904],[20.65475,40.92277],[20.66424,40.94412],[20.66543,40.97734],[20.66068,40.99632],[20.64763,41.00225],[20.64526,41.03191],[20.66187,41.04496],[20.66306,41.06038],[20.64882,41.07224],[20.64763,41.09004],[20.61916,41.09122],[20.61798,41.02954],[20.60611,41.00581],[20.57171,41.03072],[20.52663,41.03428],[20.48392,40.99988],[20.42698,40.97615],[20.4258,40.95361],[20.39377,40.92158]]]}},{"type":"Feature","properties":{"id":"ALB:ADM2:67620474B87569046172350","name":"Librazhd","countryCode":"ALB","adminLevel":2,"sourceCode":"67620474B87569046172350","parentId":"ALB:ADM1:ALB-1524"},"geometry":{"type":"Polygon","coordinates":[[[20.24241,41.34164],[20.21682,41.31588],[20.175,41.31048],[20.11969,41.28553],[20.11699,41.26786],[20.14401,41.27228],[20.17321,41.27124],[20.19093,41.24518],[20.19823,41.18679],[20.22325,41.12631],[20.19823,41.10963],[20.34837,41.01371],[20.35984,40.97409],[20.3588,40.96157],[20.39377,40.92158],[20.4258,40.95361],[20.42698,40.97615],[20.48392,40.99988],[20.52663,41.03428],[20.57171,41.03072],[20.60611,41.00581],[20.61798,41.02954],[20.61916,41.09122],[20.58357,41.11258],[20.60611,41.1363],[20.599,41.1541],[20.56341,41.17664],[20.56222,41.19325],[20.54561,41.19443],[20.52189,41.22884],[20.51595,41.27747],[20.50061,41.32794],[20.48375,41.35428],[20.4437,41.35112],[20.42789,41.36272],[20.40787,41.3859],[20.39101,41.38801],[20.34147,41.36482],[20.33304,41.35745],[20.30037,41.35955],[20.29089,41.36799],[20.24241,41.34164]]]}},{"type":"Feature","properties":{"id":"ALB:ADM2:67620474B90792074310011","name":"Kuçovë","countryCode":"ALB","adminLevel":2,"sourceCode":"67620474B90792074310011","parentId":"ALB:ADM1:ALB-1521"},"geometry":{"type":"Polygon","coordinates":[[[20.47918,40.80533],[20.47201,40.76485],[20.4462,40.73828],[20.37331,40.73752],[20.31182,40.72461],[20.3065,40.7155],[20.32017,40.70335],[20.33682,40.66297],[20.39258,40.61077],[20.40681,40.58586],[20.45783,40.56451],[20.4424,40.55264],[20.44122,40.52536],[20.4602,40.50282],[20.46138,40.48146],[20.44715,40.45537],[20.46969,40.42808],[20.50528,40.42927],[20.52782,40.42096],[20.56341,40.42808],[20.58239,40.45181],[20.60374,40.45774],[20.62984,40.44113],[20.64882,40.44469],[20.70814,40.48028],[20.80304,40.48146],[20.87303,40.50756],[20.90269,40.54197],[20.87659,40.55146],[20.88371,40.56332],[20.88371,40.58349],[20.87303,40.59654],[20.88371,40.63094],[20.92404,40.70093],[20.95641,40.70639],[21.00727,40.72537],[21.00348,40.75194],[20.98829,40.75802],[20.99892,40.777],[20.99816,40.78611],[20.98602,40.79142],[20.93894,40.76029],[20.93287,40.78535],[20.97387,40.8104],[20.96172,40.82407],[20.98829,40.85596],[20.96096,40.87873],[20.9845,40.88633],[20.99892,40.90379],[20.97463,40.91821],[20.93818,40.92429],[20.91085,40.9167],[20.87517,40.93264],[20.8448,40.93112],[20.84456,40.90023],[20.8849,40.84091],[20.83744,40.83973],[20.79118,40.816],[20.78525,40.78634],[20.7283,40.81837],[20.70339,40.82193],[20.68322,40.80295],[20.65475,40.80651],[20.62509,40.78397],[20.5812,40.78279],[20.57408,40.79821],[20.5468,40.79939],[20.51358,40.81956],[20.47918,40.80533]]]}},{"type":"Feature","properties":{"id":"ALB:ADM2:67620474B90997304428465","name":"Tiranë","countryCode":"ALB","adminLevel":2,"sourceCode":"67620474B90997304428465","parentId":"ALB:ADM1:ALB-1529"},"geometry":{"type":"Polygon","coordinates":[[[19.89659,41.50825],[19.90134,41.49141],[19.88968,41.48148],[19.88796,41.46335],[19.87975,41.45688],[19.85558,41.44134],[19.83659,41.45558],[19.82752,41.4504],[19.82536,41.44047],[19.81112,41.43314],[19.77874,41.43443],[19.74464,41.39903],[19.7032,41.39946],[19.68118,41.42839],[19.66607,41.42796],[19.63845,41.44263],[19.59182,41.43702],[19.61006,41.39328],[19.63219,41.37642],[19.63219,41.31002],[19.62587,41.28578],[19.57107,41.24784],[19.57423,41.22992],[19.63852,41.21095],[19.67435,41.18987],[19.67751,41.15088],[19.70175,41.12664],[19.73653,41.11399],[19.824,41.11821],[19.82084,41.14772],[19.87775,41.1572],[19.89462,41.17407],[19.9431,41.17407],[20.00211,41.20568],[20.00317,41.23098],[20.01582,41.24679],[20.0664,41.23309],[20.08432,41.25733],[20.10645,41.25838],[20.11699,41.26786],[20.11969,41.28553],[20.175,41.31048],[20.21682,41.31588],[20.24241,41.34164],[20.2266,41.33637],[20.19709,41.34269],[20.17917,41.35323],[20.15072,41.35007],[20.12858,41.37536],[20.12437,41.38696],[20.08853,41.39012],[20.07062,41.35639],[20.05586,41.36799],[20.05376,41.39012],[20.02319,41.41752],[19.99263,41.41963],[19.99263,41.45019],[19.93242,41.49573],[19.92033,41.49702],[19.89659,41.50825]]]}},{"type":"Feature","properties":{"id":"ALB:ADM2:67620474B91291617478666","name":"Krujë","countryCode":"ALB","adminLevel":2,"sourceCode":"67620474B91291617478666","parentId":"ALB:ADM1:ALB-1494"},"geometry":{"type":"Polygon","coordinates":[[[19.55427,41.56566],[19.57758,41.5566],[19.59441,41.52854],[19.59441,41.51386],[19.55988,41.49357],[19.58103,41.46724],[19.58923,41.46378],[19.59182,41.43702],[19.63845,41.44263],[19.66607,41.42796],[19.68118,41.42839],[19.7032,41.39946],[19.74464,41.39903],[19.77874,41.43443],[19.81112,41.43314],[19.82536,41.44047],[19.82752,41.4504],[19.83659,41.45558],[19.85558,41.44134],[19.88796,41.46335],[19.88968,41.48148],[19.90134,41.49141],[19.89659,41.50825],[19.82579,41.57688],[19.79212,41.57645],[19.75241,41.55228],[19.72823,41.55271],[19.72133,41.55616],[19.67514,41.55444],[19.66089,41.56739],[19.55427,41.56566]]]}},{"type":"Feature","properties":{"id":"ALB:ADM2:67620474B91947048364679","name":"Kolonjë","countryCode":"ALB","adminLevel":2,"sourceCode":"67620474B91947048364679","parentId":"ALB:ADM1:ALB-1521"},"geometry":{"type":"Polygon","coordinates":[[[20.46969,40.42808],[20.47681,40.38656],[20.51358,40.3486],[20.49816,40.33318],[20.50291,40.30233],[20.50172,40.27267],[20.529,40.25844],[20.52782,40.22166],[20.54443,40.20387],[20.51477,40.16947],[20.5551,40.15523],[20.58595,40.13744],[20.6334,40.08761],[20.68678,40.08998],[20.69983,40.11134],[20.69865,40.12439],[20.71051,40.13625],[20.70932,40.1576],[20.70339,40.1754],[20.7461,40.2098],[20.7461,40.23234],[20.73305,40.24776],[20.73305,40.27267],[20.7544,40.30115],[20.7805,40.30945],[20.7805,40.32724],[20.81372,40.36521],[20.82439,40.43283],[20.80779,40.44469],[20.80304,40.48146],[20.70814,40.48028],[20.64882,40.44469],[20.62984,40.44113],[20.60374,40.45774],[20.58239,40.45181],[20.56341,40.42808],[20.52782,40.42096],[20.50528,40.42927],[20.46969,40.42808]]]}},{"type":"Feature","properties":{"id":"ALB:ADM2:67620474B92464717887955","name":"Kukës","countryCode":"ALB","adminLevel":2,"sourceCode":"67620474B92464717887955","parentId":"ALB:ADM1:ALB-1502"},"geometry":{"type":"Polygon","coordinates":[[[20.16979,42.00417],[20.18627,42.00417],[20.21614,42.01962],[20.24086,42.01344],[20.26249,41.99592],[20.26146,41.98356],[20.25219,41.97429],[20.25219,41.93721],[20.23777,41.92794],[20.23159,41.91455],[20.21923,41.90425],[20.19966,41.90734],[20.19863,41.89395],[20.21202,41.88056],[20.21614,41.85996],[20.24807,41.86305],[20.26146,41.86923],[20.28824,41.89086],[20.32533,41.88056],[20.3449,41.86614],[20.33872,41.85172],[20.3449,41.83729],[20.3552,41.83111],[20.36138,41.81772],[20.37683,41.80948],[20.40052,41.81772],[20.42112,41.83317],[20.42112,41.85584],[20.49426,41.84347],[20.51486,41.81669],[20.53649,41.81463],[20.56224,41.82699],[20.5643,41.86305],[20.58696,41.8785],[20.59006,41.89086],[20.57975,41.91661],[20.61066,41.93412],[20.62508,41.94648],[20.62508,41.96399],[20.61993,41.98253],[20.60654,41.99283],[20.60448,42.01447],[20.59418,42.0258],[20.59727,42.04537],[20.58593,42.04331],[20.57254,42.067],[20.55915,42.07215],[20.56842,42.11129],[20.56842,42.1288],[20.55606,42.13292],[20.55297,42.14735],[20.53551,42.15409],[20.5372,42.14987],[20.49459,42.12413],[20.45071,42.08953],[20.44944,42.08152],[20.43383,42.07519],[20.42033,42.08278],[20.39502,42.07983],[20.36253,42.08194],[20.34101,42.087],[20.2984,42.1081],[20.29333,42.14016],[20.28236,42.15535],[20.25916,42.16548],[20.23983,42.16383],[20.2285,42.14838],[20.21099,42.14425],[20.20069,42.13601],[20.19554,42.11644],[20.18833,42.10408],[20.177,42.0876],[20.16052,42.0773],[20.15743,42.05464],[20.16361,42.04331],[20.16979,42.00417]]]}},{"type":"Feature","properties":{"id":"ALB:ADM2:67620474B93113119561724","name":"Peqin","countryCode":"ALB","adminLevel":2,"sourceCode":"67620474B93113119561724","parentId":"ALB:ADM1:ALB-1524"},"geometry":{"type":"Polygon","coordinates":[[[19.73653,41.11399],[19.69359,41.0721],[19.69046,41.05124],[19.68003,41.03769],[19.69567,41.01058],[19.72382,40.99181],[19.7478,41.00015],[19.7551,41.00849],[19.7697,41.00849],[19.80932,40.99285],[19.8625,40.99285],[19.86145,41.01892],[19.88335,41.0356],[19.88335,41.07731],[19.86562,41.0992],[19.85207,41.11067],[19.824,41.11821],[19.73653,41.11399]]]}},{"type":"Feature","properties":{"id":"ALB:ADM2:67620474B93518338354482","name":"Vlorë","countryCode":"ALB","adminLevel":2,"sourceCode":"67620474B93518338354482"},"geometry":{"type":"Polygon","coordinates":[[[19.26877,40.51293],[19.2701,40.51318],[19.27173,40.51204],[19.27491,40.50694],[19.27833,40.50418],[19.28191,40.50227],[19.28761,40.4995],[19.29184,40.49433],[19.29026,40.48903],[19.28724,40.48023],[19.28757,40.47942],[19.28658,40.47572],[19.2785,40.47683],[19.27492,40.49112],[19.26974,40.49274],[19.26564,40.49901],[19.26526,40.49956],[19.26343,40.50404],[19.26877,40.51293]]]}},{"type":"Feature","properties":{"id":"ALB:ADM2:67620474B94080737422449","name":"Fier","countryCode":"ALB","adminLevel":2,"sourceCode":"67620474B94080737422449","parentId":"ALB:ADM1:ALB-1495"},"geometry":{"type":"Polygon","coordinates":[[[19.41452,40.91393],[19.40498,40.89726],[19.42726,40.87292],[19.42726,40.87226],[19.42787,40.87226],[19.44101,40.85789],[19.44368,40.8699],[19.45903,40.8619],[19.46904,40.8659],[19.48973,40.85189],[19.51375,40.85856],[19.56914,40.85589],[19.58315,40.82987],[19.58582,40.80584],[19.59583,40.79383],[19.62118,40.79583],[19.66723,40.76047],[19.70326,40.78983],[19.71194,40.80318],[19.73783,40.7937],[19.73404,40.77851],[19.75681,40.75574],[19.7758,40.69576],[19.82666,40.66083],[19.82666,40.64944],[19.66343,40.64944],[19.69076,40.61756],[19.68089,40.60845],[19.70367,40.59326],[19.68165,40.55226],[19.71126,40.52189],[19.68463,40.52915],[19.67915,40.53494],[19.65432,40.53328],[19.6566,40.54467],[19.63382,40.54315],[19.63534,40.55454],[19.57612,40.55758],[19.5592,40.56792],[19.5592,40.58645],[19.52769,40.57904],[19.52769,40.60313],[19.48691,40.59943],[19.45169,40.62538],[19.44057,40.64206],[19.41277,40.62909],[19.35345,40.65504],[19.30579,40.65652],[19.30934,40.66502],[19.32293,40.67487],[19.33904,40.68407],[19.35157,40.69416],[19.36052,40.70978],[19.36451,40.72651],[19.36557,40.78596],[19.36883,40.80215],[19.36917,40.80257],[19.38479,40.80888],[19.38002,40.81347],[19.39625,40.81704],[19.40675,40.82075],[19.40406,40.82929],[19.39674,40.83869],[19.39324,40.84492],[19.39763,40.85297],[19.4048,40.86107],[19.41139,40.86709],[19.41424,40.86884],[19.40626,40.88032],[19.39112,40.89525],[19.3812,40.90827],[19.38378,40.90993],[19.41452,40.91393]]]}},{"type":"Feature","properties":{"id":"ALB:ADM2:67620474B99888539945274","name":"Mirditë","countryCode":"ALB","adminLevel":2,"sourceCode":"67620474B99888539945274","parentId":"ALB:ADM1:ALB-1528"},"geometry":{"type":"Polygon","coordinates":[[[20.1058,41.97393],[20.09229,41.96733],[20.08635,41.92176],[20.04103,41.91867],[20.0091,41.87541],[19.99571,41.87541],[19.99364,41.86408],[19.96686,41.85893],[19.93287,41.8785],[19.92051,41.89086],[19.92669,41.9094],[19.94214,41.92073],[19.92463,41.94442],[19.9236,41.97017],[19.90197,41.96914],[19.89064,41.95884],[19.86386,41.95781],[19.86151,41.95172],[19.86875,41.90885],[19.85641,41.89071],[19.83972,41.8849],[19.84335,41.84499],[19.83464,41.84354],[19.78094,41.81886],[19.7657,41.83265],[19.75554,41.83265],[19.7403,41.81886],[19.70752,41.8191],[19.70845,41.81399],[19.72889,41.79866],[19.73075,41.7903],[19.70752,41.77822],[19.70845,41.75036],[19.71635,41.74618],[19.71681,41.73503],[19.72239,41.72853],[19.72239,41.71784],[19.74375,41.70159],[19.75629,41.70298],[19.7628,41.69834],[19.80819,41.71147],[19.82354,41.71301],[19.83198,41.70533],[19.83121,41.69382],[19.83966,41.68768],[19.91793,41.69459],[19.92254,41.68615],[19.94172,41.68538],[19.99238,41.71531],[20.00312,41.70917],[20.03075,41.7038],[20.053,41.73373],[20.0883,41.73757],[20.14586,41.77133],[20.16582,41.76673],[20.17195,41.78284],[20.16505,41.78975],[20.16582,41.80126],[20.12284,41.82659],[20.16044,41.8404],[20.18193,41.84117],[20.19421,41.86189],[20.21614,41.85996],[20.21202,41.88056],[20.19863,41.89395],[20.19966,41.90734],[20.21923,41.90425],[20.23159,41.91455],[20.23777,41.92794],[20.25219,41.93721],[20.25219,41.97429],[20.26146,41.98356],[20.26249,41.99592],[20.24086,42.01344],[20.21614,42.01962],[20.18627,42.00417],[20.16979,42.00417],[20.15537,41.9918],[20.1058,41.97393]]]}}],"admin1":{"type":"FeatureCollection","features":[{"type":"Feature","properties":{"id":"ALB:ADM1:ALB-1494","name":"Durrës","countryCode":"ALB"},"geometry":{"type":"Polygon","coordinates":[[[19.55427,41.56566],[19.66089,41.56739],[19.67514,41.55444],[19.72133,41.55616],[19.72823,41.55271],[19.75241,41.55228],[19.79212,41.57645],[19.82579,41.57688],[19.89659,41.50825],[19.90134,41.49141],[19.88968,41.48148],[19.88796,41.46335],[19.85558,41.44134],[19.83659,41.45558],[19.82752,41.4504],[19.82536,41.44047],[19.81112,41.43314],[19.77874,41.43443],[19.74464,41.39903],[19.7032,41.39946],[19.68118,41.42839],[19.66607,41.42796],[19.63845,41.44263],[19.59182,41.43702],[19.61006,41.39328],[19.63219,41.37642],[19.63219,41.31002],[19.62587,41.28578],[19.57107,41.24784],[19.52989,41.27333],[19.5139,41.27333],[19.51336,41.27668],[19.50294,41.29413],[19.48805,41.30646],[19.47193,41.3111],[19.45004,41.3111],[19.43165,41.31371],[19.41896,41.32258],[19.41424,41.3415],[19.41424,41.36889],[19.42372,41.37886],[19.41608,41.39032],[19.41082,41.39166],[19.41082,41.39167],[19.39912,41.39986],[19.39482,41.41195],[19.40642,41.40038],[19.41838,41.40088],[19.42279,41.39827],[19.42601,41.4012],[19.42872,41.40131],[19.44516,41.41519],[19.44467,41.41816],[19.44664,41.41995],[19.44339,41.42592],[19.44093,41.44086],[19.44692,41.4434],[19.46833,41.44273],[19.48278,41.46212],[19.48927,41.46613],[19.50864,41.48688],[19.51661,41.51341],[19.51417,41.52998],[19.50717,41.53628],[19.49635,41.53876],[19.48243,41.54385],[19.46803,41.55427],[19.452,41.57477],[19.4495,41.57717],[19.54434,41.57429],[19.55427,41.56566]]]}},{"type":"Feature","properties":{"id":"ALB:ADM1:ALB-1495","name":"Fier","countryCode":"ALB"},"geometry":{"type":"Polygon","coordinates":[[[19.82363,40.60693],[19.85096,40.59554],[19.85172,40.55834],[19.86083,40.54467],[19.92916,40.51886],[19.77807,40.4091],[19.73774,40.42808],[19.74011,40.44943],[19.75435,40.46723],[19.75197,40.48621],[19.70808,40.4874],[19.73181,40.51705],[19.71126,40.52189],[19.68463,40.52915],[19.67915,40.53494],[19.65432,40.53328],[19.6566,40.54467],[19.63382,40.54315],[19.63534,40.55454],[19.57612,40.55758],[19.5592,40.56792],[19.5592,40.58645],[19.52769,40.57904],[19.52769,40.60313],[19.48691,40.59943],[19.45169,40.62538],[19.44057,40.64206],[19.41277,40.62909],[19.35345,40.65504],[19.30579,40.65652],[19.30934,40.66502],[19.32293,40.67487],[19.33904,40.68407],[19.35157,40.69416],[19.36052,40.70978],[19.36451,40.72651],[19.36557,40.78596],[19.36883,40.80215],[19.36917,40.80257],[19.38479,40.80888],[19.38002,40.81347],[19.39625,40.81704],[19.40675,40.82075],[19.40406,40.82929],[19.39674,40.83869],[19.39324,40.84492],[19.39763,40.85297],[19.4048,40.86107],[19.41139,40.86709],[19.41424,40.86884],[19.40626,40.88032],[19.39112,40.89525],[19.3812,40.90827],[19.38378,40.90993],[19.41452,40.91393],[19.43094,40.92586],[19.43246,40.9216],[19.42767,40.91595],[19.43403,40.91722],[19.43539,40.9134],[19.42726,40.89338],[19.42726,40.87292],[19.42726,40.87226],[19.42787,40.87226],[19.43474,40.87226],[19.43784,40.88654],[19.43767,40.88345],[19.43914,40.88007],[19.44093,40.87226],[19.45411,40.88581],[19.5066,40.9051],[19.52345,40.92064],[19.52516,40.94526],[19.51466,40.96491],[19.50147,40.98298],[19.49545,41.00263],[19.49204,40.97695],[19.47967,40.95392],[19.45902,40.92996],[19.4604,40.93195],[19.45376,40.92966],[19.45323,40.93445],[19.45528,40.93305],[19.46471,40.95025],[19.46998,40.95673],[19.47722,40.975],[19.47495,40.9958],[19.46998,41.00072],[19.45379,41.00585],[19.44947,41.00844],[19.46107,41.01266],[19.47254,41.03769],[19.54657,41.03873],[19.58307,41.04916],[19.66335,41.05124],[19.68003,41.03769],[19.69567,41.01058],[19.72382,40.99181],[19.7478,41.00015],[19.7551,41.00849],[19.7697,41.00849],[19.80932,40.99285],[19.81245,40.9793],[19.80202,40.95219],[19.80306,40.923],[19.80828,40.90319],[19.81766,40.89797],[19.81349,40.86044],[19.80669,40.84255],[19.776,40.83721],[19.76999,40.8252],[19.76799,40.80584],[19.71194,40.80318],[19.73783,40.7937],[19.73404,40.77851],[19.75681,40.75574],[19.7758,40.69576],[19.82666,40.66083],[19.82666,40.64944],[19.84868,40.62591],[19.82363,40.60693]]]}},{"type":"Feature","properties":{"id":"ALB:ADM1:ALB-1498","name":"Shkodër","countryCode":"ALB"},"geometry":{"type":"Polygon","coordinates":[[[19.92154,42.25962],[19.9442,42.26374],[19.9545,42.25756],[20.02867,42.2555],[20.06472,42.24005],[20.10386,42.21533],[20.13373,42.21224],[20.18627,42.18546],[20.23159,42.17722],[20.23983,42.16383],[20.2285,42.14838],[20.21099,42.14425],[20.20069,42.13601],[20.19554,42.11644],[20.18833,42.10408],[20.177,42.0876],[20.16052,42.0773],[20.15743,42.05464],[20.16361,42.04331],[20.16979,42.00417],[20.15537,41.9918],[20.09253,41.96914],[20.08635,41.92176],[20.04103,41.91867],[20.0091,41.87541],[19.99571,41.87541],[19.99364,41.86408],[19.96686,41.85893],[19.93287,41.8785],[19.92051,41.89086],[19.92669,41.9094],[19.94214,41.92073],[19.92463,41.94442],[19.9236,41.97017],[19.90197,41.96914],[19.89064,41.95884],[19.86386,41.95781],[19.85871,41.94442],[19.81956,41.93309],[19.80102,41.93824],[19.78248,41.94854],[19.75109,41.94286],[19.72422,41.99625],[19.75556,41.93009],[19.72195,41.9253],[19.71617,41.89807],[19.68042,41.92662],[19.64374,41.92382],[19.60197,41.94772],[19.57626,41.94706],[19.56005,41.92382],[19.5681,41.8691],[19.54235,41.84496],[19.53888,41.83283],[19.46551,41.85545],[19.45118,41.86254],[19.43295,41.8686],[19.36596,41.85257],[19.36311,41.86495],[19.36877,41.88536],[19.33929,41.89783],[19.33816,41.91484],[19.3597,41.92618],[19.34383,41.93865],[19.34043,41.96473],[19.3597,41.96473],[19.37898,41.97154],[19.37218,41.98288],[19.37444,41.99535],[19.36424,42.0237],[19.36877,42.03957],[19.36537,42.05658],[19.37218,42.07359],[19.41186,42.07132],[19.46403,42.05772],[19.4765,42.05772],[19.47536,42.0838],[19.46461,42.09127],[19.47855,42.10753],[19.47994,42.11914],[19.48479,42.12674],[19.46831,42.13086],[19.47243,42.13498],[19.46419,42.13395],[19.46625,42.14116],[19.45286,42.14322],[19.45183,42.14838],[19.42814,42.15971],[19.42505,42.18134],[19.38693,42.19679],[19.35809,42.21842],[19.36015,42.22563],[19.35706,42.2349],[19.36324,42.24829],[19.38796,42.27713],[19.38693,42.28434],[19.41475,42.31216],[19.42814,42.31628],[19.42711,42.32143],[19.40651,42.32967],[19.40857,42.34718],[19.41784,42.35542],[19.42196,42.37911],[19.4508,42.38426],[19.47655,42.40177],[19.47861,42.41928],[19.49509,42.44194],[19.51672,42.44298],[19.55484,42.48212],[19.55381,42.49963],[19.56102,42.51199],[19.59295,42.52435],[19.60634,42.53568],[19.61149,42.57379],[19.61973,42.58821],[19.65475,42.63045],[19.68153,42.63251],[19.69905,42.64796],[19.72377,42.66341],[19.75364,42.63869],[19.76394,42.60264],[19.7763,42.5944],[19.76497,42.57688],[19.75055,42.58306],[19.75467,42.56349],[19.74128,42.54083],[19.76085,42.52023],[19.76646,42.50047],[19.78762,42.4863],[19.83163,42.46406],[19.82722,42.45012],[19.80469,42.42437],[19.82401,42.3793],[19.8224,42.35355],[19.84332,42.31814],[19.84171,42.28756],[19.83366,42.26986],[19.83527,42.24411],[19.86585,42.23767],[19.88517,42.23767],[19.92154,42.25962]]]}},{"type":"Feature","properties":{"id":"ALB:ADM1:ALB-1502","name":"Kukës","countryCode":"ALB"},"geometry":{"type":"Polygon","coordinates":[[[20.55297,42.14735],[20.55606,42.13292],[20.56842,42.1288],[20.56842,42.11129],[20.55915,42.07215],[20.57254,42.067],[20.58593,42.04331],[20.59727,42.04537],[20.59418,42.0258],[20.60448,42.01447],[20.60654,41.99283],[20.61993,41.98253],[20.62508,41.96399],[20.62508,41.94648],[20.61066,41.93412],[20.57975,41.91661],[20.59006,41.89086],[20.58696,41.8785],[20.5643,41.86305],[20.56224,41.82699],[20.53649,41.81463],[20.51486,41.81669],[20.49426,41.84347],[20.42112,41.85584],[20.42112,41.83317],[20.40052,41.81772],[20.37683,41.80948],[20.36138,41.81772],[20.3552,41.83111],[20.3449,41.83729],[20.33872,41.85172],[20.3449,41.86614],[20.32533,41.88056],[20.28824,41.89086],[20.26146,41.86923],[20.24807,41.86305],[20.21614,41.85996],[20.21202,41.88056],[20.19863,41.89395],[20.19966,41.90734],[20.21923,41.90425],[20.23159,41.91455],[20.23777,41.92794],[20.25219,41.93721],[20.25219,41.97429],[20.26146,41.98356],[20.26249,41.99592],[20.24086,42.01344],[20.21614,42.01962],[20.18627,42.00417],[20.16979,42.00417],[20.16361,42.04331],[20.15743,42.05464],[20.16052,42.0773],[20.177,42.0876],[20.18833,42.10408],[20.19554,42.11644],[20.20069,42.13601],[20.21099,42.14425],[20.2285,42.14838],[20.23983,42.16383],[20.23159,42.17722],[20.18627,42.18546],[20.13373,42.21224],[20.10386,42.21533],[20.06472,42.24005],[20.02867,42.2555],[19.9545,42.25756],[19.9442,42.26374],[19.92154,42.25962],[19.88517,42.23767],[19.86585,42.23767],[19.83527,42.24411],[19.83366,42.26986],[19.84171,42.28756],[19.84332,42.31814],[19.8224,42.35355],[19.82401,42.3793],[19.80469,42.42437],[19.82722,42.45012],[19.83804,42.47399],[19.83664,42.47909],[19.84268,42.48095],[19.84965,42.4777],[19.85662,42.48513],[19.87009,42.4842],[19.87427,42.49164],[19.88355,42.49582],[19.90028,42.48653],[19.90074,42.50092],[19.90724,42.50836],[19.91746,42.5065],[19.9235,42.513],[19.94068,42.51904],[19.95601,42.51021],[19.98109,42.51486],[20.00431,42.50836],[20.01035,42.51254],[20.01035,42.51997],[20.01593,42.52972],[20.01267,42.54273],[20.02614,42.54273],[20.0359,42.54783],[20.04797,42.54876],[20.05401,42.55805],[20.08002,42.55666],[20.08792,42.55062],[20.09906,42.53297],[20.12275,42.52693],[20.12415,42.52229],[20.14458,42.51811],[20.16747,42.5041],[20.16595,42.49934],[20.16861,42.49325],[20.18022,42.48602],[20.18326,42.47214],[20.19011,42.47004],[20.19696,42.46205],[20.19163,42.45521],[20.19259,42.45216],[20.22145,42.43355],[20.22798,42.41831],[20.22145,42.41033],[20.21056,42.40815],[20.21056,42.39944],[20.23887,42.38202],[20.24612,42.36751],[20.24395,42.35299],[20.23524,42.34937],[20.24612,42.3363],[20.24177,42.32904],[20.25483,42.32396],[20.26136,42.31743],[20.29112,42.32396],[20.30708,42.31453],[20.33103,42.32977],[20.34845,42.32542],[20.35272,42.31004],[20.37645,42.30471],[20.39586,42.29627],[20.40286,42.28474],[20.43594,42.28108],[20.4642,42.26249],[20.47461,42.26011],[20.49134,42.2418],[20.49958,42.23901],[20.49965,42.22877],[20.51474,42.22325],[20.52633,42.20987],[20.53603,42.18241],[20.54684,42.16677],[20.54506,42.16113],[20.53762,42.1621],[20.53732,42.15339],[20.55297,42.14735]]]}},{"type":"Feature","properties":{"id":"ALB:ADM1:ALB-1504","name":"Vlorë","countryCode":"ALB"},"geometry":{"type":"MultiPolygon","coordinates":[[[[19.93111,40.09947],[19.9833,40.04609],[20.00347,40.05795],[20.0699,40.04846],[20.15176,39.97373],[20.24548,39.92509],[20.24429,39.90373],[20.27158,39.86696],[20.32496,39.84798],[20.32259,39.80646],[20.30361,39.79697],[20.32021,39.7768],[20.31191,39.75782],[20.3392,39.73291],[20.3392,39.71393],[20.28581,39.68071],[20.28344,39.6641],[20.27276,39.65698],[20.25022,39.66173],[20.23243,39.65224],[20.22768,39.63682],[20.18853,39.638],[20.14227,39.64393],[20.12899,39.65182],[20.12135,39.65681],[20.11906,39.65772],[20.10431,39.66647],[20.10306,39.66212],[20.09653,39.66596],[20.08888,39.67308],[20.04461,39.68089],[20.02166,39.68769],[20.01002,39.69355],[20.0044,39.69278],[19.99985,39.69351],[19.99684,39.69257],[19.99586,39.68671],[19.9894,39.68671],[19.99517,39.73172],[19.9943,39.73205],[20.0027,39.74824],[19.98561,39.75373],[19.98259,39.75591],[19.98686,39.76731],[20.00228,39.77443],[20.00134,39.79792],[20.00791,39.81584],[20.01415,39.82662],[20.01367,39.8316],[20.01417,39.83295],[20.01629,39.84504],[20.00978,39.86567],[19.99928,39.87141],[19.98373,39.87238],[19.96168,39.87857],[19.96022,39.88105],[19.95997,39.88508],[19.95883,39.88935],[19.95484,39.89281],[19.94117,39.89899],[19.93116,39.90192],[19.91805,39.9023],[19.93467,39.93221],[19.93221,39.93517],[19.94117,39.94001],[19.92384,39.95283],[19.8768,40.02237],[19.87045,40.03473],[19.86345,40.04536],[19.85524,40.04987],[19.84451,40.05012],[19.82325,40.0506],[19.81975,40.05111],[19.79908,40.05926],[19.80454,40.06346],[19.77735,40.07779],[19.77312,40.07123],[19.7724,40.06978],[19.76754,40.0717],[19.76726,40.07245],[19.76246,40.07685],[19.75636,40.0799],[19.74936,40.08462],[19.74806,40.08861],[19.7409,40.10041],[19.73268,40.11026],[19.72902,40.10822],[19.71909,40.11603],[19.67441,40.12712],[19.58463,40.16681],[19.56577,40.17984],[19.53571,40.18763],[19.48954,40.20597],[19.47625,40.21369],[19.38111,40.29523],[19.36997,40.30903],[19.36508,40.31737],[19.35157,40.36205],[19.34425,40.37434],[19.30926,40.40082],[19.29689,40.41356],[19.29518,40.41755],[19.29518,40.41869],[19.28968,40.42036],[19.30526,40.4326],[19.32466,40.43504],[19.34264,40.43261],[19.36668,40.41337],[19.3838,40.39741],[19.39324,40.3863],[19.4065,40.36262],[19.41027,40.3526],[19.41091,40.33251],[19.42322,40.3302],[19.42359,40.33002],[19.42389,40.33008],[19.44057,40.32695],[19.44547,40.33413],[19.46559,40.3415],[19.47495,40.34837],[19.48162,40.43911],[19.47877,40.45392],[19.45314,40.46532],[19.41879,40.49189],[19.3994,40.51304],[19.40906,40.51787],[19.44428,40.49748],[19.44428,40.51039],[19.44606,40.51114],[19.45265,40.52985],[19.4546,40.55386],[19.44215,40.57306],[19.4157,40.58348],[19.39161,40.57832],[19.3864,40.55073],[19.37924,40.56615],[19.30983,40.64435],[19.30437,40.65314],[19.30579,40.65652],[19.35345,40.65504],[19.41277,40.62909],[19.44057,40.64206],[19.45169,40.62538],[19.48691,40.59943],[19.52769,40.60313],[19.52769,40.57904],[19.5592,40.58645],[19.5592,40.56792],[19.57612,40.55758],[19.63534,40.55454],[19.63382,40.54315],[19.6566,40.54467],[19.65432,40.53328],[19.67915,40.53494],[19.68463,40.52915],[19.71126,40.52189],[19.73181,40.51705],[19.70808,40.4874],[19.75197,40.48621],[19.75435,40.46723],[19.74011,40.44943],[19.73774,40.42808],[19.77807,40.4091],[19.80654,40.36877],[19.75316,40.34267],[19.83739,40.27267],[19.81841,40.25844],[19.84569,40.25132],[19.84451,40.2098],[19.88128,40.1837],[19.89908,40.14218],[19.93111,40.09947]]],[[[19.39017,40.53985],[19.38941,40.53027],[19.3864,40.54328],[19.39017,40.53985]]]]}},{"type":"Feature","properties":{"id":"ALB:ADM1:ALB-1521","name":"Korçë","countryCode":"ALB"},"geometry":{"type":"Polygon","coordinates":[[[20.7805,40.32724],[20.7805,40.30945],[20.7544,40.30115],[20.73305,40.27267],[20.73305,40.24776],[20.7461,40.23234],[20.7461,40.2098],[20.70339,40.1754],[20.70932,40.1576],[20.71051,40.13625],[20.69865,40.12439],[20.69983,40.11134],[20.68678,40.08998],[20.6334,40.08761],[20.58595,40.13744],[20.5551,40.15523],[20.51477,40.16947],[20.54443,40.20387],[20.52782,40.22166],[20.529,40.25844],[20.50172,40.27267],[20.50291,40.30233],[20.49816,40.33318],[20.51358,40.3486],[20.47681,40.38656],[20.46969,40.42808],[20.44715,40.45537],[20.46138,40.48146],[20.4602,40.50282],[20.44122,40.52536],[20.4424,40.55264],[20.45783,40.56451],[20.40681,40.58586],[20.39258,40.61077],[20.33682,40.66297],[20.32017,40.70335],[20.3065,40.7155],[20.31182,40.72461],[20.37331,40.73752],[20.4462,40.73828],[20.47201,40.76485],[20.47918,40.80533],[20.45189,40.84803],[20.39614,40.89667],[20.39377,40.92158],[20.4258,40.95361],[20.42698,40.97615],[20.48392,40.99988],[20.52663,41.03428],[20.57171,41.03072],[20.60611,41.00581],[20.61798,41.02954],[20.61916,41.09122],[20.64763,41.09004],[20.64882,41.07224],[20.66306,41.06038],[20.66187,41.04496],[20.64526,41.03191],[20.64763,41.00225],[20.66068,40.99632],[20.66543,40.97734],[20.66424,40.94412],[20.65475,40.92277],[20.68322,40.89904],[20.76745,40.90972],[20.84456,40.90023],[20.8448,40.93112],[20.87517,40.93264],[20.91085,40.9167],[20.93818,40.92429],[20.97463,40.91821],[20.99892,40.90379],[20.9845,40.88633],[20.96096,40.87873],[20.98829,40.85596],[20.96172,40.82407],[20.97387,40.8104],[20.93287,40.78535],[20.93894,40.76029],[20.98602,40.79142],[20.99816,40.78611],[20.99892,40.777],[20.98829,40.75802],[21.00348,40.75194],[21.00727,40.72537],[21.08657,40.67246],[21.06877,40.55739],[21.04386,40.55264],[21.02013,40.52773],[20.99166,40.52061],[21.00115,40.49689],[20.96438,40.45537],[20.86591,40.47197],[20.85998,40.44706],[20.82439,40.43283],[20.81372,40.36521],[20.7805,40.32724]]]}},{"type":"Feature","properties":{"id":"ALB:ADM1:ALB-1523","name":"Berat","countryCode":"ALB"},"geometry":{"type":"Polygon","coordinates":[[[20.21995,40.72309],[20.24121,40.70031],[20.32017,40.70335],[20.33682,40.66297],[20.39258,40.61077],[20.40681,40.58586],[20.45783,40.56451],[20.4424,40.55264],[20.44122,40.52536],[20.4602,40.50282],[20.46138,40.48146],[20.44715,40.45537],[20.46969,40.42808],[20.41735,40.43003],[20.40444,40.44217],[20.38091,40.44141],[20.34143,40.4194],[20.33839,40.40345],[20.33991,40.38447],[20.28676,40.36701],[20.25108,40.39206],[20.23893,40.4118],[20.21008,40.41408],[20.1835,40.44445],[20.14327,40.47938],[20.09788,40.48341],[20.09663,40.4716],[20.06771,40.47066],[20.06336,40.48404],[20.01192,40.48773],[19.95953,40.49608],[19.92916,40.51886],[19.86083,40.54467],[19.85172,40.55834],[19.85096,40.59554],[19.82363,40.60693],[19.84868,40.62591],[19.82666,40.64944],[19.82666,40.66083],[19.7758,40.69576],[19.75681,40.75574],[19.73404,40.77851],[19.73783,40.7937],[19.71194,40.80318],[19.76799,40.80584],[19.76999,40.8252],[19.776,40.83721],[19.80669,40.84255],[19.80936,40.84956],[19.81349,40.86044],[19.87084,40.86357],[19.89169,40.85627],[19.93548,40.86878],[19.9678,40.87086],[20.0533,40.86878],[20.04001,40.85216],[20.04456,40.83774],[20.02862,40.82179],[20.08404,40.81951],[20.09012,40.78838],[20.11745,40.76789],[20.12125,40.7527],[20.16908,40.75498],[20.1706,40.72309],[20.21995,40.72309]]]}},{"type":"Feature","properties":{"id":"ALB:ADM1:ALB-1524","name":"Elbasan","countryCode":"ALB"},"geometry":{"type":"Polygon","coordinates":[[[20.39614,40.89667],[20.45189,40.84803],[20.47918,40.80533],[20.47201,40.76485],[20.4462,40.73828],[20.37331,40.73752],[20.33459,40.73068],[20.31182,40.72461],[20.3065,40.7155],[20.32017,40.70335],[20.24121,40.70031],[20.21995,40.72309],[20.1706,40.72309],[20.16908,40.75498],[20.12125,40.7527],[20.11745,40.76789],[20.09012,40.78838],[20.08404,40.81951],[20.02862,40.82179],[20.04456,40.83774],[20.04001,40.85216],[20.0533,40.86878],[19.9678,40.87086],[19.93548,40.86878],[19.89169,40.85627],[19.87084,40.86357],[19.81349,40.86044],[19.81766,40.89797],[19.80828,40.90319],[19.80306,40.923],[19.80202,40.95219],[19.81245,40.9793],[19.80932,40.99285],[19.7697,41.00849],[19.7551,41.00849],[19.7478,41.00015],[19.72382,40.99181],[19.69567,41.01058],[19.68003,41.03769],[19.69046,41.05124],[19.69359,41.0721],[19.73653,41.11399],[19.824,41.11821],[19.82084,41.14772],[19.87775,41.1572],[19.89462,41.17407],[19.9431,41.17407],[20.00211,41.20568],[20.00317,41.23098],[20.01582,41.24679],[20.0664,41.23309],[20.08432,41.25733],[20.10645,41.25838],[20.11699,41.26786],[20.11969,41.28553],[20.175,41.31048],[20.21682,41.31588],[20.24241,41.34164],[20.29089,41.36799],[20.30037,41.35955],[20.33304,41.35745],[20.34147,41.36482],[20.39101,41.38801],[20.40787,41.3859],[20.42789,41.36272],[20.4437,41.35112],[20.48375,41.35428],[20.50061,41.32794],[20.51595,41.27747],[20.52189,41.22884],[20.54561,41.19443],[20.56222,41.19325],[20.56341,41.17664],[20.599,41.1541],[20.60611,41.1363],[20.58357,41.11258],[20.61916,41.09122],[20.61798,41.02954],[20.60611,41.00581],[20.57171,41.03072],[20.52663,41.03428],[20.48392,40.99988],[20.42698,40.97615],[20.4258,40.95361],[20.39377,40.92158],[20.39614,40.89667]]]}},{"type":"Feature","properties":{"id":"ALB:ADM1:ALB-1525","name":"Gjirokastër","countryCode":"ALB"},"geometry":{"type":"Polygon","coordinates":[[[20.42461,40.04135],[20.41037,40.01406],[20.41156,39.9844],[20.33208,39.98678],[20.34394,39.95474],[20.34987,39.92034],[20.42224,39.8456],[20.43291,39.81239],[20.41986,39.78866],[20.39851,39.77799],[20.32259,39.80646],[20.32496,39.84798],[20.27158,39.86696],[20.24429,39.90373],[20.24548,39.92509],[20.15176,39.97373],[20.0699,40.04846],[20.00347,40.05795],[19.9833,40.04609],[19.93111,40.09947],[19.89908,40.14218],[19.88128,40.1837],[19.84451,40.2098],[19.84569,40.25132],[19.81841,40.25844],[19.83739,40.27267],[19.75316,40.34267],[19.80654,40.36877],[19.77807,40.4091],[19.92916,40.51886],[19.95953,40.49608],[20.01192,40.48773],[20.06336,40.48404],[20.06771,40.47066],[20.09663,40.4716],[20.09788,40.48341],[20.14327,40.47938],[20.1835,40.44445],[20.21008,40.41408],[20.23893,40.4118],[20.25108,40.39206],[20.28676,40.36701],[20.33991,40.38447],[20.33839,40.40345],[20.34143,40.4194],[20.38091,40.44141],[20.40444,40.44217],[20.41735,40.43003],[20.46969,40.42808],[20.47681,40.38656],[20.51358,40.3486],[20.49816,40.33318],[20.50291,40.30233],[20.50172,40.27267],[20.529,40.25844],[20.52782,40.22166],[20.54443,40.20387],[20.51477,40.16947],[20.5551,40.15523],[20.58595,40.13744],[20.6334,40.08761],[20.61086,40.06388],[20.55036,40.0627],[20.51951,40.07575],[20.49935,40.06626],[20.47799,40.06982],[20.42461,40.04135]]]}},{"type":"Feature","properties":{"id":"ALB:ADM1:ALB-1526","name":"Dibër","countryCode":"ALB"},"geometry":{"type":"Polygon","coordinates":[[[20.4711,41.50183],[20.50799,41.48602],[20.50588,41.47021],[20.51431,41.45546],[20.51537,41.43965],[20.53855,41.44281],[20.54488,41.42911],[20.56174,41.41647],[20.56701,41.3996],[20.56806,41.38274],[20.54066,41.34375],[20.52907,41.34164],[20.5238,41.32688],[20.50061,41.32794],[20.48375,41.35428],[20.4437,41.35112],[20.42789,41.36272],[20.40787,41.3859],[20.39101,41.38801],[20.34147,41.36482],[20.33304,41.35745],[20.30037,41.35955],[20.29089,41.36799],[20.24241,41.34164],[20.2266,41.33637],[20.19709,41.34269],[20.17917,41.35323],[20.15072,41.35007],[20.12858,41.37536],[20.12437,41.38696],[20.08853,41.39012],[20.07062,41.35639],[20.05586,41.36799],[20.05376,41.39012],[20.02319,41.41752],[19.99263,41.41963],[19.99263,41.45019],[19.93242,41.49573],[19.92033,41.49702],[19.89659,41.50825],[19.82579,41.57688],[19.82579,41.59761],[19.80335,41.61444],[19.80335,41.6779],[19.7628,41.69834],[19.80819,41.71147],[19.82354,41.71301],[19.83198,41.70533],[19.83121,41.69382],[19.83966,41.68768],[19.91793,41.69459],[19.92254,41.68615],[19.94172,41.68538],[19.99238,41.71531],[20.00312,41.70917],[20.03075,41.7038],[20.053,41.73373],[20.0883,41.73757],[20.14586,41.77133],[20.16582,41.76673],[20.17195,41.78284],[20.16505,41.78975],[20.16582,41.80126],[20.12284,41.82659],[20.16044,41.8404],[20.18193,41.84117],[20.19421,41.86189],[20.21614,41.85996],[20.24807,41.86305],[20.26146,41.86923],[20.28824,41.89086],[20.32533,41.88056],[20.3449,41.86614],[20.33872,41.85172],[20.3449,41.83729],[20.3552,41.83111],[20.36138,41.81772],[20.37683,41.80948],[20.40052,41.81772],[20.42112,41.83317],[20.42112,41.85584],[20.49426,41.84347],[20.51486,41.81669],[20.53649,41.81463],[20.56224,41.82699],[20.5757,41.79521],[20.5757,41.7881],[20.5348,41.77031],[20.52235,41.73771],[20.51346,41.72763],[20.52413,41.71281],[20.52057,41.70155],[20.52709,41.70155],[20.53124,41.69265],[20.52472,41.66183],[20.51524,41.64226],[20.52531,41.64167],[20.54132,41.62507],[20.54191,41.61322],[20.55673,41.59247],[20.5591,41.57943],[20.55436,41.56994],[20.53065,41.56816],[20.51109,41.55156],[20.48856,41.55334],[20.47552,41.54919],[20.46662,41.53437],[20.4711,41.50183]],[[20.20637,41.53437],[20.18233,41.54715],[20.20025,41.53556],[20.20637,41.53437]]]}},{"type":"Feature","properties":{"id":"ALB:ADM1:ALB-1528","name":"Lezhë","countryCode":"ALB"},"geometry":{"type":"Polygon","coordinates":[[[19.80335,41.6779],[19.80335,41.61444],[19.82579,41.59761],[19.82579,41.57688],[19.79212,41.57645],[19.75241,41.55228],[19.72823,41.55271],[19.72133,41.55616],[19.67514,41.55444],[19.66089,41.56739],[19.55427,41.56566],[19.54434,41.57429],[19.55694,41.5832],[19.5652,41.58511],[19.56893,41.59166],[19.59139,41.60753],[19.59218,41.61047],[19.5923,41.60859],[19.59604,41.60273],[19.60304,41.60175],[19.61297,41.60529],[19.60499,41.63215],[19.60011,41.63911],[19.59164,41.63264],[19.58709,41.64069],[19.56282,41.65705],[19.56835,41.66556],[19.56761,41.67374],[19.57814,41.68765],[19.57778,41.69392],[19.5789,41.69457],[19.58022,41.715],[19.5765,41.71632],[19.57634,41.71894],[19.57114,41.75239],[19.5712,41.75966],[19.58478,41.76692],[19.58953,41.76569],[19.59897,41.77871],[19.59978,41.79975],[19.59164,41.81879],[19.58522,41.81855],[19.53888,41.83283],[19.54235,41.84496],[19.5681,41.8691],[19.56005,41.92382],[19.57626,41.94706],[19.60197,41.94772],[19.64374,41.92382],[19.68042,41.92662],[19.71617,41.89807],[19.72195,41.9253],[19.75556,41.93009],[19.75109,41.94286],[19.78248,41.94854],[19.80102,41.93824],[19.81956,41.93309],[19.85871,41.94442],[19.86151,41.95172],[19.86386,41.95781],[19.89064,41.95884],[19.90197,41.96914],[19.9236,41.97017],[19.92463,41.94442],[19.94214,41.92073],[19.92669,41.9094],[19.92051,41.89086],[19.93287,41.8785],[19.96686,41.85893],[19.99364,41.86408],[19.99571,41.87541],[20.0091,41.87541],[20.04103,41.91867],[20.08635,41.92176],[20.09229,41.96733],[20.1058,41.97393],[20.15537,41.9918],[20.16979,42.00417],[20.18627,42.00417],[20.21614,42.01962],[20.24086,42.01344],[20.26249,41.99592],[20.26146,41.98356],[20.25219,41.97429],[20.25219,41.93721],[20.23777,41.92794],[20.23159,41.91455],[20.21923,41.90425],[20.19966,41.90734],[20.19863,41.89395],[20.21202,41.88056],[20.21614,41.85996],[20.19421,41.86189],[20.18193,41.84117],[20.16044,41.8404],[20.12284,41.82659],[20.16582,41.80126],[20.16505,41.78975],[20.17195,41.78284],[20.16582,41.76673],[20.14586,41.77133],[20.0883,41.73757],[20.053,41.73373],[20.03075,41.7038],[20.00312,41.70917],[19.99238,41.71531],[19.94172,41.68538],[19.92254,41.68615],[19.91793,41.69459],[19.83966,41.68768],[19.83121,41.69382],[19.83198,41.70533],[19.82354,41.71301],[19.80819,41.71147],[19.7628,41.69834],[19.80335,41.6779]]]}},{"type":"Feature","properties":{"id":"ALB:ADM1:ALB-1529","name":"Tirana","countryCode":"ALB"},"geometry":{"type":"Polygon","coordinates":[[[19.57107,41.24784],[19.62587,41.28578],[19.63219,41.31002],[19.63219,41.37642],[19.61006,41.39328],[19.59182,41.43702],[19.63845,41.44263],[19.66607,41.42796],[19.68118,41.42839],[19.7032,41.39946],[19.74464,41.39903],[19.77874,41.43443],[19.81112,41.43314],[19.82536,41.44047],[19.82752,41.4504],[19.83659,41.45558],[19.85558,41.44134],[19.87975,41.45688],[19.88796,41.46335],[19.88968,41.48148],[19.90134,41.49141],[19.89659,41.50825],[19.92033,41.49702],[19.93242,41.49573],[19.99263,41.45019],[19.99263,41.41963],[20.02319,41.41752],[20.05376,41.39012],[20.05586,41.36799],[20.07062,41.35639],[20.08853,41.39012],[20.12437,41.38696],[20.12858,41.37536],[20.15072,41.35007],[20.17917,41.35323],[20.19709,41.34269],[20.2266,41.33637],[20.24241,41.34164],[20.21682,41.31588],[20.175,41.31048],[20.11969,41.28553],[20.11699,41.26786],[20.10645,41.25838],[20.08432,41.25733],[20.0664,41.23309],[20.01582,41.24679],[20.00317,41.23098],[20.00211,41.20568],[19.9431,41.17407],[19.89462,41.17407],[19.87775,41.1572],[19.82084,41.14772],[19.824,41.11821],[19.73653,41.11399],[19.69359,41.0721],[19.69046,41.05124],[19.68003,41.03769],[19.66335,41.05124],[19.58307,41.04916],[19.54657,41.03873],[19.47254,41.03769],[19.46107,41.01266],[19.44947,41.00844],[19.44777,41.00947],[19.4406,41.02066],[19.44125,41.02603],[19.44549,41.03071],[19.45639,41.10668],[19.45118,41.12271],[19.44549,41.12946],[19.44117,41.13736],[19.4419,41.14387],[19.46372,41.15131],[19.46713,41.16266],[19.46713,41.17588],[19.49972,41.22533],[19.50953,41.23729],[19.51661,41.25641],[19.5139,41.27333],[19.52989,41.27333],[19.57107,41.24784]]]}}]}}
