{"type":"FeatureCollection","features":[{"type":"Feature","properties":{"id":"AND:ADM0:62012451B35860987257782","name":"Andorra","countryCode":"AND","adminLevel":0,"sourceCode":"62012451B35860987257782","parentId":"AND:ADM1:AND-4880"},"geometry":{"type":"Polygon","coordinates":[[[1.54727,42.65527],[1.52098,42.6466],[1.50219,42.64573],[1.4923,42.65463],[1.47817,42.65138],[1.47592,42.64004],[1.46723,42.63196],[1.47577,42.61525],[1.47419,42.60954],[1.45652,42.60287],[1.44212,42.60268],[1.43931,42.5914],[1.42666,42.58659],[1.42886,42.57942],[1.44626,42.56929],[1.42203,42.55719],[1.41322,42.53565],[1.4358,42.54349],[1.44399,42.54212],[1.45124,42.53841],[1.45265,42.52962],[1.46449,42.51939],[1.46821,42.51056],[1.45087,42.50324],[1.44354,42.49467],[1.42613,42.494],[1.4167,42.48376],[1.43064,42.48259],[1.43759,42.4787],[1.44044,42.4742],[1.43965,42.46495],[1.44529,42.46086],[1.44285,42.45196],[1.44701,42.44871],[1.44485,42.4427],[1.4588,42.4349],[1.47743,42.43631],[1.51263,42.42974],[1.55311,42.43171],[1.557,42.43572],[1.55741,42.44302],[1.56241,42.4462],[1.56063,42.45358],[1.5646,42.4591],[1.58202,42.44809],[1.5874,42.45889],[1.59731,42.46441],[1.606,42.46172],[1.63132,42.46201],[1.63493,42.46628],[1.65675,42.46559],[1.66522,42.47126],[1.66205,42.49086],[1.67047,42.50323],[1.67406,42.5023],[1.68044,42.49191],[1.71116,42.49027],[1.72106,42.50227],[1.72643,42.50376],[1.72336,42.51955],[1.73198,42.5294],[1.7328,42.54797],[1.74029,42.55662],[1.74771,42.56238],[1.76507,42.5626],[1.78672,42.57292],[1.78066,42.57919],[1.72628,42.59108],[1.72623,42.59826],[1.73775,42.61172],[1.73704,42.61749],[1.71106,42.61622],[1.69946,42.62199],[1.67936,42.62534],[1.67503,42.62139],[1.6585,42.62025],[1.64278,42.62996],[1.59996,42.62561],[1.59281,42.63292],[1.583,42.63532],[1.57486,42.64873],[1.56343,42.65464],[1.54727,42.65527]]]}}],"admin1":{"type":"FeatureCollection","features":[{"type":"Feature","properties":{"id":"AND:ADM1:AND-4880","name":"Encamp","countryCode":"AND"},"geometry":{"type":"Polygon","coordinates":[[[1.54727,42.65527],[1.52098,42.6466],[1.50219,42.64573],[1.4923,42.65463],[1.47817,42.65138],[1.47592,42.64004],[1.46723,42.63196],[1.47577,42.61525],[1.47419,42.60954],[1.45652,42.60287],[1.44212,42.60268],[1.43931,42.5914],[1.42666,42.58659],[1.42886,42.57942],[1.44626,42.56929],[1.42203,42.55719],[1.41322,42.53565],[1.4358,42.54349],[1.44399,42.54212],[1.45124,42.53841],[1.45265,42.52962],[1.46449,42.51939],[1.46821,42.51056],[1.45087,42.50324],[1.44354,42.49467],[1.42613,42.494],[1.4167,42.48376],[1.43064,42.48259],[1.43759,42.4787],[1.44044,42.4742],[1.43965,42.46495],[1.44529,42.46086],[1.44285,42.45196],[1.44701,42.44871],[1.44485,42.4427],[1.4588,42.4349],[1.47743,42.43631],[1.51263,42.42974],[1.55311,42.43171],[1.557,42.43572],[1.55741,42.44302],[1.56241,42.4462],[1.56063,42.45358],[1.5646,42.4591],[1.58202,42.44809],[1.5874,42.45889],[1.59731,42.46441],[1.606,42.46172],[1.63132,42.46201],[1.63493,42.46628],[1.65675,42.46559],[1.66522,42.47126],[1.66205,42.49086],[1.67047,42.50323],[1.67406,42.5023],[1.68044,42.49191],[1.71116,42.49027],[1.72106,42.50227],[1.72643,42.50376],[1.72336,42.51955],[1.73198,42.5294],[1.7328,42.54797],[1.74029,42.55662],[1.74771,42.56238],[1.76507,42.5626],[1.78672,42.57292],[1.78066,42.57919],[1.72628,42.59108],[1.72623,42.59826],[1.73775,42.61172],[1.73704,42.61749],[1.71106,42.61622],[1.69946,42.62199],[1.67936,42.62534],[1.67503,42.62139],[1.6585,42.62025],[1.64278,42.62996],[1.59996,42.62561],[1.59281,42.63292],[1.583,42.63532],[1.57486,42.64873],[1.56343,42.65464],[1.54727,42.65527]]]}}]}}
