{"type":"FeatureCollection","features":[{"type":"Feature","properties":{"id":"ASM:ADM0:72969383B88065320147610","name":"American Samoa","countryCode":"ASM","adminLevel":0,"sourceCode":"72969383B88065320147610","parentId":"ASM:ADM1:ASM-5002"},"geometry":{"type":"MultiPolygon","coordinates":[[[[-170.70544,-14.32127],[-170.70253,-14.32065],[-170.70259,-14.32163],[-170.70544,-14.32127]]],[[[-170.75321,-14.29631],[-170.74869,-14.29188],[-170.73786,-14.29209],[-170.72151,-14.28924],[-170.69848,-14.26051],[-170.66145,-14.25237],[-170.65872,-14.25252],[-170.65856,-14.25294],[-170.65798,-14.25256],[-170.65265,-14.25284],[-170.65275,-14.25866],[-170.6459,-14.25568],[-170.64566,-14.25321],[-170.63007,-14.25404],[-170.63169,-14.25537],[-170.62967,-14.25782],[-170.62086,-14.2572],[-170.61796,-14.25532],[-170.59101,-14.26483],[-170.58611,-14.26075],[-170.58527,-14.26048],[-170.58532,-14.26009],[-170.57624,-14.25254],[-170.56725,-14.25856],[-170.56847,-14.27093],[-170.56912,-14.27121],[-170.57817,-14.27448],[-170.58438,-14.27358],[-170.59229,-14.27817],[-170.60524,-14.27883],[-170.60359,-14.27656],[-170.60528,-14.27215],[-170.6147,-14.26811],[-170.62349,-14.27245],[-170.62946,-14.28005],[-170.64232,-14.28069],[-170.65929,-14.28525],[-170.66326,-14.28812],[-170.66399,-14.273],[-170.66663,-14.27003],[-170.67845,-14.2677],[-170.68565,-14.27166],[-170.69912,-14.27095],[-170.70131,-14.2724],[-170.68874,-14.27763],[-170.68066,-14.27662],[-170.68122,-14.28255],[-170.67528,-14.28547],[-170.68284,-14.29124],[-170.6776,-14.29695],[-170.68959,-14.30229],[-170.70221,-14.3201],[-170.70379,-14.31226],[-170.71133,-14.31361],[-170.71073,-14.316],[-170.71382,-14.31409],[-170.7134,-14.31672],[-170.7169,-14.31738],[-170.71252,-14.32504],[-170.70165,-14.32676],[-170.70319,-14.3288],[-170.72074,-14.33893],[-170.72215,-14.34515],[-170.72724,-14.34746],[-170.74034,-14.36457],[-170.75209,-14.3583],[-170.75407,-14.3669],[-170.75486,-14.36781],[-170.75548,-14.36712],[-170.76103,-14.36344],[-170.76062,-14.36209],[-170.76237,-14.36255],[-170.78777,-14.3457],[-170.78567,-14.33994],[-170.79536,-14.33118],[-170.80471,-14.33198],[-170.80948,-14.32542],[-170.81572,-14.33031],[-170.82282,-14.32676],[-170.83125,-14.31943],[-170.78865,-14.29453],[-170.78084,-14.29303],[-170.77977,-14.29525],[-170.77035,-14.29148],[-170.75538,-14.29176],[-170.75321,-14.29631]]],[[[-169.50349,-14.24566],[-169.51289,-14.23734],[-169.51752,-14.22423],[-169.50646,-14.22226],[-169.46386,-14.22324],[-169.44404,-14.23065],[-169.44013,-14.24529],[-169.44423,-14.25135],[-169.44893,-14.24866],[-169.46155,-14.24897],[-169.47094,-14.25387],[-169.47842,-14.26228],[-169.48497,-14.26198],[-169.49486,-14.25726],[-169.49722,-14.26319],[-169.50349,-14.24566]]],[[[-169.65978,-14.18227],[-169.66982,-14.18546],[-169.67183,-14.18373],[-169.67622,-14.1749],[-169.66816,-14.16912],[-169.65819,-14.16888],[-169.64717,-14.17213],[-169.6469,-14.17224],[-169.65978,-14.18227]]]]}}],"admin1":{"type":"FeatureCollection","features":[{"type":"Feature","properties":{"id":"ASM:ADM1:ASM-5002","name":"Western District","countryCode":"ASM"},"geometry":{"type":"MultiPolygon","coordinates":[[[[-170.70259,-14.32163],[-170.70544,-14.32127],[-170.70253,-14.32065],[-170.70259,-14.32163]]],[[[-170.73786,-14.29209],[-170.72151,-14.28924],[-170.69848,-14.26051],[-170.66145,-14.25237],[-170.65872,-14.25252],[-170.65856,-14.25294],[-170.65798,-14.25256],[-170.65265,-14.25284],[-170.65275,-14.25866],[-170.6459,-14.25568],[-170.64566,-14.25321],[-170.63007,-14.25404],[-170.63169,-14.25537],[-170.62967,-14.25782],[-170.62086,-14.2572],[-170.61796,-14.25532],[-170.59101,-14.26483],[-170.58611,-14.26075],[-170.58527,-14.26048],[-170.58532,-14.26009],[-170.57624,-14.25254],[-170.56725,-14.25856],[-170.56847,-14.27093],[-170.56912,-14.27121],[-170.57817,-14.27448],[-170.58438,-14.27358],[-170.59229,-14.27817],[-170.60524,-14.27883],[-170.60359,-14.27656],[-170.60528,-14.27215],[-170.6147,-14.26811],[-170.62349,-14.27245],[-170.62946,-14.28005],[-170.64232,-14.28069],[-170.65929,-14.28525],[-170.66326,-14.28812],[-170.66399,-14.273],[-170.66663,-14.27003],[-170.67845,-14.2677],[-170.68565,-14.27166],[-170.69912,-14.27095],[-170.70131,-14.2724],[-170.68874,-14.27763],[-170.68066,-14.27662],[-170.68122,-14.28255],[-170.67528,-14.28547],[-170.68284,-14.29124],[-170.6776,-14.29695],[-170.68959,-14.30229],[-170.70221,-14.3201],[-170.70379,-14.31226],[-170.71133,-14.31361],[-170.71073,-14.316],[-170.71382,-14.31409],[-170.7134,-14.31672],[-170.7169,-14.31738],[-170.71252,-14.32504],[-170.70165,-14.32676],[-170.70319,-14.3288],[-170.72074,-14.33893],[-170.72215,-14.34515],[-170.72724,-14.34746],[-170.74034,-14.36457],[-170.75209,-14.3583],[-170.75407,-14.3669],[-170.75486,-14.36781],[-170.75548,-14.36712],[-170.76103,-14.36344],[-170.76062,-14.36209],[-170.76237,-14.36255],[-170.78777,-14.3457],[-170.78567,-14.33994],[-170.79536,-14.33118],[-170.80471,-14.33198],[-170.80948,-14.32542],[-170.81572,-14.33031],[-170.82282,-14.32676],[-170.83125,-14.31943],[-170.78865,-14.29453],[-170.78084,-14.29303],[-170.77977,-14.29525],[-170.77035,-14.29148],[-170.75538,-14.29176],[-170.75321,-14.29631],[-170.74869,-14.29188],[-170.73786,-14.29209]]],[[[-169.51752,-14.22423],[-169.50646,-14.22226],[-169.46386,-14.22324],[-169.44404,-14.23065],[-169.44013,-14.24529],[-169.44423,-14.25135],[-169.44893,-14.24866],[-169.46155,-14.24897],[-169.47094,-14.25387],[-169.47842,-14.26228],[-169.48497,-14.26198],[-169.49486,-14.25726],[-169.49722,-14.26319],[-169.50349,-14.24566],[-169.51289,-14.23734],[-169.51752,-14.22423]]],[[[-169.67183,-14.18373],[-169.67622,-14.1749],[-169.66816,-14.16912],[-169.65819,-14.16888],[-169.64717,-14.17213],[-169.6469,-14.17224],[-169.65978,-14.18227],[-169.66982,-14.18546],[-169.67183,-14.18373]]]]}}]}}
