{"type":"FeatureCollection","features":[{"type":"Feature","properties":{"id":"ATF:ADM0:ATF","name":"French Southern and Antarctic Lands","countryCode":"ATF","adminLevel":0,"sourceCode":"ATF","parentId":"ATF:ADM1:ATF-5916"},"geometry":{"type":"MultiPolygon","coordinates":[[[[42.7518,-17.0761],[42.72438,-17.06357],[42.7588,-17.06064],[42.7518,-17.0761]]],[[[69.94565,-49.54217],[69.84783,-49.51434],[69.83579,-49.50115],[70.01612,-49.56422],[69.94565,-49.54217]]],[[[68.7951,-49.34352],[68.7732,-49.3637],[68.6434,-49.34352],[68.69125,-49.31561],[68.7951,-49.34352]]],[[[69.58953,-49.19964],[69.53419,-49.1928],[69.67807,-49.15179],[69.62403,-49.20827],[69.58953,-49.19964]]],[[[69.19215,-48.98659],[69.34295,-48.88421],[69.31512,-48.9389],[69.41131,-48.92864],[69.2225,-49.09433],[69.19215,-48.98659]]],[[[69.22633,-48.85703],[69.24391,-48.89007],[69.14381,-48.98056],[69.16277,-48.90651],[69.22633,-48.85703]]],[[[69.46599,-48.88421],[69.4284,-48.86444],[69.40447,-48.82903],[69.51987,-48.85703],[69.46599,-48.88421]]],[[[70.54884,-49.1832],[70.52369,-49.30755],[70.31153,-49.37851],[70.46648,-49.43914],[70.28834,-49.43914],[70.1399,-49.3388],[69.82228,-49.34979],[69.9253,-49.39129],[69.89845,-49.44313],[69.69191,-49.40447],[69.81381,-49.53249],[70.13697,-49.61785],[70.04908,-49.52044],[70.29591,-49.53037],[70.32398,-49.57448],[70.16481,-49.61785],[70.24431,-49.68548],[69.85564,-49.67913],[69.73854,-49.49879],[69.63722,-49.50457],[69.71502,-49.58172],[69.66391,-49.66497],[69.46974,-49.63144],[69.22739,-49.48846],[69.23194,-49.57301],[69.14381,-49.51434],[69.15064,-49.62412],[69.08546,-49.5403],[69.10402,-49.6443],[69.02564,-49.70989],[68.7645,-49.67498],[68.9017,-49.43109],[68.80649,-49.36582],[68.92408,-49.28826],[68.83611,-49.3034],[68.76433,-49.1889],[68.93092,-49.14495],[68.74879,-49.07675],[68.8274,-49.05413],[68.81324,-48.9651],[68.90309,-48.97471],[68.79176,-48.84629],[68.89682,-48.82285],[69.01564,-48.65456],[69.11647,-48.72666],[68.90821,-48.89398],[69.18881,-48.77305],[69.10906,-48.80853],[69.16375,-48.84612],[68.99977,-49.09043],[69.06813,-49.11077],[69.10572,-48.99342],[69.21453,-49.12127],[69.438,-49.01458],[69.45248,-49.08896],[69.58953,-48.95257],[69.64405,-49.12444],[69.39991,-49.1137],[69.28248,-49.18426],[69.47218,-49.15179],[69.38103,-49.18255],[69.53419,-49.24733],[69.41131,-49.27467],[69.80177,-49.28826],[69.95574,-49.15944],[70.19402,-49.15691],[70.33595,-49.05397],[70.52198,-49.09588],[70.54884,-49.1832]]],[[[68.67075,-48.6242],[68.66798,-48.64528],[68.61012,-48.63763],[68.62599,-48.62982],[68.67075,-48.6242]]],[[[68.8086,-48.60369],[68.78102,-48.58457],[68.81861,-48.56666],[68.8086,-48.60369]]],[[[51.83416,-46.37664],[51.8235,-46.45127],[51.65651,-46.37835],[51.73601,-46.32741],[51.83416,-46.37664]]],[[[50.17555,-46.06471],[50.26808,-46.04371],[50.29225,-46.11598],[50.20118,-46.11346],[50.17555,-46.06471]]],[[[77.50375,-37.8235],[77.54396,-37.82024],[77.58522,-37.8742],[77.50465,-37.88242],[77.50375,-37.8235]]],[[[77.53289,-38.70916],[77.54933,-38.73113],[77.51637,-38.73545],[77.51092,-38.70574],[77.53289,-38.70916]]],[[[40.37973,-22.32391],[40.36866,-22.36256],[40.33912,-22.35963],[40.33644,-22.32049],[40.37973,-22.32391]]],[[[39.72828,-21.44459],[39.7291,-21.44191],[39.73113,-21.44419],[39.72828,-21.44459]]],[[[54.5145,-15.88958],[54.52092,-15.88519],[54.52133,-15.89406],[54.5145,-15.88958]]],[[[47.28793,-11.56552],[47.29957,-11.55063],[47.30641,-11.56992],[47.28793,-11.56552]]]]}}],"admin1":{"type":"FeatureCollection","features":[{"type":"Feature","properties":{"id":"ATF:ADM1:ATF-5916","name":"Kerguelen Islands","countryCode":"ATF"},"geometry":{"type":"MultiPolygon","coordinates":[[[[68.7951,-49.34352],[68.7732,-49.3637],[68.6434,-49.34352],[68.69125,-49.31561],[68.7951,-49.34352]]],[[[68.67075,-48.6242],[68.66798,-48.64528],[68.61012,-48.63763],[68.62599,-48.62982],[68.67075,-48.6242]]],[[[51.83416,-46.37664],[51.8235,-46.45127],[51.65651,-46.37835],[51.73601,-46.32741],[51.83416,-46.37664]]],[[[50.17555,-46.06471],[50.26808,-46.04371],[50.29225,-46.11598],[50.20118,-46.11346],[50.17555,-46.06471]]],[[[40.37973,-22.32391],[40.36866,-22.36256],[40.33912,-22.35963],[40.33644,-22.32049],[40.37973,-22.32391]]],[[[39.7291,-21.44191],[39.73113,-21.44419],[39.72828,-21.44459],[39.7291,-21.44191]]],[[[42.72438,-17.06357],[42.7588,-17.06064],[42.7518,-17.0761],[42.72438,-17.06357]]],[[[54.52133,-15.89406],[54.5145,-15.88958],[54.52092,-15.88519],[54.52133,-15.89406]]],[[[47.30641,-11.56992],[47.28793,-11.56552],[47.29957,-11.55063],[47.30641,-11.56992]]],[[[69.94565,-49.54217],[69.84783,-49.51434],[69.83579,-49.50115],[70.01612,-49.56422],[69.94565,-49.54217]]],[[[70.28834,-49.43914],[70.1399,-49.3388],[69.82228,-49.34979],[69.9253,-49.39129],[69.89845,-49.44313],[69.69191,-49.40447],[69.81381,-49.53249],[70.13697,-49.61785],[70.04908,-49.52044],[70.29591,-49.53037],[70.32398,-49.57448],[70.16481,-49.61785],[70.24431,-49.68548],[69.85564,-49.67913],[69.73854,-49.49879],[69.63722,-49.50457],[69.71502,-49.58172],[69.66391,-49.66497],[69.46974,-49.63144],[69.22739,-49.48846],[69.23194,-49.57301],[69.14381,-49.51434],[69.15064,-49.62412],[69.08546,-49.5403],[69.10402,-49.6443],[69.02564,-49.70989],[68.7645,-49.67498],[68.9017,-49.43109],[68.80649,-49.36582],[68.92408,-49.28826],[68.83611,-49.3034],[68.76433,-49.1889],[68.93092,-49.14495],[68.74879,-49.07675],[68.8274,-49.05413],[68.81324,-48.9651],[68.90309,-48.97471],[68.79176,-48.84629],[68.89682,-48.82285],[69.01564,-48.65456],[69.11647,-48.72666],[68.90821,-48.89398],[69.18881,-48.77305],[69.10906,-48.80853],[69.16375,-48.84612],[68.99977,-49.09043],[69.06813,-49.11077],[69.10572,-48.99342],[69.21453,-49.12127],[69.438,-49.01458],[69.45248,-49.08896],[69.58953,-48.95257],[69.64405,-49.12444],[69.39991,-49.1137],[69.28248,-49.18426],[69.47218,-49.15179],[69.38103,-49.18255],[69.53419,-49.24733],[69.41131,-49.27467],[69.80177,-49.28826],[69.95574,-49.15944],[70.19402,-49.15691],[70.33595,-49.05397],[70.52198,-49.09588],[70.54884,-49.1832],[70.52369,-49.30755],[70.31153,-49.37851],[70.46648,-49.43914],[70.28834,-49.43914]]],[[[69.58953,-49.19964],[69.53419,-49.1928],[69.67807,-49.15179],[69.62403,-49.20827],[69.58953,-49.19964]]],[[[69.2225,-49.09433],[69.19215,-48.98659],[69.34295,-48.88421],[69.31512,-48.9389],[69.41131,-48.92864],[69.2225,-49.09433]]],[[[69.22633,-48.85703],[69.24391,-48.89007],[69.14381,-48.98056],[69.16277,-48.90651],[69.22633,-48.85703]]],[[[69.46599,-48.88421],[69.4284,-48.86444],[69.40447,-48.82903],[69.51987,-48.85703],[69.46599,-48.88421]]],[[[68.78102,-48.58457],[68.81861,-48.56666],[68.8086,-48.60369],[68.78102,-48.58457]]],[[[77.54933,-38.73113],[77.51637,-38.73545],[77.51092,-38.70574],[77.53289,-38.70916],[77.54933,-38.73113]]],[[[77.54396,-37.82024],[77.58522,-37.8742],[77.50465,-37.88242],[77.50375,-37.8235],[77.54396,-37.82024]]]]}}]}}
