{"type":"FeatureCollection","features":[{"type":"Feature","properties":{"id":"ATG:ADM0:82762519B6188713499881","name":"Antigua and Barbuda","countryCode":"ATG","adminLevel":0,"sourceCode":"82762519B6188713499881","parentId":"ATG:ADM1:ATG-5093"},"geometry":{"type":"MultiPolygon","coordinates":[[[[-62.34305,16.94067],[-62.34292,16.93837],[-62.34298,16.93696],[-62.34764,16.93278],[-62.34771,16.93288],[-62.3476,16.93614],[-62.34728,16.93738],[-62.34559,16.93914],[-62.34461,16.9404],[-62.34314,16.94087],[-62.34305,16.94067]]],[[[-61.82278,17.16795],[-61.82056,17.1682],[-61.80014,17.16576],[-61.7995,17.16351],[-61.79013,17.15921],[-61.78767,17.1481],[-61.77953,17.14409],[-61.77645,17.13578],[-61.7808,17.137],[-61.78817,17.12649],[-61.78571,17.12021],[-61.77692,17.12486],[-61.77645,17.11244],[-61.76969,17.11577],[-61.76726,17.11424],[-61.77027,17.11115],[-61.76065,17.11219],[-61.76077,17.11741],[-61.75642,17.11416],[-61.75544,17.12303],[-61.75276,17.12889],[-61.7474,17.13605],[-61.74591,17.13263],[-61.75383,17.12378],[-61.7494,17.1149],[-61.74598,17.12153],[-61.7364,17.12226],[-61.72824,17.12668],[-61.72777,17.12765],[-61.72146,17.1266],[-61.7281,17.11982],[-61.74548,17.11386],[-61.74192,17.11042],[-61.72858,17.11082],[-61.72844,17.11036],[-61.7303,17.10844],[-61.72731,17.10683],[-61.72698,17.10578],[-61.7332,17.09897],[-61.73335,17.08995],[-61.72921,17.09592],[-61.72237,17.09805],[-61.71809,17.09523],[-61.71973,17.09359],[-61.71724,17.09467],[-61.71483,17.09308],[-61.71161,17.09317],[-61.7116,17.09308],[-61.71144,17.09318],[-61.70165,17.09345],[-61.68951,17.0998],[-61.6868,17.10053],[-61.68346,17.10053],[-61.68641,17.0969],[-61.68062,17.1005],[-61.67954,17.09946],[-61.68111,17.0957],[-61.6862,17.0937],[-61.68239,17.09148],[-61.68462,17.08315],[-61.69057,17.08479],[-61.69362,17.09001],[-61.69529,17.08622],[-61.69257,17.0841],[-61.70505,17.08046],[-61.70591,17.07562],[-61.71318,17.07098],[-61.70935,17.06973],[-61.70052,17.07506],[-61.69666,17.06849],[-61.69108,17.06722],[-61.68631,17.06904],[-61.68566,17.06826],[-61.67966,17.06454],[-61.67969,17.06451],[-61.67942,17.06439],[-61.67707,17.06293],[-61.6752,17.06087],[-61.67861,17.05936],[-61.67408,17.05323],[-61.67714,17.04878],[-61.6746,17.04562],[-61.67509,17.04487],[-61.67873,17.04308],[-61.68162,17.04531],[-61.68321,17.04119],[-61.68894,17.04102],[-61.69024,17.03788],[-61.68554,17.03462],[-61.69144,17.03424],[-61.69331,17.03093],[-61.70563,17.03205],[-61.70995,17.03417],[-61.72518,17.0382],[-61.73206,17.04265],[-61.74323,17.04363],[-61.74454,17.03988],[-61.73926,17.02697],[-61.73364,17.022],[-61.73254,17.01626],[-61.73325,17.01276],[-61.73449,17.01623],[-61.73864,17.01401],[-61.73364,17.0049],[-61.73665,17.00186],[-61.73841,17.00587],[-61.74283,17.00669],[-61.73943,17.0037],[-61.74533,16.99879],[-61.75449,16.99765],[-61.75988,17.00235],[-61.75935,17.00337],[-61.7637,17.00962],[-61.76693,17.0098],[-61.76527,17.00705],[-61.76976,17.01097],[-61.77029,17.01153],[-61.76918,17.01226],[-61.7685,17.02004],[-61.77314,17.02198],[-61.78102,17.02046],[-61.78332,17.01698],[-61.7836,17.01691],[-61.79498,17.01157],[-61.79997,17.01421],[-61.80756,17.01452],[-61.8105,17.00931],[-61.83216,17.00487],[-61.83232,17.00487],[-61.83236,17.01573],[-61.83773,17.01244],[-61.84416,17.01351],[-61.84434,17.01688],[-61.85738,17.01778],[-61.86061,17.02261],[-61.87784,17.02288],[-61.88366,17.02627],[-61.89037,17.03539],[-61.88362,17.04902],[-61.87922,17.06045],[-61.8828,17.07022],[-61.88244,17.0788],[-61.8662,17.08686],[-61.87336,17.08955],[-61.87878,17.09241],[-61.87375,17.10225],[-61.87803,17.10567],[-61.89193,17.10254],[-61.88313,17.1105],[-61.86539,17.11782],[-61.85966,17.11946],[-61.84574,17.11803],[-61.84781,17.12285],[-61.84236,17.12442],[-61.85045,17.13764],[-61.84878,17.14948],[-61.83967,17.15986],[-61.82527,17.16877],[-61.82402,17.16862],[-61.82278,17.16795]]],[[[-61.84767,17.72103],[-61.85142,17.71995],[-61.85159,17.72033],[-61.84736,17.72259],[-61.84767,17.72103]]],[[[-61.8483,17.71762],[-61.8458,17.72342],[-61.84086,17.72605],[-61.82103,17.70139],[-61.82371,17.69986],[-61.83107,17.69811],[-61.82859,17.70165],[-61.8324,17.7117],[-61.83905,17.70419],[-61.83497,17.68941],[-61.81618,17.68502],[-61.80793,17.69],[-61.80652,17.69523],[-61.80795,17.69525],[-61.79727,17.6988],[-61.79317,17.69803],[-61.74278,17.64236],[-61.73188,17.60654],[-61.73897,17.56209],[-61.73632,17.55425],[-61.7364,17.55402],[-61.74281,17.55084],[-61.7465,17.55322],[-61.75717,17.55461],[-61.76233,17.54846],[-61.76668,17.54694],[-61.76668,17.55063],[-61.77412,17.56503],[-61.78487,17.57199],[-61.79128,17.57364],[-61.79475,17.57612],[-61.80627,17.58061],[-61.82243,17.59177],[-61.83253,17.59307],[-61.83474,17.59169],[-61.83894,17.59333],[-61.8518,17.58657],[-61.85706,17.60037],[-61.85017,17.62589],[-61.85397,17.64903],[-61.8715,17.68438],[-61.87222,17.68493],[-61.87385,17.69115],[-61.87342,17.70143],[-61.86713,17.70076],[-61.8662,17.69636],[-61.8657,17.69536],[-61.86691,17.68979],[-61.86282,17.68157],[-61.86832,17.68865],[-61.87008,17.68487],[-61.85289,17.65855],[-61.8483,17.62838],[-61.85096,17.60913],[-61.83463,17.60524],[-61.83267,17.6145],[-61.83145,17.61384],[-61.82649,17.63247],[-61.82502,17.65795],[-61.82959,17.67461],[-61.82833,17.67741],[-61.83082,17.68611],[-61.8327,17.68287],[-61.84217,17.69363],[-61.84597,17.69644],[-61.84938,17.69303],[-61.85415,17.69763],[-61.85643,17.70108],[-61.85273,17.71602],[-61.8483,17.71762]]],[[[-61.87338,17.70242],[-61.87304,17.71064],[-61.86937,17.70734],[-61.86849,17.70549],[-61.87338,17.70242]]],[[[-61.82185,17.68966],[-61.81921,17.69218],[-61.81846,17.69192],[-61.82185,17.68966]]]]}}],"admin1":{"type":"FeatureCollection","features":[{"type":"Feature","properties":{"id":"ATG:ADM1:ATG-5093","name":"Saint George","countryCode":"ATG"},"geometry":{"type":"MultiPolygon","coordinates":[[[[-62.34298,16.93696],[-62.34764,16.93278],[-62.34771,16.93288],[-62.3476,16.93614],[-62.34728,16.93738],[-62.34559,16.93914],[-62.34461,16.9404],[-62.34314,16.94087],[-62.34305,16.94067],[-62.34292,16.93837],[-62.34298,16.93696]]],[[[-61.7995,17.16351],[-61.79013,17.15921],[-61.78767,17.1481],[-61.77953,17.14409],[-61.77645,17.13578],[-61.7808,17.137],[-61.78817,17.12649],[-61.78571,17.12021],[-61.77692,17.12486],[-61.77645,17.11244],[-61.76969,17.11577],[-61.76726,17.11424],[-61.77027,17.11115],[-61.76065,17.11219],[-61.76077,17.11741],[-61.75642,17.11416],[-61.75544,17.12303],[-61.75276,17.12889],[-61.7474,17.13605],[-61.74591,17.13263],[-61.75383,17.12378],[-61.7494,17.1149],[-61.74598,17.12153],[-61.7364,17.12226],[-61.72824,17.12668],[-61.72777,17.12765],[-61.72146,17.1266],[-61.7281,17.11982],[-61.74548,17.11386],[-61.74192,17.11042],[-61.72858,17.11082],[-61.72844,17.11036],[-61.7303,17.10844],[-61.72731,17.10683],[-61.72698,17.10578],[-61.7332,17.09897],[-61.73335,17.08995],[-61.72921,17.09592],[-61.72237,17.09805],[-61.71809,17.09523],[-61.71973,17.09359],[-61.71724,17.09467],[-61.71483,17.09308],[-61.71161,17.09317],[-61.7116,17.09308],[-61.71144,17.09318],[-61.70165,17.09345],[-61.68951,17.0998],[-61.6868,17.10053],[-61.68346,17.10053],[-61.68641,17.0969],[-61.68062,17.1005],[-61.67954,17.09946],[-61.68111,17.0957],[-61.6862,17.0937],[-61.68239,17.09148],[-61.68462,17.08315],[-61.69057,17.08479],[-61.69362,17.09001],[-61.69529,17.08622],[-61.69257,17.0841],[-61.70505,17.08046],[-61.70591,17.07562],[-61.71318,17.07098],[-61.70935,17.06973],[-61.70052,17.07506],[-61.69666,17.06849],[-61.69108,17.06722],[-61.68631,17.06904],[-61.68566,17.06826],[-61.67966,17.06454],[-61.67969,17.06451],[-61.67942,17.06439],[-61.67707,17.06293],[-61.6752,17.06087],[-61.67861,17.05936],[-61.67408,17.05323],[-61.67714,17.04878],[-61.6746,17.04562],[-61.67509,17.04487],[-61.67873,17.04308],[-61.68162,17.04531],[-61.68321,17.04119],[-61.68894,17.04102],[-61.69024,17.03788],[-61.68554,17.03462],[-61.69144,17.03424],[-61.69331,17.03093],[-61.70563,17.03205],[-61.70995,17.03417],[-61.72518,17.0382],[-61.73206,17.04265],[-61.74323,17.04363],[-61.74454,17.03988],[-61.73926,17.02697],[-61.73364,17.022],[-61.73254,17.01626],[-61.73325,17.01276],[-61.73449,17.01623],[-61.73864,17.01401],[-61.73364,17.0049],[-61.73665,17.00186],[-61.73841,17.00587],[-61.74283,17.00669],[-61.73943,17.0037],[-61.74533,16.99879],[-61.75449,16.99765],[-61.75988,17.00235],[-61.75935,17.00337],[-61.7637,17.00962],[-61.76693,17.0098],[-61.76527,17.00705],[-61.76976,17.01097],[-61.77029,17.01153],[-61.76918,17.01226],[-61.7685,17.02004],[-61.77314,17.02198],[-61.78102,17.02046],[-61.78332,17.01698],[-61.7836,17.01691],[-61.79498,17.01157],[-61.79997,17.01421],[-61.80756,17.01452],[-61.8105,17.00931],[-61.83216,17.00487],[-61.83232,17.00487],[-61.83236,17.01573],[-61.83773,17.01244],[-61.84416,17.01351],[-61.84434,17.01688],[-61.85738,17.01778],[-61.86061,17.02261],[-61.87784,17.02288],[-61.88366,17.02627],[-61.89037,17.03539],[-61.88362,17.04902],[-61.87922,17.06045],[-61.8828,17.07022],[-61.88244,17.0788],[-61.8662,17.08686],[-61.87336,17.08955],[-61.87878,17.09241],[-61.87375,17.10225],[-61.87803,17.10567],[-61.89193,17.10254],[-61.88313,17.1105],[-61.86539,17.11782],[-61.85966,17.11946],[-61.84574,17.11803],[-61.84781,17.12285],[-61.84236,17.12442],[-61.85045,17.13764],[-61.84878,17.14948],[-61.83967,17.15986],[-61.82527,17.16877],[-61.82402,17.16862],[-61.82278,17.16795],[-61.82056,17.1682],[-61.80014,17.16576],[-61.7995,17.16351]]],[[[-61.82103,17.70139],[-61.82371,17.69986],[-61.83107,17.69811],[-61.82859,17.70165],[-61.8324,17.7117],[-61.83905,17.70419],[-61.83497,17.68941],[-61.81618,17.68502],[-61.80793,17.69],[-61.80652,17.69523],[-61.80795,17.69525],[-61.79727,17.6988],[-61.79317,17.69803],[-61.74278,17.64236],[-61.73188,17.60654],[-61.73897,17.56209],[-61.73632,17.55425],[-61.7364,17.55402],[-61.74281,17.55084],[-61.7465,17.55322],[-61.75717,17.55461],[-61.76233,17.54846],[-61.76668,17.54694],[-61.76668,17.55063],[-61.77412,17.56503],[-61.78487,17.57199],[-61.79128,17.57364],[-61.79475,17.57612],[-61.80627,17.58061],[-61.82243,17.59177],[-61.83253,17.59307],[-61.83474,17.59169],[-61.83894,17.59333],[-61.8518,17.58657],[-61.85706,17.60037],[-61.85017,17.62589],[-61.85397,17.64903],[-61.8715,17.68438],[-61.87222,17.68493],[-61.87385,17.69115],[-61.87342,17.70143],[-61.86713,17.70076],[-61.8662,17.69636],[-61.8657,17.69536],[-61.86691,17.68979],[-61.86282,17.68157],[-61.86832,17.68865],[-61.87008,17.68487],[-61.85289,17.65855],[-61.8483,17.62838],[-61.85096,17.60913],[-61.83463,17.60524],[-61.83267,17.6145],[-61.83145,17.61384],[-61.82649,17.63247],[-61.82502,17.65795],[-61.82959,17.67461],[-61.82833,17.67741],[-61.83082,17.68611],[-61.8327,17.68287],[-61.84217,17.69363],[-61.84597,17.69644],[-61.84938,17.69303],[-61.85415,17.69763],[-61.85643,17.70108],[-61.85273,17.71602],[-61.8483,17.71762],[-61.8458,17.72342],[-61.84086,17.72605],[-61.82103,17.70139]]],[[[-61.81846,17.69192],[-61.82185,17.68966],[-61.81921,17.69218],[-61.81846,17.69192]]],[[[-61.86849,17.70549],[-61.87338,17.70242],[-61.87304,17.71064],[-61.86937,17.70734],[-61.86849,17.70549]]],[[[-61.84736,17.72259],[-61.84767,17.72103],[-61.85142,17.71995],[-61.85159,17.72033],[-61.84736,17.72259]]]]}}]}}
