{"type":"FeatureCollection","features":[{"type":"Feature","properties":{"id":"BES:ADM0:37138078B82443122169729","name":"Bonaire, Sint Eustatius, and Saba","countryCode":"BES","adminLevel":0,"sourceCode":"37138078B82443122169729"},"geometry":{"type":"MultiPolygon","coordinates":[[[[-68.24459,12.03088],[-68.24747,12.03044],[-68.24655,12.03143],[-68.24459,12.03088]]],[[[-68.25343,12.03129],[-68.25012,12.02559],[-68.25968,12.03379],[-68.25597,12.03182],[-68.25343,12.03129]]],[[[-68.24888,12.03842],[-68.24843,12.04165],[-68.24615,12.04064],[-68.24664,12.03786],[-68.24888,12.03842]]],[[[-68.2337,12.03619],[-68.2373,12.03214],[-68.24406,12.03106],[-68.23736,12.03865],[-68.23921,12.04324],[-68.23656,12.04088],[-68.2337,12.03619]]],[[[-68.23324,12.04197],[-68.2366,12.04418],[-68.23198,12.04676],[-68.23324,12.04197]]],[[[-68.26482,12.04304],[-68.2611,12.03447],[-68.26971,12.04954],[-68.26482,12.04304]]],[[[-68.2499,12.0591],[-68.25023,12.06393],[-68.24739,12.06214],[-68.24811,12.05927],[-68.2499,12.0591]]],[[[-68.23282,12.06384],[-68.23635,12.06349],[-68.23672,12.06632],[-68.23184,12.06699],[-68.23282,12.06384]]],[[[-68.24999,12.06974],[-68.2483,12.07059],[-68.24936,12.06878],[-68.24999,12.06974]]],[[[-68.2411,12.07381],[-68.23915,12.07291],[-68.24083,12.07194],[-68.2411,12.07381]]],[[[-68.26275,12.07304],[-68.26883,12.07225],[-68.26899,12.07326],[-68.26528,12.07489],[-68.26275,12.07304]]],[[[-68.24733,12.07634],[-68.23868,12.06913],[-68.23894,12.06474],[-68.24178,12.06457],[-68.24299,12.07051],[-68.2483,12.07546],[-68.25143,12.08281],[-68.249,12.08286],[-68.24733,12.07634]]],[[[-68.27092,12.08092],[-68.28089,12.08259],[-68.28007,12.07811],[-68.28181,12.08461],[-68.2703,12.08536],[-68.27092,12.08092]]],[[[-68.25575,12.08863],[-68.25274,12.08753],[-68.25341,12.08649],[-68.25575,12.08863]]],[[[-68.25718,12.08948],[-68.2623,12.09096],[-68.26126,12.09101],[-68.25718,12.08948]]],[[[-68.28152,12.10107],[-68.27966,12.10265],[-68.27961,12.10126],[-68.28152,12.10107]]],[[[-68.35757,12.29557],[-68.3481,12.27954],[-68.31085,12.25309],[-68.28578,12.24397],[-68.27995,12.23493],[-68.2647,12.23465],[-68.2271,12.22463],[-68.20827,12.22569],[-68.20786,12.22548],[-68.20466,12.22321],[-68.19615,12.21566],[-68.19601,12.21263],[-68.20687,12.19818],[-68.20768,12.19376],[-68.21085,12.19009],[-68.20989,12.18322],[-68.22131,12.18118],[-68.21787,12.17879],[-68.21382,12.18178],[-68.20954,12.18044],[-68.21,12.17348],[-68.20842,12.17255],[-68.2036,12.13776],[-68.20531,12.11823],[-68.21394,12.1118],[-68.22076,12.11141],[-68.22071,12.11171],[-68.2214,12.11137],[-68.22365,12.11124],[-68.22333,12.1146],[-68.2292,12.11407],[-68.23477,12.10833],[-68.23884,12.10456],[-68.23882,12.10417],[-68.24233,12.10056],[-68.24181,12.0926],[-68.23922,12.09105],[-68.23756,12.09372],[-68.22834,12.06997],[-68.22582,12.06025],[-68.22613,12.0585],[-68.23175,12.06807],[-68.23786,12.06687],[-68.23654,12.06879],[-68.24002,12.0717],[-68.23715,12.07381],[-68.24612,12.07874],[-68.24468,12.08307],[-68.25223,12.08855],[-68.26093,12.09199],[-68.25345,12.09254],[-68.25631,12.09651],[-68.26387,12.0997],[-68.27443,12.09619],[-68.27303,12.10405],[-68.28193,12.10773],[-68.28574,12.10267],[-68.28388,12.09565],[-68.28637,12.09958],[-68.28726,12.1083],[-68.28414,12.13034],[-68.27542,12.13577],[-68.27847,12.13548],[-68.27588,12.14319],[-68.27939,12.15651],[-68.28271,12.16192],[-68.28341,12.16473],[-68.28,12.16772],[-68.28329,12.16747],[-68.28358,12.16542],[-68.28726,12.18032],[-68.30256,12.20295],[-68.32128,12.21385],[-68.34114,12.21689],[-68.34471,12.21797],[-68.35605,12.22096],[-68.36687,12.22081],[-68.36978,12.22126],[-68.37542,12.22292],[-68.37236,12.22674],[-68.37301,12.2319],[-68.36831,12.23449],[-68.36844,12.24032],[-68.3699,12.23886],[-68.37104,12.2432],[-68.3769,12.24674],[-68.38031,12.24491],[-68.38373,12.24735],[-68.38198,12.23834],[-68.37466,12.23303],[-68.37606,12.22311],[-68.39184,12.22777],[-68.41071,12.2403],[-68.41316,12.24644],[-68.40702,12.24654],[-68.40952,12.24836],[-68.41322,12.24658],[-68.41739,12.25703],[-68.41337,12.26259],[-68.41111,12.25978],[-68.40905,12.26146],[-68.40977,12.25415],[-68.40451,12.25438],[-68.40592,12.25878],[-68.40185,12.25613],[-68.4041,12.26138],[-68.40028,12.26004],[-68.40106,12.26343],[-68.39777,12.26372],[-68.40125,12.26533],[-68.40665,12.26271],[-68.41078,12.26618],[-68.4087,12.26905],[-68.40832,12.26912],[-68.40831,12.26959],[-68.40331,12.27652],[-68.41072,12.28267],[-68.41073,12.28277],[-68.40648,12.29462],[-68.40219,12.30115],[-68.39671,12.30621],[-68.39027,12.3102],[-68.38159,12.3101],[-68.36858,12.30588],[-68.36299,12.30297],[-68.35757,12.29557]],[[-68.39439,12.29635],[-68.38891,12.2985],[-68.3917,12.30105],[-68.39425,12.29939],[-68.39754,12.30383],[-68.39439,12.29635]],[[-68.35825,12.27751],[-68.35474,12.27341],[-68.34998,12.27746],[-68.35478,12.27944],[-68.35825,12.27751]],[[-68.21585,12.17004],[-68.21698,12.172],[-68.2168,12.17016],[-68.21585,12.17004]],[[-68.26922,12.14022],[-68.27222,12.14208],[-68.27147,12.13921],[-68.26922,12.14022]],[[-68.27362,12.13641],[-68.27151,12.13558],[-68.27085,12.13679],[-68.27219,12.13725],[-68.27362,12.13641]],[[-68.23459,12.1239],[-68.23935,12.12049],[-68.22317,12.11905],[-68.2267,12.12354],[-68.23459,12.1239]],[[-68.26444,12.11891],[-68.26306,12.11734],[-68.26282,12.11825],[-68.26444,12.11891]],[[-68.21896,12.11276],[-68.21793,12.11388],[-68.22012,12.11474],[-68.21896,12.11276]],[[-68.23994,12.08962],[-68.23584,12.08923],[-68.23773,12.09129],[-68.23994,12.08962]],[[-68.23396,12.07261],[-68.23394,12.07488],[-68.23631,12.07418],[-68.23396,12.07261]]],[[[-68.23086,12.04491],[-68.22692,12.05414],[-68.22753,12.05073],[-68.22954,12.04477],[-68.23086,12.04491]]],[[[-68.23303,12.04114],[-68.2308,12.04105],[-68.23184,12.03799],[-68.23278,12.03607],[-68.23303,12.04114]]],[[[-68.23399,12.03358],[-68.23482,12.03188],[-68.23946,12.02685],[-68.24662,12.02527],[-68.23399,12.03358]]]]}}],"admin1":{"type":"FeatureCollection","features":[]}}
