{"type":"FeatureCollection","features":[{"type":"Feature","properties":{"id":"BHR:ADM0:88433195B15643945511679","name":"Bahrain","countryCode":"BHR","adminLevel":0,"sourceCode":"88433195B15643945511679","parentId":"BHR:ADM1:BHR-4926"},"geometry":{"type":"MultiPolygon","coordinates":[[[[50.78851,25.64349],[50.7882,25.64371],[50.78823,25.64381],[50.78507,25.64824],[50.78697,25.65267],[50.7933,25.65204],[50.79334,25.65203],[50.79319,25.65147],[50.80495,25.65056],[50.81165,25.6495],[50.81671,25.64444],[50.81544,25.63685],[50.81211,25.6324],[50.80417,25.63397],[50.80279,25.63432],[50.79583,25.63305],[50.79076,25.63052],[50.78633,25.63875],[50.78678,25.63994],[50.78851,25.64349]]],[[[50.80551,25.67921],[50.81988,25.67861],[50.81706,25.67018],[50.81048,25.66732],[50.80861,25.66414],[50.80848,25.66406],[50.80405,25.66975],[50.80216,25.67482],[50.80364,25.67742],[50.80551,25.67921]]],[[[50.79448,25.72637],[50.79733,25.72936],[50.80089,25.73114],[50.80089,25.72832],[50.79633,25.72405],[50.797,25.71414],[50.79076,25.70583],[50.7887,25.70342],[50.78387,25.70216],[50.78132,25.69598],[50.78459,25.69572],[50.78823,25.69254],[50.78826,25.69251],[50.78886,25.6893],[50.7919,25.68887],[50.79583,25.68494],[50.793,25.68118],[50.79111,25.68007],[50.78884,25.68055],[50.78958,25.68158],[50.78149,25.68247],[50.78111,25.68218],[50.78001,25.68241],[50.77431,25.67861],[50.77006,25.67502],[50.76786,25.6782],[50.76532,25.67318],[50.75907,25.67124],[50.75809,25.66686],[50.76479,25.65246],[50.7684,25.65247],[50.77187,25.64812],[50.77614,25.63872],[50.77266,25.63745],[50.77248,25.6378],[50.76709,25.63715],[50.76242,25.62955],[50.76469,25.62493],[50.76418,25.62166],[50.76443,25.6215],[50.75805,25.61462],[50.7692,25.61831],[50.76988,25.61786],[50.77431,25.61217],[50.76823,25.60669],[50.76205,25.60368],[50.76274,25.59832],[50.76229,25.59761],[50.76118,25.59568],[50.75484,25.58579],[50.75961,25.58278],[50.75975,25.58242],[50.75661,25.57991],[50.756,25.58015],[50.74817,25.58363],[50.7429,25.58822],[50.74034,25.59184],[50.73996,25.59855],[50.74862,25.61279],[50.74795,25.61884],[50.749,25.62103],[50.74836,25.63052],[50.74836,25.63437],[50.74972,25.63993],[50.74836,25.64268],[50.74836,25.64444],[50.74666,25.64615],[50.74547,25.64857],[50.74414,25.64867],[50.74245,25.65035],[50.74154,25.65159],[50.74135,25.65146],[50.74084,25.65196],[50.74114,25.65224],[50.73956,25.65412],[50.74009,25.66153],[50.74123,25.66311],[50.7408,25.66847],[50.7414,25.67419],[50.74364,25.68201],[50.74497,25.68419],[50.74445,25.68485],[50.7452,25.68747],[50.74691,25.68993],[50.76916,25.71707],[50.77329,25.72074],[50.78568,25.71838],[50.78471,25.72189],[50.79076,25.72608],[50.79211,25.72675],[50.79448,25.72637]]],[[[50.77665,25.7531],[50.78317,25.75582],[50.78892,25.7553],[50.79027,25.75452],[50.7913,25.74937],[50.78037,25.74547],[50.77567,25.75251],[50.77665,25.7531]]],[[[50.62948,26.1186],[50.61609,26.14157],[50.61734,26.1501],[50.60449,26.15447],[50.60325,26.16424],[50.59988,26.16763],[50.60487,26.17473],[50.6199,26.18547],[50.62264,26.17908],[50.62115,26.17763],[50.62298,26.17827],[50.6248,26.17404],[50.62386,26.17411],[50.62642,26.17015],[50.6294,26.15922],[50.62933,26.15522],[50.62484,26.15395],[50.62826,26.1448],[50.63273,26.14701],[50.63278,26.14682],[50.64566,26.14575],[50.64021,26.13964],[50.63847,26.14266],[50.62985,26.13681],[50.62997,26.13314],[50.63376,26.13178],[50.63104,26.13097],[50.63385,26.13043],[50.63116,26.12997],[50.63161,26.12382],[50.63507,26.12033],[50.63493,26.11569],[50.63008,26.1146],[50.62948,26.1186]]],[[[50.39562,26.17192],[50.39685,26.17387],[50.3977,26.17473],[50.40844,26.17151],[50.41917,26.16614],[50.41917,26.15914],[50.41763,26.15586],[50.41864,26.13619],[50.42123,26.13563],[50.42132,26.13502],[50.42226,26.12844],[50.42165,26.12676],[50.42311,26.1225],[50.42345,26.12009],[50.414,26.12399],[50.40966,26.12324],[50.40522,26.12428],[50.38736,26.12329],[50.38577,26.12359],[50.38497,26.12599],[50.38624,26.13097],[50.38241,26.13366],[50.38175,26.13565],[50.38276,26.14151],[50.38093,26.14314],[50.38258,26.15884],[50.38366,26.16004],[50.38329,26.16032],[50.38828,26.16531],[50.39715,26.17089],[50.39486,26.17188],[50.39514,26.17216],[50.39562,26.17192]]],[[[50.56341,26.23333],[50.5701,26.23568],[50.56994,26.23651],[50.58668,26.2425],[50.59327,26.23859],[50.59742,26.22553],[50.59918,26.22336],[50.59898,26.22334],[50.59928,26.22324],[50.60475,26.2165],[50.60694,26.21239],[50.60914,26.20828],[50.60415,26.19884],[50.59223,26.19553],[50.58864,26.19598],[50.58382,26.20102],[50.56845,26.19977],[50.56745,26.2028],[50.56334,26.19813],[50.55161,26.19424],[50.566,26.18292],[50.56618,26.17936],[50.57593,26.17248],[50.57833,26.16657],[50.59003,26.16082],[50.59528,26.15101],[50.60244,26.15151],[50.60239,26.14756],[50.61066,26.14899],[50.61519,26.14478],[50.61896,26.1267],[50.62506,26.12192],[50.62314,26.12102],[50.62668,26.11553],[50.62874,26.11646],[50.62928,26.11442],[50.62771,26.11407],[50.62752,26.11431],[50.62766,26.11406],[50.61476,26.11115],[50.61942,26.06485],[50.61853,26.06057],[50.62052,26.04918],[50.61927,25.99881],[50.61844,25.99393],[50.61913,25.99341],[50.61909,25.99172],[50.61817,25.99174],[50.61788,25.97669],[50.61434,25.97295],[50.61858,25.97136],[50.61857,25.97084],[50.613,25.97036],[50.61425,25.95069],[50.61652,25.95068],[50.61638,25.94963],[50.61283,25.94902],[50.61137,25.93879],[50.61418,25.93518],[50.60537,25.91206],[50.61129,25.91199],[50.61098,25.90968],[50.60957,25.90919],[50.60479,25.878],[50.60601,25.8729],[50.60539,25.86834],[50.60419,25.8673],[50.60372,25.8643],[50.60467,25.86302],[50.60353,25.85456],[50.6032,25.85376],[50.59524,25.85231],[50.59826,25.85061],[50.59365,25.84791],[50.60119,25.84891],[50.59942,25.84463],[50.59454,25.8432],[50.59583,25.83595],[50.59449,25.83271],[50.59435,25.8325],[50.59099,25.83683],[50.59014,25.83013],[50.58735,25.83],[50.59129,25.82824],[50.58878,25.82671],[50.58933,25.82507],[50.5885,25.82383],[50.58379,25.82566],[50.58752,25.83049],[50.58382,25.82851],[50.58347,25.82502],[50.58625,25.82249],[50.58748,25.82233],[50.58606,25.82022],[50.58164,25.82186],[50.56822,25.8096],[50.56522,25.80257],[50.56801,25.7935],[50.56782,25.79322],[50.56154,25.80647],[50.5586,25.81977],[50.5498,25.8454],[50.54866,25.85212],[50.54499,25.85748],[50.53142,25.88524],[50.5114,25.91303],[50.46778,25.95759],[50.46046,25.9853],[50.46988,26.00148],[50.47151,26.00353],[50.4715,26.00427],[50.47999,26.01887],[50.48544,26.03343],[50.4909,26.048],[50.4852,26.08564],[50.46998,26.12263],[50.45297,26.14956],[50.4489,26.16161],[50.44924,26.17013],[50.45066,26.1716],[50.4493,26.17146],[50.44931,26.17192],[50.44984,26.17199],[50.44932,26.17199],[50.44951,26.1769],[50.45111,26.18098],[50.45399,26.18078],[50.45501,26.20015],[50.46119,26.22525],[50.46512,26.23149],[50.4723,26.2347],[50.47062,26.23253],[50.5093,26.23594],[50.51365,26.23889],[50.50943,26.23587],[50.51929,26.23728],[50.52175,26.23457],[50.52344,26.23678],[50.5324,26.2331],[50.54542,26.22773],[50.56299,26.23402],[50.56341,26.23333]]],[[[50.47157,26.236],[50.46656,26.23378],[50.46852,26.23688],[50.47374,26.23918],[50.47157,26.236]]],[[[50.60422,25.86439],[50.60512,25.86633],[50.60479,25.8639],[50.60422,25.86439]]],[[[50.61719,26.28252],[50.6172,26.28314],[50.63278,26.28744],[50.65532,26.2767],[50.65639,26.26168],[50.65639,26.24665],[50.65924,26.243],[50.65843,26.23544],[50.66068,26.2338],[50.65843,26.23133],[50.66641,26.23132],[50.66665,26.22594],[50.67549,26.22563],[50.6843,26.22196],[50.67894,26.20801],[50.67357,26.20264],[50.65747,26.21123],[50.65544,26.21781],[50.65548,26.2178],[50.65507,26.22264],[50.65391,26.22278],[50.65317,26.22518],[50.64976,26.23405],[50.65048,26.23411],[50.64807,26.23845],[50.64781,26.23914],[50.64506,26.23977],[50.64806,26.24403],[50.64472,26.24538],[50.64235,26.24202],[50.64193,26.24736],[50.63415,26.24399],[50.6351,26.24207],[50.63418,26.24228],[50.634,26.2433],[50.6272,26.24465],[50.62867,26.24874],[50.62446,26.25328],[50.62458,26.25862],[50.6337,26.26208],[50.62303,26.26385],[50.6245,26.25791],[50.6207,26.24993],[50.62199,26.24621],[50.62124,26.24446],[50.62117,26.24447],[50.62178,26.24602],[50.6196,26.24678],[50.61878,26.24368],[50.61727,26.24312],[50.61235,26.24134],[50.60295,26.25701],[50.60274,26.25878],[50.60179,26.25894],[50.5995,26.26275],[50.60165,26.27885],[50.60855,26.28076],[50.61032,26.27978],[50.61101,26.28143],[50.61582,26.28276],[50.61719,26.28252]]],[[[50.64023,26.24419],[50.63829,26.24133],[50.6355,26.24198],[50.64023,26.24419]]]]}}],"admin1":{"type":"FeatureCollection","features":[{"type":"Feature","properties":{"id":"BHR:ADM1:BHR-4926","name":"Southern","countryCode":"BHR"},"geometry":{"type":"MultiPolygon","coordinates":[[[[50.60422,25.86439],[50.60512,25.86633],[50.60479,25.8639],[50.60422,25.86439]]],[[[50.58668,26.2425],[50.59327,26.23859],[50.59742,26.22553],[50.59918,26.22336],[50.59898,26.22334],[50.59928,26.22324],[50.60475,26.2165],[50.60694,26.21239],[50.60914,26.20828],[50.60415,26.19884],[50.59223,26.19553],[50.58864,26.19598],[50.58382,26.20102],[50.56845,26.19977],[50.56745,26.2028],[50.56334,26.19813],[50.55161,26.19424],[50.566,26.18292],[50.56618,26.17936],[50.57593,26.17248],[50.57833,26.16657],[50.59003,26.16082],[50.59528,26.15101],[50.60244,26.15151],[50.60239,26.14756],[50.61066,26.14899],[50.61519,26.14478],[50.61896,26.1267],[50.62506,26.12192],[50.62314,26.12102],[50.62668,26.11553],[50.62874,26.11646],[50.62928,26.11442],[50.62771,26.11407],[50.62752,26.11431],[50.62766,26.11406],[50.61476,26.11115],[50.61942,26.06485],[50.61853,26.06057],[50.62052,26.04918],[50.61927,25.99881],[50.61844,25.99393],[50.61913,25.99341],[50.61909,25.99172],[50.61817,25.99174],[50.61788,25.97669],[50.61434,25.97295],[50.61858,25.97136],[50.61857,25.97084],[50.613,25.97036],[50.61425,25.95069],[50.61652,25.95068],[50.61638,25.94963],[50.61283,25.94902],[50.61137,25.93879],[50.61418,25.93518],[50.60537,25.91206],[50.61129,25.91199],[50.61098,25.90968],[50.60957,25.90919],[50.60479,25.878],[50.60601,25.8729],[50.60539,25.86834],[50.60419,25.8673],[50.60372,25.8643],[50.60467,25.86302],[50.60353,25.85456],[50.6032,25.85376],[50.59524,25.85231],[50.59826,25.85061],[50.59365,25.84791],[50.60119,25.84891],[50.59942,25.84463],[50.59454,25.8432],[50.59583,25.83595],[50.59449,25.83271],[50.59435,25.8325],[50.59099,25.83683],[50.59014,25.83013],[50.58735,25.83],[50.59129,25.82824],[50.58878,25.82671],[50.58933,25.82507],[50.5885,25.82383],[50.58379,25.82566],[50.58752,25.83049],[50.58382,25.82851],[50.58347,25.82502],[50.58625,25.82249],[50.58748,25.82233],[50.58606,25.82022],[50.58164,25.82186],[50.56822,25.8096],[50.56522,25.80257],[50.56801,25.7935],[50.56782,25.79322],[50.56154,25.80647],[50.5586,25.81977],[50.5498,25.8454],[50.54866,25.85212],[50.54499,25.85748],[50.53142,25.88524],[50.5114,25.91303],[50.46778,25.95759],[50.46046,25.9853],[50.46988,26.00148],[50.47151,26.00353],[50.4715,26.00427],[50.47999,26.01887],[50.48544,26.03343],[50.4909,26.048],[50.4852,26.08564],[50.46998,26.12263],[50.45297,26.14956],[50.4489,26.16161],[50.44924,26.17013],[50.45066,26.1716],[50.4493,26.17146],[50.44931,26.17192],[50.44984,26.17199],[50.44932,26.17199],[50.44951,26.1769],[50.45111,26.18098],[50.45399,26.18078],[50.45501,26.20015],[50.46119,26.22525],[50.46512,26.23149],[50.4723,26.2347],[50.47062,26.23253],[50.5093,26.23594],[50.51365,26.23889],[50.50943,26.23587],[50.51929,26.23728],[50.52175,26.23457],[50.52344,26.23678],[50.5324,26.2331],[50.54542,26.22773],[50.56299,26.23402],[50.56341,26.23333],[50.5701,26.23568],[50.56994,26.23651],[50.58668,26.2425]]],[[[50.40844,26.17151],[50.41917,26.16614],[50.41917,26.15914],[50.41763,26.15586],[50.41864,26.13619],[50.42123,26.13563],[50.42132,26.13502],[50.42226,26.12844],[50.42165,26.12676],[50.42311,26.1225],[50.42345,26.12009],[50.414,26.12399],[50.40966,26.12324],[50.40522,26.12428],[50.38736,26.12329],[50.38577,26.12359],[50.38497,26.12599],[50.38624,26.13097],[50.38241,26.13366],[50.38175,26.13565],[50.38276,26.14151],[50.38093,26.14314],[50.38258,26.15884],[50.38366,26.16004],[50.38329,26.16032],[50.38828,26.16531],[50.39715,26.17089],[50.39486,26.17188],[50.39514,26.17216],[50.39562,26.17192],[50.39685,26.17387],[50.3977,26.17473],[50.40844,26.17151]]],[[[50.60325,26.16424],[50.59988,26.16763],[50.60487,26.17473],[50.6199,26.18547],[50.62264,26.17908],[50.62115,26.17763],[50.62298,26.17827],[50.6248,26.17404],[50.62386,26.17411],[50.62642,26.17015],[50.6294,26.15922],[50.62933,26.15522],[50.62484,26.15395],[50.62826,26.1448],[50.63273,26.14701],[50.63278,26.14682],[50.64566,26.14575],[50.64021,26.13964],[50.63847,26.14266],[50.62985,26.13681],[50.62997,26.13314],[50.63376,26.13178],[50.63104,26.13097],[50.63385,26.13043],[50.63116,26.12997],[50.63161,26.12382],[50.63507,26.12033],[50.63493,26.11569],[50.63008,26.1146],[50.62948,26.1186],[50.61609,26.14157],[50.61734,26.1501],[50.60449,26.15447],[50.60325,26.16424]]],[[[50.47157,26.236],[50.46656,26.23378],[50.46852,26.23688],[50.47374,26.23918],[50.47157,26.236]]],[[[50.64023,26.24419],[50.63829,26.24133],[50.6355,26.24198],[50.64023,26.24419]]],[[[50.78697,25.65267],[50.7933,25.65204],[50.79334,25.65203],[50.79319,25.65147],[50.80495,25.65056],[50.81165,25.6495],[50.81671,25.64444],[50.81544,25.63685],[50.81211,25.6324],[50.80417,25.63397],[50.80279,25.63432],[50.79583,25.63305],[50.79076,25.63052],[50.78633,25.63875],[50.78678,25.63994],[50.78851,25.64349],[50.7882,25.64371],[50.78823,25.64381],[50.78507,25.64824],[50.78697,25.65267]]],[[[50.79633,25.72405],[50.797,25.71414],[50.79076,25.70583],[50.7887,25.70342],[50.78387,25.70216],[50.78132,25.69598],[50.78459,25.69572],[50.78823,25.69254],[50.78826,25.69251],[50.78886,25.6893],[50.7919,25.68887],[50.79583,25.68494],[50.793,25.68118],[50.79111,25.68007],[50.78884,25.68055],[50.78958,25.68158],[50.78149,25.68247],[50.78111,25.68218],[50.78001,25.68241],[50.77431,25.67861],[50.77006,25.67502],[50.76786,25.6782],[50.76532,25.67318],[50.75907,25.67124],[50.75809,25.66686],[50.76479,25.65246],[50.7684,25.65247],[50.77187,25.64812],[50.77614,25.63872],[50.77266,25.63745],[50.77248,25.6378],[50.76709,25.63715],[50.76242,25.62955],[50.76469,25.62493],[50.76418,25.62166],[50.76443,25.6215],[50.75805,25.61462],[50.7692,25.61831],[50.76988,25.61786],[50.77431,25.61217],[50.76823,25.60669],[50.76205,25.60368],[50.76274,25.59832],[50.76229,25.59761],[50.76118,25.59568],[50.75484,25.58579],[50.75961,25.58278],[50.75975,25.58242],[50.75661,25.57991],[50.756,25.58015],[50.74817,25.58363],[50.7429,25.58822],[50.74034,25.59184],[50.73996,25.59855],[50.74862,25.61279],[50.74795,25.61884],[50.749,25.62103],[50.74836,25.63052],[50.74836,25.63437],[50.74972,25.63993],[50.74836,25.64268],[50.74836,25.64444],[50.74666,25.64615],[50.74547,25.64857],[50.74414,25.64867],[50.74245,25.65035],[50.74154,25.65159],[50.74135,25.65146],[50.74084,25.65196],[50.74114,25.65224],[50.73956,25.65412],[50.74009,25.66153],[50.74123,25.66311],[50.7408,25.66847],[50.7414,25.67419],[50.74364,25.68201],[50.74497,25.68419],[50.74445,25.68485],[50.7452,25.68747],[50.74691,25.68993],[50.76916,25.71707],[50.77329,25.72074],[50.78568,25.71838],[50.78471,25.72189],[50.79076,25.72608],[50.79211,25.72675],[50.79448,25.72637],[50.79733,25.72936],[50.80089,25.73114],[50.80089,25.72832],[50.79633,25.72405]]],[[[50.81048,25.66732],[50.80861,25.66414],[50.80848,25.66406],[50.80405,25.66975],[50.80216,25.67482],[50.80364,25.67742],[50.80551,25.67921],[50.81988,25.67861],[50.81706,25.67018],[50.81048,25.66732]]],[[[50.7913,25.74937],[50.78037,25.74547],[50.77567,25.75251],[50.77665,25.7531],[50.78317,25.75582],[50.78892,25.7553],[50.79027,25.75452],[50.7913,25.74937]]],[[[50.65639,26.26168],[50.65639,26.24665],[50.65924,26.243],[50.65843,26.23544],[50.66068,26.2338],[50.65843,26.23133],[50.66641,26.23132],[50.66665,26.22594],[50.67549,26.22563],[50.6843,26.22196],[50.67894,26.20801],[50.67357,26.20264],[50.65747,26.21123],[50.65544,26.21781],[50.65548,26.2178],[50.65507,26.22264],[50.65391,26.22278],[50.65317,26.22518],[50.64976,26.23405],[50.65048,26.23411],[50.64807,26.23845],[50.64781,26.23914],[50.64506,26.23977],[50.64806,26.24403],[50.64472,26.24538],[50.64235,26.24202],[50.64193,26.24736],[50.63415,26.24399],[50.6351,26.24207],[50.63418,26.24228],[50.634,26.2433],[50.6272,26.24465],[50.62867,26.24874],[50.62446,26.25328],[50.62458,26.25862],[50.6337,26.26208],[50.62303,26.26385],[50.6245,26.25791],[50.6207,26.24993],[50.62199,26.24621],[50.62124,26.24446],[50.62117,26.24447],[50.62178,26.24602],[50.6196,26.24678],[50.61878,26.24368],[50.61727,26.24312],[50.61235,26.24134],[50.60295,26.25701],[50.60274,26.25878],[50.60179,26.25894],[50.5995,26.26275],[50.60165,26.27885],[50.60855,26.28076],[50.61032,26.27978],[50.61101,26.28143],[50.61582,26.28276],[50.61719,26.28252],[50.6172,26.28314],[50.63278,26.28744],[50.65532,26.2767],[50.65639,26.26168]]]]}}]}}
