{"type":"FeatureCollection","features":[{"type":"Feature","properties":{"id":"BLM:ADM0:10240690B22283724922601","name":"Saint Barthelemy","countryCode":"BLM","adminLevel":0,"sourceCode":"10240690B22283724922601","parentId":"BLM:ADM1:BLM-5113"},"geometry":{"type":"Polygon","coordinates":[[[-62.85294,17.89519],[-62.85323,17.89871],[-62.84869,17.89608],[-62.85257,17.90426],[-62.86469,17.9138],[-62.86734,17.9204],[-62.86683,17.92406],[-62.86347,17.91956],[-62.8506,17.92192],[-62.8487,17.91718],[-62.84423,17.91682],[-62.8447,17.91279],[-62.83695,17.90281],[-62.82835,17.90932],[-62.82103,17.90792],[-62.81471,17.91883],[-62.81464,17.91882],[-62.81278,17.91549],[-62.80737,17.91486],[-62.80899,17.91039],[-62.80236,17.91356],[-62.80364,17.91058],[-62.80084,17.90834],[-62.79718,17.91185],[-62.79631,17.90845],[-62.79894,17.90449],[-62.81013,17.89228],[-62.81804,17.88707],[-62.81927,17.88821],[-62.82469,17.88317],[-62.82977,17.88275],[-62.83221,17.88516],[-62.83517,17.88229],[-62.83886,17.88199],[-62.84503,17.88631],[-62.85294,17.89519]]]}}],"admin1":{"type":"FeatureCollection","features":[{"type":"Feature","properties":{"id":"BLM:ADM1:BLM-5113","name":"Saint Barthélemy","countryCode":"BLM"},"geometry":{"type":"Polygon","coordinates":[[[-62.85294,17.89519],[-62.85323,17.89871],[-62.84869,17.89608],[-62.85257,17.90426],[-62.86469,17.9138],[-62.86734,17.9204],[-62.86683,17.92406],[-62.86347,17.91956],[-62.8506,17.92192],[-62.8487,17.91718],[-62.84423,17.91682],[-62.8447,17.91279],[-62.83695,17.90281],[-62.82835,17.90932],[-62.82103,17.90792],[-62.81471,17.91883],[-62.81464,17.91882],[-62.81278,17.91549],[-62.80737,17.91486],[-62.80899,17.91039],[-62.80236,17.91356],[-62.80364,17.91058],[-62.80084,17.90834],[-62.79718,17.91185],[-62.79631,17.90845],[-62.79894,17.90449],[-62.81013,17.89228],[-62.81804,17.88707],[-62.81927,17.88821],[-62.82469,17.88317],[-62.82977,17.88275],[-62.83221,17.88516],[-62.83517,17.88229],[-62.83886,17.88199],[-62.84503,17.88631],[-62.85294,17.89519]]]}}]}}
