{"type":"FeatureCollection","features":[{"type":"Feature","properties":{"id":"BMU:ADM0:94457821B60832025661305","name":"Bermuda","countryCode":"BMU","adminLevel":0,"sourceCode":"94457821B60832025661305","parentId":"BMU:ADM1:BMU-5136"},"geometry":{"type":"MultiPolygon","coordinates":[[[[-64.82985,32.26103],[-64.82953,32.26015],[-64.83275,32.25997],[-64.83265,32.26015],[-64.82985,32.26103]]],[[[-64.85978,32.27088],[-64.85715,32.27183],[-64.85014,32.27109],[-64.84879,32.27024],[-64.84879,32.26987],[-64.85978,32.27088]]],[[[-64.80568,32.28381],[-64.8042,32.28359],[-64.80025,32.28328],[-64.80047,32.2829],[-64.80266,32.28102],[-64.80304,32.28107],[-64.80568,32.28381]]],[[[-64.82139,32.28142],[-64.82246,32.2838],[-64.81969,32.28344],[-64.82139,32.28142]]],[[[-64.81,32.28367],[-64.80824,32.28424],[-64.80915,32.28241],[-64.81,32.28367]]],[[[-64.81243,32.28286],[-64.81309,32.2851],[-64.81197,32.28408],[-64.81243,32.28286]]],[[[-64.82488,32.28266],[-64.82513,32.28564],[-64.82387,32.28458],[-64.82488,32.28266]]],[[[-64.81963,32.28554],[-64.82306,32.28666],[-64.8159,32.28749],[-64.81642,32.28629],[-64.81963,32.28554]]],[[[-64.82705,32.28563],[-64.82947,32.28421],[-64.82825,32.28786],[-64.82705,32.28563]]],[[[-64.85513,32.30816],[-64.851,32.31206],[-64.85015,32.31012],[-64.85105,32.30889],[-64.8522,32.30825],[-64.8524,32.30806],[-64.85513,32.30816]]],[[[-64.84094,32.32037],[-64.84121,32.31865],[-64.84293,32.31729],[-64.843,32.31337],[-64.84599,32.31493],[-64.84494,32.31305],[-64.84929,32.31278],[-64.83456,32.3277],[-64.83609,32.32274],[-64.83663,32.32231],[-64.84094,32.32037]]],[[[-64.76384,32.28497],[-64.77867,32.27142],[-64.81337,32.25486],[-64.83406,32.24808],[-64.84917,32.24847],[-64.8608,32.24885],[-64.87486,32.25694],[-64.87672,32.25865],[-64.8816,32.26898],[-64.88324,32.27295],[-64.88596,32.28245],[-64.88593,32.28255],[-64.88473,32.28208],[-64.88548,32.28152],[-64.88006,32.27569],[-64.88065,32.27847],[-64.8785,32.27964],[-64.87663,32.27891],[-64.87693,32.2805],[-64.87359,32.28234],[-64.87712,32.2815],[-64.87742,32.28308],[-64.874,32.2884],[-64.87563,32.29264],[-64.87455,32.29568],[-64.87952,32.30494],[-64.87556,32.3041],[-64.87243,32.30311],[-64.87062,32.30613],[-64.86861,32.30851],[-64.86631,32.30564],[-64.86542,32.30363],[-64.86477,32.30372],[-64.86429,32.30311],[-64.861,32.30023],[-64.85942,32.2967],[-64.85992,32.29633],[-64.86841,32.29268],[-64.8713,32.28394],[-64.86944,32.28126],[-64.86951,32.28096],[-64.87616,32.27823],[-64.87201,32.27642],[-64.87204,32.27637],[-64.867,32.27288],[-64.86291,32.27245],[-64.86048,32.27139],[-64.86573,32.27129],[-64.86379,32.26526],[-64.86384,32.265],[-64.86582,32.25984],[-64.85707,32.25328],[-64.84697,32.25467],[-64.84685,32.25467],[-64.84678,32.25469],[-64.82969,32.25704],[-64.83052,32.25985],[-64.81961,32.26247],[-64.82578,32.26481],[-64.83087,32.26172],[-64.83069,32.26368],[-64.82902,32.26668],[-64.81972,32.26746],[-64.80793,32.27349],[-64.80613,32.27402],[-64.80033,32.2774],[-64.78682,32.28446],[-64.78332,32.2845],[-64.7702,32.29304],[-64.79244,32.28989],[-64.80011,32.29369],[-64.80246,32.29238],[-64.80538,32.29342],[-64.80714,32.29559],[-64.80479,32.29741],[-64.80144,32.295],[-64.80218,32.29739],[-64.80526,32.29786],[-64.80635,32.29691],[-64.809,32.30072],[-64.80103,32.30075],[-64.80986,32.30303],[-64.8116,32.30107],[-64.81397,32.30398],[-64.81133,32.30699],[-64.80956,32.30739],[-64.7946,32.30537],[-64.79238,32.30495],[-64.79198,32.30501],[-64.78014,32.30341],[-64.76703,32.3088],[-64.76607,32.30895],[-64.76459,32.30981],[-64.76183,32.31094],[-64.75121,32.31363],[-64.74149,32.32288],[-64.71543,32.32106],[-64.71432,32.3285],[-64.70717,32.33468],[-64.70538,32.33606],[-64.70548,32.33614],[-64.70408,32.33734],[-64.70825,32.3385],[-64.70997,32.33996],[-64.7128,32.34565],[-64.73654,32.33349],[-64.73481,32.33187],[-64.73773,32.32833],[-64.73949,32.3287],[-64.74089,32.33151],[-64.73813,32.34025],[-64.73639,32.34381],[-64.73583,32.34415],[-64.72209,32.34944],[-64.71747,32.35662],[-64.70966,32.35172],[-64.70732,32.34638],[-64.70979,32.34501],[-64.70642,32.34197],[-64.69137,32.33711],[-64.69182,32.33214],[-64.68194,32.33581],[-64.67873,32.33479],[-64.70364,32.32531],[-64.70984,32.3197],[-64.71701,32.31552],[-64.71897,32.31426],[-64.72106,32.31396],[-64.73799,32.30242],[-64.7419,32.30295],[-64.75228,32.29444],[-64.75487,32.29312],[-64.75715,32.29046],[-64.76384,32.28497]]],[[[-64.7368,32.32278],[-64.74084,32.32349],[-64.74026,32.32404],[-64.7391,32.32373],[-64.7368,32.32278]]],[[[-64.85873,32.30449],[-64.85933,32.30352],[-64.86002,32.30325],[-64.85901,32.30445],[-64.85873,32.30449]]],[[[-64.71457,32.35762],[-64.7163,32.35753],[-64.71632,32.3588],[-64.7141,32.35935],[-64.71457,32.35762]]],[[[-64.70471,32.35851],[-64.70691,32.36222],[-64.68548,32.3713],[-64.66449,32.3697],[-64.66653,32.36594],[-64.66015,32.36485],[-64.65243,32.36868],[-64.65728,32.36872],[-64.65575,32.37175],[-64.6527,32.37187],[-64.64791,32.36843],[-64.64767,32.36818],[-64.6533,32.36171],[-64.65913,32.36128],[-64.66074,32.35771],[-64.65573,32.3513],[-64.65577,32.3504],[-64.66042,32.3535],[-64.66138,32.35425],[-64.66401,32.35768],[-64.67226,32.3621],[-64.68367,32.36293],[-64.68451,32.35808],[-64.68523,32.35738],[-64.68761,32.35991],[-64.68919,32.36403],[-64.69119,32.36371],[-64.69143,32.36397],[-64.69193,32.36359],[-64.6984,32.36255],[-64.69497,32.36193],[-64.69741,32.35951],[-64.69841,32.35877],[-64.70471,32.35851]]],[[[-64.65862,32.37084],[-64.66473,32.37009],[-64.66977,32.37205],[-64.66985,32.37392],[-64.65862,32.37084]]],[[[-64.65748,32.37344],[-64.66344,32.37539],[-64.66108,32.37674],[-64.65748,32.37344]]],[[[-64.67461,32.3818],[-64.67886,32.37978],[-64.6886,32.3755],[-64.69151,32.37763],[-64.6761,32.38866],[-64.66291,32.37919],[-64.67461,32.3818]]],[[[-64.68872,32.37206],[-64.69833,32.37115],[-64.71408,32.36309],[-64.71313,32.36435],[-64.69725,32.37352],[-64.69552,32.37476],[-64.68872,32.37206]]]]}}],"admin1":{"type":"FeatureCollection","features":[{"type":"Feature","properties":{"id":"BMU:ADM1:BMU-5136","name":"Devonshire","countryCode":"BMU"},"geometry":{"type":"MultiPolygon","coordinates":[[[[-64.82985,32.26103],[-64.82953,32.26015],[-64.83275,32.25997],[-64.83265,32.26015],[-64.82985,32.26103]]],[[[-64.84879,32.26987],[-64.85978,32.27088],[-64.85715,32.27183],[-64.85014,32.27109],[-64.84879,32.27024],[-64.84879,32.26987]]],[[[-64.82246,32.2838],[-64.81969,32.28344],[-64.82139,32.28142],[-64.82246,32.2838]]],[[[-64.81197,32.28408],[-64.81243,32.28286],[-64.81309,32.2851],[-64.81197,32.28408]]],[[[-64.82387,32.28458],[-64.82488,32.28266],[-64.82513,32.28564],[-64.82387,32.28458]]],[[[-64.82947,32.28421],[-64.82825,32.28786],[-64.82705,32.28563],[-64.82947,32.28421]]],[[[-64.81963,32.28554],[-64.82306,32.28666],[-64.8159,32.28749],[-64.81642,32.28629],[-64.81963,32.28554]]],[[[-64.85873,32.30449],[-64.85933,32.30352],[-64.86002,32.30325],[-64.85901,32.30445],[-64.85873,32.30449]]],[[[-64.8524,32.30806],[-64.85513,32.30816],[-64.851,32.31206],[-64.85015,32.31012],[-64.85105,32.30889],[-64.8522,32.30825],[-64.8524,32.30806]]],[[[-64.84494,32.31305],[-64.84929,32.31278],[-64.83456,32.3277],[-64.83609,32.32274],[-64.83663,32.32231],[-64.84094,32.32037],[-64.84121,32.31865],[-64.84293,32.31729],[-64.843,32.31337],[-64.84599,32.31493],[-64.84494,32.31305]]],[[[-64.80266,32.28102],[-64.80304,32.28107],[-64.80568,32.28381],[-64.8042,32.28359],[-64.80025,32.28328],[-64.80047,32.2829],[-64.80266,32.28102]]],[[[-64.80824,32.28424],[-64.80915,32.28241],[-64.81,32.28367],[-64.80824,32.28424]]],[[[-64.84917,32.24847],[-64.8608,32.24885],[-64.87486,32.25694],[-64.87672,32.25865],[-64.8816,32.26898],[-64.88324,32.27295],[-64.88596,32.28245],[-64.88593,32.28255],[-64.88473,32.28208],[-64.88548,32.28152],[-64.88006,32.27569],[-64.88065,32.27847],[-64.8785,32.27964],[-64.87663,32.27891],[-64.87693,32.2805],[-64.87359,32.28234],[-64.87712,32.2815],[-64.87742,32.28308],[-64.874,32.2884],[-64.87563,32.29264],[-64.87455,32.29568],[-64.87952,32.30494],[-64.87556,32.3041],[-64.87243,32.30311],[-64.87062,32.30613],[-64.86861,32.30851],[-64.86631,32.30564],[-64.86542,32.30363],[-64.86477,32.30372],[-64.86429,32.30311],[-64.861,32.30023],[-64.85942,32.2967],[-64.85992,32.29633],[-64.86841,32.29268],[-64.8713,32.28394],[-64.86944,32.28126],[-64.86951,32.28096],[-64.87616,32.27823],[-64.87201,32.27642],[-64.87204,32.27637],[-64.867,32.27288],[-64.86291,32.27245],[-64.86048,32.27139],[-64.86573,32.27129],[-64.86379,32.26526],[-64.86384,32.265],[-64.86582,32.25984],[-64.85707,32.25328],[-64.84697,32.25467],[-64.84685,32.25467],[-64.84678,32.25469],[-64.82969,32.25704],[-64.83052,32.25985],[-64.81961,32.26247],[-64.82578,32.26481],[-64.83087,32.26172],[-64.83069,32.26368],[-64.82902,32.26668],[-64.81972,32.26746],[-64.80793,32.27349],[-64.80613,32.27402],[-64.80033,32.2774],[-64.78682,32.28446],[-64.78332,32.2845],[-64.7702,32.29304],[-64.79244,32.28989],[-64.80011,32.29369],[-64.80246,32.29238],[-64.80538,32.29342],[-64.80714,32.29559],[-64.80479,32.29741],[-64.80144,32.295],[-64.80218,32.29739],[-64.80526,32.29786],[-64.80635,32.29691],[-64.809,32.30072],[-64.80103,32.30075],[-64.80986,32.30303],[-64.8116,32.30107],[-64.81397,32.30398],[-64.81133,32.30699],[-64.80956,32.30739],[-64.7946,32.30537],[-64.79238,32.30495],[-64.79198,32.30501],[-64.78014,32.30341],[-64.76703,32.3088],[-64.76607,32.30895],[-64.76459,32.30981],[-64.76183,32.31094],[-64.75121,32.31363],[-64.74149,32.32288],[-64.71543,32.32106],[-64.71432,32.3285],[-64.70717,32.33468],[-64.70538,32.33606],[-64.70548,32.33614],[-64.70408,32.33734],[-64.70825,32.3385],[-64.70997,32.33996],[-64.7128,32.34565],[-64.73654,32.33349],[-64.73481,32.33187],[-64.73773,32.32833],[-64.73949,32.3287],[-64.74089,32.33151],[-64.73813,32.34025],[-64.73639,32.34381],[-64.73583,32.34415],[-64.72209,32.34944],[-64.71747,32.35662],[-64.70966,32.35172],[-64.70732,32.34638],[-64.70979,32.34501],[-64.70642,32.34197],[-64.69137,32.33711],[-64.69182,32.33214],[-64.68194,32.33581],[-64.67873,32.33479],[-64.70364,32.32531],[-64.70984,32.3197],[-64.71701,32.31552],[-64.71897,32.31426],[-64.72106,32.31396],[-64.73799,32.30242],[-64.7419,32.30295],[-64.75228,32.29444],[-64.75487,32.29312],[-64.75715,32.29046],[-64.76384,32.28497],[-64.77867,32.27142],[-64.81337,32.25486],[-64.83406,32.24808],[-64.84917,32.24847]]],[[[-64.74084,32.32349],[-64.74026,32.32404],[-64.7391,32.32373],[-64.7368,32.32278],[-64.74084,32.32349]]],[[[-64.7163,32.35753],[-64.71632,32.3588],[-64.7141,32.35935],[-64.71457,32.35762],[-64.7163,32.35753]]],[[[-64.66653,32.36594],[-64.66015,32.36485],[-64.65243,32.36868],[-64.65728,32.36872],[-64.65575,32.37175],[-64.6527,32.37187],[-64.64791,32.36843],[-64.64767,32.36818],[-64.6533,32.36171],[-64.65913,32.36128],[-64.66074,32.35771],[-64.65573,32.3513],[-64.65577,32.3504],[-64.66042,32.3535],[-64.66138,32.35425],[-64.66401,32.35768],[-64.67226,32.3621],[-64.68367,32.36293],[-64.68451,32.35808],[-64.68523,32.35738],[-64.68761,32.35991],[-64.68919,32.36403],[-64.69119,32.36371],[-64.69143,32.36397],[-64.69193,32.36359],[-64.6984,32.36255],[-64.69497,32.36193],[-64.69741,32.35951],[-64.69841,32.35877],[-64.70471,32.35851],[-64.70691,32.36222],[-64.68548,32.3713],[-64.66449,32.3697],[-64.66653,32.36594]]],[[[-64.69725,32.37352],[-64.69552,32.37476],[-64.68872,32.37206],[-64.69833,32.37115],[-64.71408,32.36309],[-64.71313,32.36435],[-64.69725,32.37352]]],[[[-64.65862,32.37084],[-64.66473,32.37009],[-64.66977,32.37205],[-64.66985,32.37392],[-64.65862,32.37084]]],[[[-64.66108,32.37674],[-64.65748,32.37344],[-64.66344,32.37539],[-64.66108,32.37674]]],[[[-64.66291,32.37919],[-64.67461,32.3818],[-64.67886,32.37978],[-64.6886,32.3755],[-64.69151,32.37763],[-64.6761,32.38866],[-64.66291,32.37919]]]]}}]}}
