{"type":"FeatureCollection","features":[{"type":"Feature","properties":{"id":"BRB:ADM0:86514546B60993530801841","name":"Barbados","countryCode":"BRB","adminLevel":0,"sourceCode":"86514546B60993530801841","parentId":"BRB:ADM1:BRB-1999"},"geometry":{"type":"Polygon","coordinates":[[[-59.63652,13.32654],[-59.62004,13.3343],[-59.61252,13.33457],[-59.57786,13.30849],[-59.57725,13.3072],[-59.5781,13.30411],[-59.57423,13.30082],[-59.57403,13.3004],[-59.57759,13.29766],[-59.56804,13.28447],[-59.56731,13.27628],[-59.55484,13.25185],[-59.52951,13.219],[-59.50806,13.20928],[-59.49588,13.19835],[-59.49148,13.19776],[-59.48699,13.19522],[-59.48587,13.19152],[-59.47783,13.18958],[-59.46787,13.1802],[-59.45803,13.18331],[-59.44369,13.16526],[-59.43189,13.16431],[-59.42696,13.15983],[-59.43004,13.12592],[-59.45572,13.10004],[-59.47578,13.08649],[-59.48754,13.07856],[-59.50886,13.05732],[-59.51671,13.05638],[-59.5231,13.05646],[-59.52929,13.05541],[-59.53493,13.05191],[-59.53865,13.05953],[-59.54264,13.0621],[-59.54597,13.06769],[-59.56444,13.07803],[-59.5869,13.0832],[-59.60025,13.08413],[-59.60814,13.08466],[-59.61074,13.08646],[-59.61022,13.09029],[-59.62331,13.09728],[-59.62789,13.10597],[-59.62582,13.10772],[-59.62793,13.11724],[-59.63318,13.12393],[-59.63883,13.14435],[-59.63712,13.16547],[-59.63814,13.18828],[-59.64249,13.19773],[-59.63989,13.2086],[-59.64499,13.24042],[-59.64344,13.26486],[-59.6498,13.28227],[-59.65071,13.30578],[-59.63652,13.32654]]]}}],"admin1":{"type":"FeatureCollection","features":[{"type":"Feature","properties":{"id":"BRB:ADM1:BRB-1999","name":"Saint Thomas","countryCode":"BRB"},"geometry":{"type":"Polygon","coordinates":[[[-59.63652,13.32654],[-59.62004,13.3343],[-59.61252,13.33457],[-59.57786,13.30849],[-59.57725,13.3072],[-59.5781,13.30411],[-59.57423,13.30082],[-59.57403,13.3004],[-59.57759,13.29766],[-59.56804,13.28447],[-59.56731,13.27628],[-59.55484,13.25185],[-59.52951,13.219],[-59.50806,13.20928],[-59.49588,13.19835],[-59.49148,13.19776],[-59.48699,13.19522],[-59.48587,13.19152],[-59.47783,13.18958],[-59.46787,13.1802],[-59.45803,13.18331],[-59.44369,13.16526],[-59.43189,13.16431],[-59.42696,13.15983],[-59.43004,13.12592],[-59.45572,13.10004],[-59.47578,13.08649],[-59.48754,13.07856],[-59.50886,13.05732],[-59.51671,13.05638],[-59.5231,13.05646],[-59.52929,13.05541],[-59.53493,13.05191],[-59.53865,13.05953],[-59.54264,13.0621],[-59.54597,13.06769],[-59.56444,13.07803],[-59.5869,13.0832],[-59.60025,13.08413],[-59.60814,13.08466],[-59.61074,13.08646],[-59.61022,13.09029],[-59.62331,13.09728],[-59.62789,13.10597],[-59.62582,13.10772],[-59.62793,13.11724],[-59.63318,13.12393],[-59.63883,13.14435],[-59.63712,13.16547],[-59.63814,13.18828],[-59.64249,13.19773],[-59.63989,13.2086],[-59.64499,13.24042],[-59.64344,13.26486],[-59.6498,13.28227],[-59.65071,13.30578],[-59.63652,13.32654]]]}}]}}
