{"type":"FeatureCollection","features":[{"type":"Feature","properties":{"id":"BRN:ADM0:51999400B40896605223228","name":"Brunei","countryCode":"BRN","adminLevel":0,"sourceCode":"51999400B40896605223228","parentId":"BRN:ADM1:BRN-1181"},"geometry":{"type":"MultiPolygon","coordinates":[[[[115.05357,4.80212],[115.05166,4.7964],[115.03865,4.79926],[115.03444,4.81413],[115.03492,4.81537],[115.04811,4.80183],[115.05279,4.80482],[115.05357,4.80212]]],[[[115.12302,4.90435],[115.13282,4.90435],[115.14433,4.89215],[115.14703,4.8908],[115.14176,4.90398],[115.15143,4.89215],[115.15597,4.87262],[115.1807,4.86725],[115.18575,4.84454],[115.22486,4.81368],[115.23325,4.80314],[115.23557,4.7955],[115.23226,4.76523],[115.25756,4.73213],[115.24723,4.70543],[115.26732,4.68636],[115.26024,4.65298],[115.28167,4.6383],[115.29203,4.62022],[115.28787,4.58201],[115.28542,4.57237],[115.27513,4.55906],[115.26857,4.52158],[115.26857,4.51323],[115.27783,4.50221],[115.28112,4.43603],[115.29966,4.40771],[115.30983,4.39757],[115.33315,4.38535],[115.34631,4.36985],[115.36574,4.33288],[115.35707,4.31558],[115.32807,4.29948],[115.32089,4.30068],[115.29249,4.3296],[115.24943,4.33944],[115.24136,4.35583],[115.23448,4.35882],[115.20667,4.35673],[115.1681,4.36001],[115.15106,4.37134],[115.11935,4.36223],[115.10857,4.36236],[115.08958,4.37921],[115.09671,4.4057],[115.08922,4.43623],[115.09289,4.45626],[115.08383,4.49069],[115.07845,4.49943],[115.07462,4.53338],[115.06582,4.54941],[115.06314,4.57516],[115.04329,4.61302],[115.04023,4.63218],[115.04256,4.65599],[115.02946,4.71058],[115.03271,4.72641],[115.02525,4.74891],[115.0352,4.77313],[115.0486,4.78362],[115.05721,4.78591],[115.08094,4.77866],[115.08342,4.78057],[115.0861,4.78762],[115.06831,4.78743],[115.06123,4.79582],[115.05811,4.80823],[115.06642,4.81354],[115.08619,4.83564],[115.09006,4.83769],[115.08934,4.83406],[115.09167,4.83028],[115.10857,4.81966],[115.11102,4.82149],[115.10906,4.8243],[115.09534,4.83418],[115.09387,4.83845],[115.09506,4.84033],[115.10791,4.84713],[115.10796,4.84712],[115.10814,4.84725],[115.10857,4.84748],[115.13022,4.85204],[115.13055,4.858],[115.13182,4.85773],[115.13433,4.84414],[115.13708,4.86016],[115.14248,4.85891],[115.14922,4.86328],[115.14695,4.86633],[115.14029,4.86273],[115.13083,4.86292],[115.13087,4.86372],[115.12233,4.87938],[115.11647,4.89606],[115.11808,4.9017],[115.12302,4.90435]]],[[[115.08591,5.04215],[115.1026,5.04215],[115.1032,5.03685],[115.10143,5.03561],[115.08457,5.03376],[115.07596,5.02671],[115.07012,5.01833],[115.05738,5.01264],[115.05184,5.00364],[115.04075,5.00364],[115.03635,5.00117],[115.04255,4.99377],[115.03816,4.9869],[115.04061,4.97889],[115.03248,4.95942],[115.03063,4.95186],[115.00963,4.92537],[114.96761,4.89382],[114.95664,4.89257],[114.94598,4.89756],[114.9372,4.89694],[114.91243,4.87164],[114.88798,4.85289],[114.91432,4.86539],[114.93783,4.88476],[114.94473,4.88694],[114.95915,4.87538],[114.96323,4.87632],[114.98672,4.89704],[114.9817,4.88907],[114.99244,4.89423],[115.00196,4.90005],[115.00994,4.90717],[115.0158,4.91641],[115.02005,4.90366],[115.00116,4.88819],[114.99395,4.87695],[114.97702,4.81915],[114.9579,4.8104],[114.91776,4.81447],[114.88265,4.81197],[114.85007,4.7899],[114.84686,4.7839],[114.84646,4.7627],[114.83602,4.74571],[114.79087,4.73291],[114.79569,4.72551],[114.79549,4.71451],[114.81836,4.68371],[114.81736,4.66771],[114.82178,4.66131],[114.8282,4.63631],[114.83602,4.58631],[114.83617,4.44324],[114.84156,4.43428],[114.88092,4.42369],[114.87916,4.39027],[114.87174,4.34806],[114.85147,4.30824],[114.82157,4.26782],[114.81997,4.26062],[114.82619,4.25922],[114.85047,4.27562],[114.85488,4.27522],[114.82579,4.21459],[114.79379,4.16728],[114.79366,4.16215],[114.8038,4.15844],[114.80496,4.15306],[114.78737,4.12193],[114.77414,4.10567],[114.7464,4.08223],[114.70865,4.03598],[114.68951,4.02266],[114.65009,4.00139],[114.61207,4.00216],[114.61195,4.00844],[114.61952,4.0192],[114.61965,4.02573],[114.61169,4.04175],[114.59448,4.04751],[114.56725,4.06724],[114.54774,4.09504],[114.54131,4.1163],[114.51897,4.13859],[114.5137,4.14102],[114.49264,4.13987],[114.46003,4.20429],[114.45124,4.23847],[114.45223,4.27519],[114.44812,4.27912],[114.4348,4.27584],[114.41935,4.25634],[114.37957,4.25994],[114.33764,4.25187],[114.31486,4.25916],[114.3107,4.27201],[114.31382,4.29592],[114.32736,4.34065],[114.32395,4.35426],[114.30709,4.36726],[114.31472,4.40488],[114.30047,4.43529],[114.28683,4.44829],[114.26716,4.4967],[114.25468,4.51071],[114.2254,4.53119],[114.20036,4.53196],[114.18135,4.55769],[114.16158,4.57216],[114.13576,4.57702],[114.08928,4.57958],[114.07977,4.58778],[114.18097,4.58775],[114.19551,4.57249],[114.19876,4.57287],[114.18365,4.59004],[114.21775,4.59381],[114.25172,4.59268],[114.32667,4.60688],[114.39576,4.64574],[114.49448,4.68126],[114.52931,4.69379],[114.5503,4.71442],[114.56568,4.74335],[114.58078,4.75865],[114.59174,4.76852],[114.59542,4.76865],[114.59076,4.76145],[114.59664,4.76743],[114.61085,4.77353],[114.61746,4.78634],[114.59676,4.77414],[114.5975,4.7756],[114.60182,4.77998],[114.72267,4.87604],[114.76018,4.89875],[114.9284,5.00056],[115.02999,5.0426],[115.04362,5.04673],[115.08591,5.04215]]]]}}],"admin1":{"type":"FeatureCollection","features":[{"type":"Feature","properties":{"id":"BRN:ADM1:BRN-1181","name":"Belait","countryCode":"BRN"},"geometry":{"type":"MultiPolygon","coordinates":[[[[115.1026,5.04215],[115.1032,5.03685],[115.10143,5.03561],[115.08457,5.03376],[115.07596,5.02671],[115.07012,5.01833],[115.05738,5.01264],[115.05184,5.00364],[115.04075,5.00364],[115.03635,5.00117],[115.04255,4.99377],[115.03816,4.9869],[115.04061,4.97889],[115.03248,4.95942],[115.03063,4.95186],[115.00963,4.92537],[114.96761,4.89382],[114.95664,4.89257],[114.94598,4.89756],[114.9372,4.89694],[114.91243,4.87164],[114.88798,4.85289],[114.91432,4.86539],[114.93783,4.88476],[114.94473,4.88694],[114.95915,4.87538],[114.96323,4.87632],[114.98672,4.89704],[114.9817,4.88907],[114.99244,4.89423],[115.00196,4.90005],[115.00994,4.90717],[115.0158,4.91641],[115.02005,4.90366],[115.00116,4.88819],[114.99395,4.87695],[114.97702,4.81915],[114.9579,4.8104],[114.91776,4.81447],[114.88265,4.81197],[114.85007,4.7899],[114.84686,4.7839],[114.84646,4.7627],[114.83602,4.74571],[114.79087,4.73291],[114.79569,4.72551],[114.79549,4.71451],[114.81836,4.68371],[114.81736,4.66771],[114.82178,4.66131],[114.8282,4.63631],[114.83602,4.58631],[114.83617,4.44324],[114.84156,4.43428],[114.88092,4.42369],[114.87916,4.39027],[114.87174,4.34806],[114.85147,4.30824],[114.82157,4.26782],[114.81997,4.26062],[114.82619,4.25922],[114.85047,4.27562],[114.85488,4.27522],[114.82579,4.21459],[114.79379,4.16728],[114.79366,4.16215],[114.8038,4.15844],[114.80496,4.15306],[114.78737,4.12193],[114.77414,4.10567],[114.7464,4.08223],[114.70865,4.03598],[114.68951,4.02266],[114.65009,4.00139],[114.61207,4.00216],[114.61195,4.00844],[114.61952,4.0192],[114.61965,4.02573],[114.61169,4.04175],[114.59448,4.04751],[114.56725,4.06724],[114.54774,4.09504],[114.54131,4.1163],[114.51897,4.13859],[114.5137,4.14102],[114.49264,4.13987],[114.46003,4.20429],[114.45124,4.23847],[114.45223,4.27519],[114.44812,4.27912],[114.4348,4.27584],[114.41935,4.25634],[114.37957,4.25994],[114.33764,4.25187],[114.31486,4.25916],[114.3107,4.27201],[114.31382,4.29592],[114.32736,4.34065],[114.32395,4.35426],[114.30709,4.36726],[114.31472,4.40488],[114.30047,4.43529],[114.28683,4.44829],[114.26716,4.4967],[114.25468,4.51071],[114.2254,4.53119],[114.20036,4.53196],[114.18135,4.55769],[114.16158,4.57216],[114.13576,4.57702],[114.08928,4.57958],[114.07977,4.58778],[114.18097,4.58775],[114.19551,4.57249],[114.19876,4.57287],[114.18365,4.59004],[114.21775,4.59381],[114.25172,4.59268],[114.32667,4.60688],[114.39576,4.64574],[114.49448,4.68126],[114.52931,4.69379],[114.5503,4.71442],[114.56568,4.74335],[114.58078,4.75865],[114.59174,4.76852],[114.59542,4.76865],[114.59076,4.76145],[114.59664,4.76743],[114.61085,4.77353],[114.61746,4.78634],[114.59676,4.77414],[114.5975,4.7756],[114.60182,4.77998],[114.72267,4.87604],[114.76018,4.89875],[114.9284,5.00056],[115.02999,5.0426],[115.04362,5.04673],[115.08591,5.04215],[115.1026,5.04215]]],[[[115.14433,4.89215],[115.14703,4.8908],[115.14176,4.90398],[115.15143,4.89215],[115.15597,4.87262],[115.1807,4.86725],[115.18575,4.84454],[115.22486,4.81368],[115.23325,4.80314],[115.23557,4.7955],[115.23226,4.76523],[115.25756,4.73213],[115.24723,4.70543],[115.26732,4.68636],[115.26024,4.65298],[115.28167,4.6383],[115.29203,4.62022],[115.28787,4.58201],[115.28542,4.57237],[115.27513,4.55906],[115.26857,4.52158],[115.26857,4.51323],[115.27783,4.50221],[115.28112,4.43603],[115.29966,4.40771],[115.30983,4.39757],[115.33315,4.38535],[115.34631,4.36985],[115.36574,4.33288],[115.35707,4.31558],[115.32807,4.29948],[115.32089,4.30068],[115.29249,4.3296],[115.24943,4.33944],[115.24136,4.35583],[115.23448,4.35882],[115.20667,4.35673],[115.1681,4.36001],[115.15106,4.37134],[115.11935,4.36223],[115.10857,4.36236],[115.08958,4.37921],[115.09671,4.4057],[115.08922,4.43623],[115.09289,4.45626],[115.08383,4.49069],[115.07845,4.49943],[115.07462,4.53338],[115.06582,4.54941],[115.06314,4.57516],[115.04329,4.61302],[115.04023,4.63218],[115.04256,4.65599],[115.02946,4.71058],[115.03271,4.72641],[115.02525,4.74891],[115.0352,4.77313],[115.0486,4.78362],[115.05721,4.78591],[115.08094,4.77866],[115.08342,4.78057],[115.0861,4.78762],[115.06831,4.78743],[115.06123,4.79582],[115.05811,4.80823],[115.06642,4.81354],[115.08619,4.83564],[115.09006,4.83769],[115.08934,4.83406],[115.09167,4.83028],[115.10857,4.81966],[115.11102,4.82149],[115.10906,4.8243],[115.09534,4.83418],[115.09387,4.83845],[115.09506,4.84033],[115.10791,4.84713],[115.10796,4.84712],[115.10814,4.84725],[115.10857,4.84748],[115.13022,4.85204],[115.13055,4.858],[115.13182,4.85773],[115.13433,4.84414],[115.13708,4.86016],[115.14248,4.85891],[115.14922,4.86328],[115.14695,4.86633],[115.14029,4.86273],[115.13083,4.86292],[115.13087,4.86372],[115.12233,4.87938],[115.11647,4.89606],[115.11808,4.9017],[115.12302,4.90435],[115.13282,4.90435],[115.14433,4.89215]]],[[[115.03865,4.79926],[115.03444,4.81413],[115.03492,4.81537],[115.04811,4.80183],[115.05279,4.80482],[115.05357,4.80212],[115.05166,4.7964],[115.03865,4.79926]]]]}}]}}
