{"type":"FeatureCollection","features":[{"type":"Feature","properties":{"id":"COK:ADM0:34037180B70278241069131","name":"Cook Islands","countryCode":"COK","adminLevel":0,"sourceCode":"34037180B70278241069131","parentId":"COK:ADM1:COK-4953"},"geometry":{"type":"MultiPolygon","coordinates":[[[[-157.94882,-21.90214],[-157.9344,-21.89537],[-157.91299,-21.89109],[-157.90939,-21.89281],[-157.90314,-21.90001],[-157.89633,-21.91138],[-157.88879,-21.91959],[-157.88707,-21.92637],[-157.89851,-21.93369],[-157.91511,-21.93768],[-157.92772,-21.9389],[-157.94245,-21.93719],[-157.95287,-21.93231],[-157.95847,-21.92656],[-157.94882,-21.90214]]],[[[-159.82714,-21.24206],[-159.83009,-21.21594],[-159.81658,-21.20152],[-159.79816,-21.1987],[-159.79038,-21.2004],[-159.78461,-21.20514],[-159.78364,-21.20292],[-159.77524,-21.20611],[-159.7542,-21.20318],[-159.73742,-21.21428],[-159.7364,-21.21673],[-159.73603,-21.23699],[-159.73786,-21.24627],[-159.74323,-21.25433],[-159.77086,-21.25018],[-159.77428,-21.25091],[-159.79328,-21.24163],[-159.82594,-21.24404],[-159.82714,-21.24206]]],[[[-157.32453,-20.17634],[-157.32856,-20.17913],[-157.34032,-20.17571],[-157.34936,-20.16074],[-157.34899,-20.14332],[-157.3396,-20.13797],[-157.32746,-20.14296],[-157.32218,-20.15523],[-157.32453,-20.17634]]],[[[-158.0923,-19.98586],[-158.0843,-19.99639],[-158.08228,-20.00551],[-158.09083,-20.01441],[-158.10204,-20.01755],[-158.10309,-20.0183],[-158.1151,-20.01572],[-158.12995,-20.00075],[-158.1352,-19.97649],[-158.12031,-19.97283],[-158.09736,-19.98154],[-158.09516,-19.98301],[-158.0923,-19.98586]]],[[[-157.71949,-19.84423],[-157.71369,-19.8401],[-157.70819,-19.84003],[-157.70824,-19.84124],[-157.72094,-19.85509],[-157.71949,-19.84423]]],[[[-158.29357,-19.81504],[-158.2951,-19.81414],[-158.28767,-19.81064],[-158.29207,-19.81493],[-158.29357,-19.81504]]],[[[-158.93936,-19.26198],[-158.93716,-19.26214],[-158.93961,-19.2626],[-158.93986,-19.26241],[-158.93936,-19.26198]]],[[[-158.92791,-19.26742],[-158.93697,-19.2633],[-158.93501,-19.26078],[-158.9322,-19.26425],[-158.91863,-19.26128],[-158.91829,-19.26192],[-158.91889,-19.26409],[-158.92036,-19.26605],[-158.92516,-19.26922],[-158.92776,-19.26817],[-158.92791,-19.26742]]],[[[-159.80165,-18.87085],[-159.79495,-18.85675],[-159.79482,-18.8465],[-159.78049,-18.83397],[-159.77804,-18.82977],[-159.77261,-18.82895],[-159.76979,-18.83116],[-159.77254,-18.83059],[-159.76927,-18.83445],[-159.76968,-18.83432],[-159.77925,-18.85288],[-159.77961,-18.85638],[-159.77648,-18.87819],[-159.78287,-18.88795],[-159.79361,-18.88746],[-159.79441,-18.88644],[-159.80165,-18.87085]]],[[[-159.76253,-18.83683],[-159.76199,-18.83725],[-159.76196,-18.83775],[-159.76253,-18.83683]]]]}}],"admin1":{"type":"FeatureCollection","features":[{"type":"Feature","properties":{"id":"COK:ADM1:COK-4953","name":"Rarotonga","countryCode":"COK"},"geometry":{"type":"MultiPolygon","coordinates":[[[[-157.90939,-21.89281],[-157.90314,-21.90001],[-157.89633,-21.91138],[-157.88879,-21.91959],[-157.88707,-21.92637],[-157.89851,-21.93369],[-157.91511,-21.93768],[-157.92772,-21.9389],[-157.94245,-21.93719],[-157.95287,-21.93231],[-157.95847,-21.92656],[-157.94882,-21.90214],[-157.9344,-21.89537],[-157.91299,-21.89109],[-157.90939,-21.89281]]],[[[-159.79816,-21.1987],[-159.79038,-21.2004],[-159.78461,-21.20514],[-159.78364,-21.20292],[-159.77524,-21.20611],[-159.7542,-21.20318],[-159.73742,-21.21428],[-159.7364,-21.21673],[-159.73603,-21.23699],[-159.73786,-21.24627],[-159.74323,-21.25433],[-159.77086,-21.25018],[-159.77428,-21.25091],[-159.79328,-21.24163],[-159.82594,-21.24404],[-159.82714,-21.24206],[-159.83009,-21.21594],[-159.81658,-21.20152],[-159.79816,-21.1987]]],[[[-157.34936,-20.16074],[-157.34899,-20.14332],[-157.3396,-20.13797],[-157.32746,-20.14296],[-157.32218,-20.15523],[-157.32453,-20.17634],[-157.32856,-20.17913],[-157.34032,-20.17571],[-157.34936,-20.16074]]],[[[-158.10204,-20.01755],[-158.10309,-20.0183],[-158.1151,-20.01572],[-158.12995,-20.00075],[-158.1352,-19.97649],[-158.12031,-19.97283],[-158.09736,-19.98154],[-158.09516,-19.98301],[-158.0923,-19.98586],[-158.0843,-19.99639],[-158.08228,-20.00551],[-158.09083,-20.01441],[-158.10204,-20.01755]]],[[[-157.72094,-19.85509],[-157.71949,-19.84423],[-157.71369,-19.8401],[-157.70819,-19.84003],[-157.70824,-19.84124],[-157.72094,-19.85509]]],[[[-158.29207,-19.81493],[-158.29357,-19.81504],[-158.2951,-19.81414],[-158.28767,-19.81064],[-158.29207,-19.81493]]],[[[-158.9322,-19.26425],[-158.91863,-19.26128],[-158.91829,-19.26192],[-158.91889,-19.26409],[-158.92036,-19.26605],[-158.92516,-19.26922],[-158.92776,-19.26817],[-158.92791,-19.26742],[-158.93697,-19.2633],[-158.93501,-19.26078],[-158.9322,-19.26425]]],[[[-158.93986,-19.26241],[-158.93936,-19.26198],[-158.93716,-19.26214],[-158.93961,-19.2626],[-158.93986,-19.26241]]],[[[-159.77804,-18.82977],[-159.77261,-18.82895],[-159.76979,-18.83116],[-159.77254,-18.83059],[-159.76927,-18.83445],[-159.76968,-18.83432],[-159.77925,-18.85288],[-159.77961,-18.85638],[-159.77648,-18.87819],[-159.78287,-18.88795],[-159.79361,-18.88746],[-159.79441,-18.88644],[-159.80165,-18.87085],[-159.79495,-18.85675],[-159.79482,-18.8465],[-159.78049,-18.83397],[-159.77804,-18.82977]]],[[[-159.76199,-18.83725],[-159.76196,-18.83775],[-159.76253,-18.83683],[-159.76199,-18.83725]]]]}}]}}
