{"type":"FeatureCollection","features":[{"type":"Feature","properties":{"id":"COM:ADM0:59328049B71413057484473","name":"Comoros","countryCode":"COM","adminLevel":0,"sourceCode":"59328049B71413057484473","parentId":"COM:ADM1:COM-4936"},"geometry":{"type":"MultiPolygon","coordinates":[[[[43.63177,-12.25694],[43.64259,-12.25714],[43.64875,-12.25018],[43.65361,-12.25295],[43.65672,-12.2497],[43.66235,-12.25787],[43.67376,-12.25421],[43.67767,-12.25745],[43.69678,-12.26037],[43.71521,-12.2716],[43.73397,-12.27148],[43.73888,-12.27955],[43.75321,-12.2902],[43.75696,-12.28918],[43.75425,-12.29212],[43.77069,-12.2943],[43.77544,-12.30493],[43.79193,-12.30964],[43.80052,-12.32089],[43.81561,-12.32369],[43.85011,-12.34612],[43.86158,-12.36338],[43.85816,-12.37135],[43.84295,-12.37347],[43.81935,-12.37347],[43.75242,-12.36015],[43.75233,-12.35821],[43.75009,-12.35992],[43.71421,-12.35896],[43.71425,-12.35869],[43.70988,-12.35885],[43.68141,-12.35809],[43.66521,-12.35247],[43.66456,-12.35135],[43.66463,-12.3495],[43.66778,-12.34849],[43.66721,-12.33797],[43.66347,-12.33842],[43.66272,-12.32995],[43.66169,-12.32963],[43.66179,-12.32773],[43.65895,-12.31829],[43.65024,-12.31024],[43.64112,-12.30641],[43.63416,-12.30119],[43.63393,-12.30087],[43.63103,-12.28777],[43.63011,-12.25861],[43.63177,-12.25694]]],[[[44.23314,-12.16859],[44.24541,-12.18216],[44.27194,-12.18667],[44.27788,-12.18714],[44.27816,-12.18276],[44.28811,-12.18304],[44.28887,-12.19232],[44.30772,-12.19714],[44.31087,-12.19308],[44.31678,-12.195],[44.31792,-12.1903],[44.31942,-12.19479],[44.32404,-12.19575],[44.33468,-12.18827],[44.35388,-12.18878],[44.37529,-12.1834],[44.39195,-12.17087],[44.39273,-12.16667],[44.39023,-12.1668],[44.39572,-12.16505],[44.40093,-12.15777],[44.41067,-12.15866],[44.41936,-12.15245],[44.42156,-12.13181],[44.43419,-12.12033],[44.43104,-12.11147],[44.42012,-12.10017],[44.42086,-12.09212],[44.45744,-12.07016],[44.46483,-12.06821],[44.47328,-12.07135],[44.47832,-12.07821],[44.48072,-12.08245],[44.48283,-12.08436],[44.48447,-12.0866],[44.49076,-12.10644],[44.48549,-12.11478],[44.48734,-12.11964],[44.49466,-12.12319],[44.49281,-12.1304],[44.49909,-12.13608],[44.50453,-12.16805],[44.51544,-12.18433],[44.52042,-12.20005],[44.51914,-12.21025],[44.52792,-12.22687],[44.5283,-12.22886],[44.52677,-12.23178],[44.52903,-12.23924],[44.52888,-12.2713],[44.52406,-12.28385],[44.52874,-12.30142],[44.52849,-12.35475],[44.52296,-12.37282],[44.51149,-12.3803],[44.5027,-12.37672],[44.49244,-12.36826],[44.49208,-12.36781],[44.49347,-12.35648],[44.48816,-12.34801],[44.48005,-12.34357],[44.47976,-12.34313],[44.47877,-12.33685],[44.47332,-12.32977],[44.43093,-12.30113],[44.42581,-12.29169],[44.40768,-12.28543],[44.40261,-12.282],[44.3887,-12.26033],[44.38526,-12.25172],[44.37013,-12.24432],[44.35188,-12.2406],[44.34056,-12.23613],[44.3371,-12.23759],[44.33058,-12.23626],[44.2684,-12.20501],[44.26002,-12.19842],[44.2199,-12.17498],[44.2141,-12.1688],[44.23314,-12.16859]]],[[[43.24156,-11.71065],[43.24819,-11.70259],[43.24873,-11.70511],[43.25225,-11.70346],[43.25018,-11.69715],[43.25342,-11.68498],[43.26124,-11.67483],[43.26652,-11.6732],[43.26524,-11.657],[43.2618,-11.65498],[43.26044,-11.64359],[43.2629,-11.63782],[43.26006,-11.60096],[43.27079,-11.56706],[43.26568,-11.55304],[43.26522,-11.53668],[43.27813,-11.50267],[43.27103,-11.4783],[43.27175,-11.46671],[43.26388,-11.45095],[43.27037,-11.4307],[43.27106,-11.41423],[43.27905,-11.39666],[43.3025,-11.3785],[43.31392,-11.38066],[43.31634,-11.37488],[43.33627,-11.37164],[43.34327,-11.36666],[43.35572,-11.36604],[43.36994,-11.37245],[43.37647,-11.37173],[43.386,-11.38405],[43.39487,-11.40016],[43.39943,-11.41839],[43.37713,-11.60508],[43.38608,-11.6456],[43.43051,-11.70819],[43.44662,-11.74912],[43.44711,-11.75937],[43.44557,-11.78053],[43.44662,-11.7907],[43.45118,-11.79803],[43.45777,-11.80438],[43.46388,-11.81162],[43.46656,-11.82171],[43.46909,-11.83172],[43.47535,-11.84303],[43.49879,-11.87363],[43.4983,-11.88201],[43.48699,-11.89983],[43.48374,-11.90993],[43.4826,-11.91717],[43.47999,-11.92278],[43.47267,-11.92791],[43.46314,-11.93092],[43.44955,-11.93287],[43.44897,-11.93281],[43.43694,-11.925],[43.42502,-11.90704],[43.4213,-11.90732],[43.39117,-11.87991],[43.38733,-11.87472],[43.38479,-11.86285],[43.3582,-11.85563],[43.35782,-11.85567],[43.35515,-11.85459],[43.31227,-11.85215],[43.30177,-11.84954],[43.29029,-11.84336],[43.27786,-11.8336],[43.26987,-11.82344],[43.2622,-11.79732],[43.25277,-11.78724],[43.24809,-11.78481],[43.24036,-11.7774],[43.2413,-11.77364],[43.23753,-11.7663],[43.24092,-11.75966],[43.23423,-11.75695],[43.23092,-11.74618],[43.23296,-11.7414],[43.22879,-11.73668],[43.24156,-11.71065]]]]}}],"admin1":{"type":"FeatureCollection","features":[{"type":"Feature","properties":{"id":"COM:ADM1:COM-4936","name":"Anjouan","countryCode":"COM"},"geometry":{"type":"MultiPolygon","coordinates":[[[[43.64259,-12.25714],[43.64875,-12.25018],[43.65361,-12.25295],[43.65672,-12.2497],[43.66235,-12.25787],[43.67376,-12.25421],[43.67767,-12.25745],[43.69678,-12.26037],[43.71521,-12.2716],[43.73397,-12.27148],[43.73888,-12.27955],[43.75321,-12.2902],[43.75696,-12.28918],[43.75425,-12.29212],[43.77069,-12.2943],[43.77544,-12.30493],[43.79193,-12.30964],[43.80052,-12.32089],[43.81561,-12.32369],[43.85011,-12.34612],[43.86158,-12.36338],[43.85816,-12.37135],[43.84295,-12.37347],[43.81935,-12.37347],[43.75242,-12.36015],[43.75233,-12.35821],[43.75009,-12.35992],[43.71421,-12.35896],[43.71425,-12.35869],[43.70988,-12.35885],[43.68141,-12.35809],[43.66521,-12.35247],[43.66456,-12.35135],[43.66463,-12.3495],[43.66778,-12.34849],[43.66721,-12.33797],[43.66347,-12.33842],[43.66272,-12.32995],[43.66169,-12.32963],[43.66179,-12.32773],[43.65895,-12.31829],[43.65024,-12.31024],[43.64112,-12.30641],[43.63416,-12.30119],[43.63393,-12.30087],[43.63103,-12.28777],[43.63011,-12.25861],[43.63177,-12.25694],[43.64259,-12.25714]]],[[[44.27194,-12.18667],[44.27788,-12.18714],[44.27816,-12.18276],[44.28811,-12.18304],[44.28887,-12.19232],[44.30772,-12.19714],[44.31087,-12.19308],[44.31678,-12.195],[44.31792,-12.1903],[44.31942,-12.19479],[44.32404,-12.19575],[44.33468,-12.18827],[44.35388,-12.18878],[44.37529,-12.1834],[44.39195,-12.17087],[44.39273,-12.16667],[44.39023,-12.1668],[44.39572,-12.16505],[44.40093,-12.15777],[44.41067,-12.15866],[44.41936,-12.15245],[44.42156,-12.13181],[44.43419,-12.12033],[44.43104,-12.11147],[44.42012,-12.10017],[44.42086,-12.09212],[44.45744,-12.07016],[44.46483,-12.06821],[44.47328,-12.07135],[44.47832,-12.07821],[44.48072,-12.08245],[44.48283,-12.08436],[44.48447,-12.0866],[44.49076,-12.10644],[44.48549,-12.11478],[44.48734,-12.11964],[44.49466,-12.12319],[44.49281,-12.1304],[44.49909,-12.13608],[44.50453,-12.16805],[44.51544,-12.18433],[44.52042,-12.20005],[44.51914,-12.21025],[44.52792,-12.22687],[44.5283,-12.22886],[44.52677,-12.23178],[44.52903,-12.23924],[44.52888,-12.2713],[44.52406,-12.28385],[44.52874,-12.30142],[44.52849,-12.35475],[44.52296,-12.37282],[44.51149,-12.3803],[44.5027,-12.37672],[44.49244,-12.36826],[44.49208,-12.36781],[44.49347,-12.35648],[44.48816,-12.34801],[44.48005,-12.34357],[44.47976,-12.34313],[44.47877,-12.33685],[44.47332,-12.32977],[44.43093,-12.30113],[44.42581,-12.29169],[44.40768,-12.28543],[44.40261,-12.282],[44.3887,-12.26033],[44.38526,-12.25172],[44.37013,-12.24432],[44.35188,-12.2406],[44.34056,-12.23613],[44.3371,-12.23759],[44.33058,-12.23626],[44.2684,-12.20501],[44.26002,-12.19842],[44.2199,-12.17498],[44.2141,-12.1688],[44.23314,-12.16859],[44.24541,-12.18216],[44.27194,-12.18667]]],[[[43.24873,-11.70511],[43.25225,-11.70346],[43.25018,-11.69715],[43.25342,-11.68498],[43.26124,-11.67483],[43.26652,-11.6732],[43.26524,-11.657],[43.2618,-11.65498],[43.26044,-11.64359],[43.2629,-11.63782],[43.26006,-11.60096],[43.27079,-11.56706],[43.26568,-11.55304],[43.26522,-11.53668],[43.27813,-11.50267],[43.27103,-11.4783],[43.27175,-11.46671],[43.26388,-11.45095],[43.27037,-11.4307],[43.27106,-11.41423],[43.27905,-11.39666],[43.3025,-11.3785],[43.31392,-11.38066],[43.31634,-11.37488],[43.33627,-11.37164],[43.34327,-11.36666],[43.35572,-11.36604],[43.36994,-11.37245],[43.37647,-11.37173],[43.386,-11.38405],[43.39487,-11.40016],[43.39943,-11.41839],[43.37713,-11.60508],[43.38608,-11.6456],[43.43051,-11.70819],[43.44662,-11.74912],[43.44711,-11.75937],[43.44557,-11.78053],[43.44662,-11.7907],[43.45118,-11.79803],[43.45777,-11.80438],[43.46388,-11.81162],[43.46656,-11.82171],[43.46909,-11.83172],[43.47535,-11.84303],[43.49879,-11.87363],[43.4983,-11.88201],[43.48699,-11.89983],[43.48374,-11.90993],[43.4826,-11.91717],[43.47999,-11.92278],[43.47267,-11.92791],[43.46314,-11.93092],[43.44955,-11.93287],[43.44897,-11.93281],[43.43694,-11.925],[43.42502,-11.90704],[43.4213,-11.90732],[43.39117,-11.87991],[43.38733,-11.87472],[43.38479,-11.86285],[43.3582,-11.85563],[43.35782,-11.85567],[43.35515,-11.85459],[43.31227,-11.85215],[43.30177,-11.84954],[43.29029,-11.84336],[43.27786,-11.8336],[43.26987,-11.82344],[43.2622,-11.79732],[43.25277,-11.78724],[43.24809,-11.78481],[43.24036,-11.7774],[43.2413,-11.77364],[43.23753,-11.7663],[43.24092,-11.75966],[43.23423,-11.75695],[43.23092,-11.74618],[43.23296,-11.7414],[43.22879,-11.73668],[43.24156,-11.71065],[43.24819,-11.70259],[43.24873,-11.70511]]]]}}]}}
