{"type":"FeatureCollection","features":[{"type":"Feature","properties":{"id":"CPV:ADM0:57358268B98382630831735","name":"Cabo Verde","countryCode":"CPV","adminLevel":0,"sourceCode":"57358268B98382630831735","parentId":"CPV:ADM1:CPV-5060"},"geometry":{"type":"MultiPolygon","coordinates":[[[[-24.74491,14.86767],[-24.73369,14.86741],[-24.73673,14.88268],[-24.72976,14.88732],[-24.72847,14.88534],[-24.72478,14.89113],[-24.72038,14.89265],[-24.72071,14.89017],[-24.71812,14.89198],[-24.71611,14.88917],[-24.70412,14.89542],[-24.69779,14.89492],[-24.6931,14.89069],[-24.68676,14.87617],[-24.68395,14.85944],[-24.68326,14.84248],[-24.68688,14.82665],[-24.6953,14.8194],[-24.70442,14.81403],[-24.70679,14.81014],[-24.70689,14.8103],[-24.71539,14.80768],[-24.7201,14.81326],[-24.7251,14.81363],[-24.72545,14.81411],[-24.72604,14.8145],[-24.72533,14.8186],[-24.7367,14.83287],[-24.74075,14.8293],[-24.74728,14.83375],[-24.74371,14.84633],[-24.74828,14.8523],[-24.74506,14.85651],[-24.74889,14.85999],[-24.74544,14.86665],[-24.74535,14.86665],[-24.74538,14.86677],[-24.74491,14.86767]]],[[[-24.44866,14.84916],[-24.46171,14.85343],[-24.47593,14.87161],[-24.49687,14.8821],[-24.50203,14.89197],[-24.50042,14.91667],[-24.50408,14.92083],[-24.49807,14.94832],[-24.49187,14.95777],[-24.49043,14.96728],[-24.48724,14.96854],[-24.48822,14.9755],[-24.47833,14.98286],[-24.47748,14.98774],[-24.46864,14.99614],[-24.45517,15.00448],[-24.45152,15.01036],[-24.43822,15.01536],[-24.43383,15.0221],[-24.42405,15.0264],[-24.414,15.025],[-24.40233,15.02817],[-24.39456,15.0334],[-24.39611,15.03702],[-24.38787,15.03873],[-24.38023,15.04401],[-24.36486,15.0454],[-24.34325,15.04072],[-24.32921,15.02871],[-24.32014,15.01301],[-24.30724,14.97944],[-24.29577,14.93049],[-24.29654,14.91755],[-24.3015,14.90648],[-24.29821,14.89545],[-24.29328,14.88434],[-24.29284,14.87287],[-24.29955,14.86302],[-24.33446,14.83185],[-24.37654,14.81598],[-24.41503,14.82087],[-24.4295,14.82818],[-24.44866,14.84916]]],[[[-23.21373,15.13897],[-23.22974,15.14725],[-23.23429,15.16338],[-23.22736,15.21814],[-23.21679,15.22374],[-23.21567,15.23098],[-23.21562,15.24742],[-23.21898,15.25578],[-23.23041,15.25811],[-23.23045,15.26653],[-23.22417,15.27291],[-23.22754,15.27572],[-23.2025,15.29229],[-23.19575,15.30606],[-23.20078,15.31325],[-23.18858,15.31044],[-23.18367,15.31305],[-23.18256,15.31626],[-23.18594,15.32216],[-23.18126,15.32575],[-23.17894,15.32795],[-23.17765,15.33026],[-23.17615,15.3232],[-23.17344,15.3215],[-23.17626,15.31916],[-23.16194,15.31257],[-23.15368,15.31449],[-23.15336,15.31414],[-23.13414,15.30755],[-23.12747,15.31098],[-23.1219,15.29914],[-23.12051,15.28335],[-23.12157,15.25642],[-23.11046,15.19941],[-23.11193,15.17194],[-23.1278,15.14663],[-23.1328,15.14472],[-23.14867,15.14277],[-23.15514,15.14037],[-23.15884,15.13556],[-23.16364,15.12373],[-23.16881,15.11986],[-23.18253,15.11862],[-23.18291,15.11864],[-23.18886,15.1202],[-23.19991,15.1242],[-23.2067,15.12787],[-23.21373,15.13897]]],[[[-23.76025,15.30585],[-23.75882,15.31482],[-23.76533,15.31558],[-23.76667,15.31957],[-23.75813,15.31922],[-23.75934,15.32235],[-23.755,15.32509],[-23.75818,15.32764],[-23.75816,15.32778],[-23.75158,15.33275],[-23.74413,15.33275],[-23.74356,15.32514],[-23.74201,15.32095],[-23.7399,15.31733],[-23.73794,15.31167],[-23.71923,15.3229],[-23.70324,15.31346],[-23.69783,15.29633],[-23.71068,15.28437],[-23.69734,15.26602],[-23.68175,15.25483],[-23.64855,15.23721],[-23.65608,15.22972],[-23.63878,15.22626],[-23.63028,15.21918],[-23.6151,15.19501],[-23.58422,15.16242],[-23.56737,15.15209],[-23.55606,15.15353],[-23.55521,15.15109],[-23.55181,15.15321],[-23.54914,15.14936],[-23.54747,15.14594],[-23.54499,15.14313],[-23.5393,15.14037],[-23.54076,15.13907],[-23.53441,15.133],[-23.52725,15.12739],[-23.52571,15.12735],[-23.52294,15.12669],[-23.51598,15.12772],[-23.51214,15.12598],[-23.51112,15.1259],[-23.51081,15.12421],[-23.51203,15.11612],[-23.51138,15.11302],[-23.47045,15.03799],[-23.46654,15.03425],[-23.46361,15.03315],[-23.46068,15.03095],[-23.45678,15.02367],[-23.45458,15.01895],[-23.45189,15.01512],[-23.44835,15.0124],[-23.4431,15.01069],[-23.44783,14.99575],[-23.45466,14.98591],[-23.4779,14.96906],[-23.47045,14.96223],[-23.48021,14.9466],[-23.48632,14.93085],[-23.49401,14.91869],[-23.50258,14.91576],[-23.50349,14.91819],[-23.50972,14.91363],[-23.51622,14.91283],[-23.53185,14.90864],[-23.5393,14.90762],[-23.54735,14.90851],[-23.55582,14.91279],[-23.56322,14.9138],[-23.59642,14.91454],[-23.60825,14.91607],[-23.60845,14.91623],[-23.60875,14.91613],[-23.62413,14.91812],[-23.62748,14.91921],[-23.62737,14.91981],[-23.63332,14.92113],[-23.645,14.92495],[-23.66055,14.93742],[-23.66604,14.93593],[-23.67463,14.93987],[-23.70349,14.96464],[-23.71331,14.98102],[-23.72007,14.98093],[-23.72286,14.98588],[-23.72657,14.98611],[-23.72781,14.99082],[-23.72,14.99289],[-23.72041,14.99782],[-23.71546,14.99988],[-23.71789,15.00568],[-23.71445,15.0087],[-23.71638,15.01434],[-23.72837,15.02614],[-23.73428,15.0269],[-23.74,15.0355],[-23.74959,15.03133],[-23.75351,15.04323],[-23.76024,15.05167],[-23.7629,15.0511],[-23.76585,15.06051],[-23.77306,15.06476],[-23.77906,15.06305],[-23.77953,15.06464],[-23.77996,15.06525],[-23.78159,15.07206],[-23.77335,15.07507],[-23.7782,15.09083],[-23.77011,15.09565],[-23.77123,15.10896],[-23.7661,15.12169],[-23.77054,15.12569],[-23.76272,15.13069],[-23.75994,15.13705],[-23.76394,15.14267],[-23.76044,15.15066],[-23.76673,15.15226],[-23.7675,15.16275],[-23.76353,15.16583],[-23.77047,15.17771],[-23.76262,15.17997],[-23.76348,15.19162],[-23.75685,15.19827],[-23.75321,15.21022],[-23.75375,15.2249],[-23.74172,15.2354],[-23.74008,15.24423],[-23.74482,15.25474],[-23.75109,15.25908],[-23.75662,15.25865],[-23.75959,15.27798],[-23.75249,15.28269],[-23.76274,15.292],[-23.77124,15.2925],[-23.77152,15.29808],[-23.75841,15.30488],[-23.76088,15.30584],[-23.76025,15.30585]]],[[[-22.92013,16.17992],[-22.91797,16.18516],[-22.92044,16.18682],[-22.91544,16.18958],[-22.91674,16.19495],[-22.91019,16.20241],[-22.91948,16.20953],[-22.91728,16.21555],[-22.92063,16.22123],[-22.91961,16.22696],[-22.90912,16.23061],[-22.90977,16.22523],[-22.89868,16.21749],[-22.89289,16.21743],[-22.89068,16.21114],[-22.86734,16.20296],[-22.83209,16.20301],[-22.80924,16.2083],[-22.79455,16.21699],[-22.7956,16.2243],[-22.79168,16.22429],[-22.79288,16.22792],[-22.78954,16.23019],[-22.78893,16.22528],[-22.78539,16.22853],[-22.78499,16.22556],[-22.78111,16.22581],[-22.78334,16.22365],[-22.78133,16.22088],[-22.77115,16.22164],[-22.74585,16.20966],[-22.73687,16.20999],[-22.73551,16.20743],[-22.72982,16.20942],[-22.72696,16.20492],[-22.71633,16.20654],[-22.712,16.20131],[-22.71139,16.2014],[-22.70983,16.19863],[-22.70918,16.19661],[-22.70971,16.19564],[-22.70864,16.19491],[-22.70661,16.18852],[-22.70801,16.18576],[-22.70513,16.17625],[-22.67876,16.15105],[-22.68212,16.11359],[-22.67837,16.11188],[-22.67081,16.10224],[-22.66923,16.09823],[-22.66811,16.09013],[-22.67252,16.08633],[-22.67561,16.08202],[-22.67711,16.07266],[-22.67963,16.06379],[-22.68032,16.06305],[-22.68034,16.06288],[-22.69644,16.05292],[-22.75109,16.01056],[-22.78759,15.9916],[-22.80614,15.98591],[-22.86368,15.98237],[-22.87389,15.98387],[-22.88366,15.98871],[-22.89778,16.00047],[-22.90929,16.00373],[-22.94555,16.01968],[-22.95775,16.03083],[-22.96309,16.04914],[-22.96005,16.05611],[-22.96027,16.06564],[-22.95527,16.07109],[-22.95851,16.08295],[-22.94235,16.09851],[-22.93525,16.09718],[-22.92894,16.10103],[-22.90701,16.12493],[-22.90717,16.15568],[-22.91658,16.17479],[-22.91983,16.17596],[-22.92033,16.17995],[-22.92013,16.17992]]],[[[-24.5796,16.60744],[-24.59908,16.60939],[-24.60363,16.61936],[-24.60264,16.62182],[-24.59266,16.62431],[-24.57254,16.62054],[-24.5796,16.60744]]],[[[-24.42717,16.62728],[-24.42458,16.63163],[-24.42573,16.64503],[-24.4207,16.65192],[-24.41711,16.65084],[-24.41986,16.65499],[-24.39631,16.65882],[-24.39627,16.66191],[-24.38041,16.67066],[-24.36206,16.66742],[-24.35099,16.67266],[-24.34649,16.67763],[-24.34057,16.67536],[-24.32868,16.66779],[-24.30516,16.64789],[-24.29284,16.64183],[-24.28686,16.64155],[-24.28652,16.63529],[-24.28038,16.63168],[-24.27156,16.63116],[-24.26733,16.63811],[-24.26178,16.6395],[-24.25185,16.63616],[-24.24087,16.63738],[-24.22686,16.64563],[-24.21518,16.64617],[-24.20782,16.6386],[-24.19824,16.63899],[-24.18057,16.63085],[-24.17729,16.63014],[-24.17151,16.62193],[-24.16056,16.61475],[-24.14036,16.61198],[-24.13032,16.62113],[-24.1266,16.62117],[-24.11289,16.61284],[-24.10005,16.61525],[-24.08566,16.61376],[-24.08331,16.61038],[-24.07099,16.61141],[-24.05773,16.60636],[-24.04796,16.59882],[-24.04215,16.59561],[-24.03568,16.5832],[-24.03283,16.58363],[-24.03283,16.5624],[-24.0441,16.55988],[-24.11473,16.55927],[-24.12216,16.56247],[-24.12712,16.57162],[-24.13195,16.56988],[-24.13297,16.57298],[-24.13461,16.57069],[-24.14067,16.57592],[-24.15,16.57682],[-24.1674,16.59147],[-24.18717,16.59041],[-24.19196,16.59248],[-24.23331,16.60212],[-24.27233,16.58723],[-24.28637,16.57075],[-24.31534,16.52041],[-24.32442,16.48378],[-24.32505,16.48315],[-24.32627,16.48488],[-24.32469,16.49872],[-24.33138,16.51694],[-24.33484,16.52385],[-24.34597,16.53244],[-24.35129,16.55164],[-24.35431,16.55058],[-24.35908,16.55463],[-24.35793,16.56307],[-24.36064,16.56752],[-24.35812,16.56878],[-24.36316,16.57632],[-24.36845,16.57774],[-24.36856,16.57953],[-24.37092,16.58714],[-24.37609,16.59178],[-24.38508,16.59341],[-24.40827,16.60017],[-24.42471,16.61713],[-24.42702,16.6258],[-24.42717,16.62728]]],[[[-24.78646,16.79059],[-24.7735,16.80226],[-24.74891,16.79358],[-24.74777,16.79231],[-24.74389,16.7793],[-24.73517,16.77583],[-24.72886,16.76056],[-24.72576,16.75742],[-24.72576,16.75741],[-24.72576,16.75741],[-24.72246,16.75407],[-24.70945,16.75183],[-24.68892,16.75788],[-24.68525,16.75651],[-24.68383,16.75573],[-24.68487,16.74635],[-24.68851,16.74159],[-24.6944,16.73913],[-24.71211,16.73877],[-24.72342,16.73516],[-24.74246,16.7365],[-24.74452,16.73856],[-24.74498,16.74537],[-24.75114,16.75298],[-24.76589,16.76279],[-24.78056,16.76811],[-24.7869,16.77381],[-24.78797,16.77703],[-24.78797,16.78825],[-24.78646,16.79059]]],[[[-22.94094,16.84081],[-22.92506,16.84851],[-22.92029,16.85524],[-22.91726,16.85275],[-22.91453,16.85096],[-22.91083,16.8476],[-22.90931,16.84074],[-22.90487,16.84221],[-22.90442,16.8418],[-22.90323,16.83821],[-22.89903,16.83693],[-22.89891,16.83682],[-22.89509,16.82929],[-22.89631,16.82502],[-22.90274,16.81318],[-22.90978,16.80337],[-22.90795,16.80061],[-22.90404,16.79857],[-22.90185,16.79511],[-22.90465,16.73583],[-22.90185,16.71695],[-22.89737,16.71027],[-22.88418,16.69843],[-22.88134,16.69269],[-22.88239,16.68154],[-22.88663,16.66169],[-22.8876,16.65143],[-22.88956,16.6459],[-22.89454,16.64243],[-22.89482,16.64235],[-22.89493,16.64216],[-22.89879,16.63947],[-22.90185,16.63443],[-22.90148,16.6291],[-22.8994,16.62165],[-22.89903,16.62075],[-22.89865,16.61749],[-22.89582,16.61304],[-22.90172,16.6059],[-22.90884,16.6022],[-22.91763,16.59919],[-22.92822,16.59389],[-22.92866,16.61485],[-22.93264,16.62792],[-22.93514,16.63042],[-22.93998,16.66056],[-22.93884,16.66154],[-22.93545,16.67192],[-22.93978,16.68875],[-22.95509,16.69776],[-22.95574,16.69787],[-22.95653,16.69945],[-22.95868,16.69839],[-22.96967,16.70029],[-22.97926,16.6948],[-22.98176,16.70352],[-22.98226,16.71053],[-22.97619,16.71195],[-22.98289,16.71952],[-22.98314,16.72305],[-22.98057,16.7381],[-22.97885,16.73974],[-22.98,16.74117],[-22.97082,16.75104],[-22.97082,16.75788],[-22.98274,16.76138],[-22.98837,16.76966],[-22.98611,16.77142],[-22.98971,16.77362],[-22.99157,16.78433],[-22.9908,16.81527],[-22.99042,16.81594],[-22.97012,16.83145],[-22.96758,16.83299],[-22.96075,16.83533],[-22.95599,16.84],[-22.94937,16.844],[-22.94094,16.84081]]],[[[-24.95557,16.90713],[-24.94569,16.9051],[-24.93674,16.90937],[-24.93864,16.91366],[-24.93327,16.91618],[-24.93278,16.92042],[-24.92772,16.91779],[-24.91877,16.90827],[-24.9147,16.89916],[-24.91975,16.89509],[-24.92292,16.89081],[-24.91446,16.88142],[-24.91237,16.88004],[-24.91227,16.87966],[-24.88656,16.86215],[-24.88077,16.86145],[-24.87629,16.84984],[-24.87361,16.83592],[-24.87507,16.82616],[-24.8911,16.81395],[-24.91552,16.80549],[-24.94286,16.80048],[-24.96813,16.7989],[-24.97452,16.7967],[-24.9842,16.78734],[-24.98803,16.78514],[-24.99523,16.78612],[-25.0014,16.78842],[-25.00841,16.79333],[-25.01503,16.79352],[-25.01515,16.79356],[-25.02305,16.79965],[-25.03477,16.80362],[-25.03853,16.8023],[-25.04042,16.803],[-25.04624,16.80669],[-25.04799,16.80583],[-25.05439,16.80822],[-25.05477,16.80896],[-25.06008,16.81105],[-25.06109,16.82269],[-25.06818,16.82763],[-25.07538,16.82931],[-25.07908,16.82827],[-25.08113,16.83234],[-25.08228,16.83179],[-25.07759,16.83905],[-25.08458,16.84555],[-25.07734,16.8478],[-25.07192,16.85445],[-25.07293,16.86038],[-25.06646,16.86572],[-25.06194,16.86259],[-25.056,16.86613],[-25.05702,16.8731],[-25.05404,16.87758],[-25.05029,16.87742],[-25.05162,16.88093],[-25.05012,16.88142],[-25.04729,16.88147],[-25.04411,16.88019],[-25.04419,16.88153],[-25.0237,16.88193],[-25.0194,16.87654],[-25.00133,16.87567],[-24.99473,16.87852],[-24.98943,16.88566],[-24.99488,16.89006],[-25.00087,16.88812],[-24.99765,16.89169],[-24.99331,16.89224],[-24.99243,16.89418],[-24.99536,16.90014],[-24.99884,16.90033],[-24.99674,16.9023],[-24.999,16.90643],[-24.99178,16.90522],[-24.99029,16.91134],[-24.9772,16.91018],[-24.97327,16.91763],[-24.96961,16.91916],[-24.9652,16.90892],[-24.96054,16.90979],[-24.95557,16.90713]]],[[[-25.14183,17.1781],[-25.11819,17.19199],[-25.09911,17.19552],[-25.09105,17.19302],[-25.0795,17.18537],[-25.0665,17.18578],[-25.04666,17.17943],[-25.03436,17.17859],[-25.03018,17.17548],[-25.02627,17.16771],[-25.02587,17.14492],[-25.02058,17.14037],[-25.00423,17.13607],[-25.00053,17.12862],[-24.99018,17.12028],[-24.98562,17.12312],[-24.9815,17.11606],[-24.97717,17.1163],[-24.97497,17.11449],[-24.97126,17.10733],[-24.97301,17.09662],[-24.97899,17.0869],[-25.01513,17.04914],[-25.01968,17.04902],[-25.02391,17.0454],[-25.04271,17.03848],[-25.04699,17.03506],[-25.05557,17.02481],[-25.07455,17.0162],[-25.08478,17.01358],[-25.08824,17.01],[-25.11587,16.99746],[-25.14342,16.97004],[-25.16295,16.9453],[-25.18786,16.92817],[-25.23131,16.923],[-25.26919,16.923],[-25.28083,16.92072],[-25.28966,16.91718],[-25.29869,16.91738],[-25.31078,16.92609],[-25.31339,16.93846],[-25.31344,16.94612],[-25.31107,16.94899],[-25.31062,16.95466],[-25.31354,16.95966],[-25.31387,17.00495],[-25.32755,17.02822],[-25.33104,17.03095],[-25.3483,17.03412],[-25.35485,17.03848],[-25.36022,17.05464],[-25.3571,17.05641],[-25.3587,17.06034],[-25.35867,17.06044],[-25.35423,17.06309],[-25.35304,17.07043],[-25.34279,17.07598],[-25.34435,17.08199],[-25.34042,17.08632],[-25.33814,17.08753],[-25.33822,17.08875],[-25.33211,17.09551],[-25.30011,17.10786],[-25.29988,17.10787],[-25.28913,17.107],[-25.27978,17.10733],[-25.2696,17.11433],[-25.26484,17.11872],[-25.26072,17.11933],[-25.26043,17.12216],[-25.24424,17.12211],[-25.22841,17.13105],[-25.22721,17.14317],[-25.2206,17.14136],[-25.21416,17.14506],[-25.21418,17.15192],[-25.21183,17.15332],[-25.2031,17.15179],[-25.20069,17.15925],[-25.19643,17.16028],[-25.18905,17.15695],[-25.17777,17.16005],[-25.1718,17.16279],[-25.16792,17.16982],[-25.15267,17.17694],[-25.14183,17.1781]]]]}}],"admin1":{"type":"FeatureCollection","features":[{"type":"Feature","properties":{"id":"CPV:ADM1:CPV-5060","name":"Porto Novo","countryCode":"CPV"},"geometry":{"type":"MultiPolygon","coordinates":[[[[-24.72976,14.88732],[-24.72847,14.88534],[-24.72478,14.89113],[-24.72038,14.89265],[-24.72071,14.89017],[-24.71812,14.89198],[-24.71611,14.88917],[-24.70412,14.89542],[-24.69779,14.89492],[-24.6931,14.89069],[-24.68676,14.87617],[-24.68395,14.85944],[-24.68326,14.84248],[-24.68688,14.82665],[-24.6953,14.8194],[-24.70442,14.81403],[-24.70679,14.81014],[-24.70689,14.8103],[-24.71539,14.80768],[-24.7201,14.81326],[-24.7251,14.81363],[-24.72545,14.81411],[-24.72604,14.8145],[-24.72533,14.8186],[-24.7367,14.83287],[-24.74075,14.8293],[-24.74728,14.83375],[-24.74371,14.84633],[-24.74828,14.8523],[-24.74506,14.85651],[-24.74889,14.85999],[-24.74544,14.86665],[-24.74535,14.86665],[-24.74538,14.86677],[-24.74491,14.86767],[-24.73369,14.86741],[-24.73673,14.88268],[-24.72976,14.88732]]],[[[-24.49687,14.8821],[-24.50203,14.89197],[-24.50042,14.91667],[-24.50408,14.92083],[-24.49807,14.94832],[-24.49187,14.95777],[-24.49043,14.96728],[-24.48724,14.96854],[-24.48822,14.9755],[-24.47833,14.98286],[-24.47748,14.98774],[-24.46864,14.99614],[-24.45517,15.00448],[-24.45152,15.01036],[-24.43822,15.01536],[-24.43383,15.0221],[-24.42405,15.0264],[-24.414,15.025],[-24.40233,15.02817],[-24.39456,15.0334],[-24.39611,15.03702],[-24.38787,15.03873],[-24.38023,15.04401],[-24.36486,15.0454],[-24.34325,15.04072],[-24.32921,15.02871],[-24.32014,15.01301],[-24.30724,14.97944],[-24.29577,14.93049],[-24.29654,14.91755],[-24.3015,14.90648],[-24.29821,14.89545],[-24.29328,14.88434],[-24.29284,14.87287],[-24.29955,14.86302],[-24.33446,14.83185],[-24.37654,14.81598],[-24.41503,14.82087],[-24.4295,14.82818],[-24.44866,14.84916],[-24.46171,14.85343],[-24.47593,14.87161],[-24.49687,14.8821]]],[[[-24.60264,16.62182],[-24.59266,16.62431],[-24.57254,16.62054],[-24.5796,16.60744],[-24.59908,16.60939],[-24.60363,16.61936],[-24.60264,16.62182]]],[[[-24.74389,16.7793],[-24.73517,16.77583],[-24.72886,16.76056],[-24.72576,16.75742],[-24.72576,16.75741],[-24.72246,16.75407],[-24.70945,16.75183],[-24.68892,16.75788],[-24.68525,16.75651],[-24.68383,16.75573],[-24.68487,16.74635],[-24.68851,16.74159],[-24.6944,16.73913],[-24.71211,16.73877],[-24.72342,16.73516],[-24.74246,16.7365],[-24.74452,16.73856],[-24.74498,16.74537],[-24.75114,16.75298],[-24.76589,16.76279],[-24.78056,16.76811],[-24.7869,16.77381],[-24.78797,16.77703],[-24.78797,16.78825],[-24.78646,16.79059],[-24.7735,16.80226],[-24.74891,16.79358],[-24.74777,16.79231],[-24.74389,16.7793]]],[[[-24.93327,16.91618],[-24.93278,16.92042],[-24.92772,16.91779],[-24.91877,16.90827],[-24.9147,16.89916],[-24.91975,16.89509],[-24.92292,16.89081],[-24.91446,16.88142],[-24.91237,16.88004],[-24.91227,16.87966],[-24.88656,16.86215],[-24.88077,16.86145],[-24.87629,16.84984],[-24.87361,16.83592],[-24.87507,16.82616],[-24.8911,16.81395],[-24.91552,16.80549],[-24.94286,16.80048],[-24.96813,16.7989],[-24.97452,16.7967],[-24.9842,16.78734],[-24.98803,16.78514],[-24.99523,16.78612],[-25.0014,16.78842],[-25.00841,16.79333],[-25.01503,16.79352],[-25.01515,16.79356],[-25.02305,16.79965],[-25.03477,16.80362],[-25.03853,16.8023],[-25.04042,16.803],[-25.04624,16.80669],[-25.04799,16.80583],[-25.05439,16.80822],[-25.05477,16.80896],[-25.06008,16.81105],[-25.06109,16.82269],[-25.06818,16.82763],[-25.07538,16.82931],[-25.07908,16.82827],[-25.08113,16.83234],[-25.08228,16.83179],[-25.07759,16.83905],[-25.08458,16.84555],[-25.07734,16.8478],[-25.07192,16.85445],[-25.07293,16.86038],[-25.06646,16.86572],[-25.06194,16.86259],[-25.056,16.86613],[-25.05702,16.8731],[-25.05404,16.87758],[-25.05029,16.87742],[-25.05162,16.88093],[-25.05012,16.88142],[-25.04729,16.88147],[-25.04411,16.88019],[-25.04419,16.88153],[-25.0237,16.88193],[-25.0194,16.87654],[-25.00133,16.87567],[-24.99473,16.87852],[-24.98943,16.88566],[-24.99488,16.89006],[-25.00087,16.88812],[-24.99765,16.89169],[-24.99331,16.89224],[-24.99243,16.89418],[-24.99536,16.90014],[-24.99884,16.90033],[-24.99674,16.9023],[-24.999,16.90643],[-24.99178,16.90522],[-24.99029,16.91134],[-24.9772,16.91018],[-24.97327,16.91763],[-24.96961,16.91916],[-24.9652,16.90892],[-24.96054,16.90979],[-24.95557,16.90713],[-24.94569,16.9051],[-24.93674,16.90937],[-24.93864,16.91366],[-24.93327,16.91618]]],[[[-25.09105,17.19302],[-25.0795,17.18537],[-25.0665,17.18578],[-25.04666,17.17943],[-25.03436,17.17859],[-25.03018,17.17548],[-25.02627,17.16771],[-25.02587,17.14492],[-25.02058,17.14037],[-25.00423,17.13607],[-25.00053,17.12862],[-24.99018,17.12028],[-24.98562,17.12312],[-24.9815,17.11606],[-24.97717,17.1163],[-24.97497,17.11449],[-24.97126,17.10733],[-24.97301,17.09662],[-24.97899,17.0869],[-25.01513,17.04914],[-25.01968,17.04902],[-25.02391,17.0454],[-25.04271,17.03848],[-25.04699,17.03506],[-25.05557,17.02481],[-25.07455,17.0162],[-25.08478,17.01358],[-25.08824,17.01],[-25.11587,16.99746],[-25.14342,16.97004],[-25.16295,16.9453],[-25.18786,16.92817],[-25.23131,16.923],[-25.26919,16.923],[-25.28083,16.92072],[-25.28966,16.91718],[-25.29869,16.91738],[-25.31078,16.92609],[-25.31339,16.93846],[-25.31344,16.94612],[-25.31107,16.94899],[-25.31062,16.95466],[-25.31354,16.95966],[-25.31387,17.00495],[-25.32755,17.02822],[-25.33104,17.03095],[-25.3483,17.03412],[-25.35485,17.03848],[-25.36022,17.05464],[-25.3571,17.05641],[-25.3587,17.06034],[-25.35867,17.06044],[-25.35423,17.06309],[-25.35304,17.07043],[-25.34279,17.07598],[-25.34435,17.08199],[-25.34042,17.08632],[-25.33814,17.08753],[-25.33822,17.08875],[-25.33211,17.09551],[-25.30011,17.10786],[-25.29988,17.10787],[-25.28913,17.107],[-25.27978,17.10733],[-25.2696,17.11433],[-25.26484,17.11872],[-25.26072,17.11933],[-25.26043,17.12216],[-25.24424,17.12211],[-25.22841,17.13105],[-25.22721,17.14317],[-25.2206,17.14136],[-25.21416,17.14506],[-25.21418,17.15192],[-25.21183,17.15332],[-25.2031,17.15179],[-25.20069,17.15925],[-25.19643,17.16028],[-25.18905,17.15695],[-25.17777,17.16005],[-25.1718,17.16279],[-25.16792,17.16982],[-25.15267,17.17694],[-25.14183,17.1781],[-25.11819,17.19199],[-25.09911,17.19552],[-25.09105,17.19302]]],[[[-23.75813,15.31922],[-23.75934,15.32235],[-23.755,15.32509],[-23.75818,15.32764],[-23.75816,15.32778],[-23.75158,15.33275],[-23.74413,15.33275],[-23.74356,15.32514],[-23.74201,15.32095],[-23.7399,15.31733],[-23.73794,15.31167],[-23.71923,15.3229],[-23.70324,15.31346],[-23.69783,15.29633],[-23.71068,15.28437],[-23.69734,15.26602],[-23.68175,15.25483],[-23.64855,15.23721],[-23.65608,15.22972],[-23.63878,15.22626],[-23.63028,15.21918],[-23.6151,15.19501],[-23.58422,15.16242],[-23.56737,15.15209],[-23.55606,15.15353],[-23.55521,15.15109],[-23.55181,15.15321],[-23.54914,15.14936],[-23.54747,15.14594],[-23.54499,15.14313],[-23.5393,15.14037],[-23.54076,15.13907],[-23.53441,15.133],[-23.52725,15.12739],[-23.52571,15.12735],[-23.52294,15.12669],[-23.51598,15.12772],[-23.51214,15.12598],[-23.51112,15.1259],[-23.51081,15.12421],[-23.51203,15.11612],[-23.51138,15.11302],[-23.47045,15.03799],[-23.46654,15.03425],[-23.46361,15.03315],[-23.46068,15.03095],[-23.45678,15.02367],[-23.45458,15.01895],[-23.45189,15.01512],[-23.44835,15.0124],[-23.4431,15.01069],[-23.44783,14.99575],[-23.45466,14.98591],[-23.4779,14.96906],[-23.47045,14.96223],[-23.48021,14.9466],[-23.48632,14.93085],[-23.49401,14.91869],[-23.50258,14.91576],[-23.50349,14.91819],[-23.50972,14.91363],[-23.51622,14.91283],[-23.53185,14.90864],[-23.5393,14.90762],[-23.54735,14.90851],[-23.55582,14.91279],[-23.56322,14.9138],[-23.59642,14.91454],[-23.60825,14.91607],[-23.60845,14.91623],[-23.60875,14.91613],[-23.62413,14.91812],[-23.62748,14.91921],[-23.62737,14.91981],[-23.63332,14.92113],[-23.645,14.92495],[-23.66055,14.93742],[-23.66604,14.93593],[-23.67463,14.93987],[-23.70349,14.96464],[-23.71331,14.98102],[-23.72007,14.98093],[-23.72286,14.98588],[-23.72657,14.98611],[-23.72781,14.99082],[-23.72,14.99289],[-23.72041,14.99782],[-23.71546,14.99988],[-23.71789,15.00568],[-23.71445,15.0087],[-23.71638,15.01434],[-23.72837,15.02614],[-23.73428,15.0269],[-23.74,15.0355],[-23.74959,15.03133],[-23.75351,15.04323],[-23.76024,15.05167],[-23.7629,15.0511],[-23.76585,15.06051],[-23.77306,15.06476],[-23.77906,15.06305],[-23.77953,15.06464],[-23.77996,15.06525],[-23.78159,15.07206],[-23.77335,15.07507],[-23.7782,15.09083],[-23.77011,15.09565],[-23.77123,15.10896],[-23.7661,15.12169],[-23.77054,15.12569],[-23.76272,15.13069],[-23.75994,15.13705],[-23.76394,15.14267],[-23.76044,15.15066],[-23.76673,15.15226],[-23.7675,15.16275],[-23.76353,15.16583],[-23.77047,15.17771],[-23.76262,15.17997],[-23.76348,15.19162],[-23.75685,15.19827],[-23.75321,15.21022],[-23.75375,15.2249],[-23.74172,15.2354],[-23.74008,15.24423],[-23.74482,15.25474],[-23.75109,15.25908],[-23.75662,15.25865],[-23.75959,15.27798],[-23.75249,15.28269],[-23.76274,15.292],[-23.77124,15.2925],[-23.77152,15.29808],[-23.75841,15.30488],[-23.76088,15.30584],[-23.76025,15.30585],[-23.75882,15.31482],[-23.76533,15.31558],[-23.76667,15.31957],[-23.75813,15.31922]]],[[[-23.21679,15.22374],[-23.21567,15.23098],[-23.21562,15.24742],[-23.21898,15.25578],[-23.23041,15.25811],[-23.23045,15.26653],[-23.22417,15.27291],[-23.22754,15.27572],[-23.2025,15.29229],[-23.19575,15.30606],[-23.20078,15.31325],[-23.18858,15.31044],[-23.18367,15.31305],[-23.18256,15.31626],[-23.18594,15.32216],[-23.18126,15.32575],[-23.17894,15.32795],[-23.17765,15.33026],[-23.17615,15.3232],[-23.17344,15.3215],[-23.17626,15.31916],[-23.16194,15.31257],[-23.15368,15.31449],[-23.15336,15.31414],[-23.13414,15.30755],[-23.12747,15.31098],[-23.1219,15.29914],[-23.12051,15.28335],[-23.12157,15.25642],[-23.11046,15.19941],[-23.11193,15.17194],[-23.1278,15.14663],[-23.1328,15.14472],[-23.14867,15.14277],[-23.15514,15.14037],[-23.15884,15.13556],[-23.16364,15.12373],[-23.16881,15.11986],[-23.18253,15.11862],[-23.18291,15.11864],[-23.18886,15.1202],[-23.19991,15.1242],[-23.2067,15.12787],[-23.21373,15.13897],[-23.22974,15.14725],[-23.23429,15.16338],[-23.22736,15.21814],[-23.21679,15.22374]]],[[[-22.91544,16.18958],[-22.91674,16.19495],[-22.91019,16.20241],[-22.91948,16.20953],[-22.91728,16.21555],[-22.92063,16.22123],[-22.91961,16.22696],[-22.90912,16.23061],[-22.90977,16.22523],[-22.89868,16.21749],[-22.89289,16.21743],[-22.89068,16.21114],[-22.86734,16.20296],[-22.83209,16.20301],[-22.80924,16.2083],[-22.79455,16.21699],[-22.7956,16.2243],[-22.79168,16.22429],[-22.79288,16.22792],[-22.78954,16.23019],[-22.78893,16.22528],[-22.78539,16.22853],[-22.78499,16.22556],[-22.78111,16.22581],[-22.78334,16.22365],[-22.78133,16.22088],[-22.77115,16.22164],[-22.74585,16.20966],[-22.73687,16.20999],[-22.73551,16.20743],[-22.72982,16.20942],[-22.72696,16.20492],[-22.71633,16.20654],[-22.712,16.20131],[-22.71139,16.2014],[-22.70983,16.19863],[-22.70918,16.19661],[-22.70971,16.19564],[-22.70864,16.19491],[-22.70661,16.18852],[-22.70801,16.18576],[-22.70513,16.17625],[-22.67876,16.15105],[-22.68212,16.11359],[-22.67837,16.11188],[-22.67081,16.10224],[-22.66923,16.09823],[-22.66811,16.09013],[-22.67252,16.08633],[-22.67561,16.08202],[-22.67711,16.07266],[-22.67963,16.06379],[-22.68032,16.06305],[-22.68034,16.06288],[-22.69644,16.05292],[-22.75109,16.01056],[-22.78759,15.9916],[-22.80614,15.98591],[-22.86368,15.98237],[-22.87389,15.98387],[-22.88366,15.98871],[-22.89778,16.00047],[-22.90929,16.00373],[-22.94555,16.01968],[-22.95775,16.03083],[-22.96309,16.04914],[-22.96005,16.05611],[-22.96027,16.06564],[-22.95527,16.07109],[-22.95851,16.08295],[-22.94235,16.09851],[-22.93525,16.09718],[-22.92894,16.10103],[-22.90701,16.12493],[-22.90717,16.15568],[-22.91658,16.17479],[-22.91983,16.17596],[-22.92033,16.17995],[-22.92013,16.17992],[-22.91797,16.18516],[-22.92044,16.18682],[-22.91544,16.18958]]],[[[-24.41711,16.65084],[-24.41986,16.65499],[-24.39631,16.65882],[-24.39627,16.66191],[-24.38041,16.67066],[-24.36206,16.66742],[-24.35099,16.67266],[-24.34649,16.67763],[-24.34057,16.67536],[-24.32868,16.66779],[-24.30516,16.64789],[-24.29284,16.64183],[-24.28686,16.64155],[-24.28652,16.63529],[-24.28038,16.63168],[-24.27156,16.63116],[-24.26733,16.63811],[-24.26178,16.6395],[-24.25185,16.63616],[-24.24087,16.63738],[-24.22686,16.64563],[-24.21518,16.64617],[-24.20782,16.6386],[-24.19824,16.63899],[-24.18057,16.63085],[-24.17729,16.63014],[-24.17151,16.62193],[-24.16056,16.61475],[-24.14036,16.61198],[-24.13032,16.62113],[-24.1266,16.62117],[-24.11289,16.61284],[-24.10005,16.61525],[-24.08566,16.61376],[-24.08331,16.61038],[-24.07099,16.61141],[-24.05773,16.60636],[-24.04796,16.59882],[-24.04215,16.59561],[-24.03568,16.5832],[-24.03283,16.58363],[-24.03283,16.5624],[-24.0441,16.55988],[-24.11473,16.55927],[-24.12216,16.56247],[-24.12712,16.57162],[-24.13195,16.56988],[-24.13297,16.57298],[-24.13461,16.57069],[-24.14067,16.57592],[-24.15,16.57682],[-24.1674,16.59147],[-24.18717,16.59041],[-24.19196,16.59248],[-24.23331,16.60212],[-24.27233,16.58723],[-24.28637,16.57075],[-24.31534,16.52041],[-24.32442,16.48378],[-24.32505,16.48315],[-24.32627,16.48488],[-24.32469,16.49872],[-24.33138,16.51694],[-24.33484,16.52385],[-24.34597,16.53244],[-24.35129,16.55164],[-24.35431,16.55058],[-24.35908,16.55463],[-24.35793,16.56307],[-24.36064,16.56752],[-24.35812,16.56878],[-24.36316,16.57632],[-24.36845,16.57774],[-24.36856,16.57953],[-24.37092,16.58714],[-24.37609,16.59178],[-24.38508,16.59341],[-24.40827,16.60017],[-24.42471,16.61713],[-24.42702,16.6258],[-24.42717,16.62728],[-24.42458,16.63163],[-24.42573,16.64503],[-24.4207,16.65192],[-24.41711,16.65084]]],[[[-22.91453,16.85096],[-22.91083,16.8476],[-22.90931,16.84074],[-22.90487,16.84221],[-22.90442,16.8418],[-22.90323,16.83821],[-22.89903,16.83693],[-22.89891,16.83682],[-22.89509,16.82929],[-22.89631,16.82502],[-22.90274,16.81318],[-22.90978,16.80337],[-22.90795,16.80061],[-22.90404,16.79857],[-22.90185,16.79511],[-22.90465,16.73583],[-22.90185,16.71695],[-22.89737,16.71027],[-22.88418,16.69843],[-22.88134,16.69269],[-22.88239,16.68154],[-22.88663,16.66169],[-22.8876,16.65143],[-22.88956,16.6459],[-22.89454,16.64243],[-22.89482,16.64235],[-22.89493,16.64216],[-22.89879,16.63947],[-22.90185,16.63443],[-22.90148,16.6291],[-22.8994,16.62165],[-22.89903,16.62075],[-22.89865,16.61749],[-22.89582,16.61304],[-22.90172,16.6059],[-22.90884,16.6022],[-22.91763,16.59919],[-22.92822,16.59389],[-22.92866,16.61485],[-22.93264,16.62792],[-22.93514,16.63042],[-22.93998,16.66056],[-22.93884,16.66154],[-22.93545,16.67192],[-22.93978,16.68875],[-22.95509,16.69776],[-22.95574,16.69787],[-22.95653,16.69945],[-22.95868,16.69839],[-22.96967,16.70029],[-22.97926,16.6948],[-22.98176,16.70352],[-22.98226,16.71053],[-22.97619,16.71195],[-22.98289,16.71952],[-22.98314,16.72305],[-22.98057,16.7381],[-22.97885,16.73974],[-22.98,16.74117],[-22.97082,16.75104],[-22.97082,16.75788],[-22.98274,16.76138],[-22.98837,16.76966],[-22.98611,16.77142],[-22.98971,16.77362],[-22.99157,16.78433],[-22.9908,16.81527],[-22.99042,16.81594],[-22.97012,16.83145],[-22.96758,16.83299],[-22.96075,16.83533],[-22.95599,16.84],[-22.94937,16.844],[-22.94094,16.84081],[-22.92506,16.84851],[-22.92029,16.85524],[-22.91726,16.85275],[-22.91453,16.85096]]]]}}]}}
