{"type":"FeatureCollection","features":[{"type":"Feature","properties":{"id":"CUW:ADM0:78966013B51976138685800","name":"Curacao","countryCode":"CUW","adminLevel":0,"sourceCode":"78966013B51976138685800","parentId":"CUW:ADM1:CUW-5151"},"geometry":{"type":"MultiPolygon","coordinates":[[[[-68.85547,12.07928],[-68.85591,12.08244],[-68.85354,12.07788],[-68.85547,12.07928]]],[[[-68.91633,12.12514],[-68.91336,12.12092],[-68.92015,12.11956],[-68.91878,12.12362],[-68.91633,12.12514]]],[[[-69.05824,12.2088],[-69.05941,12.2088],[-69.05905,12.21117],[-69.05824,12.2088]]],[[[-69.12489,12.2767],[-69.12566,12.27894],[-69.12364,12.27986],[-69.12489,12.2767]]],[[[-68.81291,12.12494],[-68.82362,12.12878],[-68.82605,12.12461],[-68.82129,12.12096],[-68.82917,12.1187],[-68.82827,12.11624],[-68.82337,12.11677],[-68.82203,12.11045],[-68.81924,12.11001],[-68.8201,12.11418],[-68.81762,12.11644],[-68.815,12.11165],[-68.81351,12.11363],[-68.8103,12.11016],[-68.80974,12.11257],[-68.80318,12.11073],[-68.81082,12.12294],[-68.80873,12.12444],[-68.80403,12.11701],[-68.7935,12.10832],[-68.78556,12.09459],[-68.76031,12.06437],[-68.74415,12.05006],[-68.74865,12.04702],[-68.76674,12.04352],[-68.77585,12.0454],[-68.78196,12.04214],[-68.78445,12.04198],[-68.78587,12.04325],[-68.7862,12.04187],[-68.79475,12.04133],[-68.80942,12.04267],[-68.80936,12.04426],[-68.81011,12.04273],[-68.81481,12.04316],[-68.82179,12.04642],[-68.82216,12.04887],[-68.82804,12.04934],[-68.82962,12.05008],[-68.83501,12.05858],[-68.84273,12.0591],[-68.85238,12.06536],[-68.84976,12.07363],[-68.85192,12.07598],[-68.845,12.07322],[-68.84333,12.06848],[-68.84226,12.07538],[-68.83802,12.07781],[-68.84278,12.0873],[-68.84574,12.08515],[-68.84905,12.08759],[-68.84913,12.0788],[-68.8521,12.08535],[-68.85247,12.08052],[-68.85431,12.08456],[-68.85932,12.08008],[-68.86114,12.08543],[-68.86471,12.08179],[-68.86807,12.08287],[-68.85924,12.07635],[-68.86013,12.07029],[-68.85704,12.07428],[-68.85251,12.07357],[-68.85354,12.06411],[-68.85385,12.06399],[-68.86003,12.06813],[-68.86661,12.07924],[-68.86951,12.07977],[-68.86807,12.07619],[-68.86964,12.07458],[-68.88336,12.08377],[-68.88332,12.08381],[-68.87781,12.08238],[-68.88107,12.08532],[-68.87727,12.0913],[-68.88184,12.09026],[-68.88168,12.09745],[-68.88969,12.08884],[-68.88579,12.0855],[-68.88582,12.08543],[-68.89342,12.09052],[-68.9174,12.09758],[-68.91862,12.09844],[-68.93542,12.10384],[-68.9309,12.10605],[-68.93319,12.10724],[-68.92843,12.11602],[-68.92221,12.10806],[-68.92015,12.11093],[-68.9232,12.11418],[-68.91968,12.11503],[-68.91219,12.10844],[-68.91638,12.11433],[-68.91229,12.11438],[-68.9144,12.11658],[-68.91143,12.11754],[-68.9141,12.11782],[-68.91179,12.12332],[-68.91702,12.13548],[-68.92262,12.13247],[-68.92096,12.12351],[-68.92556,12.12355],[-68.92846,12.11934],[-68.932,12.12118],[-68.93128,12.12685],[-68.93486,12.12244],[-68.93589,12.12749],[-68.94056,12.12415],[-68.93982,12.1279],[-68.94811,12.12753],[-68.94766,12.12279],[-68.93724,12.12002],[-68.9411,12.11936],[-68.94141,12.11629],[-68.93223,12.11583],[-68.9325,12.11126],[-68.93779,12.1048],[-68.94842,12.10774],[-68.96861,12.11932],[-68.96971,12.12002],[-68.96886,12.12814],[-68.96333,12.13473],[-68.96915,12.13981],[-68.97254,12.13811],[-68.97038,12.12334],[-68.98359,12.13069],[-68.98496,12.13445],[-68.99359,12.13716],[-68.99657,12.13954],[-69.00461,12.16108],[-69.01961,12.17969],[-69.02015,12.18856],[-69.02666,12.19488],[-69.04124,12.20101],[-69.0502,12.19967],[-69.05406,12.20753],[-69.05254,12.21288],[-69.05842,12.21451],[-69.06343,12.20961],[-69.05997,12.20329],[-69.06841,12.20299],[-69.06801,12.20033],[-69.0786,12.20425],[-69.08555,12.21241],[-69.08541,12.21855],[-69.09224,12.22201],[-69.09121,12.22706],[-69.09619,12.23413],[-69.09269,12.23738],[-69.09637,12.23448],[-69.10161,12.23538],[-69.1042,12.23951],[-69.1041,12.24396],[-69.1076,12.24787],[-69.10235,12.25436],[-69.10459,12.2559],[-69.10942,12.25039],[-69.11333,12.25411],[-69.12267,12.26903],[-69.12522,12.27084],[-69.11708,12.2778],[-69.1218,12.28184],[-69.12932,12.28173],[-69.12658,12.27247],[-69.12688,12.27201],[-69.13439,12.27733],[-69.1481,12.28441],[-69.15194,12.28742],[-69.1562,12.29584],[-69.14533,12.3058],[-69.15101,12.31469],[-69.15003,12.32901],[-69.15418,12.3359],[-69.15225,12.34143],[-69.15463,12.34705],[-69.15135,12.35236],[-69.15687,12.3614],[-69.15393,12.36963],[-69.16241,12.3805],[-69.15559,12.39005],[-69.15062,12.38573],[-69.12372,12.37449],[-69.09716,12.35865],[-69.09173,12.35816],[-69.08959,12.35688],[-69.07152,12.34138],[-69.06582,12.33173],[-69.06698,12.33118],[-69.06557,12.33131],[-69.06041,12.32258],[-69.05833,12.31332],[-69.06053,12.31252],[-69.05811,12.31233],[-69.05355,12.29208],[-69.05357,12.28768],[-69.05092,12.28037],[-69.05015,12.27695],[-69.05629,12.27229],[-69.04861,12.27316],[-69.04076,12.25605],[-69.03393,12.24966],[-69.02788,12.23975],[-68.98036,12.19984],[-68.94725,12.18746],[-68.9267,12.18771],[-68.90568,12.17862],[-68.85468,12.17504],[-68.82198,12.15379],[-68.8143,12.14611],[-68.81184,12.12934],[-68.81023,12.1268],[-68.81291,12.12494]],[[-68.92877,12.1041],[-68.92652,12.10418],[-68.93063,12.10588],[-68.92877,12.1041]]],[[[-69.05307,12.20349],[-69.05072,12.19733],[-69.06113,12.19827],[-69.05307,12.20349]]]]}}],"admin1":{"type":"FeatureCollection","features":[{"type":"Feature","properties":{"id":"CUW:ADM1:CUW-5151","name":"Curaçao","countryCode":"CUW"},"geometry":{"type":"MultiPolygon","coordinates":[[[[-68.85354,12.07788],[-68.85547,12.07928],[-68.85591,12.08244],[-68.85354,12.07788]]],[[[-68.91878,12.12362],[-68.91633,12.12514],[-68.91336,12.12092],[-68.92015,12.11956],[-68.91878,12.12362]]],[[[-69.05307,12.20349],[-69.05072,12.19733],[-69.06113,12.19827],[-69.05307,12.20349]]],[[[-69.05905,12.21117],[-69.05824,12.2088],[-69.05941,12.2088],[-69.05905,12.21117]]],[[[-68.82129,12.12096],[-68.82917,12.1187],[-68.82827,12.11624],[-68.82337,12.11677],[-68.82203,12.11045],[-68.81924,12.11001],[-68.8201,12.11418],[-68.81762,12.11644],[-68.815,12.11165],[-68.81351,12.11363],[-68.8103,12.11016],[-68.80974,12.11257],[-68.80318,12.11073],[-68.81082,12.12294],[-68.80873,12.12444],[-68.80403,12.11701],[-68.7935,12.10832],[-68.78556,12.09459],[-68.76031,12.06437],[-68.74415,12.05006],[-68.74865,12.04702],[-68.76674,12.04352],[-68.77585,12.0454],[-68.78196,12.04214],[-68.78445,12.04198],[-68.78587,12.04325],[-68.7862,12.04187],[-68.79475,12.04133],[-68.80942,12.04267],[-68.80936,12.04426],[-68.81011,12.04273],[-68.81481,12.04316],[-68.82179,12.04642],[-68.82216,12.04887],[-68.82804,12.04934],[-68.82962,12.05008],[-68.83501,12.05858],[-68.84273,12.0591],[-68.85238,12.06536],[-68.84976,12.07363],[-68.85192,12.07598],[-68.845,12.07322],[-68.84333,12.06848],[-68.84226,12.07538],[-68.83802,12.07781],[-68.84278,12.0873],[-68.84574,12.08515],[-68.84905,12.08759],[-68.84913,12.0788],[-68.8521,12.08535],[-68.85247,12.08052],[-68.85431,12.08456],[-68.85932,12.08008],[-68.86114,12.08543],[-68.86471,12.08179],[-68.86807,12.08287],[-68.85924,12.07635],[-68.86013,12.07029],[-68.85704,12.07428],[-68.85251,12.07357],[-68.85354,12.06411],[-68.85385,12.06399],[-68.86003,12.06813],[-68.86661,12.07924],[-68.86951,12.07977],[-68.86807,12.07619],[-68.86964,12.07458],[-68.88336,12.08377],[-68.88332,12.08381],[-68.87781,12.08238],[-68.88107,12.08532],[-68.87727,12.0913],[-68.88184,12.09026],[-68.88168,12.09745],[-68.88969,12.08884],[-68.88579,12.0855],[-68.88582,12.08543],[-68.89342,12.09052],[-68.9174,12.09758],[-68.91862,12.09844],[-68.93542,12.10384],[-68.9309,12.10605],[-68.93319,12.10724],[-68.92843,12.11602],[-68.92221,12.10806],[-68.92015,12.11093],[-68.9232,12.11418],[-68.91968,12.11503],[-68.91219,12.10844],[-68.91638,12.11433],[-68.91229,12.11438],[-68.9144,12.11658],[-68.91143,12.11754],[-68.9141,12.11782],[-68.91179,12.12332],[-68.91702,12.13548],[-68.92262,12.13247],[-68.92096,12.12351],[-68.92556,12.12355],[-68.92846,12.11934],[-68.932,12.12118],[-68.93128,12.12685],[-68.93486,12.12244],[-68.93589,12.12749],[-68.94056,12.12415],[-68.93982,12.1279],[-68.94811,12.12753],[-68.94766,12.12279],[-68.93724,12.12002],[-68.9411,12.11936],[-68.94141,12.11629],[-68.93223,12.11583],[-68.9325,12.11126],[-68.93779,12.1048],[-68.94842,12.10774],[-68.96861,12.11932],[-68.96971,12.12002],[-68.96886,12.12814],[-68.96333,12.13473],[-68.96915,12.13981],[-68.97254,12.13811],[-68.97038,12.12334],[-68.98359,12.13069],[-68.98496,12.13445],[-68.99359,12.13716],[-68.99657,12.13954],[-69.00461,12.16108],[-69.01961,12.17969],[-69.02015,12.18856],[-69.02666,12.19488],[-69.04124,12.20101],[-69.0502,12.19967],[-69.05406,12.20753],[-69.05254,12.21288],[-69.05842,12.21451],[-69.06343,12.20961],[-69.05997,12.20329],[-69.06841,12.20299],[-69.06801,12.20033],[-69.0786,12.20425],[-69.08555,12.21241],[-69.08541,12.21855],[-69.09224,12.22201],[-69.09121,12.22706],[-69.09619,12.23413],[-69.09269,12.23738],[-69.09637,12.23448],[-69.10161,12.23538],[-69.1042,12.23951],[-69.1041,12.24396],[-69.1076,12.24787],[-69.10235,12.25436],[-69.10459,12.2559],[-69.10942,12.25039],[-69.11333,12.25411],[-69.12267,12.26903],[-69.12522,12.27084],[-69.11708,12.2778],[-69.1218,12.28184],[-69.12932,12.28173],[-69.12658,12.27247],[-69.12688,12.27201],[-69.13439,12.27733],[-69.1481,12.28441],[-69.15194,12.28742],[-69.1562,12.29584],[-69.14533,12.3058],[-69.15101,12.31469],[-69.15003,12.32901],[-69.15418,12.3359],[-69.15225,12.34143],[-69.15463,12.34705],[-69.15135,12.35236],[-69.15687,12.3614],[-69.15393,12.36963],[-69.16241,12.3805],[-69.15559,12.39005],[-69.15062,12.38573],[-69.12372,12.37449],[-69.09716,12.35865],[-69.09173,12.35816],[-69.08959,12.35688],[-69.07152,12.34138],[-69.06582,12.33173],[-69.06698,12.33118],[-69.06557,12.33131],[-69.06041,12.32258],[-69.05833,12.31332],[-69.06053,12.31252],[-69.05811,12.31233],[-69.05355,12.29208],[-69.05357,12.28768],[-69.05092,12.28037],[-69.05015,12.27695],[-69.05629,12.27229],[-69.04861,12.27316],[-69.04076,12.25605],[-69.03393,12.24966],[-69.02788,12.23975],[-68.98036,12.19984],[-68.94725,12.18746],[-68.9267,12.18771],[-68.90568,12.17862],[-68.85468,12.17504],[-68.82198,12.15379],[-68.8143,12.14611],[-68.81184,12.12934],[-68.81023,12.1268],[-68.81291,12.12494],[-68.82362,12.12878],[-68.82605,12.12461],[-68.82129,12.12096]],[[-68.92877,12.1041],[-68.92652,12.10418],[-68.93063,12.10588],[-68.92877,12.1041]]],[[[-69.12489,12.2767],[-69.12566,12.27894],[-69.12364,12.27986],[-69.12489,12.2767]]]]}}]}}
