{"type":"FeatureCollection","features":[{"type":"Feature","properties":{"id":"CYM:ADM0:85170139B95597001709898","name":"Cayman Islands","countryCode":"CYM","adminLevel":0,"sourceCode":"85170139B95597001709898","parentId":"CYM:ADM1:CYM+00?"},"geometry":{"type":"MultiPolygon","coordinates":[[[[-81.32158,19.28576],[-81.3232,19.28542],[-81.3228,19.28902],[-81.32203,19.28758],[-81.32158,19.28576]]],[[[-81.36207,19.33868],[-81.37757,19.33617],[-81.36888,19.33459],[-81.37041,19.33684],[-81.36358,19.33685],[-81.36485,19.33033],[-81.36461,19.33395],[-81.3668,19.33026],[-81.36768,19.33181],[-81.37649,19.33089],[-81.37636,19.33063],[-81.3676,19.33033],[-81.36741,19.32732],[-81.38004,19.32812],[-81.36836,19.32714],[-81.36906,19.32344],[-81.37739,19.32381],[-81.37674,19.32048],[-81.37351,19.31793],[-81.365,19.31739],[-81.36764,19.31468],[-81.36445,19.31152],[-81.36833,19.31265],[-81.36279,19.30965],[-81.36247,19.31236],[-81.35844,19.30653],[-81.35906,19.30142],[-81.35388,19.30144],[-81.34629,19.29159],[-81.34321,19.29311],[-81.34312,19.28955],[-81.34586,19.28912],[-81.3433,19.28803],[-81.34766,19.28756],[-81.3433,19.28557],[-81.34757,19.2843],[-81.34447,19.28311],[-81.34267,19.28599],[-81.34258,19.29341],[-81.33735,19.29799],[-81.33391,19.29202],[-81.33766,19.2869],[-81.33479,19.28911],[-81.33488,19.28584],[-81.33272,19.28894],[-81.33384,19.29445],[-81.33137,19.29509],[-81.33061,19.28839],[-81.33003,19.29174],[-81.33101,19.29517],[-81.32976,19.29208],[-81.32805,19.29572],[-81.32814,19.2883],[-81.32787,19.29551],[-81.32291,19.29487],[-81.32441,19.28966],[-81.32263,19.29074],[-81.32437,19.28468],[-81.32102,19.28552],[-81.32242,19.29066],[-81.32008,19.28981],[-81.32218,19.29091],[-81.31538,19.29619],[-81.31408,19.29809],[-81.31121,19.29937],[-81.30672,19.29339],[-81.31017,19.29928],[-81.3075,19.30359],[-81.30759,19.30028],[-81.30579,19.30002],[-81.3053,19.30308],[-81.3046,19.29981],[-81.30144,19.30087],[-81.30458,19.29885],[-81.30054,19.29837],[-81.29987,19.30121],[-81.30323,19.30121],[-81.29871,19.30384],[-81.29912,19.29809],[-81.29748,19.30418],[-81.29745,19.29337],[-81.29632,19.30371],[-81.2901,19.31077],[-81.29636,19.3096],[-81.29362,19.32558],[-81.27974,19.32143],[-81.27265,19.32664],[-81.27251,19.33004],[-81.26995,19.32609],[-81.26348,19.32597],[-81.26299,19.32232],[-81.25778,19.32656],[-81.25699,19.32955],[-81.25996,19.33069],[-81.25791,19.34614],[-81.26178,19.34712],[-81.26355,19.34233],[-81.26631,19.34814],[-81.27219,19.3451],[-81.26714,19.35103],[-81.26856,19.3586],[-81.26425,19.35538],[-81.26211,19.3579],[-81.27098,19.3625],[-81.26762,19.36253],[-81.26778,19.36614],[-81.25476,19.36089],[-81.24285,19.35231],[-81.23076,19.34836],[-81.22251,19.34994],[-81.21182,19.34805],[-81.19799,19.34984],[-81.18495,19.34633],[-81.13398,19.35464],[-81.11754,19.35277],[-81.09952,19.34732],[-81.08951,19.33539],[-81.08743,19.31733],[-81.09051,19.30917],[-81.0995,19.30054],[-81.10025,19.29999],[-81.11362,19.29432],[-81.14813,19.29408],[-81.16028,19.2972],[-81.16485,19.30087],[-81.17667,19.30163],[-81.19196,19.29629],[-81.19319,19.29611],[-81.20123,19.29482],[-81.2136,19.29641],[-81.22859,19.29205],[-81.23233,19.28944],[-81.23346,19.28923],[-81.24882,19.2791],[-81.26647,19.26606],[-81.27636,19.26484],[-81.29272,19.26691],[-81.29347,19.26732],[-81.29441,19.26712],[-81.30528,19.2685],[-81.31168,19.2723],[-81.33499,19.27226],[-81.33852,19.27271],[-81.3411,19.27912],[-81.34617,19.28014],[-81.36133,19.27374],[-81.37572,19.27228],[-81.38398,19.26637],[-81.391,19.26958],[-81.39298,19.28097],[-81.38238,19.29791],[-81.38664,19.3119],[-81.38175,19.33474],[-81.38271,19.3462],[-81.38848,19.35902],[-81.3958,19.36614],[-81.41626,19.37151],[-81.41424,19.38235],[-81.41114,19.38648],[-81.39308,19.39443],[-81.37572,19.38898],[-81.37728,19.38181],[-81.3797,19.38209],[-81.37739,19.38398],[-81.38197,19.38593],[-81.3791,19.38419],[-81.38251,19.38462],[-81.38,19.38131],[-81.38381,19.37923],[-81.38117,19.37918],[-81.37483,19.36527],[-81.37876,19.36239],[-81.37553,19.36159],[-81.37362,19.36373],[-81.36985,19.35849],[-81.37153,19.35695],[-81.37418,19.3604],[-81.3718,19.35671],[-81.37492,19.35424],[-81.37299,19.35794],[-81.3804,19.35979],[-81.37586,19.35699],[-81.38177,19.35379],[-81.3784,19.35457],[-81.38089,19.35194],[-81.37739,19.35212],[-81.38076,19.35143],[-81.37676,19.35161],[-81.37869,19.34766],[-81.37537,19.34825],[-81.3786,19.3466],[-81.37456,19.34784],[-81.37854,19.34616],[-81.37577,19.34639],[-81.37823,19.34519],[-81.37559,19.34512],[-81.37647,19.33932],[-81.37443,19.33991],[-81.37375,19.34822],[-81.36908,19.34517],[-81.37065,19.3475],[-81.37312,19.34809],[-81.36899,19.35118],[-81.37025,19.3488],[-81.36805,19.34546],[-81.3649,19.34512],[-81.36926,19.34779],[-81.36711,19.34939],[-81.36985,19.3486],[-81.36827,19.35042],[-81.36919,19.35345],[-81.37418,19.35353],[-81.37063,19.35663],[-81.36401,19.34782],[-81.36186,19.34296],[-81.36207,19.33868]],[[-81.38181,19.36222],[-81.3837,19.35968],[-81.37943,19.36222],[-81.38181,19.36222]],[[-81.38635,19.364],[-81.38686,19.36852],[-81.39253,19.3667],[-81.38976,19.36263],[-81.38635,19.364]],[[-81.30092,19.29665],[-81.30079,19.29473],[-81.30038,19.29648],[-81.30092,19.29665]]],[[[-81.27345,19.36504],[-81.27557,19.36657],[-81.27516,19.36713],[-81.27274,19.36684],[-81.27345,19.36504]]],[[[-81.27507,19.35834],[-81.27341,19.36191],[-81.27633,19.36386],[-81.27242,19.36343],[-81.27192,19.36674],[-81.27035,19.36655],[-81.2704,19.36567],[-81.27489,19.35508],[-81.28073,19.35624],[-81.28075,19.35627],[-81.28115,19.35715],[-81.27507,19.35834]]],[[[-81.2706,19.36358],[-81.27024,19.36653],[-81.26834,19.3663],[-81.2706,19.36358]]],[[[-81.32364,19.29095],[-81.323,19.29434],[-81.31662,19.29599],[-81.31891,19.29379],[-81.32364,19.29095]]],[[[-81.2982,19.30891],[-81.29719,19.31113],[-81.29637,19.30778],[-81.2982,19.30891]]],[[[-81.36498,19.31796],[-81.37582,19.31997],[-81.37516,19.32177],[-81.36818,19.32137],[-81.36707,19.32295],[-81.36517,19.32139],[-81.36498,19.31796]]],[[[-81.37009,19.32327],[-81.36942,19.32183],[-81.37619,19.32227],[-81.3739,19.32337],[-81.37009,19.32327]]],[[[-81.26291,19.3297],[-81.26114,19.33051],[-81.2625,19.32771],[-81.26291,19.3297]]],[[[-81.289,19.32588],[-81.29457,19.32643],[-81.29488,19.33207],[-81.29009,19.33242],[-81.28808,19.33137],[-81.28694,19.33108],[-81.289,19.32588]]],[[[-80.06255,19.66391],[-80.06394,19.66518],[-80.06282,19.66573],[-80.06255,19.66391]]],[[[-79.98469,19.69848],[-79.99931,19.69537],[-80.04409,19.67347],[-80.05949,19.67617],[-80.0676,19.66591],[-80.08622,19.65777],[-80.11025,19.65997],[-80.09995,19.67265],[-80.07352,19.68392],[-80.06179,19.69525],[-80.00268,19.70451],[-79.97805,19.71263],[-79.96426,19.7049],[-79.96817,19.70319],[-79.97747,19.69773],[-79.98469,19.69848]]],[[[-79.72821,19.74165],[-79.74593,19.72739],[-79.75375,19.72347],[-79.81205,19.7059],[-79.83653,19.69603],[-79.855,19.69092],[-79.86826,19.68707],[-79.88933,19.68472],[-79.88349,19.69139],[-79.87132,19.70001],[-79.84291,19.70814],[-79.81405,19.72825],[-79.8131,19.72864],[-79.7787,19.73793],[-79.75966,19.75214],[-79.74238,19.75628],[-79.73152,19.7521],[-79.72816,19.74175],[-79.72821,19.74165]]]]}}],"admin1":{"type":"FeatureCollection","features":[{"type":"Feature","properties":{"id":"CYM:ADM1:CYM+00?","name":"Cayman Islands","countryCode":"CYM"},"geometry":{"type":"MultiPolygon","coordinates":[[[[-81.32203,19.28758],[-81.32158,19.28576],[-81.3232,19.28542],[-81.3228,19.28902],[-81.32203,19.28758]]],[[[-81.32364,19.29095],[-81.323,19.29434],[-81.31662,19.29599],[-81.31891,19.29379],[-81.32364,19.29095]]],[[[-81.29719,19.31113],[-81.29637,19.30778],[-81.2982,19.30891],[-81.29719,19.31113]]],[[[-81.36707,19.32295],[-81.36517,19.32139],[-81.36498,19.31796],[-81.37582,19.31997],[-81.37516,19.32177],[-81.36818,19.32137],[-81.36707,19.32295]]],[[[-81.37009,19.32327],[-81.36942,19.32183],[-81.37619,19.32227],[-81.3739,19.32337],[-81.37009,19.32327]]],[[[-81.28808,19.33137],[-81.28694,19.33108],[-81.289,19.32588],[-81.29457,19.32643],[-81.29488,19.33207],[-81.29009,19.33242],[-81.28808,19.33137]]],[[[-81.27192,19.36674],[-81.27035,19.36655],[-81.2704,19.36567],[-81.27489,19.35508],[-81.28073,19.35624],[-81.28075,19.35627],[-81.28115,19.35715],[-81.27507,19.35834],[-81.27341,19.36191],[-81.27633,19.36386],[-81.27242,19.36343],[-81.27192,19.36674]]],[[[-81.26291,19.3297],[-81.26114,19.33051],[-81.2625,19.32771],[-81.26291,19.3297]]],[[[-81.36358,19.33685],[-81.36485,19.33033],[-81.36461,19.33395],[-81.3668,19.33026],[-81.36768,19.33181],[-81.37649,19.33089],[-81.37636,19.33063],[-81.3676,19.33033],[-81.36741,19.32732],[-81.38004,19.32812],[-81.36836,19.32714],[-81.36906,19.32344],[-81.37739,19.32381],[-81.37674,19.32048],[-81.37351,19.31793],[-81.365,19.31739],[-81.36764,19.31468],[-81.36445,19.31152],[-81.36833,19.31265],[-81.36279,19.30965],[-81.36247,19.31236],[-81.35844,19.30653],[-81.35906,19.30142],[-81.35388,19.30144],[-81.34629,19.29159],[-81.34321,19.29311],[-81.34312,19.28955],[-81.34586,19.28912],[-81.3433,19.28803],[-81.34766,19.28756],[-81.3433,19.28557],[-81.34757,19.2843],[-81.34447,19.28311],[-81.34267,19.28599],[-81.34258,19.29341],[-81.33735,19.29799],[-81.33391,19.29202],[-81.33766,19.2869],[-81.33479,19.28911],[-81.33488,19.28584],[-81.33272,19.28894],[-81.33384,19.29445],[-81.33137,19.29509],[-81.33061,19.28839],[-81.33003,19.29174],[-81.33101,19.29517],[-81.32976,19.29208],[-81.32805,19.29572],[-81.32814,19.2883],[-81.32787,19.29551],[-81.32291,19.29487],[-81.32441,19.28966],[-81.32263,19.29074],[-81.32437,19.28468],[-81.32102,19.28552],[-81.32242,19.29066],[-81.32008,19.28981],[-81.32218,19.29091],[-81.31538,19.29619],[-81.31408,19.29809],[-81.31121,19.29937],[-81.30672,19.29339],[-81.31017,19.29928],[-81.3075,19.30359],[-81.30759,19.30028],[-81.30579,19.30002],[-81.3053,19.30308],[-81.3046,19.29981],[-81.30144,19.30087],[-81.30458,19.29885],[-81.30054,19.29837],[-81.29987,19.30121],[-81.30323,19.30121],[-81.29871,19.30384],[-81.29912,19.29809],[-81.29748,19.30418],[-81.29745,19.29337],[-81.29632,19.30371],[-81.2901,19.31077],[-81.29636,19.3096],[-81.29362,19.32558],[-81.27974,19.32143],[-81.27265,19.32664],[-81.27251,19.33004],[-81.26995,19.32609],[-81.26348,19.32597],[-81.26299,19.32232],[-81.25778,19.32656],[-81.25699,19.32955],[-81.25996,19.33069],[-81.25791,19.34614],[-81.26178,19.34712],[-81.26355,19.34233],[-81.26631,19.34814],[-81.27219,19.3451],[-81.26714,19.35103],[-81.26856,19.3586],[-81.26425,19.35538],[-81.26211,19.3579],[-81.27098,19.3625],[-81.26762,19.36253],[-81.26778,19.36614],[-81.25476,19.36089],[-81.24285,19.35231],[-81.23076,19.34836],[-81.22251,19.34994],[-81.21182,19.34805],[-81.19799,19.34984],[-81.18495,19.34633],[-81.13398,19.35464],[-81.11754,19.35277],[-81.09952,19.34732],[-81.08951,19.33539],[-81.08743,19.31733],[-81.09051,19.30917],[-81.0995,19.30054],[-81.10025,19.29999],[-81.11362,19.29432],[-81.14813,19.29408],[-81.16028,19.2972],[-81.16485,19.30087],[-81.17667,19.30163],[-81.19196,19.29629],[-81.19319,19.29611],[-81.20123,19.29482],[-81.2136,19.29641],[-81.22859,19.29205],[-81.23233,19.28944],[-81.23346,19.28923],[-81.24882,19.2791],[-81.26647,19.26606],[-81.27636,19.26484],[-81.29272,19.26691],[-81.29347,19.26732],[-81.29441,19.26712],[-81.30528,19.2685],[-81.31168,19.2723],[-81.33499,19.27226],[-81.33852,19.27271],[-81.3411,19.27912],[-81.34617,19.28014],[-81.36133,19.27374],[-81.37572,19.27228],[-81.38398,19.26637],[-81.391,19.26958],[-81.39298,19.28097],[-81.38238,19.29791],[-81.38664,19.3119],[-81.38175,19.33474],[-81.38271,19.3462],[-81.38848,19.35902],[-81.3958,19.36614],[-81.41626,19.37151],[-81.41424,19.38235],[-81.41114,19.38648],[-81.39308,19.39443],[-81.37572,19.38898],[-81.37728,19.38181],[-81.3797,19.38209],[-81.37739,19.38398],[-81.38197,19.38593],[-81.3791,19.38419],[-81.38251,19.38462],[-81.38,19.38131],[-81.38381,19.37923],[-81.38117,19.37918],[-81.37483,19.36527],[-81.37876,19.36239],[-81.37553,19.36159],[-81.37362,19.36373],[-81.36985,19.35849],[-81.37153,19.35695],[-81.37418,19.3604],[-81.3718,19.35671],[-81.37492,19.35424],[-81.37299,19.35794],[-81.3804,19.35979],[-81.37586,19.35699],[-81.38177,19.35379],[-81.3784,19.35457],[-81.38089,19.35194],[-81.37739,19.35212],[-81.38076,19.35143],[-81.37676,19.35161],[-81.37869,19.34766],[-81.37537,19.34825],[-81.3786,19.3466],[-81.37456,19.34784],[-81.37854,19.34616],[-81.37577,19.34639],[-81.37823,19.34519],[-81.37559,19.34512],[-81.37647,19.33932],[-81.37443,19.33991],[-81.37375,19.34822],[-81.36908,19.34517],[-81.37065,19.3475],[-81.37312,19.34809],[-81.36899,19.35118],[-81.37025,19.3488],[-81.36805,19.34546],[-81.3649,19.34512],[-81.36926,19.34779],[-81.36711,19.34939],[-81.36985,19.3486],[-81.36827,19.35042],[-81.36919,19.35345],[-81.37418,19.35353],[-81.37063,19.35663],[-81.36401,19.34782],[-81.36186,19.34296],[-81.36207,19.33868],[-81.37757,19.33617],[-81.36888,19.33459],[-81.37041,19.33684],[-81.36358,19.33685]],[[-81.3837,19.35968],[-81.37943,19.36222],[-81.38181,19.36222],[-81.3837,19.35968]],[[-81.38635,19.364],[-81.38686,19.36852],[-81.39253,19.3667],[-81.38976,19.36263],[-81.38635,19.364]],[[-81.30079,19.29473],[-81.30038,19.29648],[-81.30092,19.29665],[-81.30079,19.29473]]],[[[-81.27024,19.36653],[-81.26834,19.3663],[-81.2706,19.36358],[-81.27024,19.36653]]],[[[-81.27345,19.36504],[-81.27557,19.36657],[-81.27516,19.36713],[-81.27274,19.36684],[-81.27345,19.36504]]],[[[-80.06394,19.66518],[-80.06282,19.66573],[-80.06255,19.66391],[-80.06394,19.66518]]],[[[-80.0676,19.66591],[-80.08622,19.65777],[-80.11025,19.65997],[-80.09995,19.67265],[-80.07352,19.68392],[-80.06179,19.69525],[-80.00268,19.70451],[-79.97805,19.71263],[-79.96426,19.7049],[-79.96817,19.70319],[-79.97747,19.69773],[-79.98469,19.69848],[-79.99931,19.69537],[-80.04409,19.67347],[-80.05949,19.67617],[-80.0676,19.66591]]],[[[-79.83653,19.69603],[-79.855,19.69092],[-79.86826,19.68707],[-79.88933,19.68472],[-79.88349,19.69139],[-79.87132,19.70001],[-79.84291,19.70814],[-79.81405,19.72825],[-79.8131,19.72864],[-79.7787,19.73793],[-79.75966,19.75214],[-79.74238,19.75628],[-79.73152,19.7521],[-79.72816,19.74175],[-79.72821,19.74165],[-79.74593,19.72739],[-79.75375,19.72347],[-79.81205,19.7059],[-79.83653,19.69603]]]]}}]}}
