{"type":"FeatureCollection","features":[{"type":"Feature","properties":{"id":"CYP:ADM0:39009224B6892139649763","name":"Cyprus","countryCode":"CYP","adminLevel":0,"sourceCode":"39009224B6892139649763","parentId":"CYP:ADM1:CYP-3464"},"geometry":{"type":"MultiPolygon","coordinates":[[[[33.78513,34.99572],[33.79191,34.98898],[33.78024,34.98725],[33.75679,34.99924],[33.76145,35.00075],[33.77529,34.99551],[33.78513,34.99572]]],[[[33.73444,35.01208],[33.73789,35.02147],[33.74983,35.02246],[33.7493,35.01322],[33.74451,35.0121],[33.73444,35.01208]]],[[[34.2823,35.57582],[34.29011,35.576],[34.2953,35.57963],[34.31967,35.58617],[34.36148,35.60831],[34.5442,35.67837],[34.57846,35.68977],[34.58475,35.69075],[34.57683,35.68203],[34.57831,35.67377],[34.57828,35.67351],[34.57284,35.67024],[34.5748,35.66731],[34.57222,35.66643],[34.57556,35.65724],[34.56268,35.64129],[34.53728,35.63978],[34.53137,35.63738],[34.53134,35.63382],[34.51323,35.6334],[34.50491,35.6258],[34.4986,35.62627],[34.4957,35.62192],[34.46668,35.61753],[34.44326,35.60515],[34.44034,35.6009],[34.4374,35.60181],[34.43414,35.59666],[34.42486,35.59273],[34.42287,35.58684],[34.42501,35.58348],[34.41632,35.58101],[34.41065,35.56191],[34.4019,35.55573],[34.39938,35.55535],[34.37881,35.53995],[34.35798,35.53504],[34.35506,35.52981],[34.34654,35.52734],[34.34521,35.52298],[34.34018,35.52317],[34.32666,35.51368],[34.31377,35.50174],[34.25043,35.47057],[34.24631,35.46944],[34.22131,35.45685],[34.18339,35.44405],[34.13421,35.41594],[34.1308,35.41008],[34.10906,35.39427],[34.09737,35.38218],[34.08164,35.36914],[34.07884,35.35966],[34.07946,35.35869],[34.07806,35.35607],[34.07801,35.35607],[34.07752,35.35506],[34.06821,35.33771],[34.06083,35.32691],[34.01169,35.32015],[33.99799,35.32733],[33.96695,35.32181],[33.95434,35.31283],[33.95167,35.31151],[33.95043,35.31005],[33.94159,35.30376],[33.93558,35.29262],[33.92359,35.27855],[33.92221,35.27631],[33.92158,35.27598],[33.91869,35.27062],[33.91394,35.26293],[33.90656,35.25732],[33.90289,35.24078],[33.90429,35.2195],[33.9,35.21388],[33.89988,35.20309],[33.90269,35.19356],[33.89991,35.16445],[33.91375,35.15624],[33.93171,35.1411],[33.93715,35.13249],[33.94089,35.13336],[33.94274,35.1318],[33.94814,35.12312],[33.9541,35.12205],[33.95963,35.11538],[33.96164,35.107],[33.96616,35.10174],[33.96681,35.10008],[33.97565,35.09069],[33.98808,35.07623],[33.99972,35.07093],[33.99942,35.06803],[34.00129,35.06955],[34.01513,35.055],[34.02535,35.05137],[34.04218,35.03165],[34.05025,35.02656],[34.05446,35.01625],[34.05957,35.01209],[34.06218,35.00568],[34.06275,35.0048],[34.06336,35.00303],[34.06406,35.00275],[34.06685,34.99839],[34.06675,34.99824],[34.06727,34.99772],[34.07342,34.9881],[34.07503,34.9862],[34.07306,34.98612],[34.0701,34.98164],[34.07304,34.97628],[34.07663,34.97614],[34.07793,34.96636],[34.08078,34.96473],[34.05942,34.96662],[34.05553,34.96753],[34.05454,34.96833],[34.03403,34.97292],[34.02345,34.98257],[34.01157,34.98762],[33.98092,34.9844],[33.97962,34.98695],[33.97354,34.9857],[33.97127,34.98825],[33.96286,34.98515],[33.95893,34.98705],[33.95521,34.98228],[33.95564,34.98151],[33.95338,34.98095],[33.94941,34.98224],[33.89929,34.97137],[33.90183,34.96609],[33.90136,34.96586],[33.86604,34.97556],[33.84748,34.97062],[33.8332,34.9817],[33.85796,34.98998],[33.85911,35.00179],[33.85196,35.00607],[33.83962,35.00615],[33.82944,35.0172],[33.82955,35.02818],[33.8163,35.04095],[33.80094,35.04781],[33.80615,35.05537],[33.82028,35.06574],[33.83808,35.05769],[33.84891,35.0571],[33.86141,35.06113],[33.88423,35.07817],[33.89471,35.06887],[33.90248,35.0771],[33.91015,35.07579],[33.91513,35.079],[33.91779,35.08689],[33.90647,35.09933],[33.89828,35.1145],[33.88669,35.11416],[33.88958,35.12016],[33.88512,35.12463],[33.87223,35.12324],[33.87627,35.1041],[33.87115,35.09421],[33.87534,35.089],[33.85457,35.07215],[33.84145,35.06849],[33.82964,35.07475],[33.81948,35.0759],[33.78676,35.05197],[33.76062,35.04247],[33.73834,35.05317],[33.71491,35.03726],[33.70202,35.04895],[33.71612,35.07252],[33.70857,35.07658],[33.69107,35.06232],[33.6848,35.06615],[33.67754,35.05954],[33.67685,35.03864],[33.69943,35.03112],[33.69725,35.01719],[33.71564,35.00251],[33.70578,34.99201],[33.7057,34.9793],[33.6867,34.97526],[33.66691,34.96648],[33.64701,34.94643],[33.64124,34.933],[33.64503,34.92806],[33.64486,34.92767],[33.64118,34.92921],[33.64018,34.9271],[33.64123,34.92395],[33.64368,34.92485],[33.64288,34.92295],[33.64109,34.92177],[33.64156,34.91981],[33.64024,34.91667],[33.63932,34.91605],[33.63994,34.91596],[33.63982,34.91568],[33.63844,34.91076],[33.63791,34.90992],[33.63793,34.90892],[33.63478,34.89765],[33.63299,34.87983],[33.63495,34.86139],[33.62219,34.84853],[33.61695,34.84528],[33.61566,34.84194],[33.60828,34.8345],[33.60442,34.82147],[33.59161,34.8184],[33.58171,34.82068],[33.55138,34.81916],[33.54274,34.81548],[33.52362,34.79783],[33.50022,34.78682],[33.49702,34.78032],[33.47761,34.77636],[33.47152,34.77609],[33.47083,34.77497],[33.46762,34.77432],[33.46444,34.77305],[33.45837,34.77317],[33.42842,34.76377],[33.42476,34.76021],[33.41521,34.75845],[33.40016,34.77338],[33.39928,34.74812],[33.39329,34.74706],[33.37365,34.73596],[33.36988,34.73094],[33.34593,34.73076],[33.33594,34.7249],[33.30972,34.72041],[33.30376,34.72169],[33.30661,34.72267],[33.28982,34.72459],[33.27461,34.7173],[33.27176,34.7086],[33.26006,34.70539],[33.19471,34.70603],[33.1689,34.71141],[33.16482,34.70953],[33.16769,34.70824],[33.16567,34.7086],[33.16417,34.70997],[33.16437,34.71209],[33.15405,34.71282],[33.12074,34.70638],[33.09318,34.6963],[33.08644,34.69481],[33.08165,34.69209],[33.06102,34.68455],[33.04149,34.66994],[33.04212,34.66796],[33.04323,34.66814],[33.04369,34.66616],[33.04311,34.66525],[33.03856,34.66451],[33.04331,34.66622],[33.04186,34.6679],[33.04139,34.67013],[33.04075,34.66667],[33.03788,34.66981],[33.0248,34.66165],[33.02216,34.65764],[33.0243,34.65085],[33.02094,34.65556],[33.01643,34.65484],[33.01598,34.64787],[33.00687,34.64817],[33.0069,34.6447],[33.01901,34.64481],[33.02287,34.64633],[33.02236,34.6455],[33.02023,34.64453],[32.9693,34.63888],[32.95878,34.62896],[32.94848,34.65932],[32.95415,34.66441],[32.97067,34.66146],[32.977,34.65381],[32.99003,34.65519],[32.98682,34.66931],[32.99104,34.6806],[32.95536,34.68427],[32.94729,34.67939],[32.94371,34.67105],[32.93684,34.66999],[32.9349,34.66402],[32.92815,34.66744],[32.93107,34.67076],[32.9212,34.67379],[32.91339,34.67273],[32.90801,34.6632],[32.90081,34.66398],[32.86189,34.68756],[32.86009,34.70583],[32.82696,34.70619],[32.82082,34.6968],[32.80782,34.69373],[32.79417,34.6787],[32.7719,34.6793],[32.7605,34.68313],[32.75585,34.65181],[32.7492,34.64985],[32.73284,34.64811],[32.72251,34.64966],[32.71773,34.6472],[32.71759,34.6465],[32.70737,34.64541],[32.68442,34.64914],[32.6793,34.65163],[32.66115,34.65384],[32.64219,34.66071],[32.63204,34.6651],[32.62882,34.66555],[32.62623,34.66649],[32.57504,34.69282],[32.55665,34.69937],[32.53582,34.70356],[32.52094,34.70486],[32.51921,34.70617],[32.51042,34.70826],[32.50454,34.70628],[32.49334,34.70726],[32.48853,34.70889],[32.4872,34.71027],[32.48412,34.71039],[32.47829,34.71237],[32.47313,34.71939],[32.45005,34.73387],[32.43909,34.73491],[32.43475,34.73775],[32.43484,34.738],[32.43137,34.73997],[32.42348,34.74514],[32.41598,34.75547],[32.41291,34.75547],[32.40707,34.78242],[32.40301,34.78706],[32.40235,34.79645],[32.39314,34.81736],[32.39314,34.81865],[32.3922,34.81948],[32.38814,34.82869],[32.39104,34.83247],[32.3882,34.84051],[32.38002,34.8481],[32.3796,34.84807],[32.37916,34.84907],[32.36793,34.857],[32.34669,34.8686],[32.34203,34.87263],[32.34184,34.87317],[32.34088,34.87362],[32.33766,34.87641],[32.33329,34.88173],[32.33308,34.8842],[32.32955,34.88629],[32.32944,34.88642],[32.32342,34.89842],[32.32294,34.9078],[32.32526,34.90951],[32.32527,34.9151],[32.33139,34.92422],[32.31218,34.95026],[32.31059,34.95918],[32.3134,34.96275],[32.31031,34.96962],[32.31031,34.97493],[32.31342,34.98013],[32.31069,34.98911],[32.31378,34.99594],[32.30867,35.00581],[32.30493,35.00527],[32.29573,35.01835],[32.29428,35.01799],[32.28419,35.03238],[32.27613,35.04776],[32.27174,35.07282],[32.27284,35.0787],[32.27361,35.08048],[32.27353,35.08239],[32.27516,35.09105],[32.28663,35.09715],[32.30099,35.08896],[32.30484,35.08334],[32.31758,35.07596],[32.33668,35.05874],[32.35336,35.04792],[32.37232,35.04149],[32.37764,35.04169],[32.37825,35.04149],[32.39752,35.0424],[32.39326,35.04179],[32.40257,35.03952],[32.43147,35.04616],[32.4551,35.05777],[32.48065,35.07632],[32.50577,35.10906],[32.51862,35.13198],[32.51889,35.13784],[32.52371,35.14434],[32.5398,35.15296],[32.55142,35.17575],[32.55572,35.17595],[32.55817,35.17073],[32.57129,35.16959],[32.57457,35.17063],[32.57472,35.1706],[32.58481,35.17251],[32.59864,35.17745],[32.6024,35.17721],[32.61136,35.18031],[32.61233,35.18235],[32.61939,35.18488],[32.64072,35.18708],[32.6504,35.18806],[32.65984,35.18708],[32.69158,35.1837],[32.71144,35.18163],[32.72142,35.18057],[32.72851,35.17837],[32.73406,35.17924],[32.73935,35.17868],[32.74205,35.17442],[32.7856,35.16073],[32.7933,35.15228],[32.81491,35.14688],[32.82456,35.14084],[32.85286,35.14848],[32.86483,35.15687],[32.86525,35.15697],[32.87002,35.16012],[32.88155,35.16212],[32.899,35.17632],[32.90905,35.19422],[32.91472,35.20083],[32.92937,35.23298],[32.93251,35.25491],[32.93343,35.25766],[32.93944,35.30754],[32.93568,35.31816],[32.93605,35.33662],[32.93214,35.36628],[32.92065,35.39716],[32.92062,35.39775],[32.93817,35.39536],[32.94665,35.39127],[32.95383,35.38991],[32.98458,35.37496],[32.99387,35.36813],[33.02395,35.36556],[33.02623,35.36634],[33.03771,35.36433],[33.0485,35.35816],[33.06375,35.35521],[33.09722,35.35381],[33.10952,35.36067],[33.13479,35.3619],[33.13684,35.35963],[33.17062,35.35128],[33.18317,35.35042],[33.19285,35.35664],[33.21925,35.35387],[33.2231,35.35076],[33.24196,35.34468],[33.25494,35.34655],[33.25676,35.34995],[33.26071,35.34953],[33.26582,35.34808],[33.28061,35.34248],[33.33885,35.3371],[33.34822,35.33487],[33.35316,35.33578],[33.36983,35.33425],[33.37084,35.33384],[33.37126,35.33411],[33.4275,35.32892],[33.46624,35.33398],[33.46912,35.33263],[33.48071,35.33219],[33.48904,35.33618],[33.49347,35.33494],[33.49621,35.33789],[33.50498,35.33904],[33.51517,35.33909],[33.52007,35.34101],[33.55371,35.3454],[33.56737,35.34667],[33.57131,35.3477],[33.64508,35.35733],[33.64672,35.35696],[33.65028,35.35801],[33.66033,35.35932],[33.67152,35.36453],[33.68546,35.36958],[33.69279,35.37445],[33.74285,35.39777],[33.77656,35.41348],[33.79311,35.41134],[33.80253,35.41421],[33.81219,35.41294],[33.81744,35.41143],[33.82218,35.41162],[33.83465,35.40998],[33.84443,35.41254],[33.84988,35.41276],[33.87941,35.42013],[33.88291,35.42259],[33.88794,35.42391],[33.89482,35.42612],[33.8986,35.42543],[33.90352,35.42867],[33.91135,35.42817],[33.91952,35.43139],[33.91955,35.43407],[33.92371,35.43541],[33.93683,35.43511],[33.94033,35.43868],[33.94724,35.43914],[33.95146,35.44433],[33.95217,35.44456],[33.96393,35.44273],[33.97747,35.44584],[33.98826,35.455],[34.0065,35.45729],[34.02292,35.4673],[34.03019,35.46964],[34.03397,35.46875],[34.0351,35.47122],[34.03562,35.47138],[34.03635,35.47179],[34.04818,35.47428],[34.05246,35.48088],[34.0536,35.48152],[34.05893,35.4801],[34.07952,35.49533],[34.07998,35.49547],[34.08173,35.49351],[34.09684,35.49543],[34.10571,35.50049],[34.11671,35.50065],[34.12619,35.50493],[34.13039,35.5111],[34.13119,35.51135],[34.18165,35.55418],[34.19732,35.55689],[34.20369,35.55669],[34.20531,35.55827],[34.21039,35.55915],[34.21127,35.55935],[34.2144,35.55566],[34.221,35.56079],[34.22251,35.55692],[34.22927,35.5569],[34.23273,35.56013],[34.22956,35.5595],[34.23341,35.56044],[34.23554,35.5588],[34.24303,35.56185],[34.24499,35.56671],[34.24956,35.56744],[34.2496,35.5681],[34.25961,35.57039],[34.26297,35.57012],[34.26367,35.57132],[34.26779,35.57226],[34.28211,35.5761],[34.2823,35.57582]]],[[[34.08607,34.96562],[34.08597,34.96439],[34.08522,34.96434],[34.08368,34.96448],[34.08607,34.96562]]]]}}],"admin1":{"type":"FeatureCollection","features":[{"type":"Feature","properties":{"id":"CYP:ADM1:CYP-3464","name":"Nicosia","countryCode":"CYP"},"geometry":{"type":"MultiPolygon","coordinates":[[[[34.08522,34.96434],[34.08368,34.96448],[34.08607,34.96562],[34.08597,34.96439],[34.08522,34.96434]]],[[[33.78024,34.98725],[33.75679,34.99924],[33.76145,35.00075],[33.77529,34.99551],[33.78513,34.99572],[33.79191,34.98898],[33.78024,34.98725]]],[[[33.74983,35.02246],[33.7493,35.01322],[33.74451,35.0121],[33.73444,35.01208],[33.73789,35.02147],[33.74983,35.02246]]],[[[34.2953,35.57963],[34.31967,35.58617],[34.36148,35.60831],[34.5442,35.67837],[34.57846,35.68977],[34.58475,35.69075],[34.57683,35.68203],[34.57831,35.67377],[34.57828,35.67351],[34.57284,35.67024],[34.5748,35.66731],[34.57222,35.66643],[34.57556,35.65724],[34.56268,35.64129],[34.53728,35.63978],[34.53137,35.63738],[34.53134,35.63382],[34.51323,35.6334],[34.50491,35.6258],[34.4986,35.62627],[34.4957,35.62192],[34.46668,35.61753],[34.44326,35.60515],[34.44034,35.6009],[34.4374,35.60181],[34.43414,35.59666],[34.42486,35.59273],[34.42287,35.58684],[34.42501,35.58348],[34.41632,35.58101],[34.41065,35.56191],[34.4019,35.55573],[34.39938,35.55535],[34.37881,35.53995],[34.35798,35.53504],[34.35506,35.52981],[34.34654,35.52734],[34.34521,35.52298],[34.34018,35.52317],[34.32666,35.51368],[34.31377,35.50174],[34.25043,35.47057],[34.24631,35.46944],[34.22131,35.45685],[34.18339,35.44405],[34.13421,35.41594],[34.1308,35.41008],[34.10906,35.39427],[34.09737,35.38218],[34.08164,35.36914],[34.07884,35.35966],[34.07946,35.35869],[34.07806,35.35607],[34.07801,35.35607],[34.07752,35.35506],[34.06821,35.33771],[34.06083,35.32691],[34.01169,35.32015],[33.99799,35.32733],[33.96695,35.32181],[33.95434,35.31283],[33.95167,35.31151],[33.95043,35.31005],[33.94159,35.30376],[33.93558,35.29262],[33.92359,35.27855],[33.92221,35.27631],[33.92158,35.27598],[33.91869,35.27062],[33.91394,35.26293],[33.90656,35.25732],[33.90289,35.24078],[33.90429,35.2195],[33.9,35.21388],[33.89988,35.20309],[33.90269,35.19356],[33.89991,35.16445],[33.91375,35.15624],[33.93171,35.1411],[33.93715,35.13249],[33.94089,35.13336],[33.94274,35.1318],[33.94814,35.12312],[33.9541,35.12205],[33.95963,35.11538],[33.96164,35.107],[33.96616,35.10174],[33.96681,35.10008],[33.97565,35.09069],[33.98808,35.07623],[33.99972,35.07093],[33.99942,35.06803],[34.00129,35.06955],[34.01513,35.055],[34.02535,35.05137],[34.04218,35.03165],[34.05025,35.02656],[34.05446,35.01625],[34.05957,35.01209],[34.06218,35.00568],[34.06275,35.0048],[34.06336,35.00303],[34.06406,35.00275],[34.06685,34.99839],[34.06675,34.99824],[34.06727,34.99772],[34.07342,34.9881],[34.07503,34.9862],[34.07306,34.98612],[34.0701,34.98164],[34.07304,34.97628],[34.07663,34.97614],[34.07793,34.96636],[34.08078,34.96473],[34.05942,34.96662],[34.05553,34.96753],[34.05454,34.96833],[34.03403,34.97292],[34.02345,34.98257],[34.01157,34.98762],[33.98092,34.9844],[33.97962,34.98695],[33.97354,34.9857],[33.97127,34.98825],[33.96286,34.98515],[33.95893,34.98705],[33.95521,34.98228],[33.95564,34.98151],[33.95338,34.98095],[33.94941,34.98224],[33.89929,34.97137],[33.90183,34.96609],[33.90136,34.96586],[33.86604,34.97556],[33.84748,34.97062],[33.8332,34.9817],[33.85796,34.98998],[33.85911,35.00179],[33.85196,35.00607],[33.83962,35.00615],[33.82944,35.0172],[33.82955,35.02818],[33.8163,35.04095],[33.80094,35.04781],[33.80615,35.05537],[33.82028,35.06574],[33.83808,35.05769],[33.84891,35.0571],[33.86141,35.06113],[33.88423,35.07817],[33.89471,35.06887],[33.90248,35.0771],[33.91015,35.07579],[33.91513,35.079],[33.91779,35.08689],[33.90647,35.09933],[33.89828,35.1145],[33.88669,35.11416],[33.88958,35.12016],[33.88512,35.12463],[33.87223,35.12324],[33.87627,35.1041],[33.87115,35.09421],[33.87534,35.089],[33.85457,35.07215],[33.84145,35.06849],[33.82964,35.07475],[33.81948,35.0759],[33.78676,35.05197],[33.76062,35.04247],[33.73834,35.05317],[33.71491,35.03726],[33.70202,35.04895],[33.71612,35.07252],[33.70857,35.07658],[33.69107,35.06232],[33.6848,35.06615],[33.67754,35.05954],[33.67685,35.03864],[33.69943,35.03112],[33.69725,35.01719],[33.71564,35.00251],[33.70578,34.99201],[33.7057,34.9793],[33.6867,34.97526],[33.66691,34.96648],[33.64701,34.94643],[33.64124,34.933],[33.64503,34.92806],[33.64486,34.92767],[33.64118,34.92921],[33.64018,34.9271],[33.64123,34.92395],[33.64368,34.92485],[33.64288,34.92295],[33.64109,34.92177],[33.64156,34.91981],[33.64024,34.91667],[33.63932,34.91605],[33.63994,34.91596],[33.63982,34.91568],[33.63844,34.91076],[33.63791,34.90992],[33.63793,34.90892],[33.63478,34.89765],[33.63299,34.87983],[33.63495,34.86139],[33.62219,34.84853],[33.61695,34.84528],[33.61566,34.84194],[33.60828,34.8345],[33.60442,34.82147],[33.59161,34.8184],[33.58171,34.82068],[33.55138,34.81916],[33.54274,34.81548],[33.52362,34.79783],[33.50022,34.78682],[33.49702,34.78032],[33.47761,34.77636],[33.47152,34.77609],[33.47083,34.77497],[33.46762,34.77432],[33.46444,34.77305],[33.45837,34.77317],[33.42842,34.76377],[33.42476,34.76021],[33.41521,34.75845],[33.40016,34.77338],[33.39928,34.74812],[33.39329,34.74706],[33.37365,34.73596],[33.36988,34.73094],[33.34593,34.73076],[33.33594,34.7249],[33.30972,34.72041],[33.30376,34.72169],[33.30661,34.72267],[33.28982,34.72459],[33.27461,34.7173],[33.27176,34.7086],[33.26006,34.70539],[33.19471,34.70603],[33.1689,34.71141],[33.16482,34.70953],[33.16769,34.70824],[33.16567,34.7086],[33.16417,34.70997],[33.16437,34.71209],[33.15405,34.71282],[33.12074,34.70638],[33.09318,34.6963],[33.08644,34.69481],[33.08165,34.69209],[33.06102,34.68455],[33.04149,34.66994],[33.04212,34.66796],[33.04323,34.66814],[33.04369,34.66616],[33.04311,34.66525],[33.03856,34.66451],[33.04331,34.66622],[33.04186,34.6679],[33.04139,34.67013],[33.04075,34.66667],[33.03788,34.66981],[33.0248,34.66165],[33.02216,34.65764],[33.0243,34.65085],[33.02094,34.65556],[33.01643,34.65484],[33.01598,34.64787],[33.00687,34.64817],[33.0069,34.6447],[33.01901,34.64481],[33.02287,34.64633],[33.02236,34.6455],[33.02023,34.64453],[32.9693,34.63888],[32.95878,34.62896],[32.94848,34.65932],[32.95415,34.66441],[32.97067,34.66146],[32.977,34.65381],[32.99003,34.65519],[32.98682,34.66931],[32.99104,34.6806],[32.95536,34.68427],[32.94729,34.67939],[32.94371,34.67105],[32.93684,34.66999],[32.9349,34.66402],[32.92815,34.66744],[32.93107,34.67076],[32.9212,34.67379],[32.91339,34.67273],[32.90801,34.6632],[32.90081,34.66398],[32.86189,34.68756],[32.86009,34.70583],[32.82696,34.70619],[32.82082,34.6968],[32.80782,34.69373],[32.79417,34.6787],[32.7719,34.6793],[32.7605,34.68313],[32.75585,34.65181],[32.7492,34.64985],[32.73284,34.64811],[32.72251,34.64966],[32.71773,34.6472],[32.71759,34.6465],[32.70737,34.64541],[32.68442,34.64914],[32.6793,34.65163],[32.66115,34.65384],[32.64219,34.66071],[32.63204,34.6651],[32.62882,34.66555],[32.62623,34.66649],[32.57504,34.69282],[32.55665,34.69937],[32.53582,34.70356],[32.52094,34.70486],[32.51921,34.70617],[32.51042,34.70826],[32.50454,34.70628],[32.49334,34.70726],[32.48853,34.70889],[32.4872,34.71027],[32.48412,34.71039],[32.47829,34.71237],[32.47313,34.71939],[32.45005,34.73387],[32.43909,34.73491],[32.43475,34.73775],[32.43484,34.738],[32.43137,34.73997],[32.42348,34.74514],[32.41598,34.75547],[32.41291,34.75547],[32.40707,34.78242],[32.40301,34.78706],[32.40235,34.79645],[32.39314,34.81736],[32.39314,34.81865],[32.3922,34.81948],[32.38814,34.82869],[32.39104,34.83247],[32.3882,34.84051],[32.38002,34.8481],[32.3796,34.84807],[32.37916,34.84907],[32.36793,34.857],[32.34669,34.8686],[32.34203,34.87263],[32.34184,34.87317],[32.34088,34.87362],[32.33766,34.87641],[32.33329,34.88173],[32.33308,34.8842],[32.32955,34.88629],[32.32944,34.88642],[32.32342,34.89842],[32.32294,34.9078],[32.32526,34.90951],[32.32527,34.9151],[32.33139,34.92422],[32.31218,34.95026],[32.31059,34.95918],[32.3134,34.96275],[32.31031,34.96962],[32.31031,34.97493],[32.31342,34.98013],[32.31069,34.98911],[32.31378,34.99594],[32.30867,35.00581],[32.30493,35.00527],[32.29573,35.01835],[32.29428,35.01799],[32.28419,35.03238],[32.27613,35.04776],[32.27174,35.07282],[32.27284,35.0787],[32.27361,35.08048],[32.27353,35.08239],[32.27516,35.09105],[32.28663,35.09715],[32.30099,35.08896],[32.30484,35.08334],[32.31758,35.07596],[32.33668,35.05874],[32.35336,35.04792],[32.37232,35.04149],[32.37764,35.04169],[32.37825,35.04149],[32.39752,35.0424],[32.39326,35.04179],[32.40257,35.03952],[32.43147,35.04616],[32.4551,35.05777],[32.48065,35.07632],[32.50577,35.10906],[32.51862,35.13198],[32.51889,35.13784],[32.52371,35.14434],[32.5398,35.15296],[32.55142,35.17575],[32.55572,35.17595],[32.55817,35.17073],[32.57129,35.16959],[32.57457,35.17063],[32.57472,35.1706],[32.58481,35.17251],[32.59864,35.17745],[32.6024,35.17721],[32.61136,35.18031],[32.61233,35.18235],[32.61939,35.18488],[32.64072,35.18708],[32.6504,35.18806],[32.65984,35.18708],[32.69158,35.1837],[32.71144,35.18163],[32.72142,35.18057],[32.72851,35.17837],[32.73406,35.17924],[32.73935,35.17868],[32.74205,35.17442],[32.7856,35.16073],[32.7933,35.15228],[32.81491,35.14688],[32.82456,35.14084],[32.85286,35.14848],[32.86483,35.15687],[32.86525,35.15697],[32.87002,35.16012],[32.88155,35.16212],[32.899,35.17632],[32.90905,35.19422],[32.91472,35.20083],[32.92937,35.23298],[32.93251,35.25491],[32.93343,35.25766],[32.93944,35.30754],[32.93568,35.31816],[32.93605,35.33662],[32.93214,35.36628],[32.92065,35.39716],[32.92062,35.39775],[32.93817,35.39536],[32.94665,35.39127],[32.95383,35.38991],[32.98458,35.37496],[32.99387,35.36813],[33.02395,35.36556],[33.02623,35.36634],[33.03771,35.36433],[33.0485,35.35816],[33.06375,35.35521],[33.09722,35.35381],[33.10952,35.36067],[33.13479,35.3619],[33.13684,35.35963],[33.17062,35.35128],[33.18317,35.35042],[33.19285,35.35664],[33.21925,35.35387],[33.2231,35.35076],[33.24196,35.34468],[33.25494,35.34655],[33.25676,35.34995],[33.26071,35.34953],[33.26582,35.34808],[33.28061,35.34248],[33.33885,35.3371],[33.34822,35.33487],[33.35316,35.33578],[33.36983,35.33425],[33.37084,35.33384],[33.37126,35.33411],[33.4275,35.32892],[33.46624,35.33398],[33.46912,35.33263],[33.48071,35.33219],[33.48904,35.33618],[33.49347,35.33494],[33.49621,35.33789],[33.50498,35.33904],[33.51517,35.33909],[33.52007,35.34101],[33.55371,35.3454],[33.56737,35.34667],[33.57131,35.3477],[33.64508,35.35733],[33.64672,35.35696],[33.65028,35.35801],[33.66033,35.35932],[33.67152,35.36453],[33.68546,35.36958],[33.69279,35.37445],[33.74285,35.39777],[33.77656,35.41348],[33.79311,35.41134],[33.80253,35.41421],[33.81219,35.41294],[33.81744,35.41143],[33.82218,35.41162],[33.83465,35.40998],[33.84443,35.41254],[33.84988,35.41276],[33.87941,35.42013],[33.88291,35.42259],[33.88794,35.42391],[33.89482,35.42612],[33.8986,35.42543],[33.90352,35.42867],[33.91135,35.42817],[33.91952,35.43139],[33.91955,35.43407],[33.92371,35.43541],[33.93683,35.43511],[33.94033,35.43868],[33.94724,35.43914],[33.95146,35.44433],[33.95217,35.44456],[33.96393,35.44273],[33.97747,35.44584],[33.98826,35.455],[34.0065,35.45729],[34.02292,35.4673],[34.03019,35.46964],[34.03397,35.46875],[34.0351,35.47122],[34.03562,35.47138],[34.03635,35.47179],[34.04818,35.47428],[34.05246,35.48088],[34.0536,35.48152],[34.05893,35.4801],[34.07952,35.49533],[34.07998,35.49547],[34.08173,35.49351],[34.09684,35.49543],[34.10571,35.50049],[34.11671,35.50065],[34.12619,35.50493],[34.13039,35.5111],[34.13119,35.51135],[34.18165,35.55418],[34.19732,35.55689],[34.20369,35.55669],[34.20531,35.55827],[34.21039,35.55915],[34.21127,35.55935],[34.2144,35.55566],[34.221,35.56079],[34.22251,35.55692],[34.22927,35.5569],[34.23273,35.56013],[34.22956,35.5595],[34.23341,35.56044],[34.23554,35.5588],[34.24303,35.56185],[34.24499,35.56671],[34.24956,35.56744],[34.2496,35.5681],[34.25961,35.57039],[34.26297,35.57012],[34.26367,35.57132],[34.26779,35.57226],[34.28211,35.5761],[34.2823,35.57582],[34.29011,35.576],[34.2953,35.57963]]]]}}]}}
