{"type":"FeatureCollection","features":[{"type":"Feature","properties":{"id":"DJI:ADM2:41766387B13463549189785","name":"Tadjourah","countryCode":"DJI","adminLevel":2,"sourceCode":"41766387B13463549189785","parentId":"DJI:ADM1:DJI-1571"},"geometry":{"type":"Polygon","coordinates":[[[42.51557,11.56566],[42.4627,11.59351],[42.49432,11.6158],[42.5459,11.6711],[42.58981,11.69934],[42.6993,11.78878],[42.7374,11.82941],[42.94678,12.00596],[43.0434,11.8557],[43.06901,11.83],[43.06471,11.82343],[43.06431,11.82198],[43.05156,11.81065],[43.02288,11.8093],[43.0016,11.80099],[42.97578,11.79855],[42.96199,11.78355],[42.95753,11.78046],[42.94264,11.77383],[42.91554,11.7836],[42.8965,11.78059],[42.88905,11.77798],[42.87582,11.78],[42.85724,11.77061],[42.83898,11.76697],[42.8211,11.75419],[42.8034,11.74799],[42.79927,11.74551],[42.77978,11.74091],[42.77174,11.73366],[42.76602,11.7205],[42.75408,11.70795],[42.73089,11.6663],[42.71793,11.65739],[42.71595,11.64982],[42.70341,11.63712],[42.6922,11.60256],[42.69234,11.59708],[42.68409,11.58226],[42.67742,11.57368],[42.66798,11.56855],[42.64546,11.56202],[42.64499,11.56251],[42.63384,11.56565],[42.63334,11.56335],[42.63827,11.55993],[42.63697,11.55956],[42.6277,11.55907],[42.62145,11.56019],[42.61146,11.5671],[42.60564,11.56787],[42.59689,11.56313],[42.57951,11.56248],[42.5783,11.56433],[42.57154,11.56442],[42.5575,11.57886],[42.55444,11.57972],[42.55405,11.58027],[42.54859,11.58381],[42.54144,11.58337],[42.53426,11.58538],[42.53455,11.58294],[42.52996,11.58266],[42.52587,11.58618],[42.52661,11.58228],[42.52422,11.58058],[42.51479,11.5769],[42.51511,11.57233],[42.51499,11.56721],[42.51546,11.56731],[42.51557,11.56566]]]}},{"type":"Feature","properties":{"id":"DJI:ADM2:41766387B22586556456338","name":"Dorra","countryCode":"DJI","adminLevel":2,"sourceCode":"41766387B22586556456338","parentId":"DJI:ADM1:DJI-1571"},"geometry":{"type":"Polygon","coordinates":[[[42.70948,12.37717],[42.70048,12.3712],[42.69648,12.35956],[42.68811,12.36228],[42.66973,12.37694],[42.66544,12.38745],[42.64177,12.40331],[42.61037,12.43273],[42.6038,12.44253],[42.54751,12.4902],[42.48315,12.52285],[42.46397,12.52394],[42.38631,12.43911],[42.38478,12.43317],[42.33714,12.37184],[42.31723,12.30464],[42.30908,12.29492],[42.25772,12.25504],[42.24021,12.23447],[42.21976,12.20249],[42.27708,12.13273],[42.35882,11.98279],[42.38538,11.94115],[42.45401,11.87855],[42.5031,11.94387],[42.5714,12.0793],[42.61207,12.14078],[42.67388,12.29296],[42.70948,12.34583],[42.70948,12.37717]]]}},{"type":"Feature","properties":{"id":"DJI:ADM2:41766387B51204577272085","name":"Obock","countryCode":"DJI","adminLevel":2,"sourceCode":"41766387B51204577272085","parentId":"DJI:ADM1:DJI-1570"},"geometry":{"type":"Polygon","coordinates":[[[43.0434,11.8557],[42.94678,12.00596],[42.89637,12.06782],[42.86919,12.11305],[42.82692,12.16228],[42.81077,12.19926],[42.85769,12.23287],[42.89605,12.27077],[42.93603,12.2945],[43.2555,12.51699],[43.28725,12.47511],[43.29343,12.46076],[43.30281,12.45982],[43.31251,12.46532],[43.31316,12.4778],[43.31676,12.48023],[43.32108,12.4793],[43.32354,12.47407],[43.31952,12.45582],[43.32099,12.44274],[43.3378,12.40311],[43.35581,12.38304],[43.36424,12.34328],[43.36476,12.32714],[43.36785,12.30687],[43.36985,12.30238],[43.37231,12.27488],[43.39882,12.24005],[43.4052,12.22685],[43.40907,12.20049],[43.40657,12.1763],[43.41191,12.16128],[43.41579,12.12136],[43.4155,12.09142],[43.4036,12.04909],[43.39045,12.02003],[43.37713,12.00483],[43.35043,11.98794],[43.34254,11.98566],[43.31568,11.98111],[43.28834,11.96743],[43.2684,11.96381],[43.22543,11.96288],[43.20655,11.95783],[43.20071,11.95373],[43.18975,11.95127],[43.18168,11.94672],[43.1596,11.92231],[43.14694,11.91467],[43.10224,11.85917],[43.07085,11.83133],[43.06918,11.83027],[43.06901,11.83],[43.0434,11.8557]]]}},{"type":"Feature","properties":{"id":"DJI:ADM2:41766387B54529132802745","name":"Randa","countryCode":"DJI","adminLevel":2,"sourceCode":"41766387B54529132802745","parentId":"DJI:ADM1:DJI-1571"},"geometry":{"type":"Polygon","coordinates":[[[42.70948,12.34583],[42.67388,12.29296],[42.61207,12.14078],[42.5714,12.0793],[42.5031,11.94387],[42.45401,11.87855],[42.54849,11.75905],[42.58981,11.69934],[42.6993,11.78878],[42.7374,11.82941],[42.94678,12.00596],[42.89637,12.06782],[42.86919,12.11305],[42.82692,12.16228],[42.81077,12.19926],[42.70948,12.34583]]]}},{"type":"Feature","properties":{"id":"DJI:ADM2:41766387B65421474667097","name":"Ali Sabeh","countryCode":"DJI","adminLevel":2,"sourceCode":"41766387B65421474667097","parentId":"DJI:ADM1:DJI-1566"},"geometry":{"type":"Polygon","coordinates":[[[42.81833,11.4076],[42.81848,11.3982],[42.79501,11.3843],[42.73638,11.36029],[42.69583,11.35044],[42.661,11.32706],[42.66042,11.24485],[42.6673,11.17596],[42.66398,11.07147],[42.67828,11.07094],[42.68345,11.06254],[42.6979,11.05303],[42.71133,11.06009],[42.72789,11.06133],[42.7463,11.07219],[42.75744,11.07056],[42.76451,11.06419],[42.78466,11.02879],[42.78893,10.99505],[42.79142,10.98793],[42.79602,10.98553],[42.85304,10.97504],[42.91083,10.97764],[42.96164,10.98441],[42.9859,11.0219],[43,11.05495],[43.19357,11.37009],[43.1279,11.42128],[43.09444,11.44241],[43.05776,11.47795],[43.02472,11.492],[43.00192,11.49089],[42.91984,11.44792],[42.81833,11.4076]]]}},{"type":"Feature","properties":{"id":"DJI:ADM2:41766387B73347270872705","name":"As Eyla","countryCode":"DJI","adminLevel":2,"sourceCode":"41766387B73347270872705","parentId":"DJI:ADM1:DJI-1569"},"geometry":{"type":"Polygon","coordinates":[[[41.80972,11.23956],[41.79972,11.00936],[41.78896,10.98196],[41.79135,10.97318],[41.79848,10.96868],[41.81103,10.96775],[41.81115,10.962],[41.81599,10.95938],[41.84112,10.9589],[41.90063,10.94327],[41.94221,10.93948],[41.93967,10.92849],[41.94472,10.91322],[41.94908,10.90992],[41.9584,10.91088],[41.96783,10.91691],[41.97502,10.92758],[42.00296,10.91642],[42.03128,10.9244],[42.06733,10.923],[42.07557,10.95112],[42.08083,10.95814],[42.09924,10.95915],[42.14265,10.97668],[42.16285,10.97397],[42.18899,10.97735],[42.1959,10.97376],[42.19988,10.96357],[42.20703,10.9602],[42.23253,10.96635],[42.27051,10.96879],[42.289,10.9845],[42.30938,10.99075],[42.32746,10.98923],[42.32147,11.07383],[42.30005,11.2428],[42.30034,11.27918],[42.21942,11.27111],[42.14736,11.25848],[41.98142,11.25211],[41.87738,11.23582],[41.85395,11.24054],[41.80972,11.23956]]]}},{"type":"Feature","properties":{"id":"DJI:ADM2:41766387B74076707162819","name":"YobokiI","countryCode":"DJI","adminLevel":2,"sourceCode":"41766387B74076707162819","parentId":"DJI:ADM1:DJI-1569"},"geometry":{"type":"Polygon","coordinates":[[[41.7761,11.50467],[41.78385,11.53166],[41.79084,11.54371],[41.80351,11.59637],[41.80724,11.62044],[41.80533,11.63014],[41.82875,11.70719],[41.83685,11.72797],[41.87738,11.74789],[41.88652,11.74956],[41.892,11.75543],[41.89695,11.78178],[41.90103,11.78745],[41.93519,11.80312],[41.97784,11.83449],[41.99994,11.86557],[42.00372,11.87906],[42.02375,11.91155],[42.03987,11.93207],[42.13016,11.86255],[42.16544,11.82232],[42.3459,11.66336],[42.41742,11.61707],[42.51826,11.56424],[42.52085,11.56855],[42.52112,11.56862],[42.52374,11.56574],[42.52882,11.56657],[42.52945,11.56349],[42.52856,11.55993],[42.53123,11.55468],[42.53248,11.54849],[42.53248,11.54747],[42.53256,11.54416],[42.52668,11.54133],[42.52893,11.53555],[42.52211,11.53128],[42.52246,11.52207],[42.53629,11.51185],[42.53875,11.503],[42.55828,11.49555],[42.56075,11.49007],[42.5695,11.48657],[42.55254,11.48096],[42.48287,11.41997],[42.30005,11.2428],[42.30034,11.27918],[42.21942,11.27111],[42.14736,11.25848],[41.98142,11.25211],[41.87738,11.23582],[41.85395,11.24054],[41.80972,11.23956],[41.80773,11.31826],[41.80182,11.36207],[41.77344,11.48747],[41.7761,11.50467]]]}},{"type":"Feature","properties":{"id":"DJI:ADM2:41766387B83981523687012","name":"Djibouti","countryCode":"DJI","adminLevel":2,"sourceCode":"41766387B83981523687012","parentId":"DJI:ADM1:DJI-1568"},"geometry":{"type":"Polygon","coordinates":[[[43.24122,11.48429],[43.24895,11.47274],[43.25469,11.4696],[43.19357,11.37009],[43.1279,11.42128],[43.09444,11.44241],[43.05776,11.47795],[43.02472,11.492],[43.00192,11.49089],[42.91984,11.44792],[42.81833,11.4076],[42.75448,11.56179],[42.77256,11.56051],[42.7864,11.56583],[42.78864,11.56908],[42.80747,11.57127],[42.82911,11.57697],[42.83953,11.58446],[42.84014,11.58509],[42.84753,11.58267],[42.85129,11.58537],[42.84963,11.5935],[42.84989,11.5936],[42.86061,11.58386],[42.86741,11.58652],[42.87152,11.58071],[42.89518,11.58397],[42.90073,11.58405],[43.04054,11.58592],[43.06186,11.59015],[43.0818,11.58954],[43.10336,11.57697],[43.12306,11.58149],[43.13062,11.59142],[43.1469,11.59829],[43.14885,11.60477],[43.1398,11.60626],[43.14112,11.60859],[43.15187,11.61176],[43.15729,11.60234],[43.15681,11.59346],[43.16242,11.5828],[43.17221,11.54287],[43.17311,11.54165],[43.18385,11.52656],[43.19516,11.5183],[43.22633,11.5019],[43.23928,11.48928],[43.24122,11.48429]]]}},{"type":"Feature","properties":{"id":"DJI:ADM2:41766387B9467441741428","name":"Dilkhil","countryCode":"DJI","adminLevel":2,"sourceCode":"41766387B9467441741428","parentId":"DJI:ADM1:DJI-1569"},"geometry":{"type":"Polygon","coordinates":[[[42.69714,11.53834],[42.71101,11.54619],[42.7445,11.55584],[42.75448,11.56179],[42.81833,11.4076],[42.81848,11.3982],[42.79501,11.3843],[42.73638,11.36029],[42.69583,11.35044],[42.661,11.32706],[42.66042,11.24485],[42.6673,11.17596],[42.66398,11.07147],[42.64094,11.08832],[42.63234,11.08896],[42.59894,11.06348],[42.59197,11.06386],[42.49931,11.03251],[42.45893,11.00131],[42.42415,10.98007],[42.40465,10.98278],[42.37281,10.9961],[42.35025,10.99653],[42.32746,10.98923],[42.32147,11.07383],[42.30005,11.2428],[42.48287,11.41997],[42.55254,11.48096],[42.5695,11.48657],[42.60677,11.46186],[42.63124,11.46083],[42.63893,11.47774],[42.68016,11.47419],[42.68431,11.47091],[42.69026,11.47934],[42.68727,11.4826],[42.68995,11.49084],[42.68799,11.50053],[42.68225,11.50304],[42.68068,11.50479],[42.67042,11.50995],[42.66529,11.51557],[42.67227,11.52872],[42.67275,11.52879],[42.67987,11.53613],[42.68718,11.54118],[42.69714,11.53834]]]}},{"type":"Feature","properties":{"id":"DJI:ADM2:41766387B97155389424645","name":"Balha","countryCode":"DJI","adminLevel":2,"sourceCode":"41766387B97155389424645","parentId":"DJI:ADM1:DJI-1571"},"geometry":{"type":"Polygon","coordinates":[[[42.21976,12.20249],[42.18477,12.14269],[42.17022,12.12849],[42.16267,12.1137],[42.15232,12.07665],[42.13414,12.06759],[42.09596,12.00534],[42.06662,11.97579],[42.03987,11.93207],[42.13016,11.86255],[42.16544,11.82232],[42.3459,11.66336],[42.41742,11.61707],[42.4627,11.59351],[42.49432,11.6158],[42.5459,11.6711],[42.58981,11.69934],[42.54849,11.75905],[42.45401,11.87855],[42.38538,11.94115],[42.35882,11.98279],[42.27708,12.13273],[42.21976,12.20249]]]}},{"type":"Feature","properties":{"id":"DJI:ADM2:41766387B98599288227121","name":"Alaili Dadda","countryCode":"DJI","adminLevel":2,"sourceCode":"41766387B98599288227121","parentId":"DJI:ADM1:DJI-1570"},"geometry":{"type":"Polygon","coordinates":[[[43.1428,12.67559],[43.1649,12.63195],[43.18962,12.60652],[43.20695,12.5761],[43.2555,12.51699],[42.93603,12.2945],[42.89605,12.27077],[42.85769,12.23287],[42.81077,12.19926],[42.70948,12.34583],[42.70948,12.37717],[42.71996,12.38411],[42.73894,12.38507],[42.74776,12.39247],[42.75654,12.40814],[42.76979,12.41451],[42.7916,12.41656],[42.81124,12.42577],[42.81818,12.43252],[42.82242,12.45404],[42.81851,12.45568],[42.8127,12.46829],[42.79679,12.47778],[42.79592,12.50301],[42.80539,12.51095],[42.82264,12.53745],[42.83733,12.53808],[42.84641,12.54988],[42.85844,12.55039],[42.85724,12.57388],[42.86208,12.58193],[42.86075,12.58773],[42.87183,12.59107],[42.87326,12.59968],[42.87006,12.60842],[42.88772,12.6244],[42.89427,12.62425],[42.90839,12.6169],[42.91852,12.61667],[42.98615,12.65372],[42.99684,12.6523],[43,12.65756],[43.11415,12.70547],[43.12073,12.70591],[43.13396,12.69721],[43.14026,12.6853],[43.1428,12.67559]]]}}],"admin1":{"type":"FeatureCollection","features":[{"type":"Feature","properties":{"id":"DJI:ADM1:DJI-1566","name":"Ali Sabieh","countryCode":"DJI"},"geometry":{"type":"Polygon","coordinates":[[[42.81833,11.4076],[42.81848,11.3982],[42.79501,11.3843],[42.73638,11.36029],[42.69583,11.35044],[42.661,11.32706],[42.66042,11.24485],[42.6673,11.17596],[42.66398,11.07147],[42.67828,11.07094],[42.68345,11.06254],[42.6979,11.05303],[42.71133,11.06009],[42.72789,11.06133],[42.7463,11.07219],[42.75744,11.07056],[42.76451,11.06419],[42.78466,11.02879],[42.78893,10.99505],[42.79142,10.98793],[42.79602,10.98553],[42.85304,10.97504],[42.91083,10.97764],[42.96164,10.98441],[42.9859,11.0219],[43.0,11.05495],[43.19357,11.37009],[43.1279,11.42128],[43.09444,11.44241],[43.05776,11.47795],[43.02472,11.492],[43.00192,11.49089],[42.91984,11.44792],[42.81833,11.4076]]]}},{"type":"Feature","properties":{"id":"DJI:ADM1:DJI-1568","name":"Arta","countryCode":"DJI"},"geometry":{"type":"Polygon","coordinates":[[[43.24122,11.48429],[43.24895,11.47274],[43.25469,11.4696],[43.19357,11.37009],[43.1279,11.42128],[43.09444,11.44241],[43.05776,11.47795],[43.02472,11.492],[43.00192,11.49089],[42.91984,11.44792],[42.81833,11.4076],[42.75448,11.56179],[42.77256,11.56051],[42.7864,11.56583],[42.78864,11.56908],[42.80747,11.57127],[42.82911,11.57697],[42.83953,11.58446],[42.84014,11.58509],[42.84753,11.58267],[42.85129,11.58537],[42.84963,11.5935],[42.84989,11.5936],[42.86061,11.58386],[42.86741,11.58652],[42.87152,11.58071],[42.89518,11.58397],[42.90073,11.58405],[43.04054,11.58592],[43.06186,11.59015],[43.0818,11.58954],[43.10336,11.57697],[43.12306,11.58149],[43.13062,11.59142],[43.1469,11.59829],[43.14885,11.60477],[43.1398,11.60626],[43.14112,11.60859],[43.15187,11.61176],[43.15729,11.60234],[43.15681,11.59346],[43.16242,11.5828],[43.17221,11.54287],[43.17311,11.54165],[43.18385,11.52656],[43.19516,11.5183],[43.22633,11.5019],[43.23928,11.48928],[43.24122,11.48429]]]}},{"type":"Feature","properties":{"id":"DJI:ADM1:DJI-1569","name":"Dikhil","countryCode":"DJI"},"geometry":{"type":"Polygon","coordinates":[[[42.30938,10.99075],[42.289,10.9845],[42.27051,10.96879],[42.23253,10.96635],[42.20703,10.9602],[42.19988,10.96357],[42.1959,10.97376],[42.18899,10.97735],[42.16285,10.97397],[42.14265,10.97668],[42.09924,10.95915],[42.08083,10.95814],[42.07557,10.95112],[42.06733,10.923],[42.03128,10.9244],[42.00296,10.91642],[41.97502,10.92758],[41.96783,10.91691],[41.9584,10.91088],[41.94908,10.90992],[41.94472,10.91322],[41.93967,10.92849],[41.94221,10.93948],[41.90063,10.94327],[41.84112,10.9589],[41.81599,10.95938],[41.81115,10.962],[41.81103,10.96775],[41.79848,10.96868],[41.79135,10.97318],[41.78896,10.98196],[41.79972,11.00936],[41.80972,11.23956],[41.80773,11.31826],[41.80182,11.36207],[41.77344,11.48747],[41.7761,11.50467],[41.78385,11.53166],[41.79084,11.54371],[41.80351,11.59637],[41.80724,11.62044],[41.80533,11.63014],[41.82875,11.70719],[41.83685,11.72797],[41.87738,11.74789],[41.88652,11.74956],[41.892,11.75543],[41.89695,11.78178],[41.90103,11.78745],[41.93519,11.80312],[41.97784,11.83449],[41.99994,11.86557],[42.00372,11.87906],[42.02375,11.91155],[42.03987,11.93207],[42.13016,11.86255],[42.16544,11.82232],[42.3459,11.66336],[42.41742,11.61707],[42.51826,11.56424],[42.52085,11.56855],[42.52112,11.56862],[42.52374,11.56574],[42.52882,11.56657],[42.52945,11.56349],[42.52856,11.55993],[42.53123,11.55468],[42.53248,11.54849],[42.53248,11.54747],[42.53256,11.54416],[42.52668,11.54133],[42.52893,11.53555],[42.52211,11.53128],[42.52246,11.52207],[42.53629,11.51185],[42.53875,11.503],[42.55828,11.49555],[42.56075,11.49007],[42.5695,11.48657],[42.60677,11.46186],[42.63124,11.46083],[42.63893,11.47774],[42.68016,11.47419],[42.68431,11.47091],[42.69026,11.47934],[42.68727,11.4826],[42.68995,11.49084],[42.68799,11.50053],[42.68225,11.50304],[42.68068,11.50479],[42.67042,11.50995],[42.66529,11.51557],[42.67227,11.52872],[42.67275,11.52879],[42.67987,11.53613],[42.68718,11.54118],[42.69714,11.53834],[42.71101,11.54619],[42.7445,11.55584],[42.75448,11.56179],[42.81833,11.4076],[42.81848,11.3982],[42.79501,11.3843],[42.73638,11.36029],[42.69583,11.35044],[42.661,11.32706],[42.66042,11.24485],[42.6673,11.17596],[42.66398,11.07147],[42.64094,11.08832],[42.63234,11.08896],[42.59894,11.06348],[42.59197,11.06386],[42.49931,11.03251],[42.45893,11.00131],[42.42415,10.98007],[42.40465,10.98278],[42.37281,10.9961],[42.35025,10.99653],[42.32746,10.98923],[42.30938,10.99075]]]}},{"type":"Feature","properties":{"id":"DJI:ADM1:DJI-1570","name":"Obock","countryCode":"DJI"},"geometry":{"type":"Polygon","coordinates":[[[42.94678,12.00596],[42.89637,12.06782],[42.86919,12.11305],[42.82692,12.16228],[42.81077,12.19926],[42.70948,12.34583],[42.70948,12.37717],[42.71996,12.38411],[42.73894,12.38507],[42.74776,12.39247],[42.75654,12.40814],[42.76979,12.41451],[42.7916,12.41656],[42.81124,12.42577],[42.81818,12.43252],[42.82242,12.45404],[42.81851,12.45568],[42.8127,12.46829],[42.79679,12.47778],[42.79592,12.50301],[42.80539,12.51095],[42.82264,12.53745],[42.83733,12.53808],[42.84641,12.54988],[42.85844,12.55039],[42.85724,12.57388],[42.86208,12.58193],[42.86075,12.58773],[42.87183,12.59107],[42.87326,12.59968],[42.87006,12.60842],[42.88772,12.6244],[42.89427,12.62425],[42.90839,12.6169],[42.91852,12.61667],[42.98615,12.65372],[42.99684,12.6523],[43.0,12.65756],[43.11415,12.70547],[43.12073,12.70591],[43.13396,12.69721],[43.14026,12.6853],[43.1428,12.67559],[43.1649,12.63195],[43.18962,12.60652],[43.20695,12.5761],[43.2555,12.51699],[43.28725,12.47511],[43.29343,12.46076],[43.30281,12.45982],[43.31251,12.46532],[43.31316,12.4778],[43.31676,12.48023],[43.32108,12.4793],[43.32354,12.47407],[43.31952,12.45582],[43.32099,12.44274],[43.3378,12.40311],[43.35581,12.38304],[43.36424,12.34328],[43.36476,12.32714],[43.36785,12.30687],[43.36985,12.30238],[43.37231,12.27488],[43.39882,12.24005],[43.4052,12.22685],[43.40907,12.20049],[43.40657,12.1763],[43.41191,12.16128],[43.41579,12.12136],[43.4155,12.09142],[43.4036,12.04909],[43.39045,12.02003],[43.37713,12.00483],[43.35043,11.98794],[43.34254,11.98566],[43.31568,11.98111],[43.28834,11.96743],[43.2684,11.96381],[43.22543,11.96288],[43.20655,11.95783],[43.20071,11.95373],[43.18975,11.95127],[43.18168,11.94672],[43.1596,11.92231],[43.14694,11.91467],[43.10224,11.85917],[43.07085,11.83133],[43.06918,11.83027],[43.06901,11.83],[43.0434,11.8557],[42.94678,12.00596]]]}},{"type":"Feature","properties":{"id":"DJI:ADM1:DJI-1571","name":"Tadjourah","countryCode":"DJI"},"geometry":{"type":"Polygon","coordinates":[[[42.41742,11.61707],[42.3459,11.66336],[42.16544,11.82232],[42.13016,11.86255],[42.03987,11.93207],[42.06662,11.97579],[42.09596,12.00534],[42.13414,12.06759],[42.15232,12.07665],[42.16267,12.1137],[42.17022,12.12849],[42.18477,12.14269],[42.21976,12.20249],[42.24021,12.23447],[42.25772,12.25504],[42.30908,12.29492],[42.31723,12.30464],[42.33714,12.37184],[42.38478,12.43317],[42.38631,12.43911],[42.46397,12.52394],[42.48315,12.52285],[42.54751,12.4902],[42.6038,12.44253],[42.61037,12.43273],[42.64177,12.40331],[42.66544,12.38745],[42.66973,12.37694],[42.68811,12.36228],[42.69648,12.35956],[42.70048,12.3712],[42.70948,12.37717],[42.70948,12.34583],[42.81077,12.19926],[42.82692,12.16228],[42.86919,12.11305],[42.89637,12.06782],[42.94678,12.00596],[43.0434,11.8557],[43.06901,11.83],[43.06471,11.82343],[43.06431,11.82198],[43.05156,11.81065],[43.02288,11.8093],[43.0016,11.80099],[42.97578,11.79855],[42.96199,11.78355],[42.95753,11.78046],[42.94264,11.77383],[42.91554,11.7836],[42.8965,11.78059],[42.88905,11.77798],[42.87582,11.78],[42.85724,11.77061],[42.83898,11.76697],[42.8211,11.75419],[42.8034,11.74799],[42.79927,11.74551],[42.77978,11.74091],[42.77174,11.73366],[42.76602,11.7205],[42.75408,11.70795],[42.73089,11.6663],[42.71793,11.65739],[42.71595,11.64982],[42.70341,11.63712],[42.6922,11.60256],[42.69234,11.59708],[42.68409,11.58226],[42.67742,11.57368],[42.66798,11.56855],[42.64546,11.56202],[42.64499,11.56251],[42.63384,11.56565],[42.63334,11.56335],[42.63827,11.55993],[42.63697,11.55956],[42.6277,11.55907],[42.62145,11.56019],[42.61146,11.5671],[42.60564,11.56787],[42.59689,11.56313],[42.57951,11.56248],[42.5783,11.56433],[42.57154,11.56442],[42.5575,11.57886],[42.55444,11.57972],[42.55405,11.58027],[42.54859,11.58381],[42.54144,11.58337],[42.53426,11.58538],[42.53455,11.58294],[42.52996,11.58266],[42.52587,11.58618],[42.52661,11.58228],[42.52422,11.58058],[42.51479,11.5769],[42.51511,11.57233],[42.51499,11.56721],[42.51546,11.56731],[42.51557,11.56566],[42.4627,11.59351],[42.41742,11.61707]]]}}]}}
