{"type":"FeatureCollection","features":[{"type":"Feature","properties":{"id":"DMA:ADM0:26965486B19684502253294","name":"the Commonwealth of Dominica","countryCode":"DMA","adminLevel":0,"sourceCode":"26965486B19684502253294","parentId":"DMA:ADM1:DMA-1436"},"geometry":{"type":"Polygon","coordinates":[[[-61.47542,15.54506],[-61.4627,15.55353],[-61.45613,15.57135],[-61.462,15.58346],[-61.47629,15.58219],[-61.47844,15.5845],[-61.47709,15.59],[-61.46569,15.59136],[-61.46169,15.59814],[-61.46642,15.61419],[-61.46187,15.63358],[-61.44921,15.63308],[-61.43724,15.63264],[-61.42593,15.62848],[-61.41373,15.61957],[-61.39757,15.59662],[-61.38463,15.58836],[-61.36974,15.59593],[-61.36096,15.5976],[-61.35631,15.59332],[-61.3497,15.59537],[-61.331,15.58819],[-61.3308,15.58775],[-61.32931,15.58754],[-61.30769,15.57925],[-61.3059,15.57245],[-61.29955,15.5572],[-61.28962,15.54096],[-61.28405,15.5314],[-61.26863,15.50991],[-61.26716,15.5078],[-61.25768,15.4726],[-61.25612,15.43827],[-61.25741,15.43584],[-61.25635,15.43456],[-61.26293,15.4079],[-61.25837,15.40632],[-61.25422,15.40298],[-61.24926,15.40107],[-61.25085,15.39181],[-61.25136,15.39166],[-61.25207,15.38468],[-61.25552,15.36457],[-61.25406,15.33267],[-61.25373,15.32469],[-61.25666,15.28535],[-61.27721,15.25023],[-61.28441,15.24482],[-61.2893,15.2436],[-61.29267,15.24384],[-61.29281,15.24405],[-61.30717,15.24432],[-61.30806,15.24366],[-61.31188,15.24453],[-61.31819,15.24339],[-61.3236,15.23859],[-61.32872,15.22557],[-61.34268,15.21967],[-61.34594,15.21235],[-61.34638,15.2117],[-61.34839,15.20867],[-61.35861,15.20808],[-61.3738,15.21443],[-61.36565,15.21514],[-61.36076,15.23044],[-61.37287,15.24201],[-61.37328,15.26642],[-61.37279,15.2707],[-61.37475,15.27474],[-61.37758,15.28968],[-61.39085,15.29982],[-61.38879,15.31443],[-61.39408,15.32028],[-61.39497,15.33249],[-61.39267,15.33734],[-61.39458,15.35616],[-61.4043,15.36733],[-61.41311,15.38539],[-61.4155,15.38699],[-61.41568,15.38764],[-61.41808,15.40595],[-61.42121,15.41474],[-61.43323,15.42628],[-61.43742,15.43446],[-61.44575,15.44035],[-61.44787,15.44514],[-61.44854,15.4485],[-61.44698,15.45298],[-61.45187,15.45942],[-61.45425,15.46483],[-61.45692,15.46855],[-61.45984,15.47863],[-61.4694,15.49482],[-61.467,15.50782],[-61.47974,15.5366],[-61.47542,15.54506]]]}}],"admin1":{"type":"FeatureCollection","features":[{"type":"Feature","properties":{"id":"DMA:ADM1:DMA-1436","name":"Saint Joseph","countryCode":"DMA"},"geometry":{"type":"Polygon","coordinates":[[[-61.47542,15.54506],[-61.4627,15.55353],[-61.45613,15.57135],[-61.462,15.58346],[-61.47629,15.58219],[-61.47844,15.5845],[-61.47709,15.59],[-61.46569,15.59136],[-61.46169,15.59814],[-61.46642,15.61419],[-61.46187,15.63358],[-61.44921,15.63308],[-61.43724,15.63264],[-61.42593,15.62848],[-61.41373,15.61957],[-61.39757,15.59662],[-61.38463,15.58836],[-61.36974,15.59593],[-61.36096,15.5976],[-61.35631,15.59332],[-61.3497,15.59537],[-61.331,15.58819],[-61.3308,15.58775],[-61.32931,15.58754],[-61.30769,15.57925],[-61.3059,15.57245],[-61.29955,15.5572],[-61.28962,15.54096],[-61.28405,15.5314],[-61.26863,15.50991],[-61.26716,15.5078],[-61.25768,15.4726],[-61.25612,15.43827],[-61.25741,15.43584],[-61.25635,15.43456],[-61.26293,15.4079],[-61.25837,15.40632],[-61.25422,15.40298],[-61.24926,15.40107],[-61.25085,15.39181],[-61.25136,15.39166],[-61.25207,15.38468],[-61.25552,15.36457],[-61.25406,15.33267],[-61.25373,15.32469],[-61.25666,15.28535],[-61.27721,15.25023],[-61.28441,15.24482],[-61.2893,15.2436],[-61.29267,15.24384],[-61.29281,15.24405],[-61.30717,15.24432],[-61.30806,15.24366],[-61.31188,15.24453],[-61.31819,15.24339],[-61.3236,15.23859],[-61.32872,15.22557],[-61.34268,15.21967],[-61.34594,15.21235],[-61.34638,15.2117],[-61.34839,15.20867],[-61.35861,15.20808],[-61.3738,15.21443],[-61.36565,15.21514],[-61.36076,15.23044],[-61.37287,15.24201],[-61.37328,15.26642],[-61.37279,15.2707],[-61.37475,15.27474],[-61.37758,15.28968],[-61.39085,15.29982],[-61.38879,15.31443],[-61.39408,15.32028],[-61.39497,15.33249],[-61.39267,15.33734],[-61.39458,15.35616],[-61.4043,15.36733],[-61.41311,15.38539],[-61.4155,15.38699],[-61.41568,15.38764],[-61.41808,15.40595],[-61.42121,15.41474],[-61.43323,15.42628],[-61.43742,15.43446],[-61.44575,15.44035],[-61.44787,15.44514],[-61.44854,15.4485],[-61.44698,15.45298],[-61.45187,15.45942],[-61.45425,15.46483],[-61.45692,15.46855],[-61.45984,15.47863],[-61.4694,15.49482],[-61.467,15.50782],[-61.47974,15.5366],[-61.47542,15.54506]]]}}]}}
