{"type":"FeatureCollection","features":[{"type":"Feature","properties":{"id":"DZA:ADM2:36490775B12243761149344","name":"Ain Temouchent","countryCode":"DZA","adminLevel":2,"sourceCode":"36490775B12243761149344","parentId":"DZA:ADM1:DZA-2144"},"geometry":{"type":"Polygon","coordinates":[[[-1.02943,35.60915],[-1.02943,35.47917],[-0.89632,35.4141],[-0.82405,35.31397],[-0.94178,35.21785],[-1.03091,35.10428],[-1.0595,35.13643],[-1.17722,35.18825],[-1.36739,35.24744],[-1.37676,35.24329],[-1.34891,35.32727],[-1.32345,35.3515],[-1.31379,35.35375],[-1.29483,35.36457],[-1.27863,35.378],[-1.26773,35.39033],[-1.25918,35.41031],[-1.2473,35.45775],[-1.23705,35.47574],[-1.22541,35.49128],[-1.19034,35.56615],[-1.18334,35.57648],[-1.17154,35.58104],[-1.14802,35.5821],[-1.14281,35.5869],[-1.11701,35.61689],[-1.10635,35.62324],[-1.08926,35.63346],[-1.02943,35.60915]]]}},{"type":"Feature","properties":{"id":"DZA:ADM2:36490775B12691773120896","name":"Satif","countryCode":"DZA","adminLevel":2,"sourceCode":"36490775B12691773120896","parentId":"DZA:ADM1:DZA-2215"},"geometry":{"type":"Polygon","coordinates":[[[5.379,36.50941],[5.25222,36.55307],[5.15261,36.42931],[5.14355,36.29805],[5.16166,36.02754],[5.09827,35.7708],[5.15261,35.66052],[5.29874,35.64243],[5.31561,35.66788],[5.44238,35.74141],[5.542,35.82222],[5.7865,35.85892],[5.94237,35.87841],[5.93138,35.97626],[5.98572,36.1885],[5.95855,36.33453],[5.76838,36.42202],[5.39954,36.5102],[5.379,36.50941]]]}},{"type":"Feature","properties":{"id":"DZA:ADM2:36490775B13873094912427","name":"Laghouat","countryCode":"DZA","adminLevel":2,"sourceCode":"36490775B13873094912427","parentId":"DZA:ADM1:DZA-2193"},"geometry":{"type":"Polygon","coordinates":[[[4.15749,33.03513],[4.08915,33.23626],[3.9901,33.47263],[3.74956,33.55521],[3.53732,33.80247],[3.33923,33.89648],[3.15529,34.0373],[3.05625,34.23639],[2.88646,34.30655],[2.75911,34.10762],[2.66007,33.99038],[2.50443,33.93171],[2.37708,34.02557],[2.33463,34.23639],[2.29219,34.42334],[2.15069,34.55163],[1.93845,34.44668],[1.65547,34.37664],[1.54227,34.22469],[1.38663,34.11933],[1.32154,34.0115],[1.40078,33.97865],[1.44323,33.94344],[1.64132,33.87299],[1.82526,33.82598],[1.9526,33.61414],[1.9526,33.23626],[2.10824,33.03483],[2.30634,32.85673],[2.32048,32.70208],[2.57517,32.71398],[2.90061,32.71398],[3.36753,32.78538],[3.65052,32.79728],[3.94765,32.95176],[4.15749,33.03513]]]}},{"type":"Feature","properties":{"id":"DZA:ADM2:36490775B14634376840278","name":"Mila","countryCode":"DZA","adminLevel":2,"sourceCode":"36490775B14634376840278","parentId":"DZA:ADM1:DZA-2220"},"geometry":{"type":"MultiPolygon","coordinates":[[[[5.39954,36.5102],[5.32763,36.5271],[5.379,36.50941],[5.39954,36.5102]]],[[[6.3867,36.10777],[6.30266,36.25425],[6.29361,36.40016],[6.25379,36.54653],[5.99477,36.56035],[5.82272,36.53124],[5.73216,36.50213],[5.56916,36.51669],[5.39954,36.5102],[5.76838,36.42202],[5.95855,36.33453],[5.98572,36.1885],[5.93138,35.97626],[5.9495,35.81488],[6.13966,35.85158],[6.34033,35.84512],[6.33454,35.96718],[6.3867,36.10777]]]]}},{"type":"Feature","properties":{"id":"DZA:ADM2:36490775B14639703542833","name":"Khenchela","countryCode":"DZA","adminLevel":2,"sourceCode":"36490775B14639703542833","parentId":"DZA:ADM1:DZA-2219"},"geometry":{"type":"Polygon","coordinates":[[[7.30104,35.3172],[7.32933,35.47867],[7.24444,35.60532],[6.74921,35.60532],[6.60772,35.59381],[6.49453,35.42104],[6.46623,35.06281],[6.35303,34.92371],[6.48038,34.74951],[6.63602,34.57494],[6.69262,34.41167],[6.61306,34.27523],[6.87656,34.21299],[6.99771,34.1401],[7.0888,34.31823],[7.13124,34.52832],[7.28689,34.74951],[7.15954,34.85407],[7.17369,35.12069],[7.30104,35.3172]]]}},{"type":"Feature","properties":{"id":"DZA:ADM2:36490775B16100765475664","name":"Blida","countryCode":"DZA","adminLevel":2,"sourceCode":"36490775B16100765475664","parentId":"DZA:ADM1:DZA-2209"},"geometry":{"type":"Polygon","coordinates":[[[2.73191,36.6587],[2.8739,36.65415],[3.0954,36.65415],[3.20332,36.64959],[3.35667,36.63136],[3.46258,36.68295],[3.49866,36.63592],[3.65769,36.63592],[3.75992,36.59945],[3.7469,36.5223],[3.74501,36.53445],[3.60302,36.47738],[3.58527,36.41313],[3.58371,36.38174],[3.38507,36.4077],[3.11244,36.4077],[2.94205,36.3757],[2.77166,36.39399],[2.62967,36.39399],[2.54448,36.4077],[2.56152,36.48537],[2.57322,36.59503],[2.60076,36.59634],[2.63299,36.60513],[2.7149,36.65719],[2.73191,36.6587]]]}},{"type":"Feature","properties":{"id":"DZA:ADM2:36490775B16277830502614","name":"Jijel","countryCode":"DZA","adminLevel":2,"sourceCode":"36490775B16277830502614","parentId":"DZA:ADM1:DZA-2165"},"geometry":{"type":"Polygon","coordinates":[[[5.65972,36.73472],[5.72198,36.82889],[5.73374,36.83234],[5.7588,36.8334],[5.82781,36.82176],[5.86883,36.82294],[6.03712,36.85358],[6.14223,36.88563],[6.34794,36.77825],[6.3912,36.73836],[6.23022,36.63305],[6.25379,36.54653],[5.99477,36.56035],[5.82272,36.53124],[5.73216,36.50213],[5.56916,36.51669],[5.39954,36.5102],[5.32763,36.5271],[5.379,36.50941],[5.25222,36.55307],[5.25222,36.64758],[5.26905,36.64411],[5.30437,36.64301],[5.37241,36.65095],[5.42807,36.66389],[5.43385,36.66523],[5.46485,36.66523],[5.46957,36.66771],[5.48219,36.68024],[5.48911,36.68513],[5.52914,36.69766],[5.53552,36.70153],[5.65972,36.73472]]]}},{"type":"Feature","properties":{"id":"DZA:ADM2:36490775B18897306401003","name":"Bechar","countryCode":"DZA","adminLevel":2,"sourceCode":"36490775B18897306401003","parentId":"DZA:ADM1:DZA-2148"},"geometry":{"type":"Polygon","coordinates":[[[0.73709,30.7393],[0.38203,30.87412],[0.14149,31.04399],[-0.26884,31.27404],[-0.35373,31.43112],[-0.32543,31.61204],[-0.18394,31.86475],[-0.09404,32.1354],[-0.26884,32.09278],[-0.49523,32.05682],[-0.96215,32.21258],[-1.02685,32.28371],[-1.23099,32.17666],[-1.42908,32.14072],[-1.68377,32.11676],[-1.82526,32.09278],[-2.0941,32.0808],[-2.51857,32.06881],[-2.80156,32.05682],[-2.88646,32.00884],[-2.9289,31.80464],[-3.0987,31.68432],[-3.24019,31.73246],[-3.63637,31.7445],[-3.72126,31.72043],[-3.65052,31.53972],[-3.56562,31.31031],[-3.49488,31.10458],[-3.28264,31.01974],[-3.56562,30.8984],[-3.86276,30.87412],[-4.06085,30.60657],[-4.27309,30.41153],[-4.41458,30.21609],[-4.52777,30.03252],[-4.79661,29.89768],[-5.14626,29.82934],[-4.95225,29.58594],[-4.8196,29.04619],[-4.70906,28.56187],[-4.5322,28.21177],[-4.15636,28.2702],[-3.80262,28.42586],[-3.31624,28.4453],[-3.07305,28.5036],[-2.87408,28.6007],[-2.69721,28.54245],[-2.43191,28.38697],[-2.34348,28.25073],[-2.16661,28.21177],[-1.98974,28.23125],[-1.83499,28.40641],[-1.54758,28.75587],[-1.14963,28.83337],[-0.39795,28.83337],[-0.19897,29.23928],[0.39795,30.27568],[0.70746,30.71383],[0.73709,30.7393]]]}},{"type":"Feature","properties":{"id":"DZA:ADM2:36490775B19355468947369","name":"Tebessa","countryCode":"DZA","adminLevel":2,"sourceCode":"36490775B19355468947369","parentId":"DZA:ADM1:DZA-2223"},"geometry":{"type":"Polygon","coordinates":[[[7.37178,34.01384],[7.48498,33.95518],[7.51328,34.08419],[7.61232,34.20129],[7.88116,34.35329],[8.0651,34.48168],[8.22074,34.64481],[8.24904,34.86568],[8.29149,35.13226],[8.33393,35.3172],[8.39053,35.52475],[8.26319,35.76621],[8.20659,35.94969],[8.0934,35.93824],[7.88116,35.90386],[7.78211,35.74325],[7.72551,35.4902],[7.54157,35.39798],[7.30104,35.3172],[7.17369,35.12069],[7.15954,34.85407],[7.28689,34.74951],[7.13124,34.52832],[7.0888,34.31823],[6.99771,34.1401],[7.0322,34.11933],[7.37178,34.01384]]]}},{"type":"Feature","properties":{"id":"DZA:ADM2:36490775B27054778958819","name":"El Bayadh","countryCode":"DZA","adminLevel":2,"sourceCode":"36490775B27054778958819","parentId":"DZA:ADM1:DZA-2190"},"geometry":{"type":"Polygon","coordinates":[[[2.1445,31.62183],[2.34878,31.73246],[2.44783,32.05682],[2.44783,32.41586],[2.32048,32.70208],[2.30634,32.85673],[2.10824,33.03483],[1.9526,33.23626],[1.9526,33.61414],[1.82526,33.82598],[1.64132,33.87299],[1.44323,33.94344],[1.40078,33.97865],[1.23099,34.04902],[1.10364,34.0959],[0.89141,34.20129],[0.89141,34.4],[0.67917,34.43501],[0.38203,34.32992],[0.15564,34.10762],[0,34.00212],[0,33.80247],[0.04245,33.42541],[0.07075,33.21258],[0.04245,33.02297],[0,32.67826],[-0.0283,32.38002],[-0.09905,32.11676],[-0.18394,31.86475],[-0.32543,31.61204],[-0.35373,31.43112],[-0.26884,31.27404],[0.14149,31.04399],[0.38203,30.87412],[0.73709,30.7393],[0.99487,30.96061],[1.3265,31.18784],[1.5918,31.30125],[1.74655,31.52766],[2.1445,31.62183]]]}},{"type":"Feature","properties":{"id":"DZA:ADM2:36490775B29011852559855","name":"Bouira","countryCode":"DZA","adminLevel":2,"sourceCode":"36490775B29011852559855","parentId":"DZA:ADM1:DZA-2210"},"geometry":{"type":"Polygon","coordinates":[[[3.58527,36.41313],[3.5764,36.23438],[3.6119,36.10543],[3.6119,35.95472],[3.70064,35.84689],[4.02012,35.84689],[4.09999,36.04087],[4.27748,36.33453],[4.32185,36.43455],[3.94912,36.42027],[3.75389,36.47738],[3.74501,36.53445],[3.60302,36.47738],[3.58527,36.41313]]]}},{"type":"Feature","properties":{"id":"DZA:ADM2:36490775B29963076805186","name":"M'Sila","countryCode":"DZA","adminLevel":2,"sourceCode":"36490775B29963076805186","parentId":"DZA:ADM1:DZA-2214"},"geometry":{"type":"Polygon","coordinates":[[[5.1144,34.98169],[4.98961,35.0401],[4.78133,35.12162],[4.78133,35.25483],[4.81755,35.35829],[4.88094,35.44687],[4.99866,35.49849],[5.1345,35.55008],[5.25222,35.57218],[5.29874,35.64243],[5.15261,35.66052],[5.09827,35.7708],[5.11308,35.83083],[4.1264,36.08571],[4.09999,36.04087],[4.02012,35.84689],[3.70064,35.84689],[3.6119,35.95472],[3.27871,35.69638],[3.39583,35.68581],[3.56562,35.51323],[3.69297,35.35183],[3.52317,35.17854],[3.60807,34.99329],[3.76371,34.84246],[4.0467,34.64481],[4.075,34.505],[4.22737,34.3434],[4.23064,34.36497],[4.21649,34.52832],[4.51362,34.60988],[4.74001,34.65645],[4.90981,34.77275],[4.98055,34.92371],[5.0513,34.98169],[5.1144,34.98169]]]}},{"type":"Feature","properties":{"id":"DZA:ADM2:36490775B3078342421007","name":"Bejaia","countryCode":"DZA","adminLevel":2,"sourceCode":"36490775B3078342421007","parentId":"DZA:ADM1:DZA-2208"},"geometry":{"type":"Polygon","coordinates":[[[5.10086,36.77165],[5.08481,36.73261],[5.09018,36.71678],[5.11842,36.69937],[5.23585,36.65095],[5.25222,36.64758],[5.25222,36.55307],[5.15261,36.42931],[5.15194,36.41966],[5.04068,36.42027],[4.89869,36.36312],[4.69458,36.22006],[4.57034,36.22722],[4.39285,36.25585],[4.35735,36.25585],[4.30418,36.39474],[4.3076,36.40243],[4.43012,36.43969],[4.49827,36.43969],[4.57779,36.54928],[4.62891,36.68604],[4.54939,36.72247],[4.51531,36.79982],[4.50963,36.88164],[4.52361,36.88887],[4.53639,36.88858],[4.55055,36.88373],[4.58155,36.89492],[4.59148,36.89525],[4.62289,36.89639],[4.69801,36.89118],[4.76905,36.89802],[4.78712,36.89541],[4.94988,36.83979],[4.96827,36.82567],[4.97364,36.81891],[4.98569,36.81708],[4.99952,36.81712],[5.00929,36.81607],[5.01645,36.81098],[5.02524,36.79865],[5.02914,36.79499],[5.04591,36.78852],[5.0656,36.78352],[5.08619,36.78083],[5.08795,36.78088],[5.10086,36.77165]]]}},{"type":"Feature","properties":{"id":"DZA:ADM2:36490775B41490887384384","name":"Ghardaia","countryCode":"DZA","adminLevel":2,"sourceCode":"36490775B41490887384384","parentId":"DZA:ADM1:DZA-2192"},"geometry":{"type":"Polygon","coordinates":[[[3.18359,29.12347],[3.42413,29.18371],[3.74956,29.29483],[3.74956,29.54133],[4.17404,29.73809],[4.00425,30.15494],[4.00425,30.95909],[4.15989,31.4794],[4.21649,31.79262],[4.32968,32.09278],[4.55607,32.39197],[4.74001,32.67826],[4.76525,32.6818],[4.61267,32.84484],[4.48533,33.04669],[4.21649,33.05855],[3.94765,32.95176],[3.65052,32.79728],[3.36753,32.78538],[2.90061,32.71398],[2.57517,32.71398],[2.32048,32.70208],[2.44783,32.41586],[2.44783,32.05682],[2.34878,31.73246],[2.1445,31.62183],[2.10029,31.28235],[2.21083,30.78983],[2.25504,30.27568],[2.1445,29.89308],[2.36559,29.60516],[2.43191,29.31642],[2.29926,28.94951],[2.54245,28.94951],[2.87408,29.02686],[3.18359,29.12347]]]}},{"type":"Feature","properties":{"id":"DZA:ADM2:36490775B42004320768134","name":"Ouargla","countryCode":"DZA","adminLevel":2,"sourceCode":"36490775B42004320768134","parentId":"DZA:ADM1:DZA-2194"},"geometry":{"type":"Polygon","coordinates":[[[6.16821,28.4453],[6.65459,28.83337],[7.00832,28.91081],[7.33995,28.93016],[7.62735,29.10416],[7.98109,29.25857],[8.24639,29.54748],[8.86542,29.73963],[9.24126,29.91225],[9.4335,30.02882],[9.55077,30.3505],[9.48003,30.77692],[9.28194,31.3224],[9.22534,31.61204],[8.9848,32.03283],[8.82916,32.00884],[8.50373,31.99684],[8.27734,31.97283],[7.73966,31.96083],[7.01805,32.02083],[6.79166,32.05682],[6.69262,32.38002],[6.59357,32.67826],[6.48038,33.09412],[6.35303,33.42541],[5.971,33.43721],[5.71632,33.43721],[5.51822,33.44902],[5.26354,33.49623],[5.06545,33.50803],[4.9381,33.44902],[4.88151,33.14153],[5.00885,32.98737],[5.1079,32.80917],[4.90981,32.70208],[4.74001,32.67826],[4.55607,32.39197],[4.32968,32.09278],[4.21649,31.79262],[4.15989,31.4794],[4.00425,30.95909],[4.00425,30.15494],[4.17404,29.73809],[3.74956,29.54133],[3.74956,29.29483],[3.42413,29.18371],[3.18359,29.12347],[3.49311,28.93016],[3.89106,28.69771],[4.20057,28.56187],[4.5322,28.46474],[4.70906,28.52303],[5.10701,28.30914],[5.59339,28.4453],[6.16821,28.4453]]]}},{"type":"Feature","properties":{"id":"DZA:ADM2:36490775B42365063028147","name":"El Oued","countryCode":"DZA","adminLevel":2,"sourceCode":"36490775B42365063028147","parentId":"DZA:ADM1:DZA-2191"},"geometry":{"type":"Polygon","coordinates":[[[8.9848,32.03283],[8.9282,32.22455],[8.74426,32.35612],[8.20659,32.60677],[8.22074,32.84484],[8.07925,33.04669],[8.05095,33.20074],[7.86701,33.1889],[7.69722,33.36634],[7.56987,33.57879],[7.47083,33.77895],[7.37178,33.91997],[7.37178,34.01384],[7.0322,34.11933],[6.87656,34.21299],[6.57942,34.28317],[6.26814,34.36497],[6.16909,34.44668],[6.04175,34.45835],[5.9427,34.29486],[5.74461,34.30655],[5.54652,34.3416],[5.53237,34.49334],[5.34843,34.52832],[5.22109,34.38832],[5.32013,34.21299],[5.34843,34.01384],[5.23524,33.79071],[5.0513,33.70836],[5.0745,33.50749],[5.06545,33.50803],[5.26354,33.49623],[5.51822,33.44902],[5.71632,33.43721],[5.971,33.43721],[6.35303,33.42541],[6.48038,33.09412],[6.59357,32.67826],[6.69262,32.38002],[6.79166,32.05682],[7.01805,32.02083],[7.73966,31.96083],[8.27734,31.97283],[8.50373,31.99684],[8.82916,32.00884],[8.9848,32.03283]]]}},{"type":"Feature","properties":{"id":"DZA:ADM2:36490775B43659847849640","name":"Sidi Bel Abbes","countryCode":"DZA","adminLevel":2,"sourceCode":"36490775B43659847849640","parentId":"DZA:ADM1:DZA-2146"},"geometry":{"type":"Polygon","coordinates":[[[-0.58012,34.22469],[-0.51617,34.35515],[-0.25356,34.42241],[-0.04528,34.52692],[-0.05433,34.68345],[-0.19922,34.8025],[-0.29883,34.82481],[-0.38033,34.93624],[-0.22639,35.1068],[-0.28072,35.21785],[-0.4075,35.32875],[-0.54333,35.40997],[-0.63389,35.38044],[-0.74255,35.35829],[-0.82405,35.31397],[-0.94178,35.21785],[-1.03091,35.10428],[-0.91461,34.97335],[-0.87839,34.78019],[-0.87839,34.49707],[-1.06855,34.4],[-1.17722,34.31777],[-1.16817,34.18959],[-1.13194,34.18959],[-0.99045,34.17788],[-0.74991,34.20129],[-0.58012,34.22469]]]}},{"type":"Feature","properties":{"id":"DZA:ADM2:36490775B46705477223941","name":"Relizane","countryCode":"DZA","adminLevel":2,"sourceCode":"36490775B46705477223941","parentId":"DZA:ADM1:DZA-2203"},"geometry":{"type":"Polygon","coordinates":[[[1.06277,35.54582],[1.13593,35.638],[1.26017,35.71009],[1.30454,35.83969],[1.18917,35.91879],[1.05606,36.02652],[0.92294,36.08392],[0.78982,36.2129],[0.69221,36.29163],[0.69075,36.30452],[0.60346,36.14844],[0.48809,35.99063],[0.39048,35.90441],[0.25736,35.79652],[0.25736,35.638],[0.46147,35.54419],[0.63009,35.52252],[0.72444,35.50586],[0.86028,35.57218],[1.06277,35.54582]]]}},{"type":"Feature","properties":{"id":"DZA:ADM2:36490775B46994264786465","name":"Batna","countryCode":"DZA","adminLevel":2,"sourceCode":"36490775B46994264786465","parentId":"DZA:ADM1:DZA-2216"},"geometry":{"type":"Polygon","coordinates":[[[6.60772,35.59381],[6.62431,35.59575],[6.67647,35.7417],[6.53738,35.80753],[6.34033,35.84512],[6.13966,35.85158],[5.9495,35.81488],[5.94237,35.87841],[5.7865,35.85892],[5.542,35.82222],[5.44238,35.74141],[5.31561,35.66788],[5.25222,35.57218],[5.1345,35.55008],[4.99866,35.49849],[4.88094,35.44687],[4.81755,35.35829],[4.78133,35.25483],[4.78133,35.12162],[4.98961,35.0401],[5.1144,34.98169],[5.37724,34.98341],[5.46163,34.99329],[5.47578,35.22479],[5.74461,35.2479],[5.92855,35.29411],[5.95685,35.07439],[5.9993,34.95851],[6.18324,34.9701],[6.35303,34.92371],[6.46623,35.06281],[6.49453,35.42104],[6.60772,35.59381]]]}},{"type":"Feature","properties":{"id":"DZA:ADM2:36490775B47942541761224","name":"Skikda","countryCode":"DZA","adminLevel":2,"sourceCode":"36490775B47942541761224","parentId":"DZA:ADM1:DZA-2166"},"geometry":{"type":"MultiPolygon","coordinates":[[[[6.82269,36.95244],[6.83481,36.94912],[6.85279,36.94033],[6.86964,36.92918],[6.88006,36.91844],[6.87965,36.90209],[6.90943,36.89305],[6.94858,36.89004],[6.9756,36.89118],[7.06446,36.91332],[7.0923,36.92593],[7.10808,36.92032],[7.13331,36.91527],[7.15699,36.9147],[7.16749,36.92219],[7.17644,36.93187],[7.21842,36.96061],[7.22705,36.92752],[7.32558,36.87654],[7.36035,36.78376],[7.37207,36.72269],[7.23864,36.66763],[7.04739,36.54667],[6.9083,36.48612],[6.90212,36.46697],[6.71922,36.52397],[6.64677,36.56035],[6.52905,36.61124],[6.34794,36.77825],[6.14223,36.88563],[6.19703,36.90233],[6.23569,36.92121],[6.25685,36.94579],[6.25856,36.96678],[6.25473,36.9833],[6.25441,36.99897],[6.26686,37.01777],[6.27442,37.02424],[6.31463,37.04865],[6.32887,37.06192],[6.33871,37.06928],[6.37159,37.08348],[6.41578,37.09296],[6.43272,37.09332],[6.47472,37.03891],[6.59244,36.9666],[6.65653,36.96266],[6.67115,36.95942],[6.81359,36.953],[6.82269,36.95244]]],[[[7.19373,37.06865],[7.18165,37.07673],[7.18165,37.08295],[7.19149,37.08415],[7.19373,37.06865]]]]}},{"type":"Feature","properties":{"id":"DZA:ADM2:36490775B48515357638448","name":"Annaba","countryCode":"DZA","adminLevel":2,"sourceCode":"36490775B48515357638448","parentId":"DZA:ADM1:DZA-2163"},"geometry":{"type":"Polygon","coordinates":[[[7.65592,36.95994],[7.72547,36.94605],[7.72547,36.88117],[7.73127,36.77912],[7.72547,36.68158],[7.77183,36.54667],[7.84923,36.48015],[7.8124,36.45349],[7.73999,36.32233],[7.63274,36.45816],[7.54001,36.55598],[7.39512,36.60252],[7.36035,36.78376],[7.32558,36.87654],[7.22705,36.92752],[7.21842,36.96061],[7.21876,36.96084],[7.23292,36.96686],[7.23902,36.9715],[7.24708,36.98233],[7.25424,36.9947],[7.25734,37.00414],[7.25554,37.01537],[7.2505,37.02314],[7.21111,37.05703],[7.19373,37.06865],[7.19149,37.08415],[7.19272,37.0843],[7.21217,37.0893],[7.22267,37.08979],[7.23276,37.08723],[7.25131,37.0786],[7.26051,37.07673],[7.26271,37.07599],[7.26645,37.07469],[7.27068,37.07103],[7.27475,37.06932],[7.28102,37.07306],[7.28826,37.08027],[7.29222,37.08228],[7.40092,37.04325],[7.56899,36.99698],[7.58417,36.99051],[7.58888,36.98762],[7.5922,36.98709],[7.65592,36.95994]]]}},{"type":"Feature","properties":{"id":"DZA:ADM2:36490775B50694374774706","name":"Djelfa","countryCode":"DZA","adminLevel":2,"sourceCode":"36490775B50694374774706","parentId":"DZA:ADM1:DZA-2212"},"geometry":{"type":"Polygon","coordinates":[[[5.06545,33.50803],[5.0745,33.50749],[5.05495,33.67673],[4.61267,33.79071],[4.31553,33.95518],[4.20234,34.17788],[4.22737,34.3434],[4.075,34.505],[4.0467,34.64481],[3.76371,34.84246],[3.60807,34.99329],[3.52317,35.17854],[3.69297,35.35183],[3.56562,35.51323],[3.39583,35.68581],[3.14114,35.70879],[2.85816,35.59381],[2.75911,35.46715],[2.57517,35.40951],[2.25837,35.4309],[2.29105,35.32875],[2.47216,35.17345],[2.57178,35.1068],[2.48122,34.93624],[2.37255,34.75788],[2.34539,34.60895],[2.15069,34.55163],[2.29219,34.42334],[2.33463,34.23639],[2.37708,34.02557],[2.50443,33.93171],[2.66007,33.99038],[2.75911,34.10762],[2.88646,34.30655],[3.05625,34.23639],[3.15529,34.0373],[3.33923,33.89648],[3.53732,33.80247],[3.74956,33.55521],[3.9901,33.47263],[4.08915,33.23626],[4.15749,33.03513],[4.21649,33.05855],[4.48533,33.04669],[4.61267,32.84484],[4.76525,32.6818],[4.90981,32.70208],[5.1079,32.80917],[5.00885,32.98737],[4.88151,33.14153],[4.9381,33.44902],[5.06545,33.50803]]]}},{"type":"Feature","properties":{"id":"DZA:ADM2:36490775B51952853061932","name":"Tamanghasset","countryCode":"DZA","adminLevel":2,"sourceCode":"36490775B51952853061932","parentId":"DZA:ADM1:DZA-2189"},"geometry":{"type":"Polygon","coordinates":[[[3.96633,19.0025],[4.31044,19.0453],[4.66361,19.10521],[5.053,19.23351],[5.53294,19.28481],[5.95855,19.43005],[6.08533,19.60929],[6.29361,19.80536],[6.42038,20.02673],[6.76449,20.32422],[7.09049,20.51093],[7.36216,20.73129],[7.9802,21.19057],[8.56032,21.5595],[9.08385,21.87498],[9.83818,22.27653],[10.56775,22.76666],[11.4963,23.21441],[11.93847,23.5391],[11.96058,23.88322],[11.7616,24.04484],[11.31944,24.02464],[9.77186,24.02464],[9.41812,23.98425],[8.84331,23.98425],[8.68855,24.16592],[8.51169,24.18609],[7.91476,24.54859],[7.40627,24.66919],[7.2073,25.01026],[7.27362,25.21045],[7.16308,25.51011],[7.05254,25.68955],[6.942,25.76922],[6.72091,25.94827],[6.52194,26.04763],[6.34507,26.20642],[6.4114,26.58269],[6.01345,27.07589],[6.03556,27.33151],[6.30086,27.52774],[6.54405,27.82142],[6.45562,28.19229],[6.21242,28.4453],[5.59339,28.4453],[5.10701,28.30914],[4.70906,28.52303],[4.5322,28.46474],[4.20057,28.56187],[3.89106,28.69771],[3.49311,28.93016],[3.18359,29.12347],[2.87408,29.02686],[2.54245,28.94951],[2.29926,28.94951],[2.43191,28.6007],[2.65299,28.40641],[2.56456,28.09482],[2.43191,27.88007],[2.45402,27.54734],[2.45402,27.05621],[2.56456,26.79996],[2.29926,26.50357],[1.8792,26.40461],[1.5918,26.18658],[1.19385,26.20642],[1.65812,25.86872],[1.56969,25.70947],[1.70234,25.49016],[1.72445,24.88999],[1.68023,23.96405],[1.54758,23.37685],[1.63601,22.88892],[1.56969,22.29699],[1.83499,21.98982],[2.10029,21.86677],[2.74143,21.51755],[3.80262,21.06436],[4.04581,20.81658],[4.04581,20.382],[4.0016,19.88382],[4.0016,19.38407],[3.96633,19.0025]]]}},{"type":"Feature","properties":{"id":"DZA:ADM2:36490775B54092318429642","name":"Constantine","countryCode":"DZA","adminLevel":2,"sourceCode":"36490775B54092318429642","parentId":"DZA:ADM1:DZA-2217"},"geometry":{"type":"Polygon","coordinates":[[[6.90212,36.46697],[6.71922,36.52397],[6.64677,36.56035],[6.52905,36.61124],[6.3912,36.73836],[6.23022,36.63305],[6.29361,36.40016],[6.30266,36.25425],[6.3867,36.10777],[6.49102,36.10777],[6.58954,36.0984],[6.78079,36.0984],[6.89671,36.16394],[6.86773,36.24811],[6.86773,36.36021],[6.90212,36.46697]]]}},{"type":"Feature","properties":{"id":"DZA:ADM2:36490775B5727174836797","name":"Tiaret","countryCode":"DZA","adminLevel":2,"sourceCode":"36490775B5727174836797","parentId":"DZA:ADM1:DZA-2205"},"geometry":{"type":"Polygon","coordinates":[[[1.32154,34.0115],[1.38663,34.11933],[1.54227,34.22469],[1.65547,34.37664],[1.93845,34.44668],[2.15069,34.55163],[2.34539,34.60895],[2.37255,34.75788],[2.48122,34.93624],[2.57178,35.1068],[2.47216,35.17345],[2.29105,35.32875],[2.23672,35.49849],[2.08278,35.49849],[1.85639,35.46899],[1.57567,35.57218],[1.43078,35.58691],[1.29494,35.56481],[1.08667,35.54271],[0.86028,35.57218],[0.72444,35.50586],[0.70633,35.28441],[0.59767,35.24004],[0.489,35.15124],[0.51556,35.0068],[0.61578,34.99561],[0.67011,34.86197],[0.72444,34.66855],[0.7335,34.512],[0.83884,34.40867],[0.89141,34.4],[0.89141,34.20129],[1.10364,34.0959],[1.23099,34.04902],[1.32154,34.0115]]]}},{"type":"Feature","properties":{"id":"DZA:ADM2:36490775B58529694884514","name":"Tipaza","countryCode":"DZA","adminLevel":2,"sourceCode":"36490775B58529694884514","parentId":"DZA:ADM1:DZA-2198"},"geometry":{"type":"Polygon","coordinates":[[[2.56152,36.48537],[2.54448,36.4077],[2.47064,36.3208],[2.47255,36.31198],[2.2896,36.32738],[2.0145,36.32738],[1.84588,36.37027],[1.65952,36.37741],[1.62402,36.52732],[1.64559,36.54463],[1.70094,36.54719],[1.71656,36.54792],[1.72674,36.54999],[1.75017,36.55915],[1.76124,36.56159],[1.77003,36.56049],[1.79151,36.55549],[1.80291,36.55537],[1.8576,36.56745],[1.91383,36.57022],[1.96046,36.5622],[1.97283,36.56159],[2.05991,36.57014],[2.30983,36.63052],[2.30987,36.63053],[2.37835,36.61997],[2.39513,36.61964],[2.3982,36.6153],[2.40016,36.60619],[2.40406,36.59919],[2.41603,36.59634],[2.42677,36.59528],[2.44728,36.59056],[2.45704,36.5895],[2.57322,36.59503],[2.56152,36.48537]]]}},{"type":"Feature","properties":{"id":"DZA:ADM2:36490775B63168905365960","name":"El Tarf","countryCode":"DZA","adminLevel":2,"sourceCode":"36490775B63168905365960","parentId":"DZA:ADM1:DZA-2164"},"geometry":{"type":"Polygon","coordinates":[[[8.5948,36.89044],[8.50207,36.7884],[8.43253,36.68158],[8.34559,36.61183],[8.28184,36.5327],[8.16652,36.4739],[8.16014,36.49078],[7.97468,36.49078],[7.87036,36.49544],[7.84923,36.48015],[7.77183,36.54667],[7.72547,36.68158],[7.73127,36.77912],[7.72547,36.88117],[7.72547,36.94605],[7.77871,36.95136],[7.77858,36.95112],[7.77426,36.93146],[7.79119,36.91844],[7.77345,36.88996],[7.77377,36.88976],[7.80991,36.86815],[7.86647,36.8544],[7.90846,36.84956],[8.04998,36.87759],[8.07301,36.8874],[8.09303,36.9018],[8.18636,36.93928],[8.26446,36.93678],[8.26537,36.9366],[8.26873,36.93374],[8.2881,36.92593],[8.31349,36.92698],[8.334,36.92288],[8.36577,36.92187],[8.37403,36.91844],[8.3829,36.92132],[8.39524,36.92092],[8.40162,36.91861],[8.4144,36.91022],[8.42872,36.9042],[8.46323,36.90156],[8.49757,36.9042],[8.51415,36.90979],[8.5948,36.89044]]]}},{"type":"Feature","properties":{"id":"DZA:ADM2:36490775B64322477685939","name":"Tlemcen","countryCode":"DZA","adminLevel":2,"sourceCode":"36490775B64322477685939","parentId":"DZA:ADM1:DZA-2147"},"geometry":{"type":"Polygon","coordinates":[[[-1.74772,35.13643],[-1.58472,35.15124],[-1.36739,35.24744],[-1.17722,35.18825],[-1.0595,35.13643],[-0.91461,34.97335],[-0.87839,34.78019],[-0.87839,34.49707],[-1.06855,34.4],[-1.17722,34.31777],[-1.16817,34.18959],[-1.35833,34.18959],[-1.57057,34.16618],[-1.5485,34.31029],[-1.59378,34.58658],[-2.0375,34.98077],[-2.21861,35.06234],[-2.05561,35.04752],[-1.98338,35.08129],[-1.96475,35.07624],[-1.95645,35.07502],[-1.94982,35.07713],[-1.93249,35.08869],[-1.83869,35.11091],[-1.81441,35.12552],[-1.79932,35.12799],[-1.77424,35.12735],[-1.76114,35.12962],[-1.75037,35.136],[-1.74772,35.13643]]]}},{"type":"Feature","properties":{"id":"DZA:ADM2:36490775B64365182759254","name":"Ain Defla","countryCode":"DZA","adminLevel":2,"sourceCode":"36490775B64365182759254","parentId":"DZA:ADM1:DZA-2199"},"geometry":{"type":"Polygon","coordinates":[[[2.47255,36.31198],[2.2896,36.32738],[2.0145,36.32738],[1.84588,36.37027],[1.65952,36.37741],[1.58852,36.31308],[1.54415,36.20574],[1.54415,36.06957],[1.45541,35.91879],[1.65952,35.88285],[1.92575,35.89722],[2.03225,35.87566],[2.20086,35.86846],[2.36825,35.86579],[2.39113,35.95845],[2.44225,36.06412],[2.49336,36.21548],[2.47255,36.31198]]]}},{"type":"Feature","properties":{"id":"DZA:ADM2:36490775B68275827628824","name":"Illizi","countryCode":"DZA","adminLevel":2,"sourceCode":"36490775B68275827628824","parentId":"DZA:ADM1:DZA-2188"},"geometry":{"type":"Polygon","coordinates":[[[11.7616,24.04484],[11.79865,24.01476],[11.73949,24.22642],[11.51841,24.42787],[11.20889,24.50836],[10.58986,24.50836],[10.21402,24.6491],[10.19191,25.11039],[10.19191,25.4702],[9.52867,26.08734],[9.77186,26.22625],[9.99294,26.56291],[9.92661,26.93801],[9.8824,27.33151],[10.05926,27.78231],[9.77186,28.15331],[9.94872,28.40641],[9.90451,29.3357],[9.68342,29.66281],[9.52867,29.7972],[9.46234,30.0463],[9.24126,29.91225],[8.86542,29.73963],[8.24639,29.54748],[7.98109,29.25857],[7.62735,29.10416],[7.33995,28.93016],[7.00832,28.91081],[6.65459,28.83337],[6.16821,28.4453],[6.21242,28.4453],[6.45562,28.19229],[6.54405,27.82142],[6.30086,27.52774],[6.03556,27.33151],[6.01345,27.07589],[6.4114,26.58269],[6.34507,26.20642],[6.52194,26.04763],[6.72091,25.94827],[6.942,25.76922],[7.05254,25.68955],[7.16308,25.51011],[7.27362,25.21045],[7.2073,25.01026],[7.40627,24.66919],[7.91476,24.54859],[8.51169,24.18609],[8.68855,24.16592],[8.84331,23.98425],[9.41812,23.98425],[9.77186,24.02464],[11.31944,24.02464],[11.7616,24.04484]]]}},{"type":"Feature","properties":{"id":"DZA:ADM2:36490775B68584110438360","name":"Tizi Ouzou","countryCode":"DZA","adminLevel":2,"sourceCode":"36490775B68584110438360","parentId":"DZA:ADM1:DZA-2197"},"geometry":{"type":"Polygon","coordinates":[[[4.24837,36.89981],[4.379,36.86346],[4.50963,36.88164],[4.51531,36.79982],[4.54939,36.72247],[4.62891,36.68604],[4.57779,36.54928],[4.49827,36.43969],[4.43012,36.43969],[4.3076,36.40243],[4.32185,36.43455],[3.94912,36.42027],[3.75389,36.47738],[3.7469,36.5223],[3.75992,36.59945],[3.90191,36.6997],[3.90191,36.88618],[3.95006,36.89305],[3.96404,36.89118],[3.97486,36.89228],[3.99643,36.89692],[4.03142,36.89777],[4.03948,36.89692],[4.08546,36.89208],[4.10483,36.88373],[4.14649,36.9018],[4.15913,36.90413],[4.16026,36.90408],[4.17156,36.90217],[4.19703,36.89326],[4.21046,36.89118],[4.22283,36.89419],[4.23495,36.90046],[4.24837,36.89981]]]}},{"type":"Feature","properties":{"id":"DZA:ADM2:36490775B69018704066523","name":"Guelma","countryCode":"DZA","adminLevel":2,"sourceCode":"36490775B69018704066523","parentId":"DZA:ADM1:DZA-2218"},"geometry":{"type":"Polygon","coordinates":[[[7.73999,36.32233],[7.63274,36.45816],[7.54001,36.55598],[7.39512,36.60252],[7.37207,36.72269],[7.23864,36.66763],[7.04739,36.54667],[6.9083,36.48612],[6.86773,36.36021],[6.86773,36.24811],[6.89671,36.16394],[7.01262,36.11245],[7.25603,36.05156],[7.36035,36.14054],[7.54001,36.22006],[7.71967,36.2855],[7.73999,36.32233]]]}},{"type":"Feature","properties":{"id":"DZA:ADM2:36490775B69031995981385","name":"Mascara","countryCode":"DZA","adminLevel":2,"sourceCode":"36490775B69031995981385","parentId":"DZA:ADM1:DZA-2201"},"geometry":{"type":"Polygon","coordinates":[[[-0.22639,35.1068],[0.00906,35.07717],[0.15394,35.07717],[0.28978,35.02527],[0.41656,35.01786],[0.51556,35.0068],[0.489,35.15124],[0.59767,35.24004],[0.70633,35.28441],[0.72444,35.50586],[0.63009,35.52252],[0.46147,35.54419],[0.25736,35.638],[0.25736,35.79652],[0.11537,35.63079],[-0.05325,35.63079],[-0.20411,35.65964],[-0.29286,35.71009],[-0.3816,35.61636],[-0.4526,35.47917],[-0.53715,35.40627],[-0.4075,35.32875],[-0.28072,35.21785],[-0.22639,35.1068]]]}},{"type":"Feature","properties":{"id":"DZA:ADM2:36490775B73460395582618","name":"Mostaganem","countryCode":"DZA","adminLevel":2,"sourceCode":"36490775B73460395582618","parentId":"DZA:ADM1:DZA-2202"},"geometry":{"type":"Polygon","coordinates":[[[0.11537,35.93316],[0.13506,36.0553],[0.13559,36.05561],[0.14552,36.05996],[0.15398,36.06501],[0.20216,36.10651],[0.21949,36.11652],[0.28346,36.13443],[0.29444,36.14077],[0.29908,36.14741],[0.32106,36.15888],[0.32927,36.16498],[0.33277,36.17381],[0.33758,36.1975],[0.3423,36.20596],[0.36004,36.21385],[0.38445,36.21796],[0.4284,36.21963],[0.45134,36.22321],[0.46827,36.23224],[0.48317,36.2436],[0.55665,36.28408],[0.59457,36.29316],[0.61183,36.30549],[0.62721,36.31924],[0.64405,36.32884],[0.66326,36.33259],[0.6874,36.3342],[0.69075,36.30452],[0.60346,36.14844],[0.48809,35.99063],[0.39048,35.90441],[0.25736,35.79652],[0.11537,35.63079],[-0.05325,35.63079],[-0.20411,35.65964],[-0.29286,35.71009],[-0.22572,35.81173],[-0.18806,35.80524],[-0.14509,35.79035],[-0.12389,35.78693],[-0.11368,35.7888],[-0.08308,35.79438],[-0.03848,35.8133],[-0.0003,35.83611],[0.00294,35.83804],[0.03452,35.86327],[0.05307,35.89391],[0.11537,35.93316]]]}},{"type":"Feature","properties":{"id":"DZA:ADM2:36490775B7492261845760","name":"Naama","countryCode":"DZA","adminLevel":2,"sourceCode":"36490775B7492261845760","parentId":"DZA:ADM1:DZA-2149"},"geometry":{"type":"Polygon","coordinates":[[[0,34.00212],[-0.18394,34.00212],[-0.26884,33.93171],[-0.49523,34.07247],[-0.58012,34.22469],[-0.74991,34.20129],[-0.99045,34.17788],[-1.13194,34.18959],[-1.35833,34.18959],[-1.57057,34.16618],[-1.59887,33.96692],[-1.59887,33.79071],[-1.65547,33.62593],[-1.64132,33.42541],[-1.61302,33.20074],[-1.64132,33.07041],[-1.57057,32.90426],[-1.38663,32.84484],[-1.17439,32.55908],[-1.0046,32.51137],[-1.10364,32.36807],[-0.96215,32.21258],[-0.49523,32.05682],[-0.26884,32.09278],[-0.09404,32.1354],[-0.0283,32.38002],[0,32.67826],[0.04245,33.02297],[0.07075,33.21258],[0.04245,33.42541],[0,33.80247],[0,34.00212]]]}},{"type":"Feature","properties":{"id":"DZA:ADM2:36490775B79919789274360","name":"Chlef","countryCode":"DZA","adminLevel":2,"sourceCode":"36490775B79919789274360","parentId":"DZA:ADM1:DZA-2200"},"geometry":{"type":"Polygon","coordinates":[[[1.62402,36.52732],[1.65952,36.37741],[1.58852,36.31308],[1.54415,36.20574],[1.54415,36.06957],[1.45541,35.91879],[1.34891,35.91879],[1.30454,35.83969],[1.18917,35.91879],[1.05606,36.02652],[0.92294,36.08392],[0.78982,36.2129],[0.69221,36.29163],[0.6874,36.3342],[0.74041,36.33776],[0.75327,36.33861],[0.76873,36.34471],[0.80226,36.36359],[0.86476,36.37739],[0.88054,36.38715],[0.89088,36.39639],[0.91383,36.40913],[0.92514,36.41816],[0.92954,36.42593],[0.93214,36.43456],[0.93465,36.44002],[0.94069,36.44169],[1.18917,36.47024],[1.401,36.54069],[1.42954,36.53221],[1.45281,36.52802],[1.47633,36.52896],[1.51743,36.53872],[1.54509,36.54],[1.62402,36.52732]]]}},{"type":"Feature","properties":{"id":"DZA:ADM2:36490775B81957653037358","name":"Alger","countryCode":"DZA","adminLevel":2,"sourceCode":"36490775B81957653037358","parentId":"DZA:ADM1:DZA-2195"},"geometry":{"type":"Polygon","coordinates":[[[2.97613,36.76343],[3.03671,36.80052],[3.04786,36.79499],[3.07398,36.77139],[3.10182,36.7519],[3.14015,36.74164],[3.17327,36.74262],[3.17937,36.74283],[3.21046,36.75739],[3.2212,36.77143],[3.22608,36.7862],[3.22731,36.81232],[3.2378,36.81306],[3.30299,36.78876],[3.3405,36.78071],[3.43945,36.77608],[3.45322,36.69515],[3.46258,36.68295],[3.35667,36.63136],[3.20332,36.64959],[3.0954,36.65415],[2.8739,36.65415],[2.73191,36.6587],[2.7366,36.66906],[2.79298,36.69294],[2.8187,36.71088],[2.83332,36.72821],[2.97613,36.76343]]]}},{"type":"Feature","properties":{"id":"DZA:ADM2:36490775B87141122001231","name":"Tindouf","countryCode":"DZA","adminLevel":2,"sourceCode":"36490775B87141122001231","parentId":"DZA:ADM1:DZA-2150"},"geometry":{"type":"Polygon","coordinates":[[[-3.07305,28.5036],[-3.31624,28.4453],[-3.80262,28.42586],[-4.15636,28.2702],[-4.5322,28.21177],[-4.70906,28.56187],[-4.8196,29.04619],[-4.95225,29.58594],[-5.15123,29.83556],[-5.79237,29.83556],[-6.10188,29.81638],[-5.90291,29.60516],[-5.57128,29.3935],[-6.05767,29.48977],[-6.32297,29.48977],[-6.65459,29.52825],[-7.07465,29.56671],[-7.16308,29.35497],[-7.31784,29.18139],[-7.82633,29.00753],[-8.11374,28.94951],[-8.42325,28.77525],[-8.68855,28.52303],[-8.79909,28.36751],[-8.68855,27.88007],[-8.73277,27.50813],[-8.60012,27.23327],[-7.91476,26.78023],[-7.14097,26.365],[-6.61037,26.00789],[-6.05767,25.80903],[-5.50496,25.49016],[-5.12912,25.66963],[-4.7975,25.88862],[-4.06792,26.24608],[-3.95738,26.24608],[-3.60365,26.464],[-3.2057,26.64198],[-2.85197,26.9183],[-2.58667,26.95772],[-2.36559,27.21361],[-2.52034,27.50813],[-2.80775,27.89961],[-3.07305,28.5036]]]}},{"type":"Feature","properties":{"id":"DZA:ADM2:36490775B87391532441623","name":"Tamanghasset","countryCode":"DZA","adminLevel":2,"sourceCode":"36490775B87391532441623","parentId":"DZA:ADM1:DZA-2145"},"geometry":{"type":"Polygon","coordinates":[[[-0.29286,35.71009],[-0.3816,35.61636],[-0.4526,35.47917],[-0.53715,35.40627],[-0.54333,35.40997],[-0.63389,35.38044],[-0.74255,35.35829],[-0.82405,35.31397],[-0.89632,35.4141],[-1.02943,35.47917],[-1.02943,35.60915],[-0.97053,35.70484],[-0.96154,35.71125],[-0.94628,35.71931],[-0.92268,35.72516],[-0.91023,35.72431],[-0.90469,35.71589],[-0.8994,35.71182],[-0.88756,35.71597],[-0.84948,35.73432],[-0.8462,35.73891],[-0.7632,35.73891],[-0.74352,35.74955],[-0.73449,35.74722],[-0.72313,35.746],[-0.71129,35.74299],[-0.70588,35.73566],[-0.70132,35.72687],[-0.69245,35.71931],[-0.68261,35.71735],[-0.64452,35.71931],[-0.62645,35.72297],[-0.60611,35.73094],[-0.58935,35.7425],[-0.57726,35.77082],[-0.56505,35.77245],[-0.55126,35.76903],[-0.54092,35.76777],[-0.53043,35.77289],[-0.52343,35.77969],[-0.47704,35.85936],[-0.47606,35.8701],[-0.47842,35.87287],[-0.48034,35.8791],[-0.4808,35.88536],[-0.47121,35.89014],[-0.46801,35.88874],[-0.46288,35.8852],[-0.45905,35.88377],[-0.44896,35.88435],[-0.42813,35.8828],[-0.41804,35.88377],[-0.37613,35.90034],[-0.34854,35.90705],[-0.33617,35.90082],[-0.33145,35.88955],[-0.32071,35.8841],[-0.30919,35.88117],[-0.30191,35.87759],[-0.29849,35.86717],[-0.3046,35.8535],[-0.30191,35.84284],[-0.28555,35.82827],[-0.25943,35.81753],[-0.22573,35.81173],[-0.29286,35.71009]]]}},{"type":"Feature","properties":{"id":"DZA:ADM2:36490775B90060059089153","name":"Souk Ahras","countryCode":"DZA","adminLevel":2,"sourceCode":"36490775B90060059089153","parentId":"DZA:ADM1:DZA-2222"},"geometry":{"type":"Polygon","coordinates":[[[8.20659,35.94969],[8.24707,35.96718],[8.24127,36.07967],[8.24707,36.21071],[8.2007,36.38354],[8.16014,36.49078],[7.97468,36.49078],[7.87036,36.49544],[7.8124,36.45349],[7.71967,36.2855],[7.54001,36.22006],[7.36035,36.14054],[7.25603,36.05156],[7.31978,36],[7.40671,35.89209],[7.47626,35.83573],[7.60956,35.78403],[7.78211,35.74325],[7.88116,35.90386],[8.0934,35.93824],[8.20659,35.94969]]]}},{"type":"Feature","properties":{"id":"DZA:ADM2:36490775B90091369499278","name":"Oum el Bouaghi","countryCode":"DZA","adminLevel":2,"sourceCode":"36490775B90091369499278","parentId":"DZA:ADM1:DZA-2221"},"geometry":{"type":"Polygon","coordinates":[[[7.78211,35.74325],[7.60956,35.78403],[7.47626,35.83573],[7.40671,35.89209],[7.31978,36],[7.25603,36.05156],[7.01262,36.11245],[6.89671,36.16394],[6.78079,36.0984],[6.58954,36.0984],[6.49102,36.10777],[6.3867,36.10777],[6.33454,35.96718],[6.34033,35.84512],[6.53738,35.80753],[6.67647,35.7417],[6.62431,35.59575],[6.60772,35.59381],[6.74921,35.60532],[7.24444,35.60532],[7.32933,35.47867],[7.30104,35.3172],[7.54157,35.39798],[7.72551,35.4902],[7.78211,35.74325]]]}},{"type":"Feature","properties":{"id":"DZA:ADM2:36490775B92839772729300","name":"Tissemsilt","countryCode":"DZA","adminLevel":2,"sourceCode":"36490775B92839772729300","parentId":"DZA:ADM1:DZA-2206"},"geometry":{"type":"Polygon","coordinates":[[[2.16962,35.49849],[2.1753,35.58519],[2.23778,35.69136],[2.35705,35.82041],[2.36825,35.86579],[2.20086,35.86846],[2.03225,35.87566],[1.92575,35.89722],[1.65952,35.88285],[1.45541,35.91879],[1.34891,35.91879],[1.30454,35.83969],[1.26017,35.71009],[1.13593,35.638],[1.06277,35.54582],[1.08667,35.54271],[1.29494,35.56481],[1.43078,35.58691],[1.57567,35.57218],[1.85639,35.46899],[2.08278,35.49849],[2.16962,35.49849]]]}},{"type":"Feature","properties":{"id":"DZA:ADM2:36490775B9410454638084","name":"Saiida","countryCode":"DZA","adminLevel":2,"sourceCode":"36490775B9410454638084","parentId":"DZA:ADM1:DZA-2204"},"geometry":{"type":"Polygon","coordinates":[[[0.83884,34.40867],[0.7335,34.512],[0.72444,34.66855],[0.67011,34.86197],[0.61578,34.99561],[0.41656,35.01786],[0.28978,35.02527],[0.15394,35.07717],[0.00906,35.07717],[-0.22639,35.1068],[-0.38033,34.93624],[-0.29883,34.82481],[-0.19922,34.8025],[-0.05433,34.68345],[-0.04528,34.52692],[-0.25356,34.42241],[-0.51617,34.35515],[-0.58012,34.22469],[-0.49523,34.07247],[-0.26884,33.93171],[-0.18394,34.00212],[0,34.00212],[0.15564,34.10762],[0.38203,34.32992],[0.67917,34.43501],[0.83884,34.40867]]]}},{"type":"Feature","properties":{"id":"DZA:ADM2:36490775B95529317550299","name":"Adrar","countryCode":"DZA","adminLevel":2,"sourceCode":"36490775B95529317550299","parentId":"DZA:ADM1:DZA-2143"},"geometry":{"type":"Polygon","coordinates":[[[2.29926,28.94951],[2.43191,29.31642],[2.36559,29.60516],[2.1445,29.89308],[2.25504,30.27568],[2.21083,30.78983],[2.10029,31.28235],[2.1445,31.62183],[1.74655,31.52766],[1.5918,31.30125],[1.3265,31.18784],[0.99487,30.96061],[0.70746,30.71383],[0.39795,30.27568],[-0.19897,29.23928],[-0.39795,28.83337],[-1.14963,28.83337],[-1.54758,28.75587],[-1.83499,28.40641],[-1.98974,28.23125],[-2.16661,28.21177],[-2.34348,28.25073],[-2.43191,28.38697],[-2.69721,28.54245],[-2.87408,28.6007],[-3.07305,28.5036],[-2.80775,27.89961],[-2.52034,27.50813],[-2.36559,27.21361],[-2.58667,26.95772],[-2.85197,26.9183],[-3.2057,26.64198],[-3.60365,26.464],[-3.95738,26.24608],[-4.06792,26.24608],[-4.7975,25.88862],[-5.12912,25.66963],[-5.50496,25.49016],[-5.30599,25.29043],[-4.68695,24.86993],[-4.0016,24.28689],[-3.22781,23.96405],[-2.87408,23.82256],[-2.38769,23.55937],[-1.79077,23.21441],[-1.43704,22.80743],[-0.72957,22.33789],[-0.11054,22.11277],[0.81801,21.45583],[1.30439,21.06436],[1.37071,20.65117],[1.65812,20.40272],[1.81288,20.11235],[2.27715,20.00851],[2.47613,20.11235],[2.6751,19.90461],[2.98462,19.9254],[3.22781,19.9254],[3.471,19.57166],[3.471,19.3215],[3.29413,19.11273],[3.51522,19.00825],[3.96854,19.02641],[4.0016,19.38407],[4.0016,19.88382],[4.04581,20.382],[4.04581,20.81658],[3.80262,21.06436],[2.74143,21.51755],[2.10029,21.86677],[1.83499,21.98982],[1.56969,22.29699],[1.63601,22.88892],[1.54758,23.37685],[1.68023,23.96405],[1.72445,24.88999],[1.70234,25.49016],[1.56969,25.70947],[1.65812,25.86872],[1.19385,26.20642],[1.5918,26.18658],[1.8792,26.40461],[2.29926,26.50357],[2.56456,26.79996],[2.45402,27.05621],[2.45402,27.54734],[2.43191,27.88007],[2.56456,28.09482],[2.65299,28.40641],[2.43191,28.6007],[2.29926,28.94951]]]}},{"type":"Feature","properties":{"id":"DZA:ADM2:36490775B97163697030434","name":"Biskra","countryCode":"DZA","adminLevel":2,"sourceCode":"36490775B97163697030434","parentId":"DZA:ADM1:DZA-2211"},"geometry":{"type":"Polygon","coordinates":[[[6.61306,34.27523],[6.69262,34.41167],[6.63602,34.57494],[6.48038,34.74951],[6.35303,34.92371],[6.18324,34.9701],[5.9993,34.95851],[5.95685,35.07439],[5.92855,35.29411],[5.74461,35.2479],[5.47578,35.22479],[5.46163,34.99329],[5.36258,34.98169],[5.0513,34.98169],[4.98055,34.92371],[4.90981,34.77275],[4.74001,34.65645],[4.51362,34.60988],[4.21649,34.52832],[4.23064,34.36497],[4.20234,34.17788],[4.31553,33.95518],[4.61267,33.79071],[5.05495,33.67673],[5.0513,33.70836],[5.23524,33.79071],[5.34843,34.01384],[5.32013,34.21299],[5.22109,34.38832],[5.34843,34.52832],[5.53237,34.49334],[5.54652,34.3416],[5.74461,34.30655],[5.9427,34.29486],[6.04175,34.45835],[6.16909,34.44668],[6.26814,34.36497],[6.61306,34.27523]]]}},{"type":"Feature","properties":{"id":"DZA:ADM2:36490775B97209406002517","name":"Boumerdes","countryCode":"DZA","adminLevel":2,"sourceCode":"36490775B97209406002517","parentId":"DZA:ADM1:DZA-2196"},"geometry":{"type":"Polygon","coordinates":[[[3.90191,36.88618],[3.90191,36.6997],[3.75992,36.59945],[3.65769,36.63592],[3.49866,36.63592],[3.45322,36.69515],[3.43945,36.77608],[3.4607,36.77509],[3.48048,36.77725],[3.51905,36.78661],[3.53981,36.78876],[3.55047,36.79145],[3.55812,36.79767],[3.5643,36.80435],[3.57057,36.80858],[3.58041,36.80996],[3.60182,36.80809],[3.61207,36.80858],[3.64967,36.82396],[3.70948,36.8732],[3.74187,36.89118],[3.79717,36.90522],[3.90191,36.88618]]]}},{"type":"Feature","properties":{"id":"DZA:ADM2:36490775B97581499962095","name":"Medea","countryCode":"DZA","adminLevel":2,"sourceCode":"36490775B97581499962095","parentId":"DZA:ADM1:DZA-2213"},"geometry":{"type":"Polygon","coordinates":[[[2.25837,35.4309],[2.57517,35.40951],[2.75911,35.46715],[2.85816,35.59381],[3.14114,35.70879],[3.27871,35.69638],[3.6119,35.95472],[3.6119,36.10543],[3.5764,36.23438],[3.58371,36.38174],[3.38507,36.4077],[3.11244,36.4077],[2.94205,36.3757],[2.77166,36.39399],[2.62967,36.39399],[2.54448,36.4077],[2.47064,36.3208],[2.49336,36.21548],[2.44225,36.06412],[2.39113,35.95845],[2.35705,35.82041],[2.23778,35.69136],[2.1753,35.58519],[2.16962,35.49849],[2.23672,35.49849],[2.25837,35.4309]]]}},{"type":"Feature","properties":{"id":"DZA:ADM2:36490775B99806205813756","name":"Bordj Bou Arreidj","countryCode":"DZA","adminLevel":2,"sourceCode":"36490775B99806205813756","parentId":"DZA:ADM1:DZA-2207"},"geometry":{"type":"Polygon","coordinates":[[[5.15194,36.41966],[5.04068,36.42027],[4.89869,36.36312],[4.69458,36.22006],[4.57034,36.22722],[4.39285,36.25585],[4.35735,36.25585],[4.30418,36.39474],[4.27748,36.33453],[4.1264,36.08571],[5.11308,35.83083],[5.16166,36.02754],[5.14355,36.29805],[5.15194,36.41966]]]}}],"admin1":{"type":"FeatureCollection","features":[{"type":"Feature","properties":{"id":"DZA:ADM1:DZA-2143","name":"Adrar","countryCode":"DZA"},"geometry":{"type":"Polygon","coordinates":[[[2.29926,28.94951],[2.43191,29.31642],[2.36559,29.60516],[2.1445,29.89308],[2.25504,30.27568],[2.21083,30.78983],[2.10029,31.28235],[2.1445,31.62183],[1.74655,31.52766],[1.5918,31.30125],[1.3265,31.18784],[0.99487,30.96061],[0.70746,30.71383],[0.39795,30.27568],[-0.19897,29.23928],[-0.39795,28.83337],[-1.14963,28.83337],[-1.54758,28.75587],[-1.83499,28.40641],[-1.98974,28.23125],[-2.16661,28.21177],[-2.34348,28.25073],[-2.43191,28.38697],[-2.69721,28.54245],[-2.87408,28.6007],[-3.07305,28.5036],[-2.80775,27.89961],[-2.52034,27.50813],[-2.36559,27.21361],[-2.58667,26.95772],[-2.85197,26.9183],[-3.2057,26.64198],[-3.60365,26.464],[-3.95738,26.24608],[-4.06792,26.24608],[-4.7975,25.88862],[-5.12912,25.66963],[-5.50496,25.49016],[-5.30599,25.29043],[-4.68695,24.86993],[-4.0016,24.28689],[-3.22781,23.96405],[-2.87408,23.82256],[-2.38769,23.55937],[-1.79077,23.21441],[-1.43704,22.80743],[-0.72957,22.33789],[-0.11054,22.11277],[0.81801,21.45583],[1.30439,21.06436],[1.37071,20.65117],[1.65812,20.40272],[1.81288,20.11235],[2.27715,20.00851],[2.47613,20.11235],[2.6751,19.90461],[2.98462,19.9254],[3.22781,19.9254],[3.471,19.57166],[3.471,19.3215],[3.29413,19.11273],[3.51522,19.00825],[3.96854,19.02641],[4.0016,19.38407],[4.0016,19.88382],[4.04581,20.382],[4.04581,20.81658],[3.80262,21.06436],[2.74143,21.51755],[2.10029,21.86677],[1.83499,21.98982],[1.56969,22.29699],[1.63601,22.88892],[1.54758,23.37685],[1.68023,23.96405],[1.72445,24.88999],[1.70234,25.49016],[1.56969,25.70947],[1.65812,25.86872],[1.19385,26.20642],[1.5918,26.18658],[1.8792,26.40461],[2.29926,26.50357],[2.56456,26.79996],[2.45402,27.05621],[2.45402,27.54734],[2.43191,27.88007],[2.56456,28.09482],[2.65299,28.40641],[2.43191,28.6007],[2.29926,28.94951]]]}},{"type":"Feature","properties":{"id":"DZA:ADM1:DZA-2144","name":"Aïn Témouchent","countryCode":"DZA"},"geometry":{"type":"Polygon","coordinates":[[[-1.02943,35.60915],[-1.02943,35.47917],[-0.89632,35.4141],[-0.82405,35.31397],[-0.94178,35.21785],[-1.03091,35.10428],[-1.0595,35.13643],[-1.17722,35.18825],[-1.36739,35.24744],[-1.37676,35.24329],[-1.34891,35.32727],[-1.32345,35.3515],[-1.31379,35.35375],[-1.29483,35.36457],[-1.27863,35.378],[-1.26773,35.39033],[-1.25918,35.41031],[-1.2473,35.45775],[-1.23705,35.47574],[-1.22541,35.49128],[-1.19034,35.56615],[-1.18334,35.57648],[-1.17154,35.58104],[-1.14802,35.5821],[-1.14281,35.5869],[-1.11701,35.61689],[-1.10635,35.62324],[-1.08926,35.63346],[-1.02943,35.60915]]]}},{"type":"Feature","properties":{"id":"DZA:ADM1:DZA-2145","name":"Oran","countryCode":"DZA"},"geometry":{"type":"Polygon","coordinates":[[[-0.29286,35.71009],[-0.3816,35.61636],[-0.4526,35.47917],[-0.53715,35.40627],[-0.54333,35.40997],[-0.63389,35.38044],[-0.74255,35.35829],[-0.82405,35.31397],[-0.89632,35.4141],[-1.02943,35.47917],[-1.02943,35.60915],[-0.97053,35.70484],[-0.96154,35.71125],[-0.94628,35.71931],[-0.92268,35.72516],[-0.91023,35.72431],[-0.90469,35.71589],[-0.8994,35.71182],[-0.88756,35.71597],[-0.84948,35.73432],[-0.8462,35.73891],[-0.7632,35.73891],[-0.74352,35.74955],[-0.73449,35.74722],[-0.72313,35.746],[-0.71129,35.74299],[-0.70588,35.73566],[-0.70132,35.72687],[-0.69245,35.71931],[-0.68261,35.71735],[-0.64452,35.71931],[-0.62645,35.72297],[-0.60611,35.73094],[-0.58935,35.7425],[-0.57726,35.77082],[-0.56505,35.77245],[-0.55126,35.76903],[-0.54092,35.76777],[-0.53043,35.77289],[-0.52343,35.77969],[-0.47704,35.85936],[-0.47606,35.8701],[-0.47842,35.87287],[-0.48034,35.8791],[-0.4808,35.88536],[-0.47121,35.89014],[-0.46801,35.88874],[-0.46288,35.8852],[-0.45905,35.88377],[-0.44896,35.88435],[-0.42813,35.8828],[-0.41804,35.88377],[-0.37613,35.90034],[-0.34854,35.90705],[-0.33617,35.90082],[-0.33145,35.88955],[-0.32071,35.8841],[-0.30919,35.88117],[-0.30191,35.87759],[-0.29849,35.86717],[-0.3046,35.8535],[-0.30191,35.84284],[-0.28555,35.82827],[-0.25943,35.81753],[-0.22573,35.81173],[-0.29286,35.71009]]]}},{"type":"Feature","properties":{"id":"DZA:ADM1:DZA-2146","name":"Sidi Bel Abbès","countryCode":"DZA"},"geometry":{"type":"Polygon","coordinates":[[[-0.58012,34.22469],[-0.51617,34.35515],[-0.25356,34.42241],[-0.04528,34.52692],[-0.05433,34.68345],[-0.19922,34.8025],[-0.29883,34.82481],[-0.38033,34.93624],[-0.22639,35.1068],[-0.28072,35.21785],[-0.4075,35.32875],[-0.54333,35.40997],[-0.63389,35.38044],[-0.74255,35.35829],[-0.82405,35.31397],[-0.94178,35.21785],[-1.03091,35.10428],[-0.91461,34.97335],[-0.87839,34.78019],[-0.87839,34.49707],[-1.06855,34.4],[-1.17722,34.31777],[-1.16817,34.18959],[-1.13194,34.18959],[-0.99045,34.17788],[-0.74991,34.20129],[-0.58012,34.22469]]]}},{"type":"Feature","properties":{"id":"DZA:ADM1:DZA-2147","name":"Tlemcen","countryCode":"DZA"},"geometry":{"type":"Polygon","coordinates":[[[-1.74772,35.13643],[-1.58472,35.15124],[-1.36739,35.24744],[-1.17722,35.18825],[-1.0595,35.13643],[-0.91461,34.97335],[-0.87839,34.78019],[-0.87839,34.49707],[-1.06855,34.4],[-1.17722,34.31777],[-1.16817,34.18959],[-1.35833,34.18959],[-1.57057,34.16618],[-1.5485,34.31029],[-1.59378,34.58658],[-2.0375,34.98077],[-2.21861,35.06234],[-2.05561,35.04752],[-1.98338,35.08129],[-1.96475,35.07624],[-1.95645,35.07502],[-1.94982,35.07713],[-1.93249,35.08869],[-1.83869,35.11091],[-1.81441,35.12552],[-1.79932,35.12799],[-1.77424,35.12735],[-1.76114,35.12962],[-1.75037,35.136],[-1.74772,35.13643]]]}},{"type":"Feature","properties":{"id":"DZA:ADM1:DZA-2148","name":"Béchar","countryCode":"DZA"},"geometry":{"type":"Polygon","coordinates":[[[0.73709,30.7393],[0.38203,30.87412],[0.14149,31.04399],[-0.26884,31.27404],[-0.35373,31.43112],[-0.32543,31.61204],[-0.18394,31.86475],[-0.09404,32.1354],[-0.26884,32.09278],[-0.49523,32.05682],[-0.96215,32.21258],[-1.02685,32.28371],[-1.23099,32.17666],[-1.42908,32.14072],[-1.68377,32.11676],[-1.82526,32.09278],[-2.0941,32.0808],[-2.51857,32.06881],[-2.80156,32.05682],[-2.88646,32.00884],[-2.9289,31.80464],[-3.0987,31.68432],[-3.24019,31.73246],[-3.63637,31.7445],[-3.72126,31.72043],[-3.65052,31.53972],[-3.56562,31.31031],[-3.49488,31.10458],[-3.28264,31.01974],[-3.56562,30.8984],[-3.86276,30.87412],[-4.06085,30.60657],[-4.27309,30.41153],[-4.41458,30.21609],[-4.52777,30.03252],[-4.79661,29.89768],[-5.14626,29.82934],[-4.95225,29.58594],[-4.8196,29.04619],[-4.70906,28.56187],[-4.5322,28.21177],[-4.15636,28.2702],[-3.80262,28.42586],[-3.31624,28.4453],[-3.07305,28.5036],[-2.87408,28.6007],[-2.69721,28.54245],[-2.43191,28.38697],[-2.34348,28.25073],[-2.16661,28.21177],[-1.98974,28.23125],[-1.83499,28.40641],[-1.54758,28.75587],[-1.14963,28.83337],[-0.39795,28.83337],[-0.19897,29.23928],[0.39795,30.27568],[0.70746,30.71383],[0.73709,30.7393]]]}},{"type":"Feature","properties":{"id":"DZA:ADM1:DZA-2149","name":"Naama","countryCode":"DZA"},"geometry":{"type":"Polygon","coordinates":[[[0.0,34.00212],[-0.18394,34.00212],[-0.26884,33.93171],[-0.49523,34.07247],[-0.58012,34.22469],[-0.74991,34.20129],[-0.99045,34.17788],[-1.13194,34.18959],[-1.35833,34.18959],[-1.57057,34.16618],[-1.59887,33.96692],[-1.59887,33.79071],[-1.65547,33.62593],[-1.64132,33.42541],[-1.61302,33.20074],[-1.64132,33.07041],[-1.57057,32.90426],[-1.38663,32.84484],[-1.17439,32.55908],[-1.0046,32.51137],[-1.10364,32.36807],[-0.96215,32.21258],[-0.49523,32.05682],[-0.26884,32.09278],[-0.09404,32.1354],[-0.0283,32.38002],[0.0,32.67826],[0.04245,33.02297],[0.07075,33.21258],[0.04245,33.42541],[0.0,33.80247],[0.0,34.00212]]]}},{"type":"Feature","properties":{"id":"DZA:ADM1:DZA-2150","name":"Tindouf","countryCode":"DZA"},"geometry":{"type":"Polygon","coordinates":[[[-3.07305,28.5036],[-3.31624,28.4453],[-3.80262,28.42586],[-4.15636,28.2702],[-4.5322,28.21177],[-4.70906,28.56187],[-4.8196,29.04619],[-4.95225,29.58594],[-5.15123,29.83556],[-5.79237,29.83556],[-6.10188,29.81638],[-5.90291,29.60516],[-5.57128,29.3935],[-6.05767,29.48977],[-6.32297,29.48977],[-6.65459,29.52825],[-7.07465,29.56671],[-7.16308,29.35497],[-7.31784,29.18139],[-7.82633,29.00753],[-8.11374,28.94951],[-8.42325,28.77525],[-8.68855,28.52303],[-8.79909,28.36751],[-8.68855,27.88007],[-8.73277,27.50813],[-8.60012,27.23327],[-7.91476,26.78023],[-7.14097,26.365],[-6.61037,26.00789],[-6.05767,25.80903],[-5.50496,25.49016],[-5.12912,25.66963],[-4.7975,25.88862],[-4.06792,26.24608],[-3.95738,26.24608],[-3.60365,26.464],[-3.2057,26.64198],[-2.85197,26.9183],[-2.58667,26.95772],[-2.36559,27.21361],[-2.52034,27.50813],[-2.80775,27.89961],[-3.07305,28.5036]]]}},{"type":"Feature","properties":{"id":"DZA:ADM1:DZA-2163","name":"Annaba","countryCode":"DZA"},"geometry":{"type":"Polygon","coordinates":[[[7.65592,36.95994],[7.72547,36.94605],[7.72547,36.88117],[7.73127,36.77912],[7.72547,36.68158],[7.77183,36.54667],[7.84923,36.48015],[7.8124,36.45349],[7.73999,36.32233],[7.63274,36.45816],[7.54001,36.55598],[7.39512,36.60252],[7.36035,36.78376],[7.32558,36.87654],[7.22705,36.92752],[7.21842,36.96061],[7.21876,36.96084],[7.23292,36.96686],[7.23902,36.9715],[7.24708,36.98233],[7.25424,36.9947],[7.25734,37.00414],[7.25554,37.01537],[7.2505,37.02314],[7.21111,37.05703],[7.19373,37.06865],[7.19149,37.08415],[7.19272,37.0843],[7.21217,37.0893],[7.22267,37.08979],[7.23276,37.08723],[7.25131,37.0786],[7.26051,37.07673],[7.26271,37.07599],[7.26645,37.07469],[7.27068,37.07103],[7.27475,37.06932],[7.28102,37.07306],[7.28826,37.08027],[7.29222,37.08228],[7.40092,37.04325],[7.56899,36.99698],[7.58417,36.99051],[7.58888,36.98762],[7.5922,36.98709],[7.65592,36.95994]]]}},{"type":"Feature","properties":{"id":"DZA:ADM1:DZA-2164","name":"El Tarf","countryCode":"DZA"},"geometry":{"type":"Polygon","coordinates":[[[8.5948,36.89044],[8.50207,36.7884],[8.43253,36.68158],[8.34559,36.61183],[8.28184,36.5327],[8.16652,36.4739],[8.16014,36.49078],[7.97468,36.49078],[7.87036,36.49544],[7.84923,36.48015],[7.77183,36.54667],[7.72547,36.68158],[7.73127,36.77912],[7.72547,36.88117],[7.72547,36.94605],[7.77871,36.95136],[7.77858,36.95112],[7.77426,36.93146],[7.79119,36.91844],[7.77345,36.88996],[7.77377,36.88976],[7.80991,36.86815],[7.86647,36.8544],[7.90846,36.84956],[8.04998,36.87759],[8.07301,36.8874],[8.09303,36.9018],[8.18636,36.93928],[8.26446,36.93678],[8.26537,36.9366],[8.26873,36.93374],[8.2881,36.92593],[8.31349,36.92698],[8.334,36.92288],[8.36577,36.92187],[8.37403,36.91844],[8.3829,36.92132],[8.39524,36.92092],[8.40162,36.91861],[8.4144,36.91022],[8.42872,36.9042],[8.46323,36.90156],[8.49757,36.9042],[8.51415,36.90979],[8.5948,36.89044]]]}},{"type":"Feature","properties":{"id":"DZA:ADM1:DZA-2165","name":"Jijel","countryCode":"DZA"},"geometry":{"type":"MultiPolygon","coordinates":[[[[5.32764,36.5271],[5.379,36.50941],[5.32763,36.5271],[5.32764,36.5271]]],[[[5.7588,36.8334],[5.82781,36.82176],[5.86883,36.82294],[6.03712,36.85358],[6.14223,36.88563],[6.34794,36.77825],[6.3912,36.73836],[6.23022,36.63305],[6.25379,36.54653],[5.99477,36.56035],[5.82272,36.53124],[5.73216,36.50213],[5.56916,36.51669],[5.39954,36.5102],[5.32764,36.5271],[5.25222,36.55307],[5.25222,36.64758],[5.26905,36.64411],[5.30437,36.64301],[5.37241,36.65095],[5.42807,36.66389],[5.43385,36.66523],[5.46485,36.66523],[5.46957,36.66771],[5.48219,36.68024],[5.48911,36.68513],[5.52914,36.69766],[5.53552,36.70153],[5.65972,36.73472],[5.72198,36.82889],[5.73374,36.83234],[5.7588,36.8334]]]]}},{"type":"Feature","properties":{"id":"DZA:ADM1:DZA-2166","name":"Skikda","countryCode":"DZA"},"geometry":{"type":"MultiPolygon","coordinates":[[[[6.83481,36.94912],[6.85279,36.94033],[6.86964,36.92918],[6.88006,36.91844],[6.87965,36.90209],[6.90943,36.89305],[6.94858,36.89004],[6.9756,36.89118],[7.06446,36.91332],[7.0923,36.92593],[7.10808,36.92032],[7.13331,36.91527],[7.15699,36.9147],[7.16749,36.92219],[7.17644,36.93187],[7.21842,36.96061],[7.22705,36.92752],[7.32558,36.87654],[7.36035,36.78376],[7.37207,36.72269],[7.23864,36.66763],[7.04739,36.54667],[6.9083,36.48612],[6.90212,36.46697],[6.71922,36.52397],[6.64677,36.56035],[6.52905,36.61124],[6.34794,36.77825],[6.14223,36.88563],[6.19703,36.90233],[6.23569,36.92121],[6.25685,36.94579],[6.25856,36.96678],[6.25473,36.9833],[6.25441,36.99897],[6.26686,37.01777],[6.27442,37.02424],[6.31463,37.04865],[6.32887,37.06192],[6.33871,37.06928],[6.37159,37.08348],[6.41578,37.09296],[6.43272,37.09332],[6.47472,37.03891],[6.59244,36.9666],[6.65653,36.96266],[6.67115,36.95942],[6.81359,36.953],[6.82269,36.95244],[6.83481,36.94912]]],[[[7.18165,37.07673],[7.18165,37.08295],[7.19149,37.08415],[7.19373,37.06865],[7.18165,37.07673]]]]}},{"type":"Feature","properties":{"id":"DZA:ADM1:DZA-2188","name":"Illizi","countryCode":"DZA"},"geometry":{"type":"Polygon","coordinates":[[[11.7616,24.04484],[11.79865,24.01476],[11.73949,24.22642],[11.51841,24.42787],[11.20889,24.50836],[10.58986,24.50836],[10.21402,24.6491],[10.19191,25.11039],[10.19191,25.4702],[9.52867,26.08734],[9.77186,26.22625],[9.99294,26.56291],[9.92661,26.93801],[9.8824,27.33151],[10.05926,27.78231],[9.77186,28.15331],[9.94872,28.40641],[9.90451,29.3357],[9.68342,29.66281],[9.52867,29.7972],[9.46234,30.0463],[9.24126,29.91225],[8.86542,29.73963],[8.24639,29.54748],[7.98109,29.25857],[7.62735,29.10416],[7.33995,28.93016],[7.00832,28.91081],[6.65459,28.83337],[6.16821,28.4453],[6.21242,28.4453],[6.45562,28.19229],[6.54405,27.82142],[6.30086,27.52774],[6.03556,27.33151],[6.01345,27.07589],[6.4114,26.58269],[6.34507,26.20642],[6.52194,26.04763],[6.72091,25.94827],[6.942,25.76922],[7.05254,25.68955],[7.16308,25.51011],[7.27362,25.21045],[7.2073,25.01026],[7.40627,24.66919],[7.91476,24.54859],[8.51169,24.18609],[8.68855,24.16592],[8.84331,23.98425],[9.41812,23.98425],[9.77186,24.02464],[11.31944,24.02464],[11.7616,24.04484]]]}},{"type":"Feature","properties":{"id":"DZA:ADM1:DZA-2189","name":"Tamanghasset","countryCode":"DZA"},"geometry":{"type":"Polygon","coordinates":[[[3.96633,19.0025],[4.31044,19.0453],[4.66361,19.10521],[5.053,19.23351],[5.53294,19.28481],[5.95855,19.43005],[6.08533,19.60929],[6.29361,19.80536],[6.42038,20.02673],[6.76449,20.32422],[7.09049,20.51093],[7.36216,20.73129],[7.9802,21.19057],[8.56032,21.5595],[9.08385,21.87498],[9.83818,22.27653],[10.56775,22.76666],[11.4963,23.21441],[11.93847,23.5391],[11.96058,23.88322],[11.7616,24.04484],[11.31944,24.02464],[9.77186,24.02464],[9.41812,23.98425],[8.84331,23.98425],[8.68855,24.16592],[8.51169,24.18609],[7.91476,24.54859],[7.40627,24.66919],[7.2073,25.01026],[7.27362,25.21045],[7.16308,25.51011],[7.05254,25.68955],[6.942,25.76922],[6.72091,25.94827],[6.52194,26.04763],[6.34507,26.20642],[6.4114,26.58269],[6.01345,27.07589],[6.03556,27.33151],[6.30086,27.52774],[6.54405,27.82142],[6.45562,28.19229],[6.21242,28.4453],[5.59339,28.4453],[5.10701,28.30914],[4.70906,28.52303],[4.5322,28.46474],[4.20057,28.56187],[3.89106,28.69771],[3.49311,28.93016],[3.18359,29.12347],[2.87408,29.02686],[2.54245,28.94951],[2.29926,28.94951],[2.43191,28.6007],[2.65299,28.40641],[2.56456,28.09482],[2.43191,27.88007],[2.45402,27.54734],[2.45402,27.05621],[2.56456,26.79996],[2.29926,26.50357],[1.8792,26.40461],[1.5918,26.18658],[1.19385,26.20642],[1.65812,25.86872],[1.56969,25.70947],[1.70234,25.49016],[1.72445,24.88999],[1.68023,23.96405],[1.54758,23.37685],[1.63601,22.88892],[1.56969,22.29699],[1.83499,21.98982],[2.10029,21.86677],[2.74143,21.51755],[3.80262,21.06436],[4.04581,20.81658],[4.04581,20.382],[4.0016,19.88382],[4.0016,19.38407],[3.96633,19.0025]]]}},{"type":"Feature","properties":{"id":"DZA:ADM1:DZA-2190","name":"El Bayadh","countryCode":"DZA"},"geometry":{"type":"Polygon","coordinates":[[[2.1445,31.62183],[2.34878,31.73246],[2.44783,32.05682],[2.44783,32.41586],[2.32048,32.70208],[2.30634,32.85673],[2.10824,33.03483],[1.9526,33.23626],[1.9526,33.61414],[1.82526,33.82598],[1.64132,33.87299],[1.44323,33.94344],[1.40078,33.97865],[1.23099,34.04902],[1.10364,34.0959],[0.89141,34.20129],[0.89141,34.4],[0.67917,34.43501],[0.38203,34.32992],[0.15564,34.10762],[0.0,34.00212],[0.0,33.80247],[0.04245,33.42541],[0.07075,33.21258],[0.04245,33.02297],[0.0,32.67826],[-0.0283,32.38002],[-0.09905,32.11676],[-0.18394,31.86475],[-0.32543,31.61204],[-0.35373,31.43112],[-0.26884,31.27404],[0.14149,31.04399],[0.38203,30.87412],[0.73709,30.7393],[0.99487,30.96061],[1.3265,31.18784],[1.5918,31.30125],[1.74655,31.52766],[2.1445,31.62183]]]}},{"type":"Feature","properties":{"id":"DZA:ADM1:DZA-2191","name":"El Oued","countryCode":"DZA"},"geometry":{"type":"MultiPolygon","coordinates":[[[[5.34843,34.01384],[5.32013,34.21299],[5.22109,34.38832],[5.34843,34.52832],[5.53237,34.49334],[5.54652,34.3416],[5.74461,34.30655],[5.9427,34.29486],[6.04175,34.45835],[6.16909,34.44668],[6.26814,34.36497],[6.57942,34.28317],[6.87656,34.21299],[7.0322,34.11933],[7.37178,34.01384],[7.37178,33.91997],[7.47083,33.77895],[7.56987,33.57879],[7.69722,33.36634],[7.86701,33.1889],[8.05095,33.20074],[8.07925,33.04669],[8.22074,32.84484],[8.20659,32.60677],[8.74426,32.35612],[8.9282,32.22455],[8.9848,32.03283],[8.82916,32.00884],[8.50373,31.99684],[8.27734,31.97283],[7.73966,31.96083],[7.01805,32.02083],[6.79166,32.05682],[6.69262,32.38002],[6.59357,32.67826],[6.48038,33.09412],[6.35303,33.42541],[5.971,33.43721],[5.71632,33.43721],[5.51822,33.44902],[5.26354,33.49623],[5.0745,33.50749],[5.0513,33.70836],[5.23524,33.79071],[5.34843,34.01384]]],[[[5.0745,33.50749],[5.0745,33.50749],[5.06545,33.50803],[5.0745,33.50749]]]]}},{"type":"Feature","properties":{"id":"DZA:ADM1:DZA-2192","name":"Ghardaïa","countryCode":"DZA"},"geometry":{"type":"Polygon","coordinates":[[[3.18359,29.12347],[3.42413,29.18371],[3.74956,29.29483],[3.74956,29.54133],[4.17404,29.73809],[4.00425,30.15494],[4.00425,30.95909],[4.15989,31.4794],[4.21649,31.79262],[4.32968,32.09278],[4.55607,32.39197],[4.74001,32.67826],[4.76525,32.6818],[4.61267,32.84484],[4.48533,33.04669],[4.21649,33.05855],[3.94765,32.95176],[3.65052,32.79728],[3.36753,32.78538],[2.90061,32.71398],[2.57517,32.71398],[2.32048,32.70208],[2.44783,32.41586],[2.44783,32.05682],[2.34878,31.73246],[2.1445,31.62183],[2.10029,31.28235],[2.21083,30.78983],[2.25504,30.27568],[2.1445,29.89308],[2.36559,29.60516],[2.43191,29.31642],[2.29926,28.94951],[2.54245,28.94951],[2.87408,29.02686],[3.18359,29.12347]]]}},{"type":"Feature","properties":{"id":"DZA:ADM1:DZA-2193","name":"Laghouat","countryCode":"DZA"},"geometry":{"type":"Polygon","coordinates":[[[4.15749,33.03513],[4.08915,33.23626],[3.9901,33.47263],[3.74956,33.55521],[3.53732,33.80247],[3.33923,33.89648],[3.15529,34.0373],[3.05625,34.23639],[2.88646,34.30655],[2.75911,34.10762],[2.66007,33.99038],[2.50443,33.93171],[2.37708,34.02557],[2.33463,34.23639],[2.29219,34.42334],[2.15069,34.55163],[1.93845,34.44668],[1.65547,34.37664],[1.54227,34.22469],[1.38663,34.11933],[1.32154,34.0115],[1.40078,33.97865],[1.44323,33.94344],[1.64132,33.87299],[1.82526,33.82598],[1.9526,33.61414],[1.9526,33.23626],[2.10824,33.03483],[2.30634,32.85673],[2.32048,32.70208],[2.57517,32.71398],[2.90061,32.71398],[3.36753,32.78538],[3.65052,32.79728],[3.94765,32.95176],[4.15749,33.03513]]]}},{"type":"Feature","properties":{"id":"DZA:ADM1:DZA-2194","name":"Ouargla","countryCode":"DZA"},"geometry":{"type":"Polygon","coordinates":[[[6.16821,28.4453],[6.65459,28.83337],[7.00832,28.91081],[7.33995,28.93016],[7.62735,29.10416],[7.98109,29.25857],[8.24639,29.54748],[8.86542,29.73963],[9.24126,29.91225],[9.4335,30.02882],[9.55077,30.3505],[9.48003,30.77692],[9.28194,31.3224],[9.22534,31.61204],[8.9848,32.03283],[8.82916,32.00884],[8.50373,31.99684],[8.27734,31.97283],[7.73966,31.96083],[7.01805,32.02083],[6.79166,32.05682],[6.69262,32.38002],[6.59357,32.67826],[6.48038,33.09412],[6.35303,33.42541],[5.971,33.43721],[5.71632,33.43721],[5.51822,33.44902],[5.26354,33.49623],[5.06545,33.50803],[4.9381,33.44902],[4.88151,33.14153],[5.00885,32.98737],[5.1079,32.80917],[4.90981,32.70208],[4.74001,32.67826],[4.55607,32.39197],[4.32968,32.09278],[4.21649,31.79262],[4.15989,31.4794],[4.00425,30.95909],[4.00425,30.15494],[4.17404,29.73809],[3.74956,29.54133],[3.74956,29.29483],[3.42413,29.18371],[3.18359,29.12347],[3.49311,28.93016],[3.89106,28.69771],[4.20057,28.56187],[4.5322,28.46474],[4.70906,28.52303],[5.10701,28.30914],[5.59339,28.4453],[6.16821,28.4453]]]}},{"type":"Feature","properties":{"id":"DZA:ADM1:DZA-2195","name":"Algiers","countryCode":"DZA"},"geometry":{"type":"Polygon","coordinates":[[[2.97613,36.76343],[3.03671,36.80052],[3.04786,36.79499],[3.07398,36.77139],[3.10182,36.7519],[3.14015,36.74164],[3.17327,36.74262],[3.17937,36.74283],[3.21046,36.75739],[3.2212,36.77143],[3.22608,36.7862],[3.22731,36.81232],[3.2378,36.81306],[3.30299,36.78876],[3.3405,36.78071],[3.43945,36.77608],[3.45322,36.69515],[3.46258,36.68295],[3.35667,36.63136],[3.20332,36.64959],[3.0954,36.65415],[2.8739,36.65415],[2.73191,36.6587],[2.7366,36.66906],[2.79298,36.69294],[2.8187,36.71088],[2.83332,36.72821],[2.97613,36.76343]]]}},{"type":"Feature","properties":{"id":"DZA:ADM1:DZA-2196","name":"Boumerdès","countryCode":"DZA"},"geometry":{"type":"Polygon","coordinates":[[[3.90191,36.88618],[3.90191,36.6997],[3.75992,36.59945],[3.65769,36.63592],[3.49866,36.63592],[3.45322,36.69515],[3.43945,36.77608],[3.4607,36.77509],[3.48048,36.77725],[3.51905,36.78661],[3.53981,36.78876],[3.55047,36.79145],[3.55812,36.79767],[3.5643,36.80435],[3.57057,36.80858],[3.58041,36.80996],[3.60182,36.80809],[3.61207,36.80858],[3.64967,36.82396],[3.70948,36.8732],[3.74187,36.89118],[3.79717,36.90522],[3.90191,36.88618]]]}},{"type":"Feature","properties":{"id":"DZA:ADM1:DZA-2197","name":"Tizi Ouzou","countryCode":"DZA"},"geometry":{"type":"Polygon","coordinates":[[[4.24837,36.89981],[4.379,36.86346],[4.50963,36.88164],[4.51531,36.79982],[4.54939,36.72247],[4.62891,36.68604],[4.57779,36.54928],[4.49827,36.43969],[4.43012,36.43969],[4.3076,36.40243],[4.32185,36.43455],[3.94912,36.42027],[3.75389,36.47738],[3.7469,36.5223],[3.75992,36.59945],[3.90191,36.6997],[3.90191,36.88618],[3.95006,36.89305],[3.96404,36.89118],[3.97486,36.89228],[3.99643,36.89692],[4.03142,36.89777],[4.03948,36.89692],[4.08546,36.89208],[4.10483,36.88373],[4.14649,36.9018],[4.15913,36.90413],[4.16026,36.90408],[4.17156,36.90217],[4.19703,36.89326],[4.21046,36.89118],[4.22283,36.89419],[4.23495,36.90046],[4.24837,36.89981]]]}},{"type":"Feature","properties":{"id":"DZA:ADM1:DZA-2198","name":"Tipasa","countryCode":"DZA"},"geometry":{"type":"Polygon","coordinates":[[[2.56152,36.48537],[2.54448,36.4077],[2.47064,36.3208],[2.47255,36.31198],[2.2896,36.32738],[2.0145,36.32738],[1.84588,36.37027],[1.65952,36.37741],[1.62402,36.52732],[1.64559,36.54463],[1.70094,36.54719],[1.71656,36.54792],[1.72674,36.54999],[1.75017,36.55915],[1.76124,36.56159],[1.77003,36.56049],[1.79151,36.55549],[1.80291,36.55537],[1.8576,36.56745],[1.91383,36.57022],[1.96046,36.5622],[1.97283,36.56159],[2.05991,36.57014],[2.30983,36.63052],[2.30987,36.63053],[2.37835,36.61997],[2.39513,36.61964],[2.3982,36.6153],[2.40016,36.60619],[2.40406,36.59919],[2.41603,36.59634],[2.42677,36.59528],[2.44728,36.59056],[2.45704,36.5895],[2.57322,36.59503],[2.56152,36.48537]]]}},{"type":"Feature","properties":{"id":"DZA:ADM1:DZA-2199","name":"Aïn Defla","countryCode":"DZA"},"geometry":{"type":"Polygon","coordinates":[[[2.47255,36.31198],[2.2896,36.32738],[2.0145,36.32738],[1.84588,36.37027],[1.65952,36.37741],[1.58852,36.31308],[1.54415,36.20574],[1.54415,36.06957],[1.45541,35.91879],[1.65952,35.88285],[1.92575,35.89722],[2.03225,35.87566],[2.20086,35.86846],[2.36825,35.86579],[2.39113,35.95845],[2.44225,36.06412],[2.49336,36.21548],[2.47255,36.31198]]]}},{"type":"Feature","properties":{"id":"DZA:ADM1:DZA-2200","name":"Chlef","countryCode":"DZA"},"geometry":{"type":"Polygon","coordinates":[[[1.62402,36.52732],[1.65952,36.37741],[1.58852,36.31308],[1.54415,36.20574],[1.54415,36.06957],[1.45541,35.91879],[1.34891,35.91879],[1.30454,35.83969],[1.18917,35.91879],[1.05606,36.02652],[0.92294,36.08392],[0.78982,36.2129],[0.69221,36.29163],[0.6874,36.3342],[0.74041,36.33776],[0.75327,36.33861],[0.76873,36.34471],[0.80226,36.36359],[0.86476,36.37739],[0.88054,36.38715],[0.89088,36.39639],[0.91383,36.40913],[0.92514,36.41816],[0.92954,36.42593],[0.93214,36.43456],[0.93465,36.44002],[0.94069,36.44169],[1.18917,36.47024],[1.401,36.54069],[1.42954,36.53221],[1.45281,36.52802],[1.47633,36.52896],[1.51743,36.53872],[1.54509,36.54],[1.62402,36.52732]]]}},{"type":"Feature","properties":{"id":"DZA:ADM1:DZA-2201","name":"Mascara","countryCode":"DZA"},"geometry":{"type":"Polygon","coordinates":[[[-0.22639,35.1068],[0.00906,35.07717],[0.15394,35.07717],[0.28978,35.02527],[0.41656,35.01786],[0.51556,35.0068],[0.489,35.15124],[0.59767,35.24004],[0.70633,35.28441],[0.72444,35.50586],[0.63009,35.52252],[0.46147,35.54419],[0.25736,35.638],[0.25736,35.79652],[0.11537,35.63079],[-0.05325,35.63079],[-0.20411,35.65964],[-0.29286,35.71009],[-0.3816,35.61636],[-0.4526,35.47917],[-0.53715,35.40627],[-0.4075,35.32875],[-0.28072,35.21785],[-0.22639,35.1068]]]}},{"type":"Feature","properties":{"id":"DZA:ADM1:DZA-2202","name":"Mostaganem","countryCode":"DZA"},"geometry":{"type":"Polygon","coordinates":[[[0.11537,35.93316],[0.13506,36.0553],[0.13559,36.05561],[0.14552,36.05996],[0.15398,36.06501],[0.20216,36.10651],[0.21949,36.11652],[0.28346,36.13443],[0.29444,36.14077],[0.29908,36.14741],[0.32106,36.15888],[0.32927,36.16498],[0.33277,36.17381],[0.33758,36.1975],[0.3423,36.20596],[0.36004,36.21385],[0.38445,36.21796],[0.4284,36.21963],[0.45134,36.22321],[0.46827,36.23224],[0.48317,36.2436],[0.55665,36.28408],[0.59457,36.29316],[0.61183,36.30549],[0.62721,36.31924],[0.64405,36.32884],[0.66326,36.33259],[0.6874,36.3342],[0.69075,36.30452],[0.60346,36.14844],[0.48809,35.99063],[0.39048,35.90441],[0.25736,35.79652],[0.11537,35.63079],[-0.05325,35.63079],[-0.20411,35.65964],[-0.29286,35.71009],[-0.22572,35.81173],[-0.18806,35.80524],[-0.14509,35.79035],[-0.12389,35.78693],[-0.11368,35.7888],[-0.08308,35.79438],[-0.03848,35.8133],[-0.0003,35.83611],[0.00294,35.83804],[0.03452,35.86327],[0.05307,35.89391],[0.11537,35.93316]]]}},{"type":"Feature","properties":{"id":"DZA:ADM1:DZA-2203","name":"Relizane","countryCode":"DZA"},"geometry":{"type":"Polygon","coordinates":[[[1.06277,35.54582],[1.13593,35.638],[1.26017,35.71009],[1.30454,35.83969],[1.18917,35.91879],[1.05606,36.02652],[0.92294,36.08392],[0.78982,36.2129],[0.69221,36.29163],[0.69075,36.30452],[0.60346,36.14844],[0.48809,35.99063],[0.39048,35.90441],[0.25736,35.79652],[0.25736,35.638],[0.46147,35.54419],[0.63009,35.52252],[0.72444,35.50586],[0.86028,35.57218],[1.06277,35.54582]]]}},{"type":"Feature","properties":{"id":"DZA:ADM1:DZA-2204","name":"Saïda","countryCode":"DZA"},"geometry":{"type":"Polygon","coordinates":[[[0.83884,34.40867],[0.7335,34.512],[0.72444,34.66855],[0.67011,34.86197],[0.61578,34.99561],[0.41656,35.01786],[0.28978,35.02527],[0.15394,35.07717],[0.00906,35.07717],[-0.22639,35.1068],[-0.38033,34.93624],[-0.29883,34.82481],[-0.19922,34.8025],[-0.05433,34.68345],[-0.04528,34.52692],[-0.25356,34.42241],[-0.51617,34.35515],[-0.58012,34.22469],[-0.49523,34.07247],[-0.26884,33.93171],[-0.18394,34.00212],[0.0,34.00212],[0.15564,34.10762],[0.38203,34.32992],[0.67917,34.43501],[0.83884,34.40867]]]}},{"type":"Feature","properties":{"id":"DZA:ADM1:DZA-2205","name":"Tiaret","countryCode":"DZA"},"geometry":{"type":"Polygon","coordinates":[[[1.32154,34.0115],[1.38663,34.11933],[1.54227,34.22469],[1.65547,34.37664],[1.93845,34.44668],[2.15069,34.55163],[2.34539,34.60895],[2.37255,34.75788],[2.48122,34.93624],[2.57178,35.1068],[2.47216,35.17345],[2.29105,35.32875],[2.23672,35.49849],[2.08278,35.49849],[1.85639,35.46899],[1.57567,35.57218],[1.43078,35.58691],[1.29494,35.56481],[1.08667,35.54271],[0.86028,35.57218],[0.72444,35.50586],[0.70633,35.28441],[0.59767,35.24004],[0.489,35.15124],[0.51556,35.0068],[0.61578,34.99561],[0.67011,34.86197],[0.72444,34.66855],[0.7335,34.512],[0.83884,34.40867],[0.89141,34.4],[0.89141,34.20129],[1.10364,34.0959],[1.23099,34.04902],[1.32154,34.0115]]]}},{"type":"Feature","properties":{"id":"DZA:ADM1:DZA-2206","name":"Tissemsilt","countryCode":"DZA"},"geometry":{"type":"Polygon","coordinates":[[[2.16962,35.49849],[2.1753,35.58519],[2.23778,35.69136],[2.35705,35.82041],[2.36825,35.86579],[2.20086,35.86846],[2.03225,35.87566],[1.92575,35.89722],[1.65952,35.88285],[1.45541,35.91879],[1.34891,35.91879],[1.30454,35.83969],[1.26017,35.71009],[1.13593,35.638],[1.06277,35.54582],[1.08667,35.54271],[1.29494,35.56481],[1.43078,35.58691],[1.57567,35.57218],[1.85639,35.46899],[2.08278,35.49849],[2.16962,35.49849]]]}},{"type":"Feature","properties":{"id":"DZA:ADM1:DZA-2207","name":"Bordj Bou Arréridj","countryCode":"DZA"},"geometry":{"type":"Polygon","coordinates":[[[5.15194,36.41966],[5.04068,36.42027],[4.89869,36.36312],[4.69458,36.22006],[4.57034,36.22722],[4.39285,36.25585],[4.35735,36.25585],[4.30418,36.39474],[4.27748,36.33453],[4.1264,36.08571],[5.11308,35.83083],[5.16166,36.02754],[5.14355,36.29805],[5.15194,36.41966]]]}},{"type":"Feature","properties":{"id":"DZA:ADM1:DZA-2208","name":"Béjaïa","countryCode":"DZA"},"geometry":{"type":"Polygon","coordinates":[[[5.10086,36.77165],[5.08481,36.73261],[5.09018,36.71678],[5.11842,36.69937],[5.23585,36.65095],[5.25222,36.64758],[5.25222,36.55307],[5.15261,36.42931],[5.15194,36.41966],[5.04068,36.42027],[4.89869,36.36312],[4.69458,36.22006],[4.57034,36.22722],[4.39285,36.25585],[4.35735,36.25585],[4.30418,36.39474],[4.3076,36.40243],[4.43012,36.43969],[4.49827,36.43969],[4.57779,36.54928],[4.62891,36.68604],[4.54939,36.72247],[4.51531,36.79982],[4.50963,36.88164],[4.52361,36.88887],[4.53639,36.88858],[4.55055,36.88373],[4.58155,36.89492],[4.59148,36.89525],[4.62289,36.89639],[4.69801,36.89118],[4.76905,36.89802],[4.78712,36.89541],[4.94988,36.83979],[4.96827,36.82567],[4.97364,36.81891],[4.98569,36.81708],[4.99952,36.81712],[5.00929,36.81607],[5.01645,36.81098],[5.02524,36.79865],[5.02914,36.79499],[5.04591,36.78852],[5.0656,36.78352],[5.08619,36.78083],[5.08795,36.78088],[5.10086,36.77165]]]}},{"type":"Feature","properties":{"id":"DZA:ADM1:DZA-2209","name":"Blida","countryCode":"DZA"},"geometry":{"type":"Polygon","coordinates":[[[2.73191,36.6587],[2.8739,36.65415],[3.0954,36.65415],[3.20332,36.64959],[3.35667,36.63136],[3.46258,36.68295],[3.49866,36.63592],[3.65769,36.63592],[3.75992,36.59945],[3.7469,36.5223],[3.74501,36.53445],[3.60302,36.47738],[3.58527,36.41313],[3.58371,36.38174],[3.38507,36.4077],[3.11244,36.4077],[2.94205,36.3757],[2.77166,36.39399],[2.62967,36.39399],[2.54448,36.4077],[2.56152,36.48537],[2.57322,36.59503],[2.60076,36.59634],[2.63299,36.60513],[2.7149,36.65719],[2.73191,36.6587]]]}},{"type":"Feature","properties":{"id":"DZA:ADM1:DZA-2210","name":"Bouïra","countryCode":"DZA"},"geometry":{"type":"Polygon","coordinates":[[[3.58527,36.41313],[3.5764,36.23438],[3.6119,36.10543],[3.6119,35.95472],[3.70064,35.84689],[4.02012,35.84689],[4.09999,36.04087],[4.27748,36.33453],[4.32185,36.43455],[3.94912,36.42027],[3.75389,36.47738],[3.74501,36.53445],[3.60302,36.47738],[3.58527,36.41313]]]}},{"type":"Feature","properties":{"id":"DZA:ADM1:DZA-2211","name":"Biskra","countryCode":"DZA"},"geometry":{"type":"Polygon","coordinates":[[[6.61306,34.27523],[6.69262,34.41167],[6.63602,34.57494],[6.48038,34.74951],[6.35303,34.92371],[6.18324,34.9701],[5.9993,34.95851],[5.95685,35.07439],[5.92855,35.29411],[5.74461,35.2479],[5.47578,35.22479],[5.46163,34.99329],[5.36258,34.98169],[5.0513,34.98169],[4.98055,34.92371],[4.90981,34.77275],[4.74001,34.65645],[4.51362,34.60988],[4.21649,34.52832],[4.23064,34.36497],[4.20234,34.17788],[4.31553,33.95518],[4.61267,33.79071],[5.05495,33.67673],[5.0513,33.70836],[5.23524,33.79071],[5.34843,34.01384],[5.32013,34.21299],[5.22109,34.38832],[5.34843,34.52832],[5.53237,34.49334],[5.54652,34.3416],[5.74461,34.30655],[5.9427,34.29486],[6.04175,34.45835],[6.16909,34.44668],[6.26814,34.36497],[6.61306,34.27523]]]}},{"type":"Feature","properties":{"id":"DZA:ADM1:DZA-2212","name":"Djelfa","countryCode":"DZA"},"geometry":{"type":"Polygon","coordinates":[[[5.06545,33.50803],[5.0745,33.50749],[5.05495,33.67673],[4.61267,33.79071],[4.31553,33.95518],[4.20234,34.17788],[4.22737,34.3434],[4.075,34.505],[4.0467,34.64481],[3.76371,34.84246],[3.60807,34.99329],[3.52317,35.17854],[3.69297,35.35183],[3.56562,35.51323],[3.39583,35.68581],[3.14114,35.70879],[2.85816,35.59381],[2.75911,35.46715],[2.57517,35.40951],[2.25837,35.4309],[2.29105,35.32875],[2.47216,35.17345],[2.57178,35.1068],[2.48122,34.93624],[2.37255,34.75788],[2.34539,34.60895],[2.15069,34.55163],[2.29219,34.42334],[2.33463,34.23639],[2.37708,34.02557],[2.50443,33.93171],[2.66007,33.99038],[2.75911,34.10762],[2.88646,34.30655],[3.05625,34.23639],[3.15529,34.0373],[3.33923,33.89648],[3.53732,33.80247],[3.74956,33.55521],[3.9901,33.47263],[4.08915,33.23626],[4.15749,33.03513],[4.21649,33.05855],[4.48533,33.04669],[4.61267,32.84484],[4.76525,32.6818],[4.90981,32.70208],[5.1079,32.80917],[5.00885,32.98737],[4.88151,33.14153],[4.9381,33.44902],[5.06545,33.50803]]]}},{"type":"Feature","properties":{"id":"DZA:ADM1:DZA-2213","name":"Médéa","countryCode":"DZA"},"geometry":{"type":"Polygon","coordinates":[[[2.25837,35.4309],[2.57517,35.40951],[2.75911,35.46715],[2.85816,35.59381],[3.14114,35.70879],[3.27871,35.69638],[3.6119,35.95472],[3.6119,36.10543],[3.5764,36.23438],[3.58371,36.38174],[3.38507,36.4077],[3.11244,36.4077],[2.94205,36.3757],[2.77166,36.39399],[2.62967,36.39399],[2.54448,36.4077],[2.47064,36.3208],[2.49336,36.21548],[2.44225,36.06412],[2.39113,35.95845],[2.35705,35.82041],[2.23778,35.69136],[2.1753,35.58519],[2.16962,35.49849],[2.23672,35.49849],[2.25837,35.4309]]]}},{"type":"Feature","properties":{"id":"DZA:ADM1:DZA-2214","name":"M'Sila","countryCode":"DZA"},"geometry":{"type":"Polygon","coordinates":[[[5.1144,34.98169],[4.98961,35.0401],[4.78133,35.12162],[4.78133,35.25483],[4.81755,35.35829],[4.88094,35.44687],[4.99866,35.49849],[5.1345,35.55008],[5.25222,35.57218],[5.29874,35.64243],[5.15261,35.66052],[5.09827,35.7708],[5.11308,35.83083],[4.1264,36.08571],[4.09999,36.04087],[4.02012,35.84689],[3.70064,35.84689],[3.6119,35.95472],[3.27871,35.69638],[3.39583,35.68581],[3.56562,35.51323],[3.69297,35.35183],[3.52317,35.17854],[3.60807,34.99329],[3.76371,34.84246],[4.0467,34.64481],[4.075,34.505],[4.22737,34.3434],[4.23064,34.36497],[4.21649,34.52832],[4.51362,34.60988],[4.74001,34.65645],[4.90981,34.77275],[4.98055,34.92371],[5.0513,34.98169],[5.1144,34.98169]]]}},{"type":"Feature","properties":{"id":"DZA:ADM1:DZA-2215","name":"Sétif","countryCode":"DZA"},"geometry":{"type":"Polygon","coordinates":[[[5.379,36.50941],[5.25222,36.55307],[5.15261,36.42931],[5.14355,36.29805],[5.16166,36.02754],[5.09827,35.7708],[5.15261,35.66052],[5.29874,35.64243],[5.31561,35.66788],[5.44238,35.74141],[5.542,35.82222],[5.7865,35.85892],[5.94237,35.87841],[5.93138,35.97626],[5.98572,36.1885],[5.95855,36.33453],[5.76838,36.42202],[5.39954,36.5102],[5.379,36.50941]]]}},{"type":"Feature","properties":{"id":"DZA:ADM1:DZA-2216","name":"Batna","countryCode":"DZA"},"geometry":{"type":"Polygon","coordinates":[[[6.60772,35.59381],[6.62431,35.59575],[6.67647,35.7417],[6.53738,35.80753],[6.34033,35.84512],[6.13966,35.85158],[5.9495,35.81488],[5.94237,35.87841],[5.7865,35.85892],[5.542,35.82222],[5.44238,35.74141],[5.31561,35.66788],[5.25222,35.57218],[5.1345,35.55008],[4.99866,35.49849],[4.88094,35.44687],[4.81755,35.35829],[4.78133,35.25483],[4.78133,35.12162],[4.98961,35.0401],[5.1144,34.98169],[5.37724,34.98341],[5.46163,34.99329],[5.47578,35.22479],[5.74461,35.2479],[5.92855,35.29411],[5.95685,35.07439],[5.9993,34.95851],[6.18324,34.9701],[6.35303,34.92371],[6.46623,35.06281],[6.49453,35.42104],[6.60772,35.59381]]]}},{"type":"Feature","properties":{"id":"DZA:ADM1:DZA-2217","name":"Constantine","countryCode":"DZA"},"geometry":{"type":"Polygon","coordinates":[[[6.90212,36.46697],[6.71922,36.52397],[6.64677,36.56035],[6.52905,36.61124],[6.3912,36.73836],[6.23022,36.63305],[6.29361,36.40016],[6.30266,36.25425],[6.3867,36.10777],[6.49102,36.10777],[6.58954,36.0984],[6.78079,36.0984],[6.89671,36.16394],[6.86773,36.24811],[6.86773,36.36021],[6.90212,36.46697]]]}},{"type":"Feature","properties":{"id":"DZA:ADM1:DZA-2218","name":"Guelma","countryCode":"DZA"},"geometry":{"type":"Polygon","coordinates":[[[7.73999,36.32233],[7.63274,36.45816],[7.54001,36.55598],[7.39512,36.60252],[7.37207,36.72269],[7.23864,36.66763],[7.04739,36.54667],[6.9083,36.48612],[6.86773,36.36021],[6.86773,36.24811],[6.89671,36.16394],[7.01262,36.11245],[7.25603,36.05156],[7.36035,36.14054],[7.54001,36.22006],[7.71967,36.2855],[7.73999,36.32233]]]}},{"type":"Feature","properties":{"id":"DZA:ADM1:DZA-2219","name":"Khenchela","countryCode":"DZA"},"geometry":{"type":"Polygon","coordinates":[[[7.30104,35.3172],[7.32933,35.47867],[7.24444,35.60532],[6.74921,35.60532],[6.60772,35.59381],[6.49453,35.42104],[6.46623,35.06281],[6.35303,34.92371],[6.48038,34.74951],[6.63602,34.57494],[6.69262,34.41167],[6.61306,34.27523],[6.87656,34.21299],[6.99771,34.1401],[7.0888,34.31823],[7.13124,34.52832],[7.28689,34.74951],[7.15954,34.85407],[7.17369,35.12069],[7.30104,35.3172]]]}},{"type":"Feature","properties":{"id":"DZA:ADM1:DZA-2220","name":"Mila","countryCode":"DZA"},"geometry":{"type":"MultiPolygon","coordinates":[[[[5.56916,36.51669],[5.73216,36.50213],[5.82272,36.53124],[5.99477,36.56035],[6.25379,36.54653],[6.29361,36.40016],[6.30266,36.25425],[6.3867,36.10777],[6.33454,35.96718],[6.34033,35.84512],[6.13966,35.85158],[5.9495,35.81488],[5.93138,35.97626],[5.98572,36.1885],[5.95855,36.33453],[5.76838,36.42202],[5.39954,36.5102],[5.56916,36.51669]]],[[[5.379,36.50941],[5.32763,36.5271],[5.39954,36.5102],[5.379,36.50941]]]]}},{"type":"Feature","properties":{"id":"DZA:ADM1:DZA-2221","name":"Oum El Bouaghi","countryCode":"DZA"},"geometry":{"type":"Polygon","coordinates":[[[7.78211,35.74325],[7.60956,35.78403],[7.47626,35.83573],[7.40671,35.89209],[7.31978,36.0],[7.25603,36.05156],[7.01262,36.11245],[6.89671,36.16394],[6.78079,36.0984],[6.58954,36.0984],[6.49102,36.10777],[6.3867,36.10777],[6.33454,35.96718],[6.34033,35.84512],[6.53738,35.80753],[6.67647,35.7417],[6.62431,35.59575],[6.60772,35.59381],[6.74921,35.60532],[7.24444,35.60532],[7.32933,35.47867],[7.30104,35.3172],[7.54157,35.39798],[7.72551,35.4902],[7.78211,35.74325]]]}},{"type":"Feature","properties":{"id":"DZA:ADM1:DZA-2222","name":"Souk Ahras","countryCode":"DZA"},"geometry":{"type":"Polygon","coordinates":[[[8.20659,35.94969],[8.24707,35.96718],[8.24127,36.07967],[8.24707,36.21071],[8.2007,36.38354],[8.16014,36.49078],[7.97468,36.49078],[7.87036,36.49544],[7.8124,36.45349],[7.71967,36.2855],[7.54001,36.22006],[7.36035,36.14054],[7.25603,36.05156],[7.31978,36.0],[7.40671,35.89209],[7.47626,35.83573],[7.60956,35.78403],[7.78211,35.74325],[7.88116,35.90386],[8.0934,35.93824],[8.20659,35.94969]]]}},{"type":"Feature","properties":{"id":"DZA:ADM1:DZA-2223","name":"Tébessa","countryCode":"DZA"},"geometry":{"type":"Polygon","coordinates":[[[7.37178,34.01384],[7.48498,33.95518],[7.51328,34.08419],[7.61232,34.20129],[7.88116,34.35329],[8.0651,34.48168],[8.22074,34.64481],[8.24904,34.86568],[8.29149,35.13226],[8.33393,35.3172],[8.39053,35.52475],[8.26319,35.76621],[8.20659,35.94969],[8.0934,35.93824],[7.88116,35.90386],[7.78211,35.74325],[7.72551,35.4902],[7.54157,35.39798],[7.30104,35.3172],[7.17369,35.12069],[7.15954,34.85407],[7.28689,34.74951],[7.13124,34.52832],[7.0888,34.31823],[6.99771,34.1401],[7.0322,34.11933],[7.37178,34.01384]]]}}]}}
