{"type":"FeatureCollection","features":[{"type":"Feature","properties":{"id":"ESB:ADM0:ESB","name":"Dhekelia Cantonment","countryCode":"ESB","adminLevel":0,"sourceCode":"ESB","parentId":"ESB:ADM1:ESB-5132"},"geometry":{"type":"Polygon","coordinates":[[[33.78093,34.97635],[33.70151,34.97289],[33.67885,35.05579],[33.88943,35.11899],[33.91445,35.07305],[33.799,35.03853],[33.89184,34.95814],[33.78093,34.97635]],[[33.74279,35.00123],[33.75206,35.00432],[33.75206,35.0144],[33.74131,35.01373],[33.74279,35.00123]]]}}],"admin1":{"type":"FeatureCollection","features":[{"type":"Feature","properties":{"id":"ESB:ADM1:ESB-5132","name":"Dhekelia","countryCode":"ESB"},"geometry":{"type":"Polygon","coordinates":[[[33.78093,34.97635],[33.70151,34.97289],[33.67885,35.05579],[33.88943,35.11899],[33.91445,35.07305],[33.799,35.03853],[33.89184,34.95814],[33.78093,34.97635]],[[33.74279,35.00123],[33.75206,35.00432],[33.75206,35.0144],[33.74131,35.01373],[33.74279,35.00123]]]}}]}}
