{"type":"FeatureCollection","features":[{"type":"Feature","properties":{"id":"ESH:ADM0:ESH","name":"Western Sahara","countryCode":"ESH","adminLevel":0,"sourceCode":"ESH"},"geometry":{"type":"Polygon","coordinates":[[[-8.81704,27.66146],[-8.68239,27.66144],[-8.68766,26.00002],[-12.01531,25.9949],[-12.01934,23.461],[-12.61943,23.27083],[-13.01525,23.018],[-13.15229,22.82],[-13.01525,21.33343],[-16.95883,21.33286],[-17.05687,20.76691],[-17.10464,20.86249],[-17.01374,21.41997],[-16.04002,21.50008],[-14.97017,21.4405],[-14.74997,21.50008],[-14.60983,21.75007],[-14.62985,21.86042],[-14.22019,22.30965],[-14.10007,23.09968],[-13.89013,23.69049],[-13.31001,23.98055],[-12.99018,24.4698],[-12.43014,24.83017],[-12.06001,25.9903],[-11.71724,26.10358],[-11.3369,26.6329],[-11.39157,26.88291],[-10.75678,27.01959],[-10.25046,26.86043],[-10.03171,26.91022],[-9.81686,26.84968],[-9.41206,27.08796],[-8.7939,27.12018],[-8.81704,27.66146]]]}}],"admin1":{"type":"FeatureCollection","features":[]}}
