{"type":"FeatureCollection","features":[{"type":"Feature","properties":{"id":"FRO:ADM0:35448735B27744382979601","name":"Faroe Islands","countryCode":"FRO","adminLevel":0,"sourceCode":"35448735B27744382979601","parentId":"FRO:ADM1:FRO-1443"},"geometry":{"type":"MultiPolygon","coordinates":[[[[-6.77295,61.53046],[-6.77788,61.5324],[-6.77545,61.53288],[-6.77295,61.53046]]],[[[-6.71334,61.45553],[-6.72187,61.45008],[-6.72223,61.4419],[-6.69735,61.4448],[-6.68917,61.43885],[-6.69277,61.43408],[-6.68971,61.4278],[-6.69429,61.42484],[-6.69119,61.42065],[-6.68004,61.4186],[-6.67255,61.41046],[-6.67358,61.39847],[-6.67658,61.39419],[-6.6776,61.39411],[-6.69978,61.40424],[-6.73668,61.43073],[-6.76819,61.44501],[-6.76499,61.45286],[-6.75918,61.45706],[-6.7552,61.45368],[-6.75036,61.44432],[-6.73884,61.45571],[-6.72118,61.45938],[-6.71707,61.45923],[-6.71334,61.45553]]],[[[-6.79351,61.47222],[-6.82509,61.47119],[-6.79962,61.46773],[-6.77747,61.45762],[-6.77783,61.44938],[-6.82746,61.47187],[-6.85995,61.49427],[-6.86019,61.49458],[-6.86033,61.49454],[-6.87047,61.50153],[-6.86583,61.52692],[-6.87232,61.53073],[-6.87229,61.53124],[-6.87309,61.53118],[-6.89224,61.54243],[-6.92309,61.56611],[-6.94603,61.59072],[-6.94682,61.59561],[-6.94047,61.59205],[-6.94081,61.58789],[-6.93535,61.58882],[-6.93984,61.59026],[-6.93002,61.59479],[-6.91417,61.59645],[-6.91417,61.5952],[-6.87837,61.59721],[-6.87123,61.596],[-6.8505,61.5983],[-6.84332,61.59562],[-6.84381,61.58828],[-6.83018,61.58666],[-6.82906,61.58342],[-6.83236,61.5815],[-6.82563,61.57915],[-6.80954,61.57795],[-6.79181,61.58232],[-6.76669,61.57911],[-6.75017,61.57204],[-6.76096,61.56325],[-6.73818,61.55335],[-6.74721,61.548],[-6.74733,61.54773],[-6.75377,61.55048],[-6.7661,61.55801],[-6.78262,61.56159],[-6.79772,61.56061],[-6.80557,61.55418],[-6.7862,61.5517],[-6.77453,61.54328],[-6.77408,61.54274],[-6.77432,61.54234],[-6.77985,61.54213],[-6.82729,61.56106],[-6.83528,61.56223],[-6.84062,61.5592],[-6.8201,61.54813],[-6.79813,61.5426],[-6.79848,61.53874],[-6.809,61.53706],[-6.81076,61.53339],[-6.78786,61.53336],[-6.7903,61.5297],[-6.74947,61.52617],[-6.74722,61.52595],[-6.74709,61.52596],[-6.73914,61.52527],[-6.73435,61.51907],[-6.73669,61.5177],[-6.73508,61.51277],[-6.72455,61.50577],[-6.76125,61.50624],[-6.76509,61.50407],[-6.76315,61.49971],[-6.73754,61.49036],[-6.70726,61.49144],[-6.70309,61.48772],[-6.72579,61.48017],[-6.74487,61.48075],[-6.74475,61.47786],[-6.7624,61.46909],[-6.78384,61.47232],[-6.78384,61.47101],[-6.79351,61.47222]],[[-6.88239,61.5895],[-6.88485,61.59193],[-6.88787,61.58929],[-6.88465,61.58751],[-6.88239,61.5895]],[[-6.8197,61.50208],[-6.80946,61.50292],[-6.81144,61.50603],[-6.81691,61.50613],[-6.8197,61.50208]],[[-6.82894,61.50354],[-6.82477,61.50267],[-6.82733,61.50461],[-6.82894,61.50354]],[[-6.85695,61.49761],[-6.85152,61.4941],[-6.84728,61.49563],[-6.84772,61.49712],[-6.85491,61.49858],[-6.85695,61.49761]],[[-6.78992,61.48246],[-6.78363,61.48152],[-6.78852,61.48394],[-6.78992,61.48246]]],[[[-6.89463,61.62287],[-6.93649,61.60346],[-6.94807,61.60329],[-6.94896,61.60883],[-6.95352,61.61367],[-6.96255,61.62873],[-6.94213,61.62873],[-6.94433,61.63239],[-6.94469,61.63337],[-6.94896,61.63614],[-6.91222,61.64789],[-6.90928,61.6481],[-6.90226,61.64627],[-6.89605,61.64168],[-6.92707,61.63314],[-6.93733,61.62718],[-6.92358,61.62475],[-6.90391,61.62714],[-6.89786,61.62434],[-6.89292,61.6233],[-6.89463,61.62287]]],[[[-6.88858,61.90792],[-6.87921,61.90278],[-6.86185,61.89636],[-6.8453,61.8987],[-6.82972,61.89767],[-6.82169,61.89688],[-6.81986,61.89702],[-6.80949,61.89634],[-6.79517,61.88872],[-6.78502,61.87848],[-6.74538,61.87149],[-6.71936,61.86275],[-6.69784,61.86266],[-6.69541,61.85885],[-6.68318,61.85424],[-6.67875,61.84416],[-6.66083,61.83111],[-6.6342,61.83069],[-6.63376,61.82804],[-6.64404,61.82073],[-6.67516,61.80913],[-6.67125,61.80558],[-6.66047,61.805],[-6.65531,61.79307],[-6.65733,61.78943],[-6.6747,61.78385],[-6.66366,61.77455],[-6.66537,61.77239],[-6.66006,61.76497],[-6.66276,61.76035],[-6.67219,61.7582],[-6.67451,61.7553],[-6.73323,61.81391],[-6.74665,61.82111],[-6.76544,61.82273],[-6.76952,61.82795],[-6.77642,61.83072],[-6.80421,61.8379],[-6.81102,61.8371],[-6.80878,61.82831],[-6.81106,61.82723],[-6.80959,61.82653],[-6.81708,61.82718],[-6.82985,61.8359],[-6.83312,61.8456],[-6.83582,61.84044],[-6.83267,61.83583],[-6.85461,61.83235],[-6.86766,61.83934],[-6.87328,61.85212],[-6.87755,61.86957],[-6.89908,61.89387],[-6.90703,61.90926],[-6.88858,61.90792]],[[-6.87212,61.88793],[-6.86699,61.88454],[-6.86662,61.8891],[-6.87212,61.88793]],[[-6.86151,61.87808],[-6.86209,61.88199],[-6.86532,61.88199],[-6.86151,61.87808]],[[-6.82886,61.85644],[-6.82328,61.84874],[-6.82769,61.84669],[-6.82563,61.8425],[-6.81876,61.84253],[-6.81579,61.83918],[-6.80977,61.84071],[-6.81619,61.85036],[-6.82454,61.85701],[-6.82886,61.85644]],[[-6.80303,61.85412],[-6.80245,61.85261],[-6.80092,61.85332],[-6.80303,61.85412]],[[-6.73415,61.81933],[-6.73022,61.81979],[-6.73669,61.82189],[-6.73415,61.81933]]],[[[-7.63964,62.10135],[-7.64145,62.10141],[-7.64415,62.107],[-7.61726,62.11445],[-7.58804,62.11514],[-7.56495,62.1091],[-7.55286,62.10476],[-7.54777,62.10256],[-7.54544,62.09943],[-7.5401,62.09815],[-7.54625,62.09699],[-7.5587,62.09614],[-7.57828,62.09702],[-7.58017,62.09813],[-7.58619,62.09738],[-7.6079,62.09836],[-7.60815,62.09857],[-7.60884,62.0984],[-7.6407,62.09984],[-7.64081,62.10008],[-7.63964,62.10135]]],[[[-7.17459,62.02972],[-7.20047,62.02184],[-7.19359,62.03059],[-7.18912,62.034],[-7.19603,62.04792],[-7.20743,62.06021],[-7.22142,62.06623],[-7.23632,62.06135],[-7.22802,62.05805],[-7.21569,62.05117],[-7.20661,62.04255],[-7.2084,62.034],[-7.21898,62.03286],[-7.21972,62.03311],[-7.21542,62.04268],[-7.23928,62.05535],[-7.24482,62.06097],[-7.24617,62.07023],[-7.25239,62.07147],[-7.25274,62.07575],[-7.25869,62.06654],[-7.2553,62.05842],[-7.2304,62.03918],[-7.23054,62.0367],[-7.26358,62.04767],[-7.32575,62.0539],[-7.3662,62.06745],[-7.38028,62.06818],[-7.38028,62.07494],[-7.37411,62.07494],[-7.35983,62.07142],[-7.3444,62.07494],[-7.34397,62.07494],[-7.32351,62.06987],[-7.31169,62.0709],[-7.3217,62.07494],[-7.28482,62.07494],[-7.30712,62.0832],[-7.33283,62.0895],[-7.3837,62.09488],[-7.41076,62.1057],[-7.42955,62.12848],[-7.43093,62.14211],[-7.42583,62.142],[-7.41047,62.13526],[-7.40412,62.13622],[-7.39975,62.12999],[-7.39228,62.12714],[-7.37702,62.12883],[-7.35781,62.12453],[-7.35019,62.12547],[-7.3466,62.12763],[-7.34652,62.12904],[-7.32917,62.12958],[-7.32136,62.13174],[-7.31884,62.13642],[-7.31802,62.1411],[-7.31517,62.14326],[-7.30362,62.14549],[-7.29649,62.14947],[-7.25425,62.15912],[-7.25197,62.1594],[-7.24158,62.15809],[-7.24488,62.14933],[-7.23707,62.14202],[-7.19338,62.13184],[-7.17349,62.11575],[-7.13517,62.10092],[-7.08953,62.09771],[-7.07387,62.09241],[-7.06336,62.08253],[-7.06224,62.0744],[-7.08038,62.06541],[-7.07872,62.05504],[-7.08155,62.05032],[-7.09301,62.04767],[-7.11091,62.0493],[-7.12727,62.05305],[-7.14354,62.05402],[-7.15101,62.05134],[-7.15292,62.05419],[-7.15984,62.05172],[-7.16442,62.04579],[-7.1907,62.04711],[-7.16056,62.03968],[-7.15017,62.03468],[-7.16724,62.03069],[-7.17459,62.02972]],[[-7.33807,62.09206],[-7.34444,62.09271],[-7.3413,62.09089],[-7.33807,62.09206]],[[-7.28857,62.11299],[-7.31184,62.1226],[-7.321,62.12314],[-7.31878,62.12165],[-7.32114,62.11976],[-7.31597,62.1164],[-7.29521,62.10854],[-7.28857,62.11299]],[[-7.35765,62.11829],[-7.35873,62.11676],[-7.35633,62.11648],[-7.35765,62.11829]]],[[[-7.14336,62.29918],[-7.14893,62.29009],[-7.14344,62.2891],[-7.13572,62.29496],[-7.1273,62.29569],[-7.10401,62.28848],[-7.09965,62.28322],[-7.0912,62.28044],[-7.09251,62.27494],[-7.08173,62.2653],[-7.07285,62.24974],[-7.0502,62.23404],[-7.03989,62.2227],[-7.01752,62.21684],[-7.00722,62.20839],[-7.00395,62.19968],[-7.00542,62.19545],[-7.03596,62.18925],[-6.98076,62.17897],[-6.97173,62.17263],[-6.94703,62.16302],[-6.93785,62.15005],[-6.90899,62.14997],[-6.89905,62.14322],[-6.88508,62.13923],[-6.8815,62.13297],[-6.87305,62.12848],[-6.87359,62.11995],[-6.90313,62.11631],[-6.92646,62.10264],[-6.94434,62.10149],[-6.9435,62.09864],[-6.92827,62.09636],[-6.91559,62.09816],[-6.89605,62.10657],[-6.88031,62.10734],[-6.88931,62.10431],[-6.9005,62.10228],[-6.86134,62.10315],[-6.82773,62.09223],[-6.79904,62.06654],[-6.8204,62.06135],[-6.84594,62.06135],[-6.84594,62.05617],[-6.90905,62.06559],[-6.91263,62.06313],[-6.89466,62.05693],[-6.84095,62.04792],[-6.82375,62.04916],[-6.81054,62.04633],[-6.77014,62.04679],[-6.765,62.04593],[-6.77121,62.04475],[-6.75124,62.02701],[-6.75861,62.02738],[-6.75346,62.02069],[-6.75358,62.01569],[-6.76288,62.00689],[-6.75942,62.00476],[-6.76498,62.0035],[-6.76408,62.00667],[-6.77249,62.00923],[-6.77443,62.00856],[-6.77065,62.00465],[-6.77459,62.00469],[-6.77398,62.00136],[-6.77774,62.00031],[-6.76952,61.99701],[-6.76177,61.98849],[-6.73335,61.98034],[-6.741,61.97057],[-6.7386,61.96594],[-6.74115,61.95794],[-6.734,61.94569],[-6.74027,61.94115],[-6.765,61.95368],[-6.79385,61.97451],[-6.85692,61.99478],[-6.91015,62.03791],[-6.94555,62.04767],[-6.95983,62.04999],[-6.96915,62.05695],[-6.97411,62.06859],[-6.9757,62.08491],[-6.98217,62.09406],[-6.99767,62.10375],[-7.01602,62.11188],[-7.03087,62.1166],[-7.04422,62.11765],[-7.04481,62.11873],[-7.04578,62.11777],[-7.10945,62.12275],[-7.12694,62.12714],[-7.13711,62.13666],[-7.13614,62.14614],[-7.12023,62.15009],[-7.1228,62.15368],[-7.11681,62.15404],[-7.11389,62.15444],[-7.12287,62.15378],[-7.12881,62.16206],[-7.14249,62.16079],[-7.15856,62.15412],[-7.15954,62.15388],[-7.17244,62.15264],[-7.17306,62.15056],[-7.17496,62.15009],[-7.18562,62.15241],[-7.21369,62.16474],[-7.21909,62.16827],[-7.21581,62.16751],[-7.21379,62.16768],[-7.21909,62.16827],[-7.22265,62.1706],[-7.23209,62.17642],[-7.23522,62.18016],[-7.23632,62.18765],[-7.23396,62.19839],[-7.22826,62.20112],[-7.22159,62.2014],[-7.21589,62.20474],[-7.21036,62.21845],[-7.20946,62.2287],[-7.20507,62.23566],[-7.18912,62.23945],[-7.19781,62.24619],[-7.18279,62.24742],[-7.18864,62.25033],[-7.20075,62.24847],[-7.20816,62.25422],[-7.20812,62.27521],[-7.19995,62.30056],[-7.19232,62.29788],[-7.17587,62.30798],[-7.17496,62.30777],[-7.16292,62.30641],[-7.14336,62.29918]],[[-7.11219,62.25917],[-7.1098,62.26236],[-7.11307,62.2624],[-7.11461,62.26035],[-7.11219,62.25917]],[[-7.15391,62.23855],[-7.15229,62.24046],[-7.15905,62.24186],[-7.15391,62.23855]],[[-7.17808,62.23552],[-7.17839,62.23718],[-7.18158,62.23579],[-7.17808,62.23552]],[[-7.15993,62.18045],[-7.15436,62.17641],[-7.154,62.18862],[-7.15858,62.1917],[-7.16093,62.18836],[-7.15993,62.18045]],[[-7.09498,62.1712],[-7.09008,62.16765],[-7.09052,62.16464],[-7.07747,62.16599],[-7.08299,62.1725],[-7.08883,62.17386],[-7.09498,62.1712]],[[-7.14732,62.17159],[-7.15203,62.17416],[-7.15337,62.17111],[-7.15046,62.16827],[-7.14732,62.17159]],[[-7.0287,62.12606],[-7.01752,62.12835],[-7.0189,62.13057],[-7.02382,62.13055],[-7.0287,62.12606]],[[-7.00542,62.12799],[-6.99823,62.1261],[-7.00209,62.12839],[-7.00542,62.12799]],[[-6.99626,62.12457],[-6.99204,62.12412],[-6.99482,62.12583],[-6.99626,62.12457]],[[-6.86112,62.06846],[-6.8567,62.06757],[-6.85822,62.07002],[-6.85325,62.06987],[-6.86103,62.07139],[-6.86112,62.06846]],[[-6.82517,62.03125],[-6.8195,62.02967],[-6.81763,62.03317],[-6.82119,62.03371],[-6.82517,62.03125]],[[-6.86259,62.02145],[-6.85891,62.017],[-6.85509,62.01794],[-6.86027,62.02219],[-6.86259,62.02145]]],[[[-7.22133,62.15786],[-7.21837,62.1582],[-7.22088,62.16253],[-7.22223,62.163],[-7.21589,62.16376],[-7.21589,62.15754],[-7.2213,62.15754],[-7.22133,62.15786]]],[[[-7.15714,62.12294],[-7.17022,62.13449],[-7.16905,62.13519],[-7.16015,62.13255],[-7.14764,62.11973],[-7.15714,62.12294]]],[[[-6.30876,62.28085],[-6.34098,62.27729],[-6.33484,62.27208],[-6.31457,62.26503],[-6.32329,62.25613],[-6.32104,62.25293],[-6.3254,62.24863],[-6.32418,62.24768],[-6.32608,62.24714],[-6.34187,62.24433],[-6.35851,62.24584],[-6.37035,62.25593],[-6.38073,62.26911],[-6.38435,62.28022],[-6.38142,62.28213],[-6.36676,62.28181],[-6.3567,62.29165],[-6.35562,62.2919],[-6.32949,62.30428],[-6.32288,62.30423],[-6.31172,62.2963],[-6.29348,62.29459],[-6.28865,62.29045],[-6.30614,62.28181],[-6.30506,62.28012],[-6.30876,62.28085]]],[[[-6.40998,62.26658],[-6.38659,62.25995],[-6.39217,62.25537],[-6.40998,62.26658]]],[[[-7.05116,62.31571],[-7.04459,62.3146],[-7.02286,62.319],[-6.98644,62.33226],[-6.96268,62.33471],[-6.95907,62.332],[-6.94101,62.3284],[-6.94344,62.32598],[-6.93715,62.32247],[-6.91047,62.31762],[-6.902,62.31213],[-6.9292,62.30527],[-6.96581,62.28654],[-6.95395,62.27441],[-6.9623,62.26471],[-6.95485,62.24917],[-6.9473,62.24162],[-6.93311,62.23498],[-6.93198,62.23826],[-6.94672,62.24876],[-6.9513,62.2582],[-6.93716,62.27398],[-6.93979,62.28127],[-6.93443,62.28146],[-6.93423,62.27359],[-6.9313,62.26008],[-6.92321,62.24901],[-6.90734,62.23945],[-6.91739,62.26992],[-6.91295,62.28181],[-6.85143,62.29203],[-6.84346,62.29112],[-6.83227,62.28335],[-6.85094,62.27745],[-6.86075,62.26518],[-6.86497,62.26406],[-6.86396,62.26177],[-6.80839,62.27024],[-6.77783,62.26413],[-6.76543,62.25658],[-6.76749,62.244],[-6.77111,62.24131],[-6.78384,62.23945],[-6.78384,62.23565],[-6.79575,62.2339],[-6.80941,62.24171],[-6.81933,62.24035],[-6.81365,62.23393],[-6.81407,62.22848],[-6.79468,62.21863],[-6.76907,62.21692],[-6.75184,62.22071],[-6.74291,62.21841],[-6.73473,62.21918],[-6.73069,62.22033],[-6.70579,62.21077],[-6.70058,62.21212],[-6.63869,62.19968],[-6.63176,62.19166],[-6.64395,62.19107],[-6.70397,62.19514],[-6.71111,62.19356],[-6.74302,62.19788],[-6.74378,62.19316],[-6.75337,62.18521],[-6.74706,62.1779],[-6.70354,62.16936],[-6.69048,62.16196],[-6.66435,62.15713],[-6.62772,62.14284],[-6.60782,62.13861],[-6.6162,62.13915],[-6.66779,62.15009],[-6.66779,62.14326],[-6.64582,62.14102],[-6.63738,62.13788],[-6.65868,62.14161],[-6.69116,62.14421],[-6.70354,62.14104],[-6.69919,62.1367],[-6.66872,62.13147],[-6.6561,62.12262],[-6.64125,62.12055],[-6.62526,62.10943],[-6.63069,62.10908],[-6.64916,62.10419],[-6.65239,62.10164],[-6.68827,62.1037],[-6.69034,62.09875],[-6.6845,62.09229],[-6.68998,62.07405],[-6.68986,62.07288],[-6.6914,62.07339],[-6.70124,62.09418],[-6.70153,62.11913],[-6.70938,62.14326],[-6.7268,62.16128],[-6.75357,62.18171],[-6.78384,62.19481],[-6.81184,62.19107],[-6.79712,62.18289],[-6.82261,62.19258],[-6.84581,62.19751],[-6.85127,62.19258],[-6.81839,62.17596],[-6.78469,62.16363],[-6.76718,62.14539],[-6.75787,62.14015],[-6.75361,62.12216],[-6.75593,62.10854],[-6.75728,62.10764],[-6.78087,62.11668],[-6.85961,62.16376],[-6.90026,62.16254],[-6.91076,62.16718],[-6.91698,62.17158],[-6.93798,62.18212],[-6.94555,62.18423],[-6.95751,62.1896],[-7.02033,62.23969],[-7.04762,62.27947],[-7.04347,62.28232],[-7.04782,62.28879],[-7.05459,62.28964],[-7.05508,62.29035],[-7.06359,62.29637],[-7.07502,62.30195],[-7.08237,62.30668],[-7.05116,62.31571]],[[-6.82001,62.20946],[-6.81583,62.20986],[-6.81749,62.21054],[-6.82001,62.20946]]],[[[-7.11622,62.30073],[-7.11608,62.30112],[-7.10644,62.30004],[-7.10461,62.29951],[-7.11622,62.30073]]],[[[-7.02251,62.22309],[-7.04863,62.2427],[-7.05007,62.25151],[-7.06074,62.26198],[-7.06381,62.27109],[-7.08084,62.28793],[-7.07898,62.29211],[-7.07262,62.29027],[-7.05822,62.27668],[-7.04548,62.25239],[-7.00734,62.21666],[-7.02251,62.22309]]],[[[-7.00449,62.21399],[-6.99722,62.20718],[-6.99728,62.19965],[-7.00449,62.21399]]],[[[-6.92365,62.15968],[-6.93157,62.1657],[-6.91841,62.1603],[-6.92365,62.15968]]],[[[-6.86258,62.14887],[-6.85607,62.14789],[-6.84732,62.14203],[-6.84634,62.13337],[-6.84638,62.1333],[-6.86258,62.14887]]],[[[-6.72384,62.1213],[-6.72834,62.12623],[-6.72676,62.12817],[-6.73266,62.14144],[-6.75416,62.15611],[-6.76689,62.16904],[-6.75866,62.1656],[-6.73302,62.14883],[-6.7224,62.12275],[-6.72389,62.12096],[-6.72384,62.1213]]],[[[-6.7447,62.10784],[-6.73927,62.11086],[-6.73277,62.11023],[-6.74031,62.10114],[-6.74342,62.10234],[-6.7447,62.10784]]],[[[-6.53134,62.19738],[-6.55411,62.22024],[-6.5708,62.22467],[-6.57355,62.22113],[-6.57186,62.21768],[-6.55997,62.20588],[-6.57128,62.21332],[-6.58275,62.22858],[-6.57836,62.24567],[-6.57136,62.25178],[-6.56749,62.25113],[-6.56481,62.24771],[-6.56102,62.24567],[-6.55309,62.24702],[-6.5515,62.25088],[-6.55142,62.2565],[-6.54796,62.26337],[-6.54601,62.27196],[-6.5489,62.29951],[-6.5511,62.30777],[-6.56039,62.32341],[-6.5476,62.31262],[-6.52878,62.30185],[-6.52285,62.29418],[-6.52875,62.28541],[-6.51602,62.27684],[-6.46221,62.26552],[-6.4494,62.25943],[-6.43004,62.25704],[-6.42614,62.2547],[-6.42492,62.24872],[-6.42921,62.2429],[-6.43651,62.24238],[-6.46858,62.24893],[-6.48965,62.25995],[-6.49649,62.25251],[-6.46376,62.231],[-6.47248,62.22959],[-6.50572,62.23911],[-6.52278,62.2518],[-6.53814,62.25357],[-6.53136,62.24002],[-6.50621,62.22174],[-6.48324,62.21375],[-6.45209,62.21002],[-6.44779,62.20376],[-6.45659,62.19366],[-6.44258,62.18469],[-6.44526,62.18323],[-6.46386,62.18553],[-6.47907,62.19449],[-6.50646,62.22175],[-6.52212,62.22956],[-6.53747,62.22582],[-6.51602,62.1918],[-6.51136,62.18628],[-6.53134,62.19738]],[[-6.5405,62.2954],[-6.54802,62.29396],[-6.54427,62.29413],[-6.5405,62.2954]]],[[[-6.59488,62.2739],[-6.59063,62.28108],[-6.59314,62.28925],[-6.59051,62.29695],[-6.58528,62.28986],[-6.58072,62.28156],[-6.5797,62.26679],[-6.58474,62.26487],[-6.59488,62.2739]]],[[[-6.67448,62.36182],[-6.66301,62.35513],[-6.66131,62.34695],[-6.66438,62.33976],[-6.64347,62.31834],[-6.62917,62.31223],[-6.61317,62.29683],[-6.60537,62.27302],[-6.59787,62.2678],[-6.59619,62.26158],[-6.6162,62.2663],[-6.63638,62.2801],[-6.64631,62.28962],[-6.67333,62.32103],[-6.68432,62.34406],[-6.68119,62.36374],[-6.67448,62.36182]]],[[[-6.65719,62.26574],[-6.65787,62.26701],[-6.65558,62.26489],[-6.65719,62.26574]]],[[[-6.70008,62.27756],[-6.6943,62.26421],[-6.66042,62.2423],[-6.65995,62.23685],[-6.67667,62.2414],[-6.69103,62.25227],[-6.69896,62.26846],[-6.70897,62.28327],[-6.71572,62.28932],[-6.70008,62.27756]]],[[[-6.71878,62.29162],[-6.73583,62.30414],[-6.738,62.30607],[-6.71878,62.29162]]],[[[-6.77635,62.35841],[-6.77803,62.35144],[-6.77073,62.34947],[-6.76275,62.3332],[-6.75518,62.32343],[-6.74369,62.3157],[-6.74092,62.30868],[-6.76228,62.3277],[-6.76944,62.33601],[-6.78722,62.36127],[-6.78763,62.36439],[-6.77635,62.35841]]],[[[-6.55421,62.39098],[-6.53551,62.38275],[-6.52991,62.38308],[-6.51719,62.36971],[-6.51898,62.36721],[-6.5144,62.36389],[-6.51292,62.35701],[-6.51826,62.35465],[-6.50933,62.34551],[-6.49864,62.33729],[-6.48677,62.33427],[-6.47778,62.3281],[-6.47896,62.3126],[-6.47511,62.30512],[-6.48546,62.31],[-6.50927,62.32978],[-6.52408,62.3465],[-6.53344,62.37189],[-6.54629,62.37812],[-6.5559,62.39094],[-6.55555,62.39114],[-6.55421,62.39098]]],[[[-6.55306,62.36523],[-6.53747,62.36982],[-6.54485,62.36243],[-6.55306,62.36523]]],[[[-6.5193,62.29224],[-6.54049,62.32683],[-6.55436,62.33869],[-6.55538,62.34547],[-6.54358,62.3605],[-6.51692,62.32306],[-6.48274,62.29511],[-6.45148,62.28044],[-6.5193,62.29224]]],[[[-6.45963,62.30293],[-6.45373,62.31561],[-6.44144,62.31854],[-6.40855,62.30542],[-6.40638,62.30016],[-6.42506,62.29059],[-6.45572,62.29597],[-6.46775,62.30164],[-6.45963,62.30293]]]]}}],"admin1":{"type":"FeatureCollection","features":[{"type":"Feature","properties":{"id":"FRO:ADM1:FRO-1443","name":"Eysturoy","countryCode":"FRO"},"geometry":{"type":"MultiPolygon","coordinates":[[[[-6.87047,61.50153],[-6.86583,61.52692],[-6.87232,61.53073],[-6.87229,61.53124],[-6.87309,61.53118],[-6.89224,61.54243],[-6.92309,61.56611],[-6.94603,61.59072],[-6.94682,61.59561],[-6.94047,61.59205],[-6.94081,61.58789],[-6.93535,61.58882],[-6.93984,61.59026],[-6.93002,61.59479],[-6.91417,61.59645],[-6.91417,61.5952],[-6.87837,61.59721],[-6.87123,61.596],[-6.8505,61.5983],[-6.84332,61.59562],[-6.84381,61.58828],[-6.83018,61.58666],[-6.82906,61.58342],[-6.83236,61.5815],[-6.82563,61.57915],[-6.80954,61.57795],[-6.79181,61.58232],[-6.76669,61.57911],[-6.75017,61.57204],[-6.76096,61.56325],[-6.73818,61.55335],[-6.74721,61.548],[-6.74733,61.54773],[-6.75377,61.55048],[-6.7661,61.55801],[-6.78262,61.56159],[-6.79772,61.56061],[-6.80557,61.55418],[-6.7862,61.5517],[-6.77453,61.54328],[-6.77408,61.54274],[-6.77432,61.54234],[-6.77985,61.54213],[-6.82729,61.56106],[-6.83528,61.56223],[-6.84062,61.5592],[-6.8201,61.54813],[-6.79813,61.5426],[-6.79848,61.53874],[-6.809,61.53706],[-6.81076,61.53339],[-6.78786,61.53336],[-6.7903,61.5297],[-6.74947,61.52617],[-6.74722,61.52595],[-6.74709,61.52596],[-6.73914,61.52527],[-6.73435,61.51907],[-6.73669,61.5177],[-6.73508,61.51277],[-6.72455,61.50577],[-6.76125,61.50624],[-6.76509,61.50407],[-6.76315,61.49971],[-6.73754,61.49036],[-6.70726,61.49144],[-6.70309,61.48772],[-6.72579,61.48017],[-6.74487,61.48075],[-6.74475,61.47786],[-6.7624,61.46909],[-6.78384,61.47232],[-6.78384,61.47101],[-6.79351,61.47222],[-6.82509,61.47119],[-6.79962,61.46773],[-6.77747,61.45762],[-6.77783,61.44938],[-6.82746,61.47187],[-6.85995,61.49427],[-6.86019,61.49458],[-6.86033,61.49454],[-6.87047,61.50153]],[[-6.88485,61.59193],[-6.88787,61.58929],[-6.88465,61.58751],[-6.88239,61.5895],[-6.88485,61.59193]],[[-6.80946,61.50292],[-6.81144,61.50603],[-6.81691,61.50613],[-6.8197,61.50208],[-6.80946,61.50292]],[[-6.82894,61.50354],[-6.82477,61.50267],[-6.82733,61.50461],[-6.82894,61.50354]],[[-6.85491,61.49858],[-6.85695,61.49761],[-6.85152,61.4941],[-6.84728,61.49563],[-6.84772,61.49712],[-6.85491,61.49858]],[[-6.78992,61.48246],[-6.78363,61.48152],[-6.78852,61.48394],[-6.78992,61.48246]]],[[[-6.77545,61.53288],[-6.77295,61.53046],[-6.77788,61.5324],[-6.77545,61.53288]]],[[[-6.90928,61.6481],[-6.90226,61.64627],[-6.89605,61.64168],[-6.92707,61.63314],[-6.93733,61.62718],[-6.92358,61.62475],[-6.90391,61.62714],[-6.89786,61.62434],[-6.89292,61.6233],[-6.89463,61.62287],[-6.93649,61.60346],[-6.94807,61.60329],[-6.94896,61.60883],[-6.95352,61.61367],[-6.96255,61.62873],[-6.94213,61.62873],[-6.94433,61.63239],[-6.94469,61.63337],[-6.94896,61.63614],[-6.91222,61.64789],[-6.90928,61.6481]]],[[[-6.71936,61.86275],[-6.69784,61.86266],[-6.69541,61.85885],[-6.68318,61.85424],[-6.67875,61.84416],[-6.66083,61.83111],[-6.6342,61.83069],[-6.63376,61.82804],[-6.64404,61.82073],[-6.67516,61.80913],[-6.67125,61.80558],[-6.66047,61.805],[-6.65531,61.79307],[-6.65733,61.78943],[-6.6747,61.78385],[-6.66366,61.77455],[-6.66537,61.77239],[-6.66006,61.76497],[-6.66276,61.76035],[-6.67219,61.7582],[-6.67451,61.7553],[-6.73323,61.81391],[-6.74665,61.82111],[-6.76544,61.82273],[-6.76952,61.82795],[-6.77642,61.83072],[-6.80421,61.8379],[-6.81102,61.8371],[-6.80878,61.82831],[-6.81106,61.82723],[-6.80959,61.82653],[-6.81708,61.82718],[-6.82985,61.8359],[-6.83312,61.8456],[-6.83582,61.84044],[-6.83267,61.83583],[-6.85461,61.83235],[-6.86766,61.83934],[-6.87328,61.85212],[-6.87755,61.86957],[-6.89908,61.89387],[-6.90703,61.90926],[-6.88858,61.90792],[-6.87921,61.90278],[-6.86185,61.89636],[-6.8453,61.8987],[-6.82972,61.89767],[-6.82169,61.89688],[-6.81986,61.89702],[-6.80949,61.89634],[-6.79517,61.88872],[-6.78502,61.87848],[-6.74538,61.87149],[-6.71936,61.86275]],[[-6.86662,61.8891],[-6.87212,61.88793],[-6.86699,61.88454],[-6.86662,61.8891]],[[-6.86532,61.88199],[-6.86151,61.87808],[-6.86209,61.88199],[-6.86532,61.88199]],[[-6.82769,61.84669],[-6.82563,61.8425],[-6.81876,61.84253],[-6.81579,61.83918],[-6.80977,61.84071],[-6.81619,61.85036],[-6.82454,61.85701],[-6.82886,61.85644],[-6.82328,61.84874],[-6.82769,61.84669]],[[-6.80092,61.85332],[-6.80303,61.85412],[-6.80245,61.85261],[-6.80092,61.85332]],[[-6.73669,61.82189],[-6.73415,61.81933],[-6.73022,61.81979],[-6.73669,61.82189]]],[[[-7.2084,62.034],[-7.21898,62.03286],[-7.21972,62.03311],[-7.21542,62.04268],[-7.23928,62.05535],[-7.24482,62.06097],[-7.24617,62.07023],[-7.25239,62.07147],[-7.25274,62.07575],[-7.25869,62.06654],[-7.2553,62.05842],[-7.2304,62.03918],[-7.23054,62.0367],[-7.26358,62.04767],[-7.32575,62.0539],[-7.3662,62.06745],[-7.38028,62.06818],[-7.38028,62.07494],[-7.37411,62.07494],[-7.35983,62.07142],[-7.3444,62.07494],[-7.34397,62.07494],[-7.32351,62.06987],[-7.31169,62.0709],[-7.3217,62.07494],[-7.28482,62.07494],[-7.30712,62.0832],[-7.33283,62.0895],[-7.3837,62.09488],[-7.41076,62.1057],[-7.42955,62.12848],[-7.43093,62.14211],[-7.42583,62.142],[-7.41047,62.13526],[-7.40412,62.13622],[-7.39975,62.12999],[-7.39228,62.12714],[-7.37702,62.12883],[-7.35781,62.12453],[-7.35019,62.12547],[-7.3466,62.12763],[-7.34652,62.12904],[-7.32917,62.12958],[-7.32136,62.13174],[-7.31884,62.13642],[-7.31802,62.1411],[-7.31517,62.14326],[-7.30362,62.14549],[-7.29649,62.14947],[-7.25425,62.15912],[-7.25197,62.1594],[-7.24158,62.15809],[-7.24488,62.14933],[-7.23707,62.14202],[-7.19338,62.13184],[-7.17349,62.11575],[-7.13517,62.10092],[-7.08953,62.09771],[-7.07387,62.09241],[-7.06336,62.08253],[-7.06224,62.0744],[-7.08038,62.06541],[-7.07872,62.05504],[-7.08155,62.05032],[-7.09301,62.04767],[-7.11091,62.0493],[-7.12727,62.05305],[-7.14354,62.05402],[-7.15101,62.05134],[-7.15292,62.05419],[-7.15984,62.05172],[-7.16442,62.04579],[-7.1907,62.04711],[-7.16056,62.03968],[-7.15017,62.03468],[-7.16724,62.03069],[-7.17459,62.02972],[-7.20047,62.02184],[-7.19359,62.03059],[-7.18912,62.034],[-7.19603,62.04792],[-7.20743,62.06021],[-7.22142,62.06623],[-7.23632,62.06135],[-7.22802,62.05805],[-7.21569,62.05117],[-7.20661,62.04255],[-7.2084,62.034]],[[-7.3413,62.09089],[-7.33807,62.09206],[-7.34444,62.09271],[-7.3413,62.09089]],[[-7.32114,62.11976],[-7.31597,62.1164],[-7.29521,62.10854],[-7.28857,62.11299],[-7.31184,62.1226],[-7.321,62.12314],[-7.31878,62.12165],[-7.32114,62.11976]],[[-7.35633,62.11648],[-7.35765,62.11829],[-7.35873,62.11676],[-7.35633,62.11648]]],[[[-7.5587,62.09614],[-7.57828,62.09702],[-7.58017,62.09813],[-7.58619,62.09738],[-7.6079,62.09836],[-7.60815,62.09857],[-7.60884,62.0984],[-7.6407,62.09984],[-7.64081,62.10008],[-7.63964,62.10135],[-7.64145,62.10141],[-7.64415,62.107],[-7.61726,62.11445],[-7.58804,62.11514],[-7.56495,62.1091],[-7.55286,62.10476],[-7.54777,62.10256],[-7.54544,62.09943],[-7.5401,62.09815],[-7.54625,62.09699],[-7.5587,62.09614]]],[[[-7.0502,62.23404],[-7.03989,62.2227],[-7.01752,62.21684],[-7.00722,62.20839],[-7.00395,62.19968],[-7.00542,62.19545],[-7.03596,62.18925],[-6.98076,62.17897],[-6.97173,62.17263],[-6.94703,62.16302],[-6.93785,62.15005],[-6.90899,62.14997],[-6.89905,62.14322],[-6.88508,62.13923],[-6.8815,62.13297],[-6.87305,62.12848],[-6.87359,62.11995],[-6.90313,62.11631],[-6.92646,62.10264],[-6.94434,62.10149],[-6.9435,62.09864],[-6.92827,62.09636],[-6.91559,62.09816],[-6.89605,62.10657],[-6.88031,62.10734],[-6.88931,62.10431],[-6.9005,62.10228],[-6.86134,62.10315],[-6.82773,62.09223],[-6.79904,62.06654],[-6.8204,62.06135],[-6.84594,62.06135],[-6.84594,62.05617],[-6.90905,62.06559],[-6.91263,62.06313],[-6.89466,62.05693],[-6.84095,62.04792],[-6.82375,62.04916],[-6.81054,62.04633],[-6.77014,62.04679],[-6.765,62.04593],[-6.77121,62.04475],[-6.75124,62.02701],[-6.75861,62.02738],[-6.75346,62.02069],[-6.75358,62.01569],[-6.76288,62.00689],[-6.75942,62.00476],[-6.76498,62.0035],[-6.76408,62.00667],[-6.77249,62.00923],[-6.77443,62.00856],[-6.77065,62.00465],[-6.77459,62.00469],[-6.77398,62.00136],[-6.77774,62.00031],[-6.76952,61.99701],[-6.76177,61.98849],[-6.73335,61.98034],[-6.741,61.97057],[-6.7386,61.96594],[-6.74115,61.95794],[-6.734,61.94569],[-6.74027,61.94115],[-6.765,61.95368],[-6.79385,61.97451],[-6.85692,61.99478],[-6.91015,62.03791],[-6.94555,62.04767],[-6.95983,62.04999],[-6.96915,62.05695],[-6.97411,62.06859],[-6.9757,62.08491],[-6.98217,62.09406],[-6.99767,62.10375],[-7.01602,62.11188],[-7.03087,62.1166],[-7.04422,62.11765],[-7.04481,62.11873],[-7.04578,62.11777],[-7.10945,62.12275],[-7.12694,62.12714],[-7.13711,62.13666],[-7.13614,62.14614],[-7.12023,62.15009],[-7.1228,62.15368],[-7.11681,62.15404],[-7.11389,62.15444],[-7.12287,62.15378],[-7.12881,62.16206],[-7.14249,62.16079],[-7.15856,62.15412],[-7.15954,62.15388],[-7.17244,62.15264],[-7.17306,62.15056],[-7.17496,62.15009],[-7.18562,62.15241],[-7.21369,62.16474],[-7.21909,62.16827],[-7.22265,62.1706],[-7.23209,62.17642],[-7.23522,62.18016],[-7.23632,62.18765],[-7.23396,62.19839],[-7.22826,62.20112],[-7.22159,62.2014],[-7.21589,62.20474],[-7.21036,62.21845],[-7.20946,62.2287],[-7.20507,62.23566],[-7.18912,62.23945],[-7.19781,62.24619],[-7.18279,62.24742],[-7.18864,62.25033],[-7.20075,62.24847],[-7.20816,62.25422],[-7.20812,62.27521],[-7.19995,62.30056],[-7.19232,62.29788],[-7.17587,62.30798],[-7.17496,62.30777],[-7.16292,62.30641],[-7.14336,62.29918],[-7.14893,62.29009],[-7.14344,62.2891],[-7.13572,62.29496],[-7.1273,62.29569],[-7.10401,62.28848],[-7.09965,62.28322],[-7.0912,62.28044],[-7.09251,62.27494],[-7.08173,62.2653],[-7.07285,62.24974],[-7.0502,62.23404]],[[-7.21581,62.16751],[-7.21379,62.16768],[-7.21909,62.16827],[-7.21581,62.16751]],[[-7.11461,62.26035],[-7.11219,62.25917],[-7.1098,62.26236],[-7.11307,62.2624],[-7.11461,62.26035]],[[-7.15905,62.24186],[-7.15391,62.23855],[-7.15229,62.24046],[-7.15905,62.24186]],[[-7.18158,62.23579],[-7.17808,62.23552],[-7.17839,62.23718],[-7.18158,62.23579]],[[-7.15436,62.17641],[-7.154,62.18862],[-7.15858,62.1917],[-7.16093,62.18836],[-7.15993,62.18045],[-7.15436,62.17641]],[[-7.08883,62.17386],[-7.09498,62.1712],[-7.09008,62.16765],[-7.09052,62.16464],[-7.07747,62.16599],[-7.08299,62.1725],[-7.08883,62.17386]],[[-7.15046,62.16827],[-7.14732,62.17159],[-7.15203,62.17416],[-7.15337,62.17111],[-7.15046,62.16827]],[[-7.02382,62.13055],[-7.0287,62.12606],[-7.01752,62.12835],[-7.0189,62.13057],[-7.02382,62.13055]],[[-7.00209,62.12839],[-7.00542,62.12799],[-6.99823,62.1261],[-7.00209,62.12839]],[[-6.99482,62.12583],[-6.99626,62.12457],[-6.99204,62.12412],[-6.99482,62.12583]],[[-6.8567,62.06757],[-6.85822,62.07002],[-6.85325,62.06987],[-6.86103,62.07139],[-6.86112,62.06846],[-6.8567,62.06757]],[[-6.82119,62.03371],[-6.82517,62.03125],[-6.8195,62.02967],[-6.81763,62.03317],[-6.82119,62.03371]],[[-6.86027,62.02219],[-6.86259,62.02145],[-6.85891,62.017],[-6.85509,62.01794],[-6.86027,62.02219]]],[[[-7.17022,62.13449],[-7.16905,62.13519],[-7.16015,62.13255],[-7.14764,62.11973],[-7.15714,62.12294],[-7.17022,62.13449]]],[[[-6.85607,62.14789],[-6.84732,62.14203],[-6.84634,62.13337],[-6.84638,62.1333],[-6.86258,62.14887],[-6.85607,62.14789]]],[[[-7.21589,62.16376],[-7.21589,62.15754],[-7.2213,62.15754],[-7.22133,62.15786],[-7.21837,62.1582],[-7.22088,62.16253],[-7.22223,62.163],[-7.21589,62.16376]]],[[[-6.91841,62.1603],[-6.92365,62.15968],[-6.93157,62.1657],[-6.91841,62.1603]]],[[[-6.9292,62.30527],[-6.96581,62.28654],[-6.95395,62.27441],[-6.9623,62.26471],[-6.95485,62.24917],[-6.9473,62.24162],[-6.93311,62.23498],[-6.93198,62.23826],[-6.94672,62.24876],[-6.9513,62.2582],[-6.93716,62.27398],[-6.93979,62.28127],[-6.93443,62.28146],[-6.93423,62.27359],[-6.9313,62.26008],[-6.92321,62.24901],[-6.90734,62.23945],[-6.91739,62.26992],[-6.91295,62.28181],[-6.85143,62.29203],[-6.84346,62.29112],[-6.83227,62.28335],[-6.85094,62.27745],[-6.86075,62.26518],[-6.86497,62.26406],[-6.86396,62.26177],[-6.80839,62.27024],[-6.77783,62.26413],[-6.76543,62.25658],[-6.76749,62.244],[-6.77111,62.24131],[-6.78384,62.23945],[-6.78384,62.23565],[-6.79575,62.2339],[-6.80941,62.24171],[-6.81933,62.24035],[-6.81365,62.23393],[-6.81407,62.22848],[-6.79468,62.21863],[-6.76907,62.21692],[-6.75184,62.22071],[-6.74291,62.21841],[-6.73473,62.21918],[-6.73069,62.22033],[-6.70579,62.21077],[-6.70058,62.21212],[-6.63869,62.19968],[-6.63176,62.19166],[-6.64395,62.19107],[-6.70397,62.19514],[-6.71111,62.19356],[-6.74302,62.19788],[-6.74378,62.19316],[-6.75337,62.18521],[-6.74706,62.1779],[-6.70354,62.16936],[-6.69048,62.16196],[-6.66435,62.15713],[-6.62772,62.14284],[-6.60782,62.13861],[-6.6162,62.13915],[-6.66779,62.15009],[-6.66779,62.14326],[-6.64582,62.14102],[-6.63738,62.13788],[-6.65868,62.14161],[-6.69116,62.14421],[-6.70354,62.14104],[-6.69919,62.1367],[-6.66872,62.13147],[-6.6561,62.12262],[-6.64125,62.12055],[-6.62526,62.10943],[-6.63069,62.10908],[-6.64916,62.10419],[-6.65239,62.10164],[-6.68827,62.1037],[-6.69034,62.09875],[-6.6845,62.09229],[-6.68998,62.07405],[-6.68986,62.07288],[-6.6914,62.07339],[-6.70124,62.09418],[-6.70153,62.11913],[-6.70938,62.14326],[-6.7268,62.16128],[-6.75357,62.18171],[-6.78384,62.19481],[-6.81184,62.19107],[-6.79712,62.18289],[-6.82261,62.19258],[-6.84581,62.19751],[-6.85127,62.19258],[-6.81839,62.17596],[-6.78469,62.16363],[-6.76718,62.14539],[-6.75787,62.14015],[-6.75361,62.12216],[-6.75593,62.10854],[-6.75728,62.10764],[-6.78087,62.11668],[-6.85961,62.16376],[-6.90026,62.16254],[-6.91076,62.16718],[-6.91698,62.17158],[-6.93798,62.18212],[-6.94555,62.18423],[-6.95751,62.1896],[-7.02033,62.23969],[-7.04762,62.27947],[-7.04347,62.28232],[-7.04782,62.28879],[-7.05459,62.28964],[-7.05508,62.29035],[-7.06359,62.29637],[-7.07502,62.30195],[-7.08237,62.30668],[-7.05116,62.31571],[-7.04459,62.3146],[-7.02286,62.319],[-6.98644,62.33226],[-6.96268,62.33471],[-6.95907,62.332],[-6.94101,62.3284],[-6.94344,62.32598],[-6.93715,62.32247],[-6.91047,62.31762],[-6.902,62.31213],[-6.9292,62.30527]],[[-6.81749,62.21054],[-6.82001,62.20946],[-6.81583,62.20986],[-6.81749,62.21054]]],[[[-6.99728,62.19965],[-7.00449,62.21399],[-6.99722,62.20718],[-6.99728,62.19965]]],[[[-7.02251,62.22309],[-7.04863,62.2427],[-7.05007,62.25151],[-7.06074,62.26198],[-7.06381,62.27109],[-7.08084,62.28793],[-7.07898,62.29211],[-7.07262,62.29027],[-7.05822,62.27668],[-7.04548,62.25239],[-7.00734,62.21666],[-7.02251,62.22309]]],[[[-7.10461,62.29951],[-7.11622,62.30073],[-7.11608,62.30112],[-7.10644,62.30004],[-7.10461,62.29951]]],[[[-6.77635,62.35841],[-6.77803,62.35144],[-6.77073,62.34947],[-6.76275,62.3332],[-6.75518,62.32343],[-6.74369,62.3157],[-6.74092,62.30868],[-6.76228,62.3277],[-6.76944,62.33601],[-6.78722,62.36127],[-6.78763,62.36439],[-6.77635,62.35841]]],[[[-6.67358,61.39847],[-6.67658,61.39419],[-6.6776,61.39411],[-6.69978,61.40424],[-6.73668,61.43073],[-6.76819,61.44501],[-6.76499,61.45286],[-6.75918,61.45706],[-6.7552,61.45368],[-6.75036,61.44432],[-6.73884,61.45571],[-6.72118,61.45938],[-6.71707,61.45923],[-6.71334,61.45553],[-6.72187,61.45008],[-6.72223,61.4419],[-6.69735,61.4448],[-6.68917,61.43885],[-6.69277,61.43408],[-6.68971,61.4278],[-6.69429,61.42484],[-6.69119,61.42065],[-6.68004,61.4186],[-6.67255,61.41046],[-6.67358,61.39847]]],[[[-6.73927,62.11086],[-6.73277,62.11023],[-6.74031,62.10114],[-6.74342,62.10234],[-6.7447,62.10784],[-6.73927,62.11086]]],[[[-6.72834,62.12623],[-6.72676,62.12817],[-6.73266,62.14144],[-6.75416,62.15611],[-6.76689,62.16904],[-6.75866,62.1656],[-6.73302,62.14883],[-6.7224,62.12275],[-6.72389,62.12096],[-6.72384,62.1213],[-6.72834,62.12623]]],[[[-6.56481,62.24771],[-6.56102,62.24567],[-6.55309,62.24702],[-6.5515,62.25088],[-6.55142,62.2565],[-6.54796,62.26337],[-6.54601,62.27196],[-6.5489,62.29951],[-6.5511,62.30777],[-6.56039,62.32341],[-6.5476,62.31262],[-6.52878,62.30185],[-6.52285,62.29418],[-6.52875,62.28541],[-6.51602,62.27684],[-6.46221,62.26552],[-6.4494,62.25943],[-6.43004,62.25704],[-6.42614,62.2547],[-6.42492,62.24872],[-6.42921,62.2429],[-6.43651,62.24238],[-6.46858,62.24893],[-6.48965,62.25995],[-6.49649,62.25251],[-6.46376,62.231],[-6.47248,62.22959],[-6.50572,62.23911],[-6.52278,62.2518],[-6.53814,62.25357],[-6.53136,62.24002],[-6.50621,62.22174],[-6.48324,62.21375],[-6.45209,62.21002],[-6.44779,62.20376],[-6.45659,62.19366],[-6.44258,62.18469],[-6.44526,62.18323],[-6.46386,62.18553],[-6.47907,62.19449],[-6.50646,62.22175],[-6.52212,62.22956],[-6.53747,62.22582],[-6.51602,62.1918],[-6.51136,62.18628],[-6.53134,62.19738],[-6.55411,62.22024],[-6.5708,62.22467],[-6.57355,62.22113],[-6.57186,62.21768],[-6.55997,62.20588],[-6.57128,62.21332],[-6.58275,62.22858],[-6.57836,62.24567],[-6.57136,62.25178],[-6.56749,62.25113],[-6.56481,62.24771]],[[-6.54427,62.29413],[-6.5405,62.2954],[-6.54802,62.29396],[-6.54427,62.29413]]],[[[-6.39217,62.25537],[-6.40998,62.26658],[-6.38659,62.25995],[-6.39217,62.25537]]],[[[-6.66042,62.2423],[-6.65995,62.23685],[-6.67667,62.2414],[-6.69103,62.25227],[-6.69896,62.26846],[-6.70897,62.28327],[-6.71572,62.28932],[-6.70008,62.27756],[-6.6943,62.26421],[-6.66042,62.2423]]],[[[-6.65558,62.26489],[-6.65719,62.26574],[-6.65787,62.26701],[-6.65558,62.26489]]],[[[-6.37035,62.25593],[-6.38073,62.26911],[-6.38435,62.28022],[-6.38142,62.28213],[-6.36676,62.28181],[-6.3567,62.29165],[-6.35562,62.2919],[-6.32949,62.30428],[-6.32288,62.30423],[-6.31172,62.2963],[-6.29348,62.29459],[-6.28865,62.29045],[-6.30614,62.28181],[-6.30506,62.28012],[-6.30876,62.28085],[-6.34098,62.27729],[-6.33484,62.27208],[-6.31457,62.26503],[-6.32329,62.25613],[-6.32104,62.25293],[-6.3254,62.24863],[-6.32418,62.24768],[-6.32608,62.24714],[-6.34187,62.24433],[-6.35851,62.24584],[-6.37035,62.25593]]],[[[-6.59051,62.29695],[-6.58528,62.28986],[-6.58072,62.28156],[-6.5797,62.26679],[-6.58474,62.26487],[-6.59488,62.2739],[-6.59063,62.28108],[-6.59314,62.28925],[-6.59051,62.29695]]],[[[-6.738,62.30607],[-6.71878,62.29162],[-6.73583,62.30414],[-6.738,62.30607]]],[[[-6.40855,62.30542],[-6.40638,62.30016],[-6.42506,62.29059],[-6.45572,62.29597],[-6.46775,62.30164],[-6.45963,62.30293],[-6.45373,62.31561],[-6.44144,62.31854],[-6.40855,62.30542]]],[[[-6.63638,62.2801],[-6.64631,62.28962],[-6.67333,62.32103],[-6.68432,62.34406],[-6.68119,62.36374],[-6.67448,62.36182],[-6.66301,62.35513],[-6.66131,62.34695],[-6.66438,62.33976],[-6.64347,62.31834],[-6.62917,62.31223],[-6.61317,62.29683],[-6.60537,62.27302],[-6.59787,62.2678],[-6.59619,62.26158],[-6.6162,62.2663],[-6.63638,62.2801]]],[[[-6.55538,62.34547],[-6.54358,62.3605],[-6.51692,62.32306],[-6.48274,62.29511],[-6.45148,62.28044],[-6.5193,62.29224],[-6.54049,62.32683],[-6.55436,62.33869],[-6.55538,62.34547]]],[[[-6.47778,62.3281],[-6.47896,62.3126],[-6.47511,62.30512],[-6.48546,62.31],[-6.50927,62.32978],[-6.52408,62.3465],[-6.53344,62.37189],[-6.54629,62.37812],[-6.5559,62.39094],[-6.55555,62.39114],[-6.55421,62.39098],[-6.53551,62.38275],[-6.52991,62.38308],[-6.51719,62.36971],[-6.51898,62.36721],[-6.5144,62.36389],[-6.51292,62.35701],[-6.51826,62.35465],[-6.50933,62.34551],[-6.49864,62.33729],[-6.48677,62.33427],[-6.47778,62.3281]]],[[[-6.54485,62.36243],[-6.55306,62.36523],[-6.53747,62.36982],[-6.54485,62.36243]]]]}}]}}
