{"type":"FeatureCollection","features":[{"type":"Feature","properties":{"id":"FSM:ADM0:75748993B60512971346220","name":"Federated States of Micronesia","countryCode":"FSM","adminLevel":0,"sourceCode":"75748993B60512971346220","parentId":"FSM:ADM1:FSM-4941"},"geometry":{"type":"MultiPolygon","coordinates":[[[[153.67963,5.29363],[153.7058,5.31578],[153.70817,5.31521],[153.6808,5.29258],[153.66861,5.2886],[153.66945,5.29105],[153.67963,5.29363]]],[[[163.03044,5.33381],[163.03284,5.32822],[163.01993,5.33195],[163.02202,5.33493],[163.03044,5.33381]]],[[[162.98481,5.36763],[162.99879,5.36938],[163.01955,5.36856],[163.02285,5.34774],[163.01932,5.33967],[163.01469,5.33744],[163.01262,5.33095],[163.0165,5.32712],[163.01446,5.32442],[163.0217,5.31827],[163.0297,5.32173],[163.03543,5.31625],[163.02911,5.28977],[163.02091,5.27461],[163.01816,5.27246],[163.00554,5.26976],[162.99342,5.27285],[162.98146,5.27766],[162.96966,5.27981],[162.96783,5.28365],[162.96206,5.28014],[162.94597,5.28001],[162.93133,5.28193],[162.91619,5.28693],[162.91212,5.30419],[162.91586,5.30945],[162.92578,5.31213],[162.94547,5.32509],[162.94722,5.33159],[162.9516,5.33271],[162.9508,5.3368],[162.95834,5.34406],[162.96463,5.34501],[162.9644,5.3557],[162.97059,5.36103],[162.98481,5.36763]]],[[[158.23271,6.78993],[158.23537,6.79308],[158.23636,6.79194],[158.23579,6.78883],[158.23367,6.78896],[158.23271,6.78993]]],[[[158.20247,6.8012],[158.20192,6.79939],[158.19944,6.8015],[158.20134,6.80209],[158.20247,6.8012]]],[[[158.2895,6.93062],[158.28508,6.93679],[158.29065,6.94104],[158.29236,6.93935],[158.29394,6.95231],[158.29396,6.9523],[158.29705,6.95165],[158.29889,6.94912],[158.29766,6.94887],[158.29923,6.94866],[158.30168,6.94532],[158.3018,6.94242],[158.2957,6.94102],[158.29617,6.93946],[158.29078,6.93797],[158.29412,6.93195],[158.2895,6.93062]]],[[[158.19484,6.95759],[158.19805,6.95685],[158.20403,6.95888],[158.20446,6.96802],[158.20826,6.96528],[158.21365,6.96835],[158.21753,6.96473],[158.21655,6.96374],[158.2159,6.96083],[158.21693,6.9633],[158.21929,6.96179],[158.21725,6.95513],[158.22097,6.95799],[158.22878,6.95134],[158.22619,6.94528],[158.22844,6.94409],[158.22775,6.94383],[158.22715,6.94407],[158.22694,6.94472],[158.22669,6.94484],[158.22314,6.94534],[158.22698,6.94457],[158.22561,6.94109],[158.23102,6.94514],[158.22995,6.94999],[158.2326,6.95059],[158.21885,6.96516],[158.22335,6.96938],[158.22318,6.97039],[158.22527,6.9702],[158.23243,6.96711],[158.23367,6.96688],[158.23802,6.96283],[158.23873,6.95462],[158.24835,6.95673],[158.24879,6.96556],[158.26461,6.96626],[158.26254,6.96232],[158.27747,6.9612],[158.27938,6.95727],[158.27666,6.94922],[158.28168,6.93953],[158.27833,6.93466],[158.28192,6.9311],[158.28104,6.92727],[158.28638,6.92542],[158.287,6.92935],[158.28665,6.92528],[158.29629,6.92507],[158.29714,6.91415],[158.30625,6.91973],[158.30755,6.92478],[158.31471,6.92577],[158.31941,6.92823],[158.3178,6.92458],[158.32583,6.91982],[158.32573,6.9153],[158.32159,6.91387],[158.3256,6.91514],[158.32336,6.91062],[158.32828,6.9019],[158.32535,6.89906],[158.3283,6.89879],[158.33223,6.88987],[158.32782,6.8824],[158.33534,6.87885],[158.33789,6.87241],[158.33045,6.86663],[158.32088,6.86745],[158.31846,6.87361],[158.31032,6.87056],[158.31009,6.8766],[158.29951,6.88298],[158.29501,6.88149],[158.30788,6.8761],[158.30557,6.87186],[158.3006,6.87142],[158.29881,6.86408],[158.28886,6.86902],[158.29508,6.86035],[158.29212,6.85858],[158.30205,6.84689],[158.30272,6.84954],[158.30805,6.84869],[158.30568,6.84528],[158.31198,6.84394],[158.31382,6.84021],[158.31411,6.8381],[158.31564,6.83639],[158.31695,6.8284],[158.3132,6.81446],[158.29821,6.80487],[158.30127,6.80007],[158.29922,6.798],[158.29975,6.79762],[158.29249,6.79507],[158.28013,6.79332],[158.28077,6.79394],[158.27391,6.79893],[158.26889,6.79173],[158.26758,6.79155],[158.26363,6.80334],[158.25651,6.80474],[158.25409,6.79799],[158.25824,6.79806],[158.25909,6.79141],[158.24842,6.78883],[158.24448,6.78827],[158.24209,6.78843],[158.23118,6.7995],[158.2309,6.78914],[158.22535,6.7895],[158.2151,6.80077],[158.20994,6.79901],[158.20494,6.80167],[158.20557,6.80806],[158.20037,6.81077],[158.20448,6.80716],[158.19704,6.80101],[158.19952,6.79649],[158.19202,6.79959],[158.19012,6.79605],[158.18504,6.8042],[158.18302,6.80055],[158.18019,6.80248],[158.17454,6.81132],[158.17488,6.81159],[158.17445,6.81146],[158.17058,6.81753],[158.16049,6.82811],[158.16456,6.84121],[158.16603,6.85399],[158.16293,6.86579],[158.15309,6.87592],[158.15593,6.87987],[158.16049,6.8902],[158.15078,6.89081],[158.15115,6.89251],[158.14885,6.89116],[158.1485,6.8951],[158.1475,6.89194],[158.13974,6.89302],[158.14074,6.89143],[158.13299,6.89191],[158.13145,6.89523],[158.13303,6.89698],[158.13206,6.89975],[158.13019,6.89797],[158.12974,6.89895],[158.12965,6.90017],[158.12919,6.90012],[158.12582,6.90742],[158.1325,6.94135],[158.13558,6.94453],[158.13573,6.94463],[158.13742,6.94173],[158.13582,6.94477],[158.13664,6.94562],[158.13881,6.94667],[158.14546,6.94158],[158.1463,6.94372],[158.14648,6.94064],[158.14686,6.94487],[158.14996,6.94486],[158.14185,6.95099],[158.14186,6.95099],[158.15788,6.9513],[158.16571,6.94141],[158.16867,6.94299],[158.17106,6.93947],[158.17237,6.94161],[158.17244,6.93819],[158.17854,6.93873],[158.17645,6.94053],[158.17943,6.94266],[158.17869,6.94896],[158.18097,6.94818],[158.18251,6.94892],[158.18287,6.9433],[158.18336,6.94733],[158.1826,6.94895],[158.18234,6.94919],[158.18073,6.94844],[158.18111,6.95114],[158.1779,6.95112],[158.18593,6.95315],[158.18061,6.95388],[158.18349,6.96016],[158.17915,6.9639],[158.18092,6.97895],[158.19733,6.9719],[158.19484,6.95759]]],[[[158.20757,6.7987],[158.20903,6.7987],[158.20751,6.79819],[158.20757,6.7987]]],[[[151.58896,7.34683],[151.59585,7.35259],[151.60484,7.35274],[151.60778,7.35109],[151.60873,7.35205],[151.60818,7.34626],[151.60371,7.3397],[151.60022,7.34106],[151.59867,7.33659],[151.59596,7.33674],[151.58269,7.3404],[151.56861,7.3426],[151.58896,7.34683]]],[[[149.20226,7.3624],[149.20322,7.36085],[149.20296,7.35879],[149.19708,7.35069],[149.19301,7.34767],[149.19323,7.3566],[149.19337,7.35696],[149.19355,7.35712],[149.19722,7.35529],[149.19823,7.35737],[149.19616,7.35951],[149.19671,7.36001],[149.1994,7.36483],[149.20226,7.3624]]],[[[151.85446,7.35602],[151.85322,7.35359],[151.8532,7.35383],[151.85342,7.35658],[151.85446,7.35602]]],[[[143.84083,7.37501],[143.84278,7.37262],[143.83603,7.37033],[143.83789,7.37471],[143.84083,7.37501]]],[[[143.91184,7.37293],[143.91126,7.36909],[143.90813,7.37075],[143.91041,7.37946],[143.91157,7.37852],[143.91184,7.37293]]],[[[151.59166,7.38148],[151.5946,7.37687],[151.59937,7.37806],[151.59357,7.3848],[151.60947,7.38863],[151.61341,7.37758],[151.62169,7.37928],[151.63804,7.3701],[151.63711,7.36185],[151.63416,7.35975],[151.63839,7.34825],[151.61916,7.35828],[151.6214,7.35227],[151.62809,7.35053],[151.63302,7.34366],[151.63297,7.33862],[151.63835,7.33112],[151.63468,7.32818],[151.63395,7.3283],[151.62273,7.34268],[151.6159,7.34268],[151.60935,7.33761],[151.60949,7.34421],[151.61307,7.34623],[151.61351,7.35224],[151.6121,7.35387],[151.60949,7.35309],[151.60744,7.35129],[151.60475,7.35456],[151.60723,7.35682],[151.61736,7.35895],[151.62273,7.36591],[151.61842,7.37588],[151.60538,7.37398],[151.60501,7.37476],[151.59624,7.37366],[151.58975,7.38215],[151.59166,7.38148]]],[[[151.87993,7.45825],[151.87285,7.45417],[151.88576,7.44991],[151.89963,7.45305],[151.90089,7.44742],[151.89676,7.44391],[151.88173,7.44457],[151.87468,7.43785],[151.86757,7.43659],[151.86149,7.42909],[151.85696,7.43008],[151.85934,7.42723],[151.86293,7.42944],[151.86453,7.42575],[151.85621,7.42463],[151.85564,7.43696],[151.85678,7.44717],[151.85919,7.45425],[151.86376,7.45798],[151.86256,7.46075],[151.86829,7.45818],[151.87509,7.45994],[151.87672,7.45873],[151.87894,7.46024],[151.87993,7.45825]]],[[[150.12738,8.98102],[150.12335,8.9841],[150.12348,8.9843],[150.13282,8.98573],[150.13147,8.9829],[150.12738,8.98102]]],[[[138.06754,9.4447],[138.06604,9.4444],[138.06848,9.45352],[138.06754,9.4447]]],[[[138.07482,9.46568],[138.07078,9.46208],[138.07267,9.46915],[138.07482,9.46568]]],[[[138.14151,9.52305],[138.14617,9.52689],[138.14358,9.53105],[138.14682,9.53667],[138.1422,9.53487],[138.13865,9.52799],[138.13737,9.53444],[138.14033,9.53786],[138.13691,9.53651],[138.13561,9.53969],[138.14202,9.55063],[138.14091,9.55714],[138.13935,9.55118],[138.13501,9.55511],[138.13009,9.55483],[138.13505,9.55469],[138.13688,9.54721],[138.12635,9.54569],[138.13278,9.54254],[138.12935,9.54186],[138.12908,9.53559],[138.12509,9.54228],[138.12271,9.5401],[138.12413,9.53395],[138.11639,9.53365],[138.12464,9.53006],[138.12331,9.5257],[138.12619,9.52148],[138.12085,9.51854],[138.12743,9.51373],[138.12587,9.51195],[138.12227,9.51585],[138.11245,9.51752],[138.11616,9.51434],[138.12072,9.515],[138.12251,9.50251],[138.11657,9.49795],[138.10905,9.50091],[138.10842,9.51214],[138.10835,9.5034],[138.10085,9.50401],[138.1032,9.50176],[138.1066,9.50231],[138.10647,9.49865],[138.09907,9.49578],[138.09328,9.48444],[138.08931,9.48273],[138.08726,9.4856],[138.08658,9.48001],[138.07829,9.48024],[138.07807,9.48007],[138.08912,9.50117],[138.10597,9.51447],[138.11297,9.52147],[138.12127,9.55488],[138.12623,9.56598],[138.13426,9.5705],[138.1352,9.56764],[138.12605,9.5636],[138.12807,9.55914],[138.14177,9.5695],[138.14632,9.5629],[138.14142,9.55839],[138.14643,9.56236],[138.14762,9.56379],[138.15008,9.54116],[138.15187,9.55085],[138.15496,9.56074],[138.15919,9.56953],[138.1644,9.57587],[138.16711,9.57787],[138.17199,9.56798],[138.16864,9.56059],[138.17352,9.55954],[138.17218,9.55403],[138.16899,9.55485],[138.16667,9.55137],[138.16968,9.55172],[138.16887,9.54956],[138.18407,9.5626],[138.18165,9.55874],[138.18426,9.54438],[138.18758,9.54303],[138.18835,9.53622],[138.17321,9.52308],[138.1716,9.53224],[138.17459,9.53707],[138.17197,9.53718],[138.1696,9.53587],[138.16959,9.52714],[138.16382,9.53256],[138.16867,9.52244],[138.16249,9.5151],[138.16041,9.51509],[138.15659,9.52578],[138.14381,9.52131],[138.14246,9.51995],[138.14151,9.52305]]],[[[138.16977,9.57674],[138.16854,9.57892],[138.17289,9.58212],[138.16977,9.57674]]],[[[140.52624,9.77219],[140.52888,9.76829],[140.52546,9.76518],[140.52491,9.76501],[140.52435,9.76436],[140.51539,9.76118],[140.51432,9.76701],[140.52624,9.77219]]]]}}],"admin1":{"type":"FeatureCollection","features":[{"type":"Feature","properties":{"id":"FSM:ADM1:FSM-4941","name":"Pohnpei State","countryCode":"FSM"},"geometry":{"type":"MultiPolygon","coordinates":[[[[151.60873,7.35205],[151.60818,7.34626],[151.60371,7.3397],[151.60022,7.34106],[151.59867,7.33659],[151.59596,7.33674],[151.58269,7.3404],[151.56861,7.3426],[151.58896,7.34683],[151.59585,7.35259],[151.60484,7.35274],[151.60778,7.35109],[151.60873,7.35205]]],[[[149.19301,7.34767],[149.19323,7.3566],[149.19337,7.35696],[149.19355,7.35712],[149.19722,7.35529],[149.19823,7.35737],[149.19616,7.35951],[149.19671,7.36001],[149.1994,7.36483],[149.20226,7.3624],[149.20322,7.36085],[149.20296,7.35879],[149.19708,7.35069],[149.19301,7.34767]]],[[[151.60947,7.38863],[151.61341,7.37758],[151.62169,7.37928],[151.63804,7.3701],[151.63711,7.36185],[151.63416,7.35975],[151.63839,7.34825],[151.61916,7.35828],[151.6214,7.35227],[151.62809,7.35053],[151.63302,7.34366],[151.63297,7.33862],[151.63835,7.33112],[151.63468,7.32818],[151.63395,7.3283],[151.62273,7.34268],[151.6159,7.34268],[151.60935,7.33761],[151.60949,7.34421],[151.61307,7.34623],[151.61351,7.35224],[151.6121,7.35387],[151.60949,7.35309],[151.60744,7.35129],[151.60475,7.35456],[151.60723,7.35682],[151.61736,7.35895],[151.62273,7.36591],[151.61842,7.37588],[151.60538,7.37398],[151.60501,7.37476],[151.59624,7.37366],[151.58975,7.38215],[151.59166,7.38148],[151.5946,7.37687],[151.59937,7.37806],[151.59357,7.3848],[151.60947,7.38863]]],[[[143.84278,7.37262],[143.83603,7.37033],[143.83789,7.37471],[143.84083,7.37501],[143.84278,7.37262]]],[[[143.91184,7.37293],[143.91126,7.36909],[143.90813,7.37075],[143.91041,7.37946],[143.91157,7.37852],[143.91184,7.37293]]],[[[150.13147,8.9829],[150.12738,8.98102],[150.12335,8.9841],[150.12348,8.9843],[150.13282,8.98573],[150.13147,8.9829]]],[[[138.06604,9.4444],[138.06848,9.45352],[138.06754,9.4447],[138.06604,9.4444]]],[[[138.07078,9.46208],[138.07267,9.46915],[138.07482,9.46568],[138.07078,9.46208]]],[[[138.13865,9.52799],[138.13737,9.53444],[138.14033,9.53786],[138.13691,9.53651],[138.13561,9.53969],[138.14202,9.55063],[138.14091,9.55714],[138.13935,9.55118],[138.13501,9.55511],[138.13009,9.55483],[138.13505,9.55469],[138.13688,9.54721],[138.12635,9.54569],[138.13278,9.54254],[138.12935,9.54186],[138.12908,9.53559],[138.12509,9.54228],[138.12271,9.5401],[138.12413,9.53395],[138.11639,9.53365],[138.12464,9.53006],[138.12331,9.5257],[138.12619,9.52148],[138.12085,9.51854],[138.12743,9.51373],[138.12587,9.51195],[138.12227,9.51585],[138.11245,9.51752],[138.11616,9.51434],[138.12072,9.515],[138.12251,9.50251],[138.11657,9.49795],[138.10905,9.50091],[138.10842,9.51214],[138.10835,9.5034],[138.10085,9.50401],[138.1032,9.50176],[138.1066,9.50231],[138.10647,9.49865],[138.09907,9.49578],[138.09328,9.48444],[138.08931,9.48273],[138.08726,9.4856],[138.08658,9.48001],[138.07829,9.48024],[138.07807,9.48007],[138.08912,9.50117],[138.10597,9.51447],[138.11297,9.52147],[138.12127,9.55488],[138.12623,9.56598],[138.13426,9.5705],[138.1352,9.56764],[138.12605,9.5636],[138.12807,9.55914],[138.14177,9.5695],[138.14632,9.5629],[138.14142,9.55839],[138.14643,9.56236],[138.14762,9.56379],[138.15008,9.54116],[138.15187,9.55085],[138.15496,9.56074],[138.15919,9.56953],[138.1644,9.57587],[138.16711,9.57787],[138.17199,9.56798],[138.16864,9.56059],[138.17352,9.55954],[138.17218,9.55403],[138.16899,9.55485],[138.16667,9.55137],[138.16968,9.55172],[138.16887,9.54956],[138.18407,9.5626],[138.18165,9.55874],[138.18426,9.54438],[138.18758,9.54303],[138.18835,9.53622],[138.17321,9.52308],[138.1716,9.53224],[138.17459,9.53707],[138.17197,9.53718],[138.1696,9.53587],[138.16959,9.52714],[138.16382,9.53256],[138.16867,9.52244],[138.16249,9.5151],[138.16041,9.51509],[138.15659,9.52578],[138.14381,9.52131],[138.14246,9.51995],[138.14151,9.52305],[138.14617,9.52689],[138.14358,9.53105],[138.14682,9.53667],[138.1422,9.53487],[138.13865,9.52799]]],[[[138.17289,9.58212],[138.16977,9.57674],[138.16854,9.57892],[138.17289,9.58212]]],[[[140.52435,9.76436],[140.51539,9.76118],[140.51432,9.76701],[140.52624,9.77219],[140.52888,9.76829],[140.52546,9.76518],[140.52491,9.76501],[140.52435,9.76436]]],[[[153.66861,5.2886],[153.66945,5.29105],[153.67963,5.29363],[153.7058,5.31578],[153.70817,5.31521],[153.6808,5.29258],[153.66861,5.2886]]],[[[163.01932,5.33967],[163.01469,5.33744],[163.01262,5.33095],[163.0165,5.32712],[163.01446,5.32442],[163.0217,5.31827],[163.0297,5.32173],[163.03543,5.31625],[163.02911,5.28977],[163.02091,5.27461],[163.01816,5.27246],[163.00554,5.26976],[162.99342,5.27285],[162.98146,5.27766],[162.96966,5.27981],[162.96783,5.28365],[162.96206,5.28014],[162.94597,5.28001],[162.93133,5.28193],[162.91619,5.28693],[162.91212,5.30419],[162.91586,5.30945],[162.92578,5.31213],[162.94547,5.32509],[162.94722,5.33159],[162.9516,5.33271],[162.9508,5.3368],[162.95834,5.34406],[162.96463,5.34501],[162.9644,5.3557],[162.97059,5.36103],[162.98481,5.36763],[162.99879,5.36938],[163.01955,5.36856],[163.02285,5.34774],[163.01932,5.33967]]],[[[163.03284,5.32822],[163.01993,5.33195],[163.02202,5.33493],[163.03044,5.33381],[163.03284,5.32822]]],[[[158.23271,6.78993],[158.23537,6.79308],[158.23636,6.79194],[158.23579,6.78883],[158.23367,6.78896],[158.23271,6.78993]]],[[[158.20903,6.7987],[158.20751,6.79819],[158.20757,6.7987],[158.20903,6.7987]]],[[[158.20192,6.79939],[158.19944,6.8015],[158.20134,6.80209],[158.20247,6.8012],[158.20192,6.79939]]],[[[158.21365,6.96835],[158.21753,6.96473],[158.21655,6.96374],[158.2159,6.96083],[158.21693,6.9633],[158.21929,6.96179],[158.21725,6.95513],[158.22097,6.95799],[158.22878,6.95134],[158.22619,6.94528],[158.22844,6.94409],[158.22775,6.94383],[158.22715,6.94407],[158.22694,6.94472],[158.22669,6.94484],[158.22314,6.94534],[158.22698,6.94457],[158.22561,6.94109],[158.23102,6.94514],[158.22995,6.94999],[158.2326,6.95059],[158.21885,6.96516],[158.22335,6.96938],[158.22318,6.97039],[158.22527,6.9702],[158.23243,6.96711],[158.23367,6.96688],[158.23802,6.96283],[158.23873,6.95462],[158.24835,6.95673],[158.24879,6.96556],[158.26461,6.96626],[158.26254,6.96232],[158.27747,6.9612],[158.27938,6.95727],[158.27666,6.94922],[158.28168,6.93953],[158.27833,6.93466],[158.28192,6.9311],[158.28104,6.92727],[158.28638,6.92542],[158.287,6.92935],[158.28665,6.92528],[158.29629,6.92507],[158.29714,6.91415],[158.30625,6.91973],[158.30755,6.92478],[158.31471,6.92577],[158.31941,6.92823],[158.3178,6.92458],[158.32583,6.91982],[158.32573,6.9153],[158.32159,6.91387],[158.3256,6.91514],[158.32336,6.91062],[158.32828,6.9019],[158.32535,6.89906],[158.3283,6.89879],[158.33223,6.88987],[158.32782,6.8824],[158.33534,6.87885],[158.33789,6.87241],[158.33045,6.86663],[158.32088,6.86745],[158.31846,6.87361],[158.31032,6.87056],[158.31009,6.8766],[158.29951,6.88298],[158.29501,6.88149],[158.30788,6.8761],[158.30557,6.87186],[158.3006,6.87142],[158.29881,6.86408],[158.28886,6.86902],[158.29508,6.86035],[158.29212,6.85858],[158.30205,6.84689],[158.30272,6.84954],[158.30805,6.84869],[158.30568,6.84528],[158.31198,6.84394],[158.31382,6.84021],[158.31411,6.8381],[158.31564,6.83639],[158.31695,6.8284],[158.3132,6.81446],[158.29821,6.80487],[158.30127,6.80007],[158.29922,6.798],[158.29975,6.79762],[158.29249,6.79507],[158.28013,6.79332],[158.28077,6.79394],[158.27391,6.79893],[158.26889,6.79173],[158.26758,6.79155],[158.26363,6.80334],[158.25651,6.80474],[158.25409,6.79799],[158.25824,6.79806],[158.25909,6.79141],[158.24842,6.78883],[158.24448,6.78827],[158.24209,6.78843],[158.23118,6.7995],[158.2309,6.78914],[158.22535,6.7895],[158.2151,6.80077],[158.20994,6.79901],[158.20494,6.80167],[158.20557,6.80806],[158.20037,6.81077],[158.20448,6.80716],[158.19704,6.80101],[158.19952,6.79649],[158.19202,6.79959],[158.19012,6.79605],[158.18504,6.8042],[158.18302,6.80055],[158.18019,6.80248],[158.17454,6.81132],[158.17488,6.81159],[158.17445,6.81146],[158.17058,6.81753],[158.16049,6.82811],[158.16456,6.84121],[158.16603,6.85399],[158.16293,6.86579],[158.15309,6.87592],[158.15593,6.87987],[158.16049,6.8902],[158.15078,6.89081],[158.15115,6.89251],[158.14885,6.89116],[158.1485,6.8951],[158.1475,6.89194],[158.13974,6.89302],[158.14074,6.89143],[158.13299,6.89191],[158.13145,6.89523],[158.13303,6.89698],[158.13206,6.89975],[158.13019,6.89797],[158.12974,6.89895],[158.12965,6.90017],[158.12919,6.90012],[158.12582,6.90742],[158.1325,6.94135],[158.13558,6.94453],[158.13573,6.94463],[158.13742,6.94173],[158.13582,6.94477],[158.13664,6.94562],[158.13881,6.94667],[158.14546,6.94158],[158.1463,6.94372],[158.14648,6.94064],[158.14686,6.94487],[158.14996,6.94486],[158.14185,6.95099],[158.14186,6.95099],[158.15788,6.9513],[158.16571,6.94141],[158.16867,6.94299],[158.17106,6.93947],[158.17237,6.94161],[158.17244,6.93819],[158.17854,6.93873],[158.17645,6.94053],[158.17943,6.94266],[158.17869,6.94896],[158.18097,6.94818],[158.18251,6.94892],[158.18287,6.9433],[158.18336,6.94733],[158.1826,6.94895],[158.18234,6.94919],[158.18073,6.94844],[158.18111,6.95114],[158.1779,6.95112],[158.18593,6.95315],[158.18061,6.95388],[158.18349,6.96016],[158.17915,6.9639],[158.18092,6.97895],[158.19733,6.9719],[158.19484,6.95759],[158.19805,6.95685],[158.20403,6.95888],[158.20446,6.96802],[158.20826,6.96528],[158.21365,6.96835]]],[[[158.29394,6.95231],[158.29396,6.9523],[158.29705,6.95165],[158.29889,6.94912],[158.29766,6.94887],[158.29923,6.94866],[158.30168,6.94532],[158.3018,6.94242],[158.2957,6.94102],[158.29617,6.93946],[158.29078,6.93797],[158.29412,6.93195],[158.2895,6.93062],[158.28508,6.93679],[158.29065,6.94104],[158.29236,6.93935],[158.29394,6.95231]]],[[[151.85322,7.35359],[151.8532,7.35383],[151.85342,7.35658],[151.85446,7.35602],[151.85322,7.35359]]],[[[151.89676,7.44391],[151.88173,7.44457],[151.87468,7.43785],[151.86757,7.43659],[151.86149,7.42909],[151.85696,7.43008],[151.85934,7.42723],[151.86293,7.42944],[151.86453,7.42575],[151.85621,7.42463],[151.85564,7.43696],[151.85678,7.44717],[151.85919,7.45425],[151.86376,7.45798],[151.86256,7.46075],[151.86829,7.45818],[151.87509,7.45994],[151.87672,7.45873],[151.87894,7.46024],[151.87993,7.45825],[151.87285,7.45417],[151.88576,7.44991],[151.89963,7.45305],[151.90089,7.44742],[151.89676,7.44391]]]]}}]}}
