{"type":"FeatureCollection","features":[{"type":"Feature","properties":{"id":"GGY:ADM0:78196341B64068065460220","name":"Guernsey","countryCode":"GGY","adminLevel":0,"sourceCode":"78196341B64068065460220","parentId":"GGY:ADM1:GGY+00?"},"geometry":{"type":"MultiPolygon","coordinates":[[[[-2.3593,49.42416],[-2.36576,49.42005],[-2.36714,49.4161],[-2.37352,49.41157],[-2.37808,49.41275],[-2.37615,49.41657],[-2.36709,49.42065],[-2.36925,49.42192],[-2.36723,49.42538],[-2.37426,49.42679],[-2.37494,49.4283],[-2.37372,49.42916],[-2.37587,49.43057],[-2.37574,49.43222],[-2.37003,49.43434],[-2.36553,49.44045],[-2.3666,49.44528],[-2.36612,49.44575],[-2.36376,49.44685],[-2.35635,49.44038],[-2.3544,49.4278],[-2.35849,49.42385],[-2.3593,49.42416]]],[[[-2.45389,49.46868],[-2.45225,49.47231],[-2.45487,49.47605],[-2.45388,49.48091],[-2.44803,49.4829],[-2.44832,49.47732],[-2.44533,49.47442],[-2.45189,49.46439],[-2.45389,49.46868]]],[[[-2.5328,49.44566],[-2.53333,49.43779],[-2.53404,49.43632],[-2.53491,49.43567],[-2.54198,49.43089],[-2.55207,49.4267],[-2.5587,49.42719],[-2.56485,49.42951],[-2.57311,49.43089],[-2.66934,49.43089],[-2.67331,49.43341],[-2.67146,49.43727],[-2.65873,49.43422],[-2.6504,49.44205],[-2.65034,49.45181],[-2.65465,49.45365],[-2.65621,49.45834],[-2.65295,49.45729],[-2.64187,49.46122],[-2.63579,49.45891],[-2.63148,49.46476],[-2.62595,49.46554],[-2.62197,49.46326],[-2.61067,49.46536],[-2.60625,49.47118],[-2.61154,49.47394],[-2.60975,49.47506],[-2.60678,49.4754],[-2.60339,49.47241],[-2.60281,49.47499],[-2.59179,49.47659],[-2.58666,49.48552],[-2.58921,49.48796],[-2.58867,49.4883],[-2.57956,49.48718],[-2.58036,49.48923],[-2.57493,49.49007],[-2.57486,49.49448],[-2.57021,49.49395],[-2.57083,49.49621],[-2.56964,49.49654],[-2.56192,49.49485],[-2.55267,49.49835],[-2.55292,49.49444],[-2.54317,49.49161],[-2.54044,49.5028],[-2.54673,49.50564],[-2.54497,49.5065],[-2.53147,49.50804],[-2.53397,49.50423],[-2.52516,49.50181],[-2.51827,49.50902],[-2.51542,49.5052],[-2.50499,49.50581],[-2.5037,49.5024],[-2.50577,49.49799],[-2.51937,49.483],[-2.51973,49.48299],[-2.51948,49.48288],[-2.52212,49.47997],[-2.52296,49.47605],[-2.5262,49.47558],[-2.53365,49.47122],[-2.53592,49.46478],[-2.53041,49.46098],[-2.53375,49.45937],[-2.5288,49.459],[-2.52959,49.46125],[-2.52755,49.45775],[-2.53426,49.45813],[-2.53572,49.45551],[-2.53303,49.45267],[-2.53556,49.45058],[-2.53073,49.44841],[-2.53133,49.44691],[-2.5328,49.44566]],[[-2.62017,49.45297],[-2.61594,49.45355],[-2.62204,49.45441],[-2.62408,49.44995],[-2.62229,49.45208],[-2.61928,49.45028],[-2.62017,49.45297]],[[-2.56908,49.44367],[-2.57076,49.4443],[-2.57095,49.44303],[-2.56908,49.44367]]],[[[-2.19602,49.72118],[-2.18803,49.72172],[-2.18544,49.72833],[-2.18253,49.72943],[-2.17958,49.72881],[-2.1782,49.73095],[-2.17599,49.73121],[-2.17278,49.72841],[-2.17032,49.72858],[-2.17032,49.72321],[-2.17253,49.72163],[-2.17493,49.72159],[-2.17427,49.72038],[-2.1879,49.71064],[-2.20084,49.70571],[-2.21687,49.70303],[-2.22623,49.70783],[-2.21849,49.71869],[-2.21284,49.72091],[-2.20501,49.72137],[-2.20408,49.72415],[-2.20143,49.72434],[-2.19602,49.72118]],[[-2.17437,49.72863],[-2.17567,49.72738],[-2.17369,49.72739],[-2.17437,49.72863]]]]}}],"admin1":{"type":"FeatureCollection","features":[{"type":"Feature","properties":{"id":"GGY:ADM1:GGY+00?","name":"Sark","countryCode":"GGY"},"geometry":{"type":"MultiPolygon","coordinates":[[[[-2.36714,49.4161],[-2.37352,49.41157],[-2.37808,49.41275],[-2.37615,49.41657],[-2.36709,49.42065],[-2.36925,49.42192],[-2.36723,49.42538],[-2.37426,49.42679],[-2.37494,49.4283],[-2.37372,49.42916],[-2.37587,49.43057],[-2.37574,49.43222],[-2.37003,49.43434],[-2.36553,49.44045],[-2.3666,49.44528],[-2.36612,49.44575],[-2.36376,49.44685],[-2.35635,49.44038],[-2.3544,49.4278],[-2.35849,49.42385],[-2.3593,49.42416],[-2.36576,49.42005],[-2.36714,49.4161]]],[[[-2.53404,49.43632],[-2.53491,49.43567],[-2.54198,49.43089],[-2.55207,49.4267],[-2.5587,49.42719],[-2.56485,49.42951],[-2.57311,49.43089],[-2.66934,49.43089],[-2.67331,49.43341],[-2.67146,49.43727],[-2.65873,49.43422],[-2.6504,49.44205],[-2.65034,49.45181],[-2.65465,49.45365],[-2.65621,49.45834],[-2.65295,49.45729],[-2.64187,49.46122],[-2.63579,49.45891],[-2.63148,49.46476],[-2.62595,49.46554],[-2.62197,49.46326],[-2.61067,49.46536],[-2.60625,49.47118],[-2.61154,49.47394],[-2.60975,49.47506],[-2.60678,49.4754],[-2.60339,49.47241],[-2.60281,49.47499],[-2.59179,49.47659],[-2.58666,49.48552],[-2.58921,49.48796],[-2.58867,49.4883],[-2.57956,49.48718],[-2.58036,49.48923],[-2.57493,49.49007],[-2.57486,49.49448],[-2.57021,49.49395],[-2.57083,49.49621],[-2.56964,49.49654],[-2.56192,49.49485],[-2.55267,49.49835],[-2.55292,49.49444],[-2.54317,49.49161],[-2.54044,49.5028],[-2.54673,49.50564],[-2.54497,49.5065],[-2.53147,49.50804],[-2.53397,49.50423],[-2.52516,49.50181],[-2.51827,49.50902],[-2.51542,49.5052],[-2.50499,49.50581],[-2.5037,49.5024],[-2.50577,49.49799],[-2.51937,49.483],[-2.51973,49.48299],[-2.51948,49.48288],[-2.52212,49.47997],[-2.52296,49.47605],[-2.5262,49.47558],[-2.53365,49.47122],[-2.53592,49.46478],[-2.53041,49.46098],[-2.53375,49.45937],[-2.5288,49.459],[-2.52959,49.46125],[-2.52755,49.45775],[-2.53426,49.45813],[-2.53572,49.45551],[-2.53303,49.45267],[-2.53556,49.45058],[-2.53073,49.44841],[-2.53133,49.44691],[-2.5328,49.44566],[-2.53333,49.43779],[-2.53404,49.43632]],[[-2.62204,49.45441],[-2.62408,49.44995],[-2.62229,49.45208],[-2.61928,49.45028],[-2.62017,49.45297],[-2.61594,49.45355],[-2.62204,49.45441]],[[-2.57095,49.44303],[-2.56908,49.44367],[-2.57076,49.4443],[-2.57095,49.44303]]],[[[-2.45487,49.47605],[-2.45388,49.48091],[-2.44803,49.4829],[-2.44832,49.47732],[-2.44533,49.47442],[-2.45189,49.46439],[-2.45389,49.46868],[-2.45225,49.47231],[-2.45487,49.47605]]],[[[-2.18544,49.72833],[-2.18253,49.72943],[-2.17958,49.72881],[-2.1782,49.73095],[-2.17599,49.73121],[-2.17278,49.72841],[-2.17032,49.72858],[-2.17032,49.72321],[-2.17253,49.72163],[-2.17493,49.72159],[-2.17427,49.72038],[-2.1879,49.71064],[-2.20084,49.70571],[-2.21687,49.70303],[-2.22623,49.70783],[-2.21849,49.71869],[-2.21284,49.72091],[-2.20501,49.72137],[-2.20408,49.72415],[-2.20143,49.72434],[-2.19602,49.72118],[-2.18803,49.72172],[-2.18544,49.72833]],[[-2.17369,49.72739],[-2.17437,49.72863],[-2.17567,49.72738],[-2.17369,49.72739]]]]}}]}}
