{"type":"FeatureCollection","features":[{"type":"Feature","properties":{"id":"GIB:ADM0:6346334B38615135095594","name":"Gibraltar","countryCode":"GIB","adminLevel":0,"sourceCode":"6346334B38615135095594","parentId":"GIB:ADM1:GIB+00?"},"geometry":{"type":"Polygon","coordinates":[[[-5.35441,36.13237],[-5.35681,36.13859],[-5.35741,36.1385],[-5.36018,36.14591],[-5.3602,36.14686],[-5.3606,36.14704],[-5.36111,36.1484],[-5.3543,36.14685],[-5.3532,36.1503],[-5.35963,36.15128],[-5.33873,36.15345],[-5.34048,36.12366],[-5.34455,36.11319],[-5.35025,36.11929],[-5.35473,36.13132],[-5.35441,36.13237]]]}}],"admin1":{"type":"FeatureCollection","features":[{"type":"Feature","properties":{"id":"GIB:ADM1:GIB+00?","name":"Gibraltar","countryCode":"GIB"},"geometry":{"type":"Polygon","coordinates":[[[-5.35441,36.13237],[-5.35681,36.13859],[-5.35741,36.1385],[-5.36018,36.14591],[-5.3602,36.14686],[-5.3606,36.14704],[-5.36111,36.1484],[-5.3543,36.14685],[-5.3532,36.1503],[-5.35963,36.15128],[-5.33873,36.15345],[-5.34048,36.12366],[-5.34455,36.11319],[-5.35025,36.11929],[-5.35473,36.13132],[-5.35441,36.13237]]]}}]}}
