{"type":"FeatureCollection","features":[{"type":"Feature","properties":{"id":"GLP:ADM0:43335349B88110842463664","name":"Guadeloupe","countryCode":"GLP","adminLevel":0,"sourceCode":"43335349B88110842463664"},"geometry":{"type":"MultiPolygon","coordinates":[[[[-61.58603,15.83735],[-61.58593,15.83649],[-61.59057,15.84015],[-61.59077,15.84198],[-61.58603,15.83735]]],[[[-61.6211,15.85532],[-61.62482,15.84865],[-61.62755,15.84699],[-61.63834,15.85322],[-61.63459,15.86616],[-61.63231,15.86733],[-61.62354,15.86565],[-61.62435,15.85909],[-61.61737,15.85636],[-61.61879,15.85231],[-61.6211,15.85532]]],[[[-61.569,15.87913],[-61.57174,15.87305],[-61.56784,15.87196],[-61.57013,15.86997],[-61.57673,15.86665],[-61.57692,15.86534],[-61.58218,15.8618],[-61.59264,15.85839],[-61.59569,15.86286],[-61.59365,15.86471],[-61.58441,15.86443],[-61.58225,15.86916],[-61.58407,15.87271],[-61.5807,15.87933],[-61.57852,15.87298],[-61.57362,15.88326],[-61.57327,15.88313],[-61.569,15.87913]]],[[[-61.21724,15.8955],[-61.21947,15.89213],[-61.24071,15.88182],[-61.27489,15.87377],[-61.30508,15.87848],[-61.31819,15.90449],[-61.3192,15.91108],[-61.32169,15.91909],[-61.3251,15.92585],[-61.32872,15.92866],[-61.33202,15.93195],[-61.32779,15.93928],[-61.31819,15.95254],[-61.3153,15.96695],[-61.30826,15.97769],[-61.30765,15.97836],[-61.30632,15.97865],[-61.30619,15.97996],[-61.29019,15.9975],[-61.27433,16.00602],[-61.25225,15.99232],[-61.24223,15.99119],[-61.24354,15.98809],[-61.23964,15.98851],[-61.23933,15.98553],[-61.23309,15.98545],[-61.22997,15.97111],[-61.22351,15.96808],[-61.22458,15.96447],[-61.21934,15.96204],[-61.21732,15.95661],[-61.20553,15.95075],[-61.19853,15.94003],[-61.19512,15.93033],[-61.20249,15.90489],[-61.20425,15.90278],[-61.20697,15.90069],[-61.21724,15.8955]],[[-61.29982,15.98293],[-61.29609,15.97983],[-61.29676,15.9812],[-61.29982,15.98293]]],[[[-61.11119,16.17385],[-61.10923,16.17199],[-61.10961,16.17145],[-61.11673,16.17031],[-61.11954,16.1704],[-61.12247,16.17288],[-61.11119,16.17385]]],[[[-61.10409,16.18057],[-61.10395,16.18053],[-61.10582,16.17857],[-61.1058,16.18012],[-61.10409,16.18057]]],[[[-61.11346,16.1767],[-61.11319,16.17692],[-61.11172,16.17699],[-61.10627,16.17621],[-61.10637,16.17607],[-61.11346,16.1767]]],[[[-61.54997,16.28064],[-61.55283,16.28139],[-61.55176,16.2822],[-61.54997,16.28064]]],[[[-61.68681,16.33516],[-61.68843,16.33539],[-61.68749,16.33619],[-61.68681,16.33516]]],[[[-61.68154,16.33606],[-61.68281,16.33448],[-61.685,16.33571],[-61.68518,16.33785],[-61.68154,16.33606]]],[[[-61.68627,16.33761],[-61.68842,16.33667],[-61.68867,16.33841],[-61.68723,16.33873],[-61.68627,16.33761]]],[[[-61.07315,16.30286],[-61.09162,16.30541],[-61.07874,16.31209],[-61.07829,16.31217],[-61.07803,16.3126],[-61.06974,16.3194],[-61.06414,16.31984],[-61.0478,16.33219],[-61.04609,16.33053],[-61.02402,16.34373],[-61.01833,16.34428],[-61.01674,16.34849],[-61.00787,16.34853],[-61.00316,16.33746],[-61.01983,16.32678],[-61.02557,16.32435],[-61.04041,16.3137],[-61.0608,16.3054],[-61.07315,16.30286]]],[[[-61.59008,16.35356],[-61.58238,16.35114],[-61.58642,16.35008],[-61.59022,16.34624],[-61.59159,16.34632],[-61.59278,16.34835],[-61.59008,16.35356]]],[[[-61.60487,16.29752],[-61.60653,16.2994],[-61.60771,16.29945],[-61.61522,16.29582],[-61.63033,16.29956],[-61.63424,16.29924],[-61.63451,16.29645],[-61.64122,16.29696],[-61.64832,16.29531],[-61.65617,16.29796],[-61.65911,16.29406],[-61.65429,16.29168],[-61.65829,16.28984],[-61.6547,16.29065],[-61.65371,16.29217],[-61.65869,16.29423],[-61.6558,16.29779],[-61.64866,16.29478],[-61.63465,16.29589],[-61.63052,16.29898],[-61.6209,16.29491],[-61.61532,16.29527],[-61.60645,16.29872],[-61.61413,16.28354],[-61.62096,16.28313],[-61.61653,16.28795],[-61.6204,16.29214],[-61.61906,16.28677],[-61.62671,16.28028],[-61.62429,16.27554],[-61.61183,16.27915],[-61.61512,16.26963],[-61.61203,16.26719],[-61.60237,16.27292],[-61.59801,16.28179],[-61.59691,16.27502],[-61.60085,16.26994],[-61.59671,16.26606],[-61.58421,16.27022],[-61.57867,16.27912],[-61.58024,16.28212],[-61.58023,16.28213],[-61.57736,16.28439],[-61.5761,16.28501],[-61.57517,16.28081],[-61.56481,16.28655],[-61.56201,16.28355],[-61.55836,16.28646],[-61.55288,16.28229],[-61.55346,16.27825],[-61.54999,16.27769],[-61.55541,16.25825],[-61.55273,16.25111],[-61.55332,16.2503],[-61.55092,16.24629],[-61.54906,16.24136],[-61.54999,16.23785],[-61.5546,16.23652],[-61.5653,16.23418],[-61.56754,16.23632],[-61.58229,16.23585],[-61.58844,16.2184],[-61.58575,16.21437],[-61.58697,16.20811],[-61.58305,16.20437],[-61.59034,16.19206],[-61.58571,16.18006],[-61.57986,16.17849],[-61.57944,16.17329],[-61.58544,16.17144],[-61.58154,16.15552],[-61.57455,16.1511],[-61.57784,16.1436],[-61.57403,16.13754],[-61.56385,16.13523],[-61.563,16.12845],[-61.56882,16.1232],[-61.57079,16.11619],[-61.56873,16.11017],[-61.56219,16.10651],[-61.55892,16.09387],[-61.56033,16.06973],[-61.5652,16.03858],[-61.5673,16.03198],[-61.58052,16.01654],[-61.6135,15.99021],[-61.61389,15.98731],[-61.64342,15.97036],[-61.64598,15.96931],[-61.64856,15.9699],[-61.65207,15.9668],[-61.66099,15.96313],[-61.6624,15.96451],[-61.66841,15.9626],[-61.67266,15.95833],[-61.69494,15.94916],[-61.69652,15.95502],[-61.70238,15.96963],[-61.69494,15.97647],[-61.70202,15.9899],[-61.71081,15.99738],[-61.72106,16.00385],[-61.73278,16.01398],[-61.74006,16.02582],[-61.74364,16.0373],[-61.74779,16.0467],[-61.75642,16.05219],[-61.76855,16.08742],[-61.76605,16.09032],[-61.76866,16.09069],[-61.76944,16.16649],[-61.78429,16.20234],[-61.77945,16.21723],[-61.78401,16.22931],[-61.7919,16.24006],[-61.79735,16.2508],[-61.79784,16.26789],[-61.79385,16.29906],[-61.79547,16.30514],[-61.79501,16.30853],[-61.79667,16.30964],[-61.79735,16.3122],[-61.78899,16.31914],[-61.78734,16.31956],[-61.78744,16.32055],[-61.77082,16.34882],[-61.76566,16.35306],[-61.75965,16.35524],[-61.74998,16.35418],[-61.7437,16.36174],[-61.72495,16.35393],[-61.72283,16.35195],[-61.72203,16.3509],[-61.72137,16.3506],[-61.7212,16.35044],[-61.72198,16.34724],[-61.71625,16.3446],[-61.71417,16.33753],[-61.69354,16.33488],[-61.68396,16.32402],[-61.68003,16.32981],[-61.67069,16.32047],[-61.66952,16.32281],[-61.66458,16.32083],[-61.66479,16.31828],[-61.65122,16.32135],[-61.64091,16.31628],[-61.64486,16.31228],[-61.64304,16.30866],[-61.63717,16.30912],[-61.62562,16.30149],[-61.60948,16.30434],[-61.60434,16.29829],[-61.60487,16.29752]],[[-61.66709,16.28948],[-61.66787,16.27965],[-61.66543,16.2835],[-61.66695,16.28812],[-61.66349,16.29026],[-61.66709,16.28948]],[[-61.66741,16.31956],[-61.66981,16.31996],[-61.66955,16.31747],[-61.66849,16.3178],[-61.66741,16.31956]],[[-61.6697,16.23917],[-61.67098,16.24074],[-61.67108,16.23913],[-61.6697,16.23917]],[[-61.59382,16.21109],[-61.59482,16.2086],[-61.59025,16.21258],[-61.59382,16.21109]],[[-61.6056,16.04023],[-61.60525,16.04188],[-61.60776,16.04113],[-61.6056,16.04023]],[[-61.62683,16.02615],[-61.62937,16.02883],[-61.62815,16.02632],[-61.62683,16.02615]],[[-61.55994,16.28043],[-61.56059,16.27611],[-61.55546,16.27291],[-61.5548,16.27591],[-61.55994,16.28043]]],[[[-61.54745,16.2583],[-61.54811,16.2574],[-61.54833,16.25804],[-61.54815,16.26425],[-61.54745,16.2583]]],[[[-61.46659,16.50678],[-61.4621,16.50444],[-61.46183,16.4993],[-61.45961,16.50109],[-61.45209,16.49731],[-61.44367,16.49959],[-61.44165,16.48642],[-61.43917,16.49029],[-61.42885,16.48229],[-61.42831,16.47863],[-61.42018,16.47602],[-61.41817,16.47139],[-61.41032,16.46757],[-61.40757,16.4474],[-61.40169,16.44232],[-61.39859,16.42845],[-61.39851,16.41869],[-61.40281,16.41589],[-61.40062,16.41203],[-61.40599,16.40565],[-61.40572,16.38455],[-61.39287,16.35989],[-61.37972,16.34374],[-61.36794,16.33847],[-61.36715,16.33504],[-61.36518,16.33749],[-61.35223,16.33335],[-61.34673,16.33606],[-61.34206,16.32883],[-61.34038,16.33299],[-61.33945,16.3331],[-61.33869,16.33271],[-61.33819,16.33325],[-61.33389,16.33376],[-61.3198,16.32981],[-61.3123,16.33157],[-61.30421,16.32486],[-61.29789,16.32748],[-61.29686,16.32258],[-61.28608,16.32144],[-61.28199,16.31652],[-61.26614,16.30919],[-61.26651,16.30481],[-61.2598,16.3043],[-61.24889,16.28501],[-61.24812,16.27843],[-61.24304,16.27342],[-61.20554,16.25489],[-61.20064,16.25415],[-61.19811,16.25769],[-61.18719,16.25031],[-61.18556,16.25276],[-61.18137,16.24798],[-61.1762,16.24873],[-61.17397,16.24501],[-61.1748,16.24396],[-61.18054,16.24408],[-61.19187,16.25035],[-61.21525,16.25256],[-61.21886,16.25422],[-61.23445,16.25829],[-61.24693,16.25554],[-61.25554,16.25635],[-61.26303,16.25199],[-61.2651,16.25154],[-61.26798,16.25314],[-61.26653,16.25122],[-61.27078,16.25028],[-61.27998,16.25027],[-61.28764,16.24657],[-61.31475,16.2406],[-61.31738,16.24025],[-61.32646,16.24649],[-61.32708,16.24429],[-61.32437,16.2413],[-61.3376,16.24198],[-61.34801,16.23678],[-61.36355,16.23468],[-61.37219,16.22795],[-61.41072,16.21947],[-61.43392,16.20956],[-61.43883,16.20881],[-61.44061,16.2067],[-61.44445,16.20506],[-61.46215,16.20234],[-61.48371,16.20588],[-61.50341,16.21328],[-61.52042,16.22297],[-61.53384,16.23338],[-61.53421,16.23383],[-61.53435,16.23595],[-61.53609,16.23608],[-61.54098,16.24194],[-61.54192,16.24454],[-61.54455,16.247],[-61.54707,16.25436],[-61.54619,16.25525],[-61.54772,16.27198],[-61.54418,16.28539],[-61.5441,16.28547],[-61.5426,16.29024],[-61.54119,16.28952],[-61.54218,16.29157],[-61.53758,16.30622],[-61.53719,16.30644],[-61.53374,16.31622],[-61.53392,16.31787],[-61.52766,16.33784],[-61.52125,16.34531],[-61.50854,16.3414],[-61.50704,16.34563],[-61.50392,16.34593],[-61.50989,16.34958],[-61.4917,16.35358],[-61.49822,16.35518],[-61.49706,16.35676],[-61.49641,16.36026],[-61.49584,16.36116],[-61.4962,16.36139],[-61.49551,16.36514],[-61.49523,16.37446],[-61.49524,16.37451],[-61.4944,16.37844],[-61.49606,16.37995],[-61.49625,16.38117],[-61.50036,16.38565],[-61.50621,16.38918],[-61.50667,16.38959],[-61.50683,16.38955],[-61.50731,16.38984],[-61.51561,16.39305],[-61.52359,16.39476],[-61.52916,16.43049],[-61.53384,16.43944],[-61.53429,16.44929],[-61.52612,16.46157],[-61.52227,16.46244],[-61.51802,16.47009],[-61.50731,16.47369],[-61.50551,16.47836],[-61.50375,16.47693],[-61.5037,16.4839],[-61.48572,16.49142],[-61.47789,16.50328],[-61.46569,16.50964],[-61.46659,16.50678]],[[-61.4852,16.41604],[-61.48752,16.41839],[-61.49224,16.41268],[-61.48744,16.41531],[-61.48305,16.41313],[-61.481,16.42023],[-61.48258,16.42153],[-61.4852,16.41604]],[[-61.50001,16.34715],[-61.49363,16.34686],[-61.4941,16.34863],[-61.4974,16.34832],[-61.50001,16.34715]],[[-61.50557,16.34444],[-61.5071,16.34203],[-61.49689,16.34316],[-61.50015,16.3463],[-61.50557,16.34444]],[[-61.33828,16.32303],[-61.34199,16.32855],[-61.34141,16.32555],[-61.33828,16.32303]],[[-61.32029,16.2963],[-61.31638,16.29796],[-61.31112,16.29483],[-61.3158,16.29851],[-61.32015,16.29831],[-61.31923,16.30619],[-61.32088,16.30484],[-61.32029,16.2963]],[[-61.44768,16.20512],[-61.44458,16.20606],[-61.44888,16.20655],[-61.44768,16.20512]]],[[[-61.55622,16.28732],[-61.55434,16.28815],[-61.55167,16.28555],[-61.55144,16.2851],[-61.55622,16.28732]],[[-61.55451,16.28674],[-61.55319,16.28606],[-61.55359,16.28701],[-61.55451,16.28674]]]]}}],"admin1":{"type":"FeatureCollection","features":[]}}
