{"type":"FeatureCollection","features":[{"type":"Feature","properties":{"id":"GMB:ADM2:56634734B11412565261125","name":"Kiang East","countryCode":"GMB","adminLevel":2,"sourceCode":"56634734B11412565261125","parentId":"GMB:ADM1:GMB-2154"},"geometry":{"type":"Polygon","coordinates":[[[-15.62941,13.45258],[-15.61637,13.448],[-15.60107,13.45046],[-15.6011,13.39093],[-15.56733,13.35875],[-15.59201,13.34917],[-15.63108,13.34541],[-15.64875,13.34697],[-15.68723,13.36488],[-15.68713,13.46665],[-15.67805,13.47305],[-15.66869,13.47574],[-15.65892,13.4724],[-15.64468,13.45791],[-15.63492,13.45458],[-15.63163,13.45463],[-15.62941,13.45258]]]}},{"type":"Feature","properties":{"id":"GMB:ADM2:56634734B1390118495461","name":"Kombo South","countryCode":"GMB","adminLevel":2,"sourceCode":"56634734B1390118495461","parentId":"GMB:ADM1:GMB-5512"},"geometry":{"type":"Polygon","coordinates":[[[-16.81197,13.34491],[-16.80621,13.34489],[-16.80141,13.34899],[-16.79838,13.35986],[-16.78958,13.36524],[-16.78752,13.3583],[-16.77923,13.36085],[-16.76585,13.35842],[-16.77158,13.35445],[-16.77071,13.34901],[-16.77592,13.33935],[-16.76864,13.33314],[-16.73832,13.3389],[-16.73455,13.33192],[-16.72217,13.32766],[-16.69731,13.32959],[-16.69727,13.32236],[-16.68722,13.31841],[-16.65982,13.3236],[-16.65598,13.30473],[-16.66273,13.3051],[-16.66211,13.29975],[-16.6803,13.28866],[-16.69405,13.28685],[-16.69385,13.27691],[-16.70107,13.2761],[-16.73279,13.2549],[-16.73869,13.23473],[-16.73042,13.23764],[-16.72293,13.23637],[-16.72282,13.23186],[-16.71612,13.22525],[-16.70524,13.22047],[-16.67866,13.22329],[-16.67892,13.20485],[-16.67411,13.20075],[-16.67573,13.16828],[-16.68056,13.16531],[-16.68435,13.16897],[-16.68903,13.16755],[-16.69115,13.15983],[-16.69767,13.15921],[-16.70138,13.16247],[-16.6994,13.15485],[-16.70298,13.15204],[-16.70886,13.1552],[-16.70717,13.14779],[-16.69777,13.14343],[-16.69683,13.14024],[-16.70279,13.13102],[-16.71,13.13302],[-16.70858,13.12741],[-16.7123,13.12083],[-16.7204,13.11856],[-16.72536,13.12213],[-16.72506,13.11615],[-16.71632,13.11022],[-16.72583,13.10639],[-16.72986,13.108],[-16.7304,13.11407],[-16.73574,13.11198],[-16.73581,13.10325],[-16.72564,13.09684],[-16.72753,13.09256],[-16.73329,13.09039],[-16.72859,13.08186],[-16.73221,13.07404],[-16.74158,13.07374],[-16.74423,13.07003],[-16.73663,13.04688],[-16.73947,13.04366],[-16.75217,13.06984],[-16.7661,13.0755],[-16.76887,13.07783],[-16.77216,13.07893],[-16.76707,13.12385],[-16.77386,13.13314],[-16.77339,13.14128],[-16.77747,13.1507],[-16.789,13.15754],[-16.78993,13.15989],[-16.78796,13.16181],[-16.78355,13.18646],[-16.78448,13.23733],[-16.79169,13.2659],[-16.8071,13.27582],[-16.80294,13.30123],[-16.8037,13.3189],[-16.80734,13.33114],[-16.81426,13.33886],[-16.81197,13.34491]]]}},{"type":"Feature","properties":{"id":"GMB:ADM2:56634734B14945153011857","name":"Lower Badibu","countryCode":"GMB","adminLevel":2,"sourceCode":"56634734B14945153011857","parentId":"GMB:ADM1:GMB-5513"},"geometry":{"type":"Polygon","coordinates":[[[-16.12942,13.45578],[-16.13183,13.46417],[-16.12874,13.46704],[-16.12788,13.47688],[-16.13617,13.49256],[-16.12616,13.49922],[-16.10259,13.49718],[-16.08824,13.51404],[-16.08509,13.52379],[-16.09024,13.53128],[-16.1019,13.52676],[-16.10612,13.5296],[-16.09795,13.54161],[-16.1015,13.55714],[-16.09999,13.56778],[-16.09544,13.57048],[-16.08791,13.56301],[-16.08356,13.57035],[-16.08304,13.57554],[-16.09133,13.59015],[-16.0844,13.59286],[-15.98884,13.5927],[-15.99043,13.55423],[-16.00131,13.50179],[-15.99662,13.49809],[-15.99924,13.49572],[-15.99819,13.48958],[-16.00141,13.48985],[-15.99655,13.48086],[-15.99918,13.48071],[-15.998,13.47828],[-16.00224,13.47927],[-16.00062,13.4757],[-16.00352,13.47083],[-15.9987,13.4717],[-15.99839,13.46684],[-16.00219,13.46654],[-16.00115,13.46183],[-15.9972,13.4602],[-15.99922,13.45519],[-15.9902,13.44882],[-15.99132,13.44809],[-16.07811,13.44143],[-16.08335,13.44115],[-16.10706,13.4464],[-16.1219,13.45161],[-16.12212,13.45164],[-16.12942,13.45578]]]}},{"type":"Feature","properties":{"id":"GMB:ADM2:56634734B15786085247071","name":"Basse","countryCode":"GMB","adminLevel":2,"sourceCode":"56634734B15786085247071","parentId":"GMB:ADM1:GMB-2152"},"geometry":{"type":"Polygon","coordinates":[[[-14.20727,13.31965],[-14.20919,13.31578],[-14.21613,13.3158],[-14.22546,13.33531],[-14.24384,13.33739],[-14.25355,13.35506],[-14.28016,13.368],[-14.28674,13.36636],[-14.29781,13.33488],[-14.3072,13.32814],[-14.2989,13.3221],[-14.29947,13.317],[-14.29433,13.31878],[-14.24776,13.28465],[-14.25265,13.23269],[-14.24812,13.22768],[-14.22638,13.21989],[-14.20707,13.21689],[-14.20674,13.21936],[-14.18484,13.21912],[-14.15778,13.23006],[-14.133,13.23442],[-14.13251,13.25411],[-14.11921,13.28284],[-14.13041,13.28457],[-14.15259,13.29508],[-14.16971,13.31462],[-14.20064,13.31487],[-14.20727,13.31965]]]}},{"type":"Feature","properties":{"id":"GMB:ADM2:56634734B18055278254530","name":"Serrekunda East","countryCode":"GMB","adminLevel":2,"sourceCode":"56634734B18055278254530","parentId":"GMB:ADM1:GMB-2153"},"geometry":{"type":"Polygon","coordinates":[[[-16.67581,13.43355],[-16.67357,13.41892],[-16.68432,13.41662],[-16.66567,13.40422],[-16.65948,13.38447],[-16.64475,13.39459],[-16.64241,13.40201],[-16.63528,13.40387],[-16.64616,13.41317],[-16.65546,13.41666],[-16.64994,13.42241],[-16.65602,13.42381],[-16.65401,13.42693],[-16.65738,13.42905],[-16.65679,13.43508],[-16.66107,13.43241],[-16.66549,13.43492],[-16.67581,13.43355]]]}},{"type":"Feature","properties":{"id":"GMB:ADM2:56634734B211008456047","name":"Kombo Central","countryCode":"GMB","adminLevel":2,"sourceCode":"56634734B211008456047","parentId":"GMB:ADM1:GMB-5512"},"geometry":{"type":"Polygon","coordinates":[[[-16.58625,13.31487],[-16.59109,13.31409],[-16.59224,13.30614],[-16.60142,13.29555],[-16.60481,13.2887],[-16.60418,13.28061],[-16.62042,13.2735],[-16.61476,13.25882],[-16.60352,13.25418],[-16.60237,13.16708],[-16.64625,13.16758],[-16.65588,13.1638],[-16.66314,13.16794],[-16.67573,13.16828],[-16.67411,13.20075],[-16.67892,13.20485],[-16.67866,13.22329],[-16.70524,13.22047],[-16.71612,13.22525],[-16.72282,13.23186],[-16.72293,13.23637],[-16.73042,13.23764],[-16.73869,13.23473],[-16.73279,13.2549],[-16.70107,13.2761],[-16.69385,13.27691],[-16.69405,13.28685],[-16.6803,13.28866],[-16.66211,13.29975],[-16.66273,13.3051],[-16.65598,13.30473],[-16.65993,13.32542],[-16.64202,13.32665],[-16.63123,13.31933],[-16.62076,13.32257],[-16.6157,13.33832],[-16.6105,13.33867],[-16.61228,13.33086],[-16.58648,13.3336],[-16.58459,13.33141],[-16.58625,13.31487]]]}},{"type":"Feature","properties":{"id":"GMB:ADM2:56634734B21442074713298","name":"Niamina Dankunku","countryCode":"GMB","adminLevel":2,"sourceCode":"56634734B21442074713298","parentId":"GMB:ADM1:GMB-2151"},"geometry":{"type":"Polygon","coordinates":[[[-15.34477,13.51765],[-15.336,13.53668],[-15.33813,13.5438],[-15.3354,13.54737],[-15.32615,13.54917],[-15.30964,13.58253],[-15.30024,13.5916],[-15.29295,13.58983],[-15.29432,13.59711],[-15.28704,13.60276],[-15.27945,13.59994],[-15.27824,13.60656],[-15.28309,13.61059],[-15.26113,13.65126],[-15.28195,13.66188],[-15.30386,13.68866],[-15.30963,13.69059],[-15.3315,13.68566],[-15.3541,13.66528],[-15.36755,13.62114],[-15.36674,13.58654],[-15.37129,13.58482],[-15.37188,13.57561],[-15.36607,13.54651],[-15.35997,13.53152],[-15.34477,13.51765]]]}},{"type":"Feature","properties":{"id":"GMB:ADM2:56634734B22755125769096","name":"Janjanbureh","countryCode":"GMB","adminLevel":2,"sourceCode":"56634734B22755125769096","parentId":"GMB:ADM1:GMB-2151"},"geometry":{"type":"Polygon","coordinates":[[[-14.71312,13.53255],[-14.71434,13.53622],[-14.73074,13.53312],[-14.74304,13.53462],[-14.7664,13.54518],[-14.79206,13.54476],[-14.79737,13.54625],[-14.80639,13.55628],[-14.80223,13.54729],[-14.77872,13.52707],[-14.7582,13.52334],[-14.73682,13.53052],[-14.72088,13.52976],[-14.71312,13.53255]]]}},{"type":"Feature","properties":{"id":"GMB:ADM2:56634734B25207283407562","name":"Kombo East","countryCode":"GMB","adminLevel":2,"sourceCode":"56634734B25207283407562","parentId":"GMB:ADM1:GMB-5512"},"geometry":{"type":"MultiPolygon","coordinates":[[[[-16.41489,13.27251],[-16.38326,13.2811],[-16.37491,13.26419],[-16.37964,13.26138],[-16.38873,13.24668],[-16.40652,13.24989],[-16.40827,13.25873],[-16.41527,13.26703],[-16.42601,13.27074],[-16.43993,13.2696],[-16.43993,13.27138],[-16.41489,13.27251]]],[[[-16.41188,13.20751],[-16.41715,13.20748],[-16.41354,13.20184],[-16.42114,13.19214],[-16.41616,13.18467],[-16.42655,13.16661],[-16.60237,13.16708],[-16.60352,13.25418],[-16.61476,13.25882],[-16.62042,13.2735],[-16.60418,13.28061],[-16.60481,13.2887],[-16.60142,13.29555],[-16.59224,13.30614],[-16.59109,13.31409],[-16.58625,13.31487],[-16.58459,13.33141],[-16.55386,13.2958],[-16.54577,13.29011],[-16.49519,13.28791],[-16.48082,13.28388],[-16.46776,13.27586],[-16.45995,13.26887],[-16.4497,13.26407],[-16.42935,13.26219],[-16.41967,13.25556],[-16.41393,13.23998],[-16.41348,13.22207],[-16.41942,13.2082],[-16.40929,13.2165],[-16.41188,13.20751]]],[[[-16.40176,13.22205],[-16.40276,13.22186],[-16.40177,13.22267],[-16.40176,13.22205]]]]}},{"type":"Feature","properties":{"id":"GMB:ADM2:56634734B27150312185582","name":"Foni Brefet","countryCode":"GMB","adminLevel":2,"sourceCode":"56634734B27150312185582","parentId":"GMB:ADM1:GMB-5512"},"geometry":{"type":"Polygon","coordinates":[[[-16.36181,13.26508],[-16.36714,13.26037],[-16.36421,13.25272],[-16.35469,13.25394],[-16.33948,13.23903],[-16.33525,13.24089],[-16.33341,13.24739],[-16.32897,13.24392],[-16.32594,13.24793],[-16.32487,13.24044],[-16.3232,13.24478],[-16.31453,13.24549],[-16.31962,13.2423],[-16.31943,13.2398],[-16.314,13.24017],[-16.31738,13.23765],[-16.31541,13.23375],[-16.31168,13.2366],[-16.28475,13.22125],[-16.27699,13.20243],[-16.28511,13.18919],[-16.28802,13.1656],[-16.42655,13.16661],[-16.41616,13.18467],[-16.42114,13.19214],[-16.41354,13.20184],[-16.41715,13.20748],[-16.41188,13.20751],[-16.40929,13.2165],[-16.40276,13.22186],[-16.40176,13.22205],[-16.40177,13.22267],[-16.39977,13.22431],[-16.39086,13.2248],[-16.3778,13.21503],[-16.38366,13.22517],[-16.40193,13.24335],[-16.40575,13.24604],[-16.40652,13.24989],[-16.38873,13.24668],[-16.37964,13.26138],[-16.37491,13.2642],[-16.37475,13.26386],[-16.36473,13.26773],[-16.36181,13.26508]]]}},{"type":"Feature","properties":{"id":"GMB:ADM2:56634734B27555440336226","name":"Illiasa","countryCode":"GMB","adminLevel":2,"sourceCode":"56634734B27555440336226","parentId":"GMB:ADM1:GMB-5513"},"geometry":{"type":"Polygon","coordinates":[[[-15.70626,13.49051],[-15.70638,13.49042],[-15.7342,13.47574],[-15.76989,13.46507],[-15.81697,13.46146],[-15.81753,13.47448],[-15.82181,13.47502],[-15.83043,13.49259],[-15.84144,13.50006],[-15.83432,13.50392],[-15.83221,13.51126],[-15.83506,13.51125],[-15.83758,13.51787],[-15.84284,13.51755],[-15.84377,13.52889],[-15.85181,13.53191],[-15.8541,13.54892],[-15.8725,13.59305],[-15.58105,13.59081],[-15.58162,13.56834],[-15.56432,13.52606],[-15.57584,13.5229],[-15.58601,13.51504],[-15.6007,13.49551],[-15.61067,13.48932],[-15.62776,13.48851],[-15.63406,13.49143],[-15.64007,13.49719],[-15.65355,13.50179],[-15.67348,13.50323],[-15.67672,13.50197],[-15.69017,13.49897],[-15.70603,13.4906],[-15.70626,13.49051]]]}},{"type":"Feature","properties":{"id":"GMB:ADM2:56634734B28238259284132","name":"Upper Niumi","countryCode":"GMB","adminLevel":2,"sourceCode":"56634734B28238259284132","parentId":"GMB:ADM1:GMB-5513"},"geometry":{"type":"Polygon","coordinates":[[[-16.44107,13.34922],[-16.45502,13.35472],[-16.47512,13.35974],[-16.50753,13.36201],[-16.49846,13.37189],[-16.49645,13.37882],[-16.48261,13.39108],[-16.47736,13.42372],[-16.46868,13.42667],[-16.46274,13.42514],[-16.46276,13.42737],[-16.45772,13.42495],[-16.45723,13.41892],[-16.44356,13.42212],[-16.44061,13.42482],[-16.44411,13.43887],[-16.43576,13.45321],[-16.42757,13.4584],[-16.40933,13.46006],[-16.39658,13.46572],[-16.38273,13.47897],[-16.36771,13.48632],[-16.32648,13.50016],[-16.3071,13.51905],[-16.29799,13.53287],[-16.28035,13.52939],[-16.25423,13.53006],[-16.25111,13.52668],[-16.24565,13.53046],[-16.23755,13.51835],[-16.23189,13.5182],[-16.23315,13.51373],[-16.23006,13.51678],[-16.22566,13.51412],[-16.22416,13.50609],[-16.22965,13.50892],[-16.2311,13.5057],[-16.22668,13.49928],[-16.22506,13.5034],[-16.22085,13.50235],[-16.22041,13.48707],[-16.23075,13.47434],[-16.23014,13.46112],[-16.23613,13.45385],[-16.23899,13.4424],[-16.23362,13.4276],[-16.2398,13.42167],[-16.24436,13.422],[-16.24434,13.41861],[-16.22756,13.42155],[-16.21067,13.41638],[-16.24844,13.37897],[-16.25796,13.37202],[-16.26561,13.36872],[-16.27302,13.36262],[-16.28059,13.35977],[-16.28913,13.36587],[-16.2897,13.37324],[-16.28673,13.38361],[-16.2849,13.39533],[-16.28913,13.40681],[-16.30602,13.39167],[-16.3081,13.38337],[-16.30211,13.37202],[-16.31212,13.36693],[-16.3164,13.36587],[-16.3164,13.35904],[-16.31163,13.35761],[-16.307,13.35456],[-16.30211,13.35277],[-16.32008,13.34375],[-16.32061,13.3444],[-16.33545,13.34723],[-16.3548,13.33975],[-16.36494,13.33767],[-16.39053,13.33686],[-16.41198,13.33853],[-16.43313,13.3436],[-16.44107,13.34922]]]}},{"type":"Feature","properties":{"id":"GMB:ADM2:56634734B30137768679203","name":"Lower Niumi","countryCode":"GMB","adminLevel":2,"sourceCode":"56634734B30137768679203","parentId":"GMB:ADM1:GMB-5513"},"geometry":{"type":"Polygon","coordinates":[[[-16.3091,13.59339],[-16.54565,13.59338],[-16.54854,13.58721],[-16.5286,13.55439],[-16.52714,13.53117],[-16.53313,13.50898],[-16.54323,13.48984],[-16.54979,13.48722],[-16.54463,13.48054],[-16.53001,13.47777],[-16.5288,13.47149],[-16.50965,13.46889],[-16.501,13.46351],[-16.48055,13.43918],[-16.48464,13.43973],[-16.48492,13.43701],[-16.47736,13.42372],[-16.46868,13.42667],[-16.46274,13.42514],[-16.46276,13.42737],[-16.45772,13.42495],[-16.45723,13.41892],[-16.44356,13.42212],[-16.44061,13.42482],[-16.44411,13.43887],[-16.43576,13.45321],[-16.42757,13.4584],[-16.40933,13.46006],[-16.39658,13.46572],[-16.38273,13.47897],[-16.36771,13.48632],[-16.32648,13.50016],[-16.3071,13.51905],[-16.29799,13.53287],[-16.29559,13.54292],[-16.2967,13.5721],[-16.3091,13.59339]]]}},{"type":"Feature","properties":{"id":"GMB:ADM2:56634734B31410801409584","name":"Serrekunda Central","countryCode":"GMB","adminLevel":2,"sourceCode":"56634734B31410801409584","parentId":"GMB:ADM1:GMB-2153"},"geometry":{"type":"Polygon","coordinates":[[[-16.67562,13.4451],[-16.69104,13.43367],[-16.68956,13.41875],[-16.68432,13.41662],[-16.67357,13.41892],[-16.67562,13.4451]]]}},{"type":"Feature","properties":{"id":"GMB:ADM2:56634734B33214654746760","name":"Jeshwang","countryCode":"GMB","adminLevel":2,"sourceCode":"56634734B33214654746760","parentId":"GMB:ADM1:GMB-2153"},"geometry":{"type":"Polygon","coordinates":[[[-16.68879,13.4642],[-16.67562,13.4451],[-16.67581,13.43355],[-16.66549,13.43492],[-16.66107,13.43241],[-16.65679,13.43508],[-16.65537,13.44156],[-16.66109,13.44661],[-16.65429,13.4516],[-16.64952,13.45107],[-16.6488,13.44758],[-16.64063,13.45359],[-16.634,13.45385],[-16.62891,13.46787],[-16.63998,13.46926],[-16.65692,13.46404],[-16.66977,13.46566],[-16.67574,13.45724],[-16.6816,13.46787],[-16.68879,13.4642]]]}},{"type":"Feature","properties":{"id":"GMB:ADM2:56634734B33233148834926","name":"Kantora","countryCode":"GMB","adminLevel":2,"sourceCode":"56634734B33233148834926","parentId":"GMB:ADM1:GMB-2152"},"geometry":{"type":"Polygon","coordinates":[[[-13.94441,13.31872],[-13.89318,13.31659],[-13.88832,13.31981],[-13.87927,13.3189],[-13.8518,13.32519],[-13.82841,13.34023],[-13.79711,13.38428],[-13.79112,13.4309],[-13.79382,13.44491],[-13.81333,13.44435],[-13.81773,13.45175],[-13.82528,13.44853],[-13.82987,13.46266],[-13.82671,13.47241],[-13.8136,13.47864],[-13.83128,13.49174],[-13.83079,13.50085],[-13.83454,13.50434],[-13.85491,13.51159],[-13.8869,13.49915],[-13.89069,13.49418],[-13.88711,13.47713],[-13.8686,13.45231],[-13.8733,13.44235],[-13.8813,13.43848],[-13.8871,13.40759],[-13.90685,13.40896],[-13.92108,13.42038],[-13.93387,13.4552],[-13.94603,13.47323],[-13.95138,13.47562],[-13.97725,13.46531],[-14.00168,13.45055],[-13.99563,13.41763],[-13.99756,13.41165],[-14.03363,13.38795],[-14.02285,13.38697],[-14.01938,13.39245],[-14.00368,13.39763],[-14.0006,13.40161],[-13.98749,13.39594],[-13.98193,13.37026],[-13.95312,13.33819],[-13.94562,13.33441],[-13.94296,13.32866],[-13.94441,13.31872]]]}},{"type":"Feature","properties":{"id":"GMB:ADM2:56634734B41420439456091","name":"Niani","countryCode":"GMB","adminLevel":2,"sourceCode":"56634734B41420439456091","parentId":"GMB:ADM1:GMB-2151"},"geometry":{"type":"Polygon","coordinates":[[[-14.71244,13.61958],[-14.71755,13.61691],[-14.76009,13.63794],[-14.79641,13.66674],[-14.8044,13.70555],[-14.80091,13.73339],[-14.80451,13.74555],[-14.81422,13.75616],[-14.84867,13.77173],[-14.8739,13.78786],[-14.89461,13.79465],[-14.91323,13.79658],[-14.94465,13.79314],[-14.962,13.7867],[-14.99245,13.79922],[-14.99677,13.78936],[-15.00672,13.79196],[-15.01066,13.78755],[-15.01413,13.78868],[-15.0147,13.7793],[-15.02222,13.77905],[-15.02431,13.77235],[-15.01939,13.75708],[-15.00999,13.7575],[-15.00023,13.74146],[-14.99647,13.72238],[-14.99893,13.71531],[-14.99358,13.71262],[-14.9921,13.70407],[-14.95859,13.71516],[-14.93401,13.71261],[-14.9197,13.70512],[-14.90011,13.70221],[-14.8913,13.69641],[-14.88863,13.68885],[-14.89225,13.66581],[-14.89847,13.65663],[-14.91951,13.64215],[-14.94292,13.63834],[-14.95651,13.63268],[-14.97335,13.61792],[-14.97393,13.597],[-14.96584,13.58159],[-14.96165,13.57947],[-14.91028,13.58023],[-14.8629,13.55477],[-14.8392,13.56735],[-14.8402,13.57836],[-14.84381,13.58062],[-14.83918,13.58246],[-14.84063,13.58472],[-14.83572,13.58429],[-14.83643,13.59178],[-14.8266,13.59432],[-14.8279,13.59772],[-14.82357,13.59616],[-14.82227,13.59955],[-14.81331,13.597],[-14.8068,13.60067],[-14.80493,13.59826],[-14.80015,13.6008],[-14.79553,13.59896],[-14.78411,13.60701],[-14.78224,13.60022],[-14.78585,13.59726],[-14.78586,13.59104],[-14.77436,13.59633],[-14.75457,13.59235],[-14.74821,13.59758],[-14.74128,13.59319],[-14.73926,13.58555],[-14.7238,13.58172],[-14.7118,13.61379],[-14.71244,13.61958]]]}},{"type":"Feature","properties":{"id":"GMB:ADM2:56634734B42374489083147","name":"Niamina East","countryCode":"GMB","adminLevel":2,"sourceCode":"56634734B42374489083147","parentId":"GMB:ADM1:GMB-2151"},"geometry":{"type":"Polygon","coordinates":[[[-14.98376,13.61339],[-14.97787,13.61347],[-14.95615,13.6376],[-14.92927,13.64398],[-14.91955,13.65304],[-14.89615,13.66424],[-14.89189,13.68296],[-14.89325,13.68979],[-14.90859,13.70005],[-14.94763,13.70488],[-14.95857,13.70919],[-15.00445,13.69583],[-15.04912,13.72397],[-15.07069,13.72085],[-15.12583,13.69312],[-15.16303,13.66822],[-15.19461,13.65238],[-15.20599,13.64227],[-15.21402,13.63992],[-15.20856,13.6292],[-15.21615,13.62392],[-15.20885,13.60982],[-15.17983,13.59127],[-15.15677,13.5511],[-15.14246,13.55921],[-15.11696,13.58485],[-15.07657,13.58457],[-15.07167,13.55123],[-15.03798,13.58417],[-15.03134,13.59864],[-14.98948,13.60837],[-14.98376,13.61339]]]}},{"type":"Feature","properties":{"id":"GMB:ADM2:56634734B42615963496738","name":"Foni Kansala","countryCode":"GMB","adminLevel":2,"sourceCode":"56634734B42615963496738","parentId":"GMB:ADM1:GMB-5512"},"geometry":{"type":"Polygon","coordinates":[[[-16.14309,13.29436],[-16.12083,13.29501],[-16.1107,13.28992],[-16.11086,13.28442],[-16.11646,13.28019],[-16.12506,13.2796],[-16.12485,13.27502],[-16.09593,13.24949],[-16.0832,13.24955],[-16.0765,13.25544],[-16.08906,13.26125],[-16.09134,13.26985],[-16.0839,13.27959],[-16.07061,13.27846],[-16.06775,13.26509],[-16.0597,13.26403],[-16.0517,13.27432],[-16.03094,13.27606],[-16.01157,13.29684],[-16.00577,13.29613],[-16.00519,13.29137],[-15.99956,13.28718],[-15.9938,13.29728],[-15.97634,13.29881],[-15.97162,13.2718],[-15.99883,13.24488],[-15.99877,13.23726],[-15.99321,13.23242],[-15.99868,13.22681],[-16.00127,13.18359],[-15.98448,13.18349],[-15.98407,13.16617],[-16.12125,13.16553],[-16.1101,13.20887],[-16.11691,13.212],[-16.11659,13.2175],[-16.12137,13.22114],[-16.11987,13.22848],[-16.13958,13.22523],[-16.13813,13.24305],[-16.1507,13.24166],[-16.15059,13.25448],[-16.1397,13.2517],[-16.13815,13.26495],[-16.14951,13.25907],[-16.16177,13.26301],[-16.17756,13.25961],[-16.17969,13.26135],[-16.15127,13.27643],[-16.15127,13.28388],[-16.15466,13.28352],[-16.14309,13.29436]]]}},{"type":"Feature","properties":{"id":"GMB:ADM2:56634734B42913132832661","name":"Jimara","countryCode":"GMB","adminLevel":2,"sourceCode":"56634734B42913132832661","parentId":"GMB:ADM1:GMB-2152"},"geometry":{"type":"Polygon","coordinates":[[[-14.3072,13.32814],[-14.34786,13.32371],[-14.3593,13.32668],[-14.37391,13.33646],[-14.38602,13.37178],[-14.40498,13.36999],[-14.41905,13.37517],[-14.42495,13.38023],[-14.42791,13.39586],[-14.4429,13.40803],[-14.45323,13.40878],[-14.47862,13.38531],[-14.48219,13.38789],[-14.48871,13.40794],[-14.50446,13.42065],[-14.49805,13.3852],[-14.50989,13.38031],[-14.52378,13.38015],[-14.52782,13.38429],[-14.52654,13.36262],[-14.54614,13.32167],[-14.5318,13.3107],[-14.5003,13.29576],[-14.48642,13.29297],[-14.46278,13.29421],[-14.42242,13.25837],[-14.39676,13.24214],[-14.32183,13.23266],[-14.30666,13.2337],[-14.2749,13.24264],[-14.26684,13.24152],[-14.25265,13.23269],[-14.24776,13.28465],[-14.29433,13.31878],[-14.29947,13.317],[-14.2989,13.3221],[-14.3072,13.32814]]]}},{"type":"Feature","properties":{"id":"GMB:ADM2:56634734B48610519572764","name":"Wuli West","countryCode":"GMB","adminLevel":2,"sourceCode":"56634734B48610519572764","parentId":"GMB:ADM1:GMB-2152"},"geometry":{"type":"Polygon","coordinates":[[[-14.28262,13.36918],[-14.25477,13.35769],[-14.24244,13.33818],[-14.22406,13.33573],[-14.21248,13.31585],[-14.20815,13.31988],[-14.20912,13.34001],[-14.20591,13.34551],[-14.18805,13.35391],[-14.19006,13.37082],[-14.18549,13.38803],[-14.16625,13.39124],[-14.16304,13.39564],[-14.16089,13.41952],[-14.15505,13.42667],[-14.14268,13.42093],[-14.13969,13.41651],[-14.14916,13.39228],[-14.1475,13.38364],[-14.13171,13.38983],[-14.11524,13.37654],[-14.10811,13.37578],[-14.10565,13.38037],[-14.1129,13.40024],[-14.11304,13.41237],[-14.11057,13.42045],[-14.09483,13.43831],[-14.10703,13.46682],[-14.07434,13.53214],[-14.08112,13.53787],[-14.08338,13.55098],[-14.10888,13.54734],[-14.13883,13.52595],[-14.15714,13.5272],[-14.18532,13.5238],[-14.21336,13.50699],[-14.2258,13.49379],[-14.23825,13.47017],[-14.23562,13.46398],[-14.23694,13.45273],[-14.24484,13.42247],[-14.25192,13.41631],[-14.25658,13.41618],[-14.26255,13.40392],[-14.26932,13.40085],[-14.26715,13.37365],[-14.28262,13.36918]]]}},{"type":"Feature","properties":{"id":"GMB:ADM2:56634734B54242206420565","name":"Sami","countryCode":"GMB","adminLevel":2,"sourceCode":"56634734B54242206420565","parentId":"GMB:ADM1:GMB-2151"},"geometry":{"type":"Polygon","coordinates":[[[-14.8392,13.56735],[-14.82872,13.56867],[-14.81254,13.56427],[-14.79435,13.54645],[-14.7648,13.54692],[-14.74141,13.53573],[-14.71295,13.53697],[-14.70322,13.52077],[-14.70265,13.51017],[-14.67705,13.48307],[-14.65602,13.44163],[-14.64852,13.43483],[-14.63147,13.44414],[-14.62081,13.46822],[-14.62872,13.5411],[-14.61192,13.56171],[-14.58966,13.56662],[-14.57047,13.55684],[-14.56501,13.53563],[-14.57959,13.50307],[-14.57716,13.49034],[-14.55427,13.48514],[-14.53797,13.4731],[-14.514,13.4715],[-14.5071,13.45877],[-14.49884,13.4685],[-14.47703,13.4727],[-14.47463,13.48026],[-14.48254,13.49639],[-14.46156,13.51048],[-14.44686,13.52832],[-14.46734,13.54236],[-14.49191,13.6056],[-14.50358,13.62159],[-14.51909,13.63682],[-14.5419,13.65071],[-14.56436,13.65478],[-14.58995,13.65539],[-14.63946,13.64932],[-14.66086,13.64285],[-14.71244,13.61958],[-14.7118,13.61379],[-14.7238,13.58172],[-14.73926,13.58555],[-14.74128,13.59319],[-14.74821,13.59758],[-14.75457,13.59235],[-14.77436,13.59633],[-14.78586,13.59104],[-14.78585,13.59726],[-14.78224,13.60022],[-14.78411,13.60701],[-14.79553,13.59896],[-14.80015,13.6008],[-14.80493,13.59826],[-14.8068,13.60067],[-14.81331,13.597],[-14.82227,13.59955],[-14.82357,13.59616],[-14.8279,13.59772],[-14.8266,13.59432],[-14.83643,13.59178],[-14.83572,13.58429],[-14.84063,13.58472],[-14.83918,13.58246],[-14.84381,13.58062],[-14.8402,13.57836],[-14.8392,13.56735]]]}},{"type":"Feature","properties":{"id":"GMB:ADM2:56634734B54781332377439","name":"Tumana","countryCode":"GMB","adminLevel":2,"sourceCode":"56634734B54781332377439","parentId":"GMB:ADM1:GMB-2152"},"geometry":{"type":"Polygon","coordinates":[[[-14.11921,13.28284],[-14.08095,13.28447],[-14.06881,13.29041],[-14.0316,13.29348],[-13.97782,13.30611],[-13.94441,13.31872],[-13.94296,13.32866],[-13.98193,13.37026],[-13.98749,13.39594],[-13.9941,13.40071],[-14.0006,13.40161],[-14.00368,13.39763],[-14.01938,13.39245],[-14.02285,13.38697],[-14.04068,13.38849],[-14.04995,13.39896],[-14.05154,13.43515],[-14.05707,13.44958],[-14.07507,13.4547],[-14.08953,13.44476],[-14.11,13.41842],[-14.11162,13.40149],[-14.10431,13.38177],[-14.10734,13.37496],[-14.11682,13.37616],[-14.13035,13.38809],[-14.14155,13.38245],[-14.14815,13.38292],[-14.15015,13.3927],[-14.14061,13.41399],[-14.14464,13.42106],[-14.15574,13.42536],[-14.15936,13.42096],[-14.16268,13.39326],[-14.17081,13.38755],[-14.18478,13.38686],[-14.18866,13.37313],[-14.18858,13.35048],[-14.20527,13.34466],[-14.20852,13.33592],[-14.20727,13.31965],[-14.20064,13.31487],[-14.16971,13.31462],[-14.15259,13.29508],[-14.13041,13.28457],[-14.11921,13.28284]]]}},{"type":"Feature","properties":{"id":"GMB:ADM2:56634734B57370738255875","name":"Kiang West","countryCode":"GMB","adminLevel":2,"sourceCode":"56634734B57370738255875","parentId":"GMB:ADM1:GMB-2154"},"geometry":{"type":"MultiPolygon","coordinates":[[[[-15.8269,13.34191],[-15.80339,13.34272],[-15.80217,13.24121],[-15.8101,13.24249],[-15.80998,13.25173],[-15.80566,13.25541],[-15.80746,13.25892],[-15.82528,13.26062],[-15.83154,13.25298],[-15.83843,13.25413],[-15.84413,13.25924],[-15.8504,13.25482],[-15.8527,13.27094],[-15.85929,13.27121],[-15.86122,13.26681],[-15.86811,13.26825],[-15.86604,13.27464],[-15.87504,13.2812],[-15.87952,13.27664],[-15.87934,13.2699],[-15.88846,13.26562],[-15.89535,13.26765],[-15.89953,13.25808],[-15.91401,13.25673],[-15.91629,13.26508],[-15.91392,13.2708],[-15.91888,13.27724],[-15.92502,13.27765],[-15.92739,13.27054],[-15.94266,13.27121],[-15.95274,13.28598],[-15.95142,13.29288],[-15.96123,13.29319],[-15.9657,13.28841],[-15.97634,13.29881],[-15.9938,13.29728],[-15.99956,13.28718],[-16.00519,13.29137],[-16.00577,13.29613],[-16.01157,13.29684],[-16.03094,13.27606],[-16.0517,13.27432],[-16.0597,13.26403],[-16.06775,13.26509],[-16.07061,13.27846],[-16.0839,13.27959],[-16.09134,13.26985],[-16.08906,13.26125],[-16.0765,13.25544],[-16.0832,13.24955],[-16.09593,13.24949],[-16.12485,13.27502],[-16.12506,13.2796],[-16.11646,13.28019],[-16.11086,13.28442],[-16.1107,13.28992],[-16.12083,13.29501],[-16.14309,13.29436],[-16.15466,13.28352],[-16.16226,13.2827],[-16.17252,13.27928],[-16.18175,13.27375],[-16.18981,13.26594],[-16.19929,13.2591],[-16.20352,13.26496],[-16.20646,13.28261],[-16.20206,13.30206],[-16.21062,13.31264],[-16.21076,13.3133],[-16.21159,13.31384],[-16.22126,13.32579],[-16.2232,13.3387],[-16.20801,13.37065],[-16.17166,13.4006],[-16.15082,13.42543],[-16.15034,13.42651],[-16.13512,13.42048],[-16.11452,13.41938],[-16.07231,13.40828],[-16.04649,13.41224],[-16.04247,13.41556],[-15.99486,13.41303],[-15.94131,13.42544],[-15.93795,13.42576],[-15.93756,13.42531],[-15.93339,13.42619],[-15.92223,13.42723],[-15.9191,13.42708],[-15.90971,13.42578],[-15.90866,13.42627],[-15.90563,13.42577],[-15.90062,13.42552],[-15.89123,13.42723],[-15.88378,13.43041],[-15.88194,13.43191],[-15.88172,13.43189],[-15.88137,13.43237],[-15.87841,13.4348],[-15.87438,13.43887],[-15.87307,13.43974],[-15.869,13.44104],[-15.84952,13.44221],[-15.8243,13.43929],[-15.8269,13.34191]]],[[[-16.20367,13.24946],[-16.20652,13.2521],[-16.19816,13.25456],[-16.20367,13.24946]]]]}},{"type":"Feature","properties":{"id":"GMB:ADM2:56634734B57962636272806","name":"Upper Saloum","countryCode":"GMB","adminLevel":2,"sourceCode":"56634734B57962636272806","parentId":"GMB:ADM1:GMB-2151"},"geometry":{"type":"Polygon","coordinates":[[[-15.2854,13.67601],[-15.24074,13.64488],[-15.20894,13.64512],[-15.20168,13.65279],[-15.21637,13.65922],[-15.21545,13.66771],[-15.20366,13.67676],[-15.19429,13.67112],[-15.18077,13.68051],[-15.18158,13.68933],[-15.18766,13.69085],[-15.18801,13.69413],[-15.18419,13.70115],[-15.17344,13.69968],[-15.17298,13.70839],[-15.17495,13.71631],[-15.1812,13.7163],[-15.18144,13.72196],[-15.17733,13.72473],[-15.1727,13.72281],[-15.16993,13.72643],[-15.17363,13.73152],[-15.1719,13.73638],[-15.1615,13.74012],[-15.15479,13.7486],[-15.15937,13.7577],[-15.15717,13.76212],[-15.14618,13.75884],[-15.14005,13.76394],[-15.14006,13.77049],[-15.13659,13.77298],[-15.12814,13.76428],[-15.12397,13.76519],[-15.12397,13.7696],[-15.11761,13.77107],[-15.10569,13.76587],[-15.10338,13.75932],[-15.09314,13.75802],[-15.06538,13.77183],[-15.05982,13.76934],[-15.04461,13.77517],[-15.0357,13.78274],[-15.02934,13.7815],[-15.02969,13.77777],[-15.0147,13.7793],[-15.01413,13.78868],[-15.01066,13.78755],[-15.00672,13.79196],[-14.99677,13.78936],[-14.99245,13.79922],[-15.00875,13.8072],[-15.07071,13.82324],[-15.13894,13.7943],[-15.20054,13.76233],[-15.21749,13.74966],[-15.23292,13.74862],[-15.23789,13.74996],[-15.24858,13.76565],[-15.28206,13.78674],[-15.29454,13.79055],[-15.34703,13.78804],[-15.32232,13.76213],[-15.31335,13.74285],[-15.28772,13.72582],[-15.28364,13.71512],[-15.2854,13.67601]]]}},{"type":"Feature","properties":{"id":"GMB:ADM2:56634734B65078205245432","name":"Kombo North","countryCode":"GMB","adminLevel":2,"sourceCode":"56634734B65078205245432","parentId":"GMB:ADM1:GMB-2153"},"geometry":{"type":"Polygon","coordinates":[[[-16.61228,13.33086],[-16.6105,13.33867],[-16.6157,13.33832],[-16.62076,13.32257],[-16.63123,13.31933],[-16.64202,13.32665],[-16.68722,13.31841],[-16.69727,13.32236],[-16.69731,13.32959],[-16.72217,13.32766],[-16.73455,13.33192],[-16.73832,13.3389],[-16.76864,13.33314],[-16.77592,13.33935],[-16.77071,13.34901],[-16.77158,13.35445],[-16.76585,13.35842],[-16.77923,13.36085],[-16.78752,13.3583],[-16.78958,13.36524],[-16.79678,13.36049],[-16.79354,13.37913],[-16.76636,13.38972],[-16.75409,13.39888],[-16.73775,13.41838],[-16.72428,13.44374],[-16.70725,13.44128],[-16.70476,13.42811],[-16.69084,13.42534],[-16.68956,13.41875],[-16.66567,13.40422],[-16.65948,13.38447],[-16.64475,13.39459],[-16.64506,13.39968],[-16.63639,13.40458],[-16.63277,13.39928],[-16.62216,13.40151],[-16.62246,13.38704],[-16.6157,13.3853],[-16.61775,13.38257],[-16.61301,13.37963],[-16.59521,13.38375],[-16.58837,13.35529],[-16.59073,13.33853],[-16.58648,13.3336],[-16.61228,13.33086]]]}},{"type":"Feature","properties":{"id":"GMB:ADM2:56634734B65915930660736","name":"Foni Bondali","countryCode":"GMB","adminLevel":2,"sourceCode":"56634734B65915930660736","parentId":"GMB:ADM1:GMB-5512"},"geometry":{"type":"Polygon","coordinates":[[[-15.89953,13.25808],[-15.91401,13.25673],[-15.91629,13.26508],[-15.91392,13.2708],[-15.92203,13.2784],[-15.92502,13.27765],[-15.92739,13.27054],[-15.94266,13.27121],[-15.95274,13.28598],[-15.95142,13.29288],[-15.96123,13.29319],[-15.9657,13.28841],[-15.97634,13.29881],[-15.97162,13.2718],[-15.99883,13.24488],[-15.99877,13.23726],[-15.99321,13.23242],[-15.99868,13.22681],[-16.00127,13.18359],[-15.98448,13.18349],[-15.98407,13.16617],[-15.92717,13.16383],[-15.84965,13.16612],[-15.85025,13.20249],[-15.85931,13.20884],[-15.87354,13.20756],[-15.87396,13.21776],[-15.88708,13.22767],[-15.886,13.23775],[-15.89335,13.25459],[-15.89953,13.25808]]]}},{"type":"Feature","properties":{"id":"GMB:ADM2:56634734B67575656085362","name":"Foni Bintang Karanai","countryCode":"GMB","adminLevel":2,"sourceCode":"56634734B67575656085362","parentId":"GMB:ADM1:GMB-5512"},"geometry":{"type":"MultiPolygon","coordinates":[[[[-16.20367,13.24946],[-16.19816,13.25456],[-16.18546,13.25829],[-16.17969,13.26135],[-16.17756,13.25961],[-16.16177,13.26301],[-16.14951,13.25907],[-16.13815,13.26495],[-16.1397,13.2517],[-16.15059,13.25448],[-16.1507,13.24166],[-16.13813,13.24305],[-16.13958,13.22523],[-16.11987,13.22848],[-16.12137,13.22114],[-16.11659,13.2175],[-16.11691,13.212],[-16.1101,13.20887],[-16.12125,13.16553],[-16.28802,13.1656],[-16.28511,13.18919],[-16.27699,13.20243],[-16.28475,13.22125],[-16.31168,13.2366],[-16.31541,13.23375],[-16.31738,13.23765],[-16.314,13.24017],[-16.31943,13.2398],[-16.31962,13.2423],[-16.31453,13.24549],[-16.3232,13.24478],[-16.32487,13.24044],[-16.32594,13.24793],[-16.32897,13.24392],[-16.33341,13.24739],[-16.33525,13.24089],[-16.33948,13.23903],[-16.35469,13.25394],[-16.36421,13.25272],[-16.36711,13.25537],[-16.36714,13.26037],[-16.35552,13.27621],[-16.35136,13.28046],[-16.34169,13.28406],[-16.33823,13.28776],[-16.3334,13.29011],[-16.32568,13.29237],[-16.31061,13.29055],[-16.28247,13.30568],[-16.24036,13.31952],[-16.23013,13.31639],[-16.2259,13.29658],[-16.23021,13.27363],[-16.22761,13.25601],[-16.20971,13.25117],[-16.20652,13.2521],[-16.20367,13.24946]]],[[[-16.20206,13.30206],[-16.20646,13.28261],[-16.20808,13.29238],[-16.20861,13.30353],[-16.21062,13.31264],[-16.20206,13.30206]]],[[[-16.22126,13.32579],[-16.21159,13.31384],[-16.21703,13.31737],[-16.22204,13.31977],[-16.22464,13.32468],[-16.22126,13.32579]]]]}},{"type":"Feature","properties":{"id":"GMB:ADM2:56634734B6993374345684","name":"Jarra central","countryCode":"GMB","adminLevel":2,"sourceCode":"56634734B6993374345684","parentId":"GMB:ADM1:GMB-2154"},"geometry":{"type":"Polygon","coordinates":[[[-15.38703,13.44383],[-15.35302,13.43457],[-15.34598,13.43532],[-15.34579,13.3456],[-15.36651,13.34519],[-15.39977,13.35233],[-15.46431,13.38247],[-15.47893,13.38395],[-15.48377,13.39081],[-15.48457,13.45789],[-15.44922,13.4581],[-15.44878,13.48859],[-15.43887,13.47858],[-15.42943,13.46475],[-15.41885,13.45458],[-15.39032,13.4454],[-15.38703,13.44383]]]}},{"type":"Feature","properties":{"id":"GMB:ADM2:56634734B70409077095290","name":"Lower Saloum","countryCode":"GMB","adminLevel":2,"sourceCode":"56634734B70409077095290","parentId":"GMB:ADM1:GMB-2151"},"geometry":{"type":"Polygon","coordinates":[[[-15.2854,13.67601],[-15.28364,13.71512],[-15.28772,13.72582],[-15.31335,13.74285],[-15.32232,13.76213],[-15.34703,13.78804],[-15.3757,13.77876],[-15.40927,13.75288],[-15.44977,13.68209],[-15.46258,13.64008],[-15.4218,13.6402],[-15.41737,13.64258],[-15.41282,13.63866],[-15.40565,13.6427],[-15.40523,13.64653],[-15.3992,13.64375],[-15.39918,13.63104],[-15.37303,13.62965],[-15.35683,13.66938],[-15.3371,13.68739],[-15.31745,13.69402],[-15.30572,13.69342],[-15.2942,13.6863],[-15.2854,13.67601]]]}},{"type":"Feature","properties":{"id":"GMB:ADM2:56634734B71497134195207","name":"Serrekunda West","countryCode":"GMB","adminLevel":2,"sourceCode":"56634734B71497134195207","parentId":"GMB:ADM1:GMB-2153"},"geometry":{"type":"Polygon","coordinates":[[[-16.70237,13.46647],[-16.70746,13.46071],[-16.71485,13.45893],[-16.72428,13.44374],[-16.70725,13.44128],[-16.70476,13.42811],[-16.69198,13.42568],[-16.69104,13.43367],[-16.67562,13.4451],[-16.68879,13.4642],[-16.69279,13.46154],[-16.70237,13.46647]]]}},{"type":"Feature","properties":{"id":"GMB:ADM2:56634734B73613655778936","name":"Central Badibu","countryCode":"GMB","adminLevel":2,"sourceCode":"56634734B73613655778936","parentId":"GMB:ADM1:GMB-5513"},"geometry":{"type":"Polygon","coordinates":[[[-15.9902,13.44882],[-15.99922,13.45519],[-15.9972,13.4602],[-16.00115,13.46183],[-16.00219,13.46654],[-15.99839,13.46684],[-15.9987,13.4717],[-16.00352,13.47083],[-16.00062,13.4757],[-16.00224,13.47927],[-15.998,13.47828],[-15.99918,13.48071],[-15.99655,13.48086],[-16.00141,13.48985],[-15.99819,13.48958],[-15.99924,13.49572],[-15.99662,13.49809],[-16.00131,13.50179],[-15.99043,13.55423],[-15.99015,13.59268],[-15.8725,13.59305],[-15.8541,13.54892],[-15.85181,13.53191],[-15.84377,13.52889],[-15.84284,13.51755],[-15.83758,13.51787],[-15.83506,13.51125],[-15.83221,13.51126],[-15.83432,13.50392],[-15.84144,13.50006],[-15.83043,13.49259],[-15.82181,13.47502],[-15.81753,13.47448],[-15.81697,13.46146],[-15.82074,13.46117],[-15.85334,13.46759],[-15.87859,13.461],[-15.88958,13.45589],[-15.98617,13.44848],[-15.9902,13.44882]]]}},{"type":"Feature","properties":{"id":"GMB:ADM2:56634734B7386392108855","name":"Foni Jarrol","countryCode":"GMB","adminLevel":2,"sourceCode":"56634734B7386392108855","parentId":"GMB:ADM1:GMB-5512"},"geometry":{"type":"Polygon","coordinates":[[[-15.84965,13.16612],[-15.80121,13.16583],[-15.80217,13.24121],[-15.8101,13.24249],[-15.80998,13.25173],[-15.80566,13.25541],[-15.80746,13.25892],[-15.82528,13.26062],[-15.83154,13.25298],[-15.83843,13.25413],[-15.84413,13.25924],[-15.8504,13.25482],[-15.8527,13.27094],[-15.85929,13.27121],[-15.86122,13.26681],[-15.86811,13.26825],[-15.86604,13.27464],[-15.87504,13.2812],[-15.87952,13.27664],[-15.87934,13.2699],[-15.88846,13.26562],[-15.89535,13.26765],[-15.89953,13.25808],[-15.89335,13.25459],[-15.886,13.23775],[-15.88708,13.22767],[-15.87396,13.21776],[-15.87354,13.20756],[-15.85931,13.20884],[-15.85025,13.20249],[-15.84965,13.16612]]]}},{"type":"Feature","properties":{"id":"GMB:ADM2:56634734B78170872061000","name":"Jokadu","countryCode":"GMB","adminLevel":2,"sourceCode":"56634734B78170872061000","parentId":"GMB:ADM1:GMB-5513"},"geometry":{"type":"Polygon","coordinates":[[[-16.22756,13.42155],[-16.24434,13.41861],[-16.24436,13.422],[-16.2398,13.42167],[-16.23362,13.4276],[-16.23899,13.4424],[-16.23613,13.45385],[-16.23014,13.46112],[-16.23075,13.47434],[-16.22041,13.48707],[-16.21881,13.49495],[-16.22085,13.50235],[-16.22506,13.5034],[-16.22668,13.49928],[-16.2311,13.5057],[-16.22965,13.50892],[-16.22416,13.50609],[-16.22566,13.51412],[-16.23006,13.51678],[-16.23315,13.51373],[-16.23189,13.5182],[-16.23755,13.51835],[-16.24565,13.53046],[-16.25111,13.52668],[-16.25423,13.53006],[-16.28035,13.52939],[-16.29799,13.53287],[-16.29559,13.54292],[-16.2967,13.5721],[-16.3091,13.59339],[-16.153,13.59309],[-16.14884,13.60205],[-16.13818,13.60386],[-16.12358,13.59323],[-16.08814,13.59303],[-16.09214,13.58926],[-16.08496,13.5766],[-16.0853,13.57017],[-16.08947,13.56389],[-16.09517,13.57173],[-16.10209,13.56688],[-16.10294,13.55356],[-16.09905,13.5425],[-16.1074,13.5312],[-16.10464,13.52585],[-16.09113,13.52824],[-16.0882,13.52592],[-16.09433,13.50865],[-16.10397,13.4995],[-16.12042,13.50211],[-16.13464,13.49757],[-16.13789,13.49077],[-16.13072,13.47883],[-16.13049,13.46936],[-16.14594,13.45401],[-16.14756,13.45331],[-16.16039,13.45059],[-16.17846,13.44098],[-16.20653,13.42048],[-16.21067,13.41638],[-16.22756,13.42155]]]}},{"type":"Feature","properties":{"id":"GMB:ADM2:56634734B81557661921178","name":"Niamina West","countryCode":"GMB","adminLevel":2,"sourceCode":"56634734B81557661921178","parentId":"GMB:ADM1:GMB-2151"},"geometry":{"type":"Polygon","coordinates":[[[-15.16862,13.546],[-15.16431,13.55014],[-15.15677,13.5511],[-15.17983,13.59127],[-15.20885,13.60982],[-15.21615,13.62392],[-15.20856,13.6292],[-15.21402,13.63992],[-15.24061,13.64083],[-15.26113,13.65126],[-15.28309,13.61059],[-15.27824,13.60656],[-15.27945,13.59994],[-15.28704,13.60276],[-15.29432,13.59711],[-15.29295,13.58983],[-15.30024,13.5916],[-15.30964,13.58253],[-15.32615,13.54917],[-15.3354,13.54737],[-15.33813,13.5438],[-15.336,13.53668],[-15.34477,13.51765],[-15.33399,13.5141],[-15.31729,13.51442],[-15.29983,13.50464],[-15.29165,13.51891],[-15.28315,13.51825],[-15.27981,13.52241],[-15.2751,13.52049],[-15.26904,13.52718],[-15.27041,13.53074],[-15.2654,13.53282],[-15.25705,13.52808],[-15.25674,13.52437],[-15.2625,13.52094],[-15.25597,13.51709],[-15.25628,13.52006],[-15.24263,13.52943],[-15.24552,13.53671],[-15.23824,13.54132],[-15.23718,13.54711],[-15.22943,13.54355],[-15.22261,13.54623],[-15.22017,13.54445],[-15.22108,13.53643],[-15.21531,13.53525],[-15.20423,13.54402],[-15.20409,13.54967],[-15.21168,13.55308],[-15.20637,13.55828],[-15.19529,13.55829],[-15.18678,13.55443],[-15.18238,13.55607],[-15.17722,13.55087],[-15.1705,13.5514],[-15.16862,13.546]]]}},{"type":"Feature","properties":{"id":"GMB:ADM2:56634734B83949040016571","name":"Jarra West","countryCode":"GMB","adminLevel":2,"sourceCode":"56634734B83949040016571","parentId":"GMB:ADM1:GMB-2154"},"geometry":{"type":"Polygon","coordinates":[[[-15.49632,13.48741],[-15.48149,13.48861],[-15.46571,13.49496],[-15.45108,13.49091],[-15.44878,13.48859],[-15.44922,13.4581],[-15.48457,13.45789],[-15.48377,13.39081],[-15.51665,13.39573],[-15.53073,13.38141],[-15.56733,13.35875],[-15.6011,13.39093],[-15.60107,13.45046],[-15.59078,13.45773],[-15.5863,13.46493],[-15.58446,13.47413],[-15.58092,13.47818],[-15.56505,13.50251],[-15.55541,13.50922],[-15.54345,13.50967],[-15.531,13.50585],[-15.51971,13.4997],[-15.51732,13.49777],[-15.51703,13.49763],[-15.51073,13.49274],[-15.5004,13.48819],[-15.49852,13.48849],[-15.49632,13.48741]]]}},{"type":"Feature","properties":{"id":"GMB:ADM2:56634734B85088174381509","name":"Nianija","countryCode":"GMB","adminLevel":2,"sourceCode":"56634734B85088174381509","parentId":"GMB:ADM1:GMB-2151"},"geometry":{"type":"Polygon","coordinates":[[[-15.02222,13.77905],[-15.02969,13.77777],[-15.02934,13.7815],[-15.0357,13.78274],[-15.04461,13.77517],[-15.05982,13.76934],[-15.06538,13.77183],[-15.09742,13.75734],[-15.10338,13.75932],[-15.10569,13.76587],[-15.11761,13.77107],[-15.12397,13.7696],[-15.12397,13.76519],[-15.12814,13.76428],[-15.13659,13.77298],[-15.14006,13.77049],[-15.14005,13.76394],[-15.14618,13.75884],[-15.15717,13.76212],[-15.15937,13.7577],[-15.15479,13.7486],[-15.1615,13.74012],[-15.1719,13.73638],[-15.17363,13.73152],[-15.16993,13.72643],[-15.1727,13.72281],[-15.17733,13.72473],[-15.18144,13.72196],[-15.1812,13.7163],[-15.17495,13.71631],[-15.17298,13.70839],[-15.17344,13.69968],[-15.18419,13.70115],[-15.18801,13.69413],[-15.18766,13.69085],[-15.18158,13.68933],[-15.18077,13.68051],[-15.19429,13.67112],[-15.19799,13.67134],[-15.19973,13.67665],[-15.20933,13.67382],[-15.21545,13.66771],[-15.21637,13.65922],[-15.20966,13.65833],[-15.19763,13.64985],[-15.16312,13.66859],[-15.16058,13.67742],[-15.13428,13.69355],[-15.07132,13.72269],[-15.05102,13.72592],[-15.00302,13.70297],[-14.9921,13.70407],[-14.99358,13.71262],[-14.99893,13.71531],[-14.99647,13.72238],[-15.00023,13.74146],[-15.00999,13.7575],[-15.01939,13.75708],[-15.02431,13.77235],[-15.02222,13.77905]]]}},{"type":"Feature","properties":{"id":"GMB:ADM2:56634734B86795933582352","name":"Sabach Sanjar","countryCode":"GMB","adminLevel":2,"sourceCode":"56634734B86795933582352","parentId":"GMB:ADM1:GMB-5513"},"geometry":{"type":"MultiPolygon","coordinates":[[[[-15.53046,13.5213],[-15.53526,13.52156],[-15.54304,13.52554],[-15.55614,13.52831],[-15.56432,13.52606],[-15.58162,13.56834],[-15.58105,13.59081],[-15.47025,13.5903],[-15.46258,13.64008],[-15.4218,13.6402],[-15.41737,13.64258],[-15.41282,13.63866],[-15.40565,13.6427],[-15.40523,13.64653],[-15.3992,13.64375],[-15.39918,13.63104],[-15.37303,13.62965],[-15.37597,13.6132],[-15.37549,13.55194],[-15.36179,13.5268],[-15.35153,13.51642],[-15.33938,13.51105],[-15.31319,13.50681],[-15.30521,13.50097],[-15.30659,13.47656],[-15.31139,13.46784],[-15.32185,13.45824],[-15.33287,13.45458],[-15.35167,13.45673],[-15.38598,13.46613],[-15.40148,13.46825],[-15.41576,13.47321],[-15.4303,13.48341],[-15.44409,13.49975],[-15.45051,13.50086],[-15.45645,13.50609],[-15.46524,13.51016],[-15.47411,13.50853],[-15.48282,13.50503],[-15.49083,13.503],[-15.49987,13.50511],[-15.50756,13.50983],[-15.51358,13.51455],[-15.51789,13.51667],[-15.52787,13.5189],[-15.53046,13.5213]]],[[[-15.34762,13.43844],[-15.35559,13.43825],[-15.36743,13.44247],[-15.34153,13.44088],[-15.34762,13.43844]]]]}},{"type":"Feature","properties":{"id":"GMB:ADM2:56634734B89687119950058","name":"Wuli East","countryCode":"GMB","adminLevel":2,"sourceCode":"56634734B89687119950058","parentId":"GMB:ADM1:GMB-2152"},"geometry":{"type":"Polygon","coordinates":[[[-14.09474,13.43847],[-14.0869,13.44949],[-14.07674,13.45534],[-14.07035,13.45623],[-14.05807,13.45187],[-14.04932,13.43272],[-14.05019,13.4024],[-14.04011,13.3895],[-14.03467,13.38893],[-13.99692,13.41497],[-14.00374,13.44661],[-14.00014,13.45376],[-13.97871,13.46646],[-13.94906,13.47643],[-13.93393,13.45836],[-13.9189,13.41988],[-13.90992,13.41158],[-13.88985,13.40763],[-13.88532,13.41404],[-13.88343,13.4371],[-13.8742,13.4433],[-13.87021,13.45321],[-13.88907,13.47718],[-13.8919,13.49419],[-13.88586,13.50133],[-13.87044,13.50549],[-13.85895,13.51261],[-13.88555,13.54755],[-13.90071,13.55864],[-13.91815,13.56533],[-13.96254,13.5726],[-13.98543,13.57949],[-14.00349,13.57313],[-14.01134,13.56186],[-14.03221,13.55551],[-14.08338,13.55098],[-14.08112,13.53787],[-14.07434,13.53214],[-14.10703,13.46682],[-14.09474,13.43847]]]}},{"type":"Feature","properties":{"id":"GMB:ADM2:56634734B90495316975710","name":"Lower Fuladu West","countryCode":"GMB","adminLevel":2,"sourceCode":"56634734B90495316975710","parentId":"GMB:ADM1:GMB-2151"},"geometry":{"type":"Polygon","coordinates":[[[-14.80639,13.55628],[-14.82013,13.56305],[-14.84017,13.56292],[-14.85035,13.55876],[-14.86,13.54845],[-14.90667,13.57728],[-14.96072,13.57425],[-14.97256,13.58332],[-14.98376,13.61339],[-14.98948,13.60837],[-15.03134,13.59864],[-15.03798,13.58417],[-15.07167,13.55123],[-15.06669,13.5412],[-15.0468,13.52019],[-15.00733,13.48989],[-14.96256,13.47793],[-14.93889,13.4604],[-14.91703,13.452],[-14.89291,13.44917],[-14.85421,13.45272],[-14.81613,13.43709],[-14.79133,13.50852],[-14.75828,13.50967],[-14.76057,13.5138],[-14.7582,13.52334],[-14.78372,13.5302],[-14.80223,13.54729],[-14.80639,13.55628]]]}},{"type":"Feature","properties":{"id":"GMB:ADM2:56634734B91081024976770","name":"Upper Fuladu West","countryCode":"GMB","adminLevel":2,"sourceCode":"56634734B91081024976770","parentId":"GMB:ADM1:GMB-2151"},"geometry":{"type":"Polygon","coordinates":[[[-14.7582,13.52334],[-14.76057,13.5138],[-14.75828,13.50967],[-14.79133,13.50852],[-14.81613,13.43709],[-14.76879,13.43512],[-14.75561,13.40964],[-14.73484,13.38648],[-14.73552,13.37573],[-14.71938,13.37442],[-14.68957,13.34852],[-14.66348,13.34282],[-14.63224,13.34376],[-14.59096,13.35566],[-14.58108,13.36337],[-14.54649,13.32135],[-14.52692,13.36224],[-14.52782,13.38429],[-14.52378,13.38015],[-14.50989,13.38031],[-14.49805,13.3852],[-14.51333,13.46888],[-14.5376,13.47108],[-14.55534,13.48344],[-14.57127,13.4851],[-14.58143,13.49284],[-14.5808,13.50317],[-14.56845,13.53552],[-14.5719,13.55603],[-14.57736,13.56019],[-14.58889,13.56497],[-14.60727,13.56158],[-14.62506,13.54482],[-14.62705,13.53242],[-14.61771,13.48733],[-14.61789,13.47218],[-14.62886,13.44093],[-14.64116,13.43338],[-14.64982,13.43313],[-14.65422,13.43685],[-14.67844,13.48092],[-14.70436,13.50947],[-14.71312,13.53255],[-14.72088,13.52976],[-14.73682,13.53052],[-14.7582,13.52334]]]}},{"type":"Feature","properties":{"id":"GMB:ADM2:56634734B93236052329958","name":"Banjul North","countryCode":"GMB","adminLevel":2,"sourceCode":"56634734B93236052329958","parentId":"GMB:ADM1:GMB-2153"},"geometry":{"type":"Polygon","coordinates":[[[-16.60578,13.44335],[-16.61281,13.44739],[-16.60747,13.45976],[-16.61859,13.46666],[-16.62713,13.46785],[-16.61639,13.47361],[-16.60155,13.46489],[-16.5931,13.46379],[-16.59073,13.46137],[-16.58665,13.44779],[-16.60578,13.44335]]]}},{"type":"Feature","properties":{"id":"GMB:ADM2:56634734B93657392024497","name":"Sandu","countryCode":"GMB","adminLevel":2,"sourceCode":"56634734B93657392024497","parentId":"GMB:ADM1:GMB-2152"},"geometry":{"type":"Polygon","coordinates":[[[-14.23825,13.47017],[-14.24352,13.46292],[-14.2815,13.46289],[-14.33013,13.4515],[-14.39539,13.48764],[-14.42404,13.49697],[-14.44102,13.5216],[-14.44838,13.52713],[-14.45143,13.51922],[-14.4607,13.50977],[-14.48181,13.49624],[-14.47383,13.4799],[-14.47587,13.47312],[-14.48874,13.46778],[-14.49942,13.46737],[-14.50522,13.45904],[-14.50912,13.45976],[-14.50446,13.44342],[-14.50392,13.42307],[-14.48641,13.40699],[-14.48053,13.38761],[-14.47678,13.38746],[-14.45334,13.41031],[-14.43992,13.40774],[-14.42752,13.39768],[-14.42524,13.38552],[-14.41862,13.37645],[-14.40391,13.37091],[-14.38622,13.37306],[-14.38305,13.37079],[-14.37181,13.33535],[-14.34925,13.32519],[-14.3042,13.33044],[-14.28947,13.35733],[-14.28771,13.3675],[-14.26715,13.37365],[-14.26932,13.40085],[-14.26255,13.40392],[-14.25658,13.41618],[-14.25192,13.41631],[-14.24484,13.42247],[-14.23694,13.45273],[-14.23562,13.46398],[-14.23825,13.47017]]]}},{"type":"Feature","properties":{"id":"GMB:ADM2:56634734B95834842597723","name":"Kiang Central","countryCode":"GMB","adminLevel":2,"sourceCode":"56634734B95834842597723","parentId":"GMB:ADM1:GMB-2154"},"geometry":{"type":"Polygon","coordinates":[[[-15.68723,13.36488],[-15.7377,13.35025],[-15.77047,13.34634],[-15.79368,13.34744],[-15.80339,13.34272],[-15.8269,13.34191],[-15.8243,13.43929],[-15.81571,13.4383],[-15.81405,13.43783],[-15.81292,13.43798],[-15.78502,13.43476],[-15.76447,13.43692],[-15.70621,13.45458],[-15.69948,13.45834],[-15.69788,13.45871],[-15.69666,13.45994],[-15.68713,13.46665],[-15.68723,13.36488]]]}},{"type":"Feature","properties":{"id":"GMB:ADM2:56634734B97208940932189","name":"Bakau","countryCode":"GMB","adminLevel":2,"sourceCode":"56634734B97208940932189","parentId":"GMB:ADM1:GMB-2153"},"geometry":{"type":"Polygon","coordinates":[[[-16.62891,13.46787],[-16.63998,13.46926],[-16.65692,13.46404],[-16.66977,13.46566],[-16.67574,13.45724],[-16.6816,13.46787],[-16.69279,13.46154],[-16.70237,13.46647],[-16.69367,13.47577],[-16.6747,13.48326],[-16.67113,13.47866],[-16.66251,13.47313],[-16.65225,13.46825],[-16.64139,13.47387],[-16.62891,13.46787]]]}},{"type":"Feature","properties":{"id":"GMB:ADM2:56634734B99377934241318","name":"Jarra East","countryCode":"GMB","adminLevel":2,"sourceCode":"56634734B99377934241318","parentId":"GMB:ADM1:GMB-2154"},"geometry":{"type":"Polygon","coordinates":[[[-15.30252,13.50491],[-15.29528,13.50955],[-15.29711,13.51341],[-15.29165,13.51891],[-15.28315,13.51825],[-15.27981,13.52241],[-15.2751,13.52049],[-15.26904,13.52718],[-15.27041,13.53074],[-15.2654,13.53282],[-15.25705,13.52808],[-15.25674,13.52437],[-15.2625,13.52094],[-15.25597,13.51709],[-15.25628,13.52006],[-15.24263,13.52943],[-15.24552,13.53671],[-15.23824,13.54132],[-15.23718,13.54711],[-15.22943,13.54355],[-15.22261,13.54623],[-15.22017,13.54445],[-15.22108,13.53643],[-15.21531,13.53525],[-15.20423,13.54402],[-15.20409,13.54967],[-15.21168,13.55308],[-15.20637,13.55828],[-15.19529,13.55829],[-15.18678,13.55443],[-15.18238,13.55607],[-15.17722,13.55087],[-15.1705,13.5514],[-15.16943,13.54364],[-15.21063,13.52688],[-15.2078,13.47233],[-15.21089,13.44786],[-15.21835,13.42586],[-15.22972,13.40554],[-15.24782,13.38529],[-15.28089,13.36436],[-15.31621,13.35142],[-15.34579,13.3456],[-15.34598,13.43532],[-15.31529,13.44767],[-15.30813,13.45396],[-15.3048,13.45531],[-15.29475,13.49616],[-15.29996,13.49616],[-15.30111,13.49616],[-15.30252,13.50491]]]}}],"admin1":{"type":"FeatureCollection","features":[{"type":"Feature","properties":{"id":"GMB:ADM1:GMB-2151","name":"Central River","countryCode":"GMB"},"geometry":{"type":"Polygon","coordinates":[[[-15.20599,13.64227],[-15.19719,13.65009],[-15.19763,13.64985],[-15.20173,13.65274],[-15.20894,13.64512],[-15.24074,13.64488],[-15.2854,13.67601],[-15.2942,13.6863],[-15.30572,13.69342],[-15.31745,13.69402],[-15.3371,13.68739],[-15.35683,13.66938],[-15.37303,13.62965],[-15.39918,13.63104],[-15.3992,13.64375],[-15.40523,13.64653],[-15.40565,13.6427],[-15.41282,13.63866],[-15.41737,13.64258],[-15.4218,13.6402],[-15.46258,13.64008],[-15.44977,13.68209],[-15.40927,13.75288],[-15.3757,13.77876],[-15.34703,13.78804],[-15.29454,13.79055],[-15.28206,13.78674],[-15.24858,13.76565],[-15.23789,13.74996],[-15.23292,13.74862],[-15.21749,13.74966],[-15.20054,13.76233],[-15.13894,13.7943],[-15.07071,13.82324],[-15.00875,13.8072],[-14.99245,13.79922],[-14.962,13.7867],[-14.94465,13.79314],[-14.91323,13.79658],[-14.89461,13.79465],[-14.8739,13.78786],[-14.84867,13.77173],[-14.81422,13.75616],[-14.80451,13.74555],[-14.80091,13.73339],[-14.8044,13.70555],[-14.79641,13.66674],[-14.76009,13.63794],[-14.71755,13.61691],[-14.71244,13.61958],[-14.66086,13.64285],[-14.63946,13.64932],[-14.58995,13.65539],[-14.56436,13.65478],[-14.5419,13.65071],[-14.51909,13.63682],[-14.50358,13.62159],[-14.49191,13.6056],[-14.46734,13.54236],[-14.44686,13.52832],[-14.46156,13.51048],[-14.48254,13.49639],[-14.47463,13.48026],[-14.47703,13.4727],[-14.49884,13.4685],[-14.5071,13.45877],[-14.514,13.4715],[-14.53797,13.4731],[-14.55427,13.48514],[-14.57716,13.49034],[-14.57959,13.50307],[-14.56501,13.53563],[-14.57047,13.55684],[-14.58966,13.56662],[-14.61192,13.56171],[-14.62872,13.5411],[-14.62081,13.46822],[-14.63147,13.44414],[-14.64852,13.43483],[-14.65602,13.44163],[-14.67705,13.48307],[-14.70265,13.51017],[-14.70322,13.52077],[-14.71295,13.53697],[-14.74141,13.53573],[-14.7648,13.54692],[-14.79435,13.54645],[-14.81254,13.56427],[-14.82872,13.56867],[-14.8392,13.56735],[-14.8629,13.55477],[-14.91028,13.58023],[-14.96165,13.57947],[-14.96584,13.58159],[-14.97393,13.597],[-14.97335,13.61792],[-14.95651,13.63268],[-14.94292,13.63834],[-14.91951,13.64215],[-14.89847,13.65663],[-14.89225,13.66581],[-14.88863,13.68885],[-14.8913,13.69641],[-14.90011,13.70221],[-14.9197,13.70512],[-14.93401,13.71261],[-14.95859,13.71516],[-14.9921,13.70407],[-15.00302,13.70297],[-15.05102,13.72592],[-15.07132,13.72269],[-15.13428,13.69355],[-15.16058,13.67742],[-15.16312,13.66859],[-15.17314,13.66315],[-15.16303,13.66822],[-15.12583,13.69312],[-15.07069,13.72085],[-15.04912,13.72397],[-15.00445,13.69583],[-14.95857,13.70919],[-14.94763,13.70488],[-14.90859,13.70005],[-14.89325,13.68979],[-14.89189,13.68296],[-14.89615,13.66424],[-14.91955,13.65304],[-14.92927,13.64398],[-14.95615,13.6376],[-14.97787,13.61347],[-14.98376,13.61339],[-14.97256,13.58332],[-14.96072,13.57425],[-14.90667,13.57728],[-14.86,13.54845],[-14.85035,13.55876],[-14.84017,13.56292],[-14.82013,13.56305],[-14.80639,13.55628],[-14.79737,13.54625],[-14.79206,13.54476],[-14.7664,13.54518],[-14.74304,13.53462],[-14.73074,13.53312],[-14.71434,13.53622],[-14.71312,13.53255],[-14.70436,13.50947],[-14.67844,13.48092],[-14.65422,13.43685],[-14.64982,13.43313],[-14.64116,13.43338],[-14.62886,13.44093],[-14.61789,13.47218],[-14.61771,13.48733],[-14.62705,13.53242],[-14.62506,13.54482],[-14.60727,13.56158],[-14.58889,13.56497],[-14.57736,13.56019],[-14.5719,13.55603],[-14.56845,13.53552],[-14.5808,13.50317],[-14.58143,13.49284],[-14.57127,13.4851],[-14.55534,13.48344],[-14.5376,13.47108],[-14.51333,13.46888],[-14.49805,13.3852],[-14.50989,13.38031],[-14.52378,13.38015],[-14.52782,13.38429],[-14.52692,13.36224],[-14.54649,13.32135],[-14.58108,13.36337],[-14.59096,13.35566],[-14.63224,13.34376],[-14.66348,13.34282],[-14.68957,13.34852],[-14.71938,13.37442],[-14.73552,13.37573],[-14.73484,13.38648],[-14.75561,13.40964],[-14.76879,13.43512],[-14.81613,13.43709],[-14.85421,13.45272],[-14.89291,13.44917],[-14.91703,13.452],[-14.93889,13.4604],[-14.96256,13.47793],[-15.00733,13.48989],[-15.0468,13.52019],[-15.06669,13.5412],[-15.07167,13.55123],[-15.07657,13.58457],[-15.11696,13.58485],[-15.14246,13.55921],[-15.15677,13.5511],[-15.16431,13.55014],[-15.16862,13.546],[-15.1705,13.5514],[-15.17722,13.55087],[-15.18238,13.55607],[-15.18678,13.55443],[-15.19529,13.55829],[-15.20637,13.55828],[-15.21168,13.55308],[-15.20409,13.54967],[-15.20423,13.54402],[-15.21531,13.53525],[-15.22108,13.53643],[-15.22017,13.54445],[-15.22261,13.54623],[-15.22943,13.54355],[-15.23718,13.54711],[-15.23824,13.54132],[-15.24552,13.53671],[-15.24263,13.52943],[-15.25628,13.52006],[-15.25597,13.51709],[-15.2625,13.52094],[-15.25674,13.52437],[-15.25705,13.52808],[-15.2654,13.53282],[-15.27041,13.53074],[-15.26904,13.52718],[-15.2751,13.52049],[-15.27981,13.52241],[-15.28315,13.51825],[-15.29165,13.51891],[-15.29983,13.50464],[-15.31729,13.51442],[-15.33399,13.5141],[-15.34477,13.51765],[-15.35997,13.53152],[-15.36607,13.54651],[-15.37188,13.57561],[-15.37129,13.58482],[-15.36674,13.58654],[-15.36755,13.62114],[-15.3541,13.66528],[-15.3315,13.68566],[-15.30963,13.69059],[-15.30386,13.68866],[-15.28195,13.66188],[-15.26113,13.65126],[-15.24061,13.64083],[-15.21402,13.63992],[-15.20599,13.64227]],[[-15.20966,13.65833],[-15.21637,13.65922],[-15.202,13.65293],[-15.20966,13.65833]],[[-15.20225,13.67591],[-15.20366,13.67676],[-15.20634,13.6747],[-15.20225,13.67591]],[[-15.19799,13.67134],[-15.19429,13.67112],[-15.19881,13.67384],[-15.19799,13.67134]],[[-15.09742,13.75734],[-15.09531,13.7583],[-15.10338,13.75932],[-15.09742,13.75734]],[[-14.78174,13.52967],[-14.80223,13.54729],[-14.78372,13.5302],[-14.78174,13.52967]]]}},{"type":"Feature","properties":{"id":"GMB:ADM1:GMB-2152","name":"Upper River","countryCode":"GMB"},"geometry":{"type":"Polygon","coordinates":[[[-14.29071,13.35506],[-14.3042,13.33044],[-14.34925,13.32519],[-14.37181,13.33535],[-14.38305,13.37079],[-14.38622,13.37306],[-14.40391,13.37091],[-14.41862,13.37645],[-14.42524,13.38552],[-14.42752,13.39768],[-14.43992,13.40774],[-14.45334,13.41031],[-14.47678,13.38746],[-14.48053,13.38761],[-14.48641,13.40699],[-14.50392,13.42307],[-14.50446,13.44342],[-14.50912,13.45976],[-14.50522,13.45904],[-14.49942,13.46737],[-14.48874,13.46778],[-14.47587,13.47312],[-14.47383,13.4799],[-14.48181,13.49624],[-14.4607,13.50977],[-14.45143,13.51922],[-14.44838,13.52713],[-14.44102,13.5216],[-14.42404,13.49697],[-14.39539,13.48764],[-14.33013,13.4515],[-14.2815,13.46289],[-14.24352,13.46292],[-14.23825,13.47017],[-14.2258,13.49379],[-14.21336,13.50699],[-14.18532,13.5238],[-14.15714,13.5272],[-14.13883,13.52595],[-14.10888,13.54734],[-14.08338,13.55098],[-14.03221,13.55551],[-14.01134,13.56186],[-14.00349,13.57313],[-13.98543,13.57949],[-13.96254,13.5726],[-13.91815,13.56533],[-13.90071,13.55864],[-13.88555,13.54755],[-13.85895,13.51261],[-13.87018,13.50565],[-13.85491,13.51159],[-13.83454,13.50434],[-13.83079,13.50085],[-13.83128,13.49174],[-13.8136,13.47864],[-13.82671,13.47241],[-13.82987,13.46266],[-13.82528,13.44853],[-13.81773,13.45175],[-13.81333,13.44435],[-13.79382,13.44491],[-13.79112,13.4309],[-13.79711,13.38428],[-13.82841,13.34023],[-13.8518,13.32519],[-13.87927,13.3189],[-13.88832,13.31981],[-13.89318,13.31659],[-13.94441,13.31872],[-13.97782,13.30611],[-14.0316,13.29348],[-14.06881,13.29041],[-14.08095,13.28447],[-14.11921,13.28284],[-14.13251,13.25411],[-14.133,13.23442],[-14.15778,13.23006],[-14.18484,13.21912],[-14.20674,13.21936],[-14.20707,13.21689],[-14.22638,13.21989],[-14.24812,13.22768],[-14.25265,13.23269],[-14.26684,13.24152],[-14.2749,13.24264],[-14.30666,13.2337],[-14.32183,13.23266],[-14.39676,13.24214],[-14.42242,13.25837],[-14.46278,13.29421],[-14.48642,13.29297],[-14.5003,13.29576],[-14.5318,13.3107],[-14.54614,13.32167],[-14.52654,13.36262],[-14.52782,13.38429],[-14.52378,13.38015],[-14.50989,13.38031],[-14.49805,13.3852],[-14.50446,13.42065],[-14.48871,13.40794],[-14.48219,13.38789],[-14.47862,13.38531],[-14.45323,13.40878],[-14.4429,13.40803],[-14.42791,13.39586],[-14.42495,13.38023],[-14.41905,13.37517],[-14.40498,13.36999],[-14.38602,13.37178],[-14.37391,13.33646],[-14.3593,13.32668],[-14.34786,13.32371],[-14.3072,13.32814],[-14.29781,13.33488],[-14.29071,13.35506]],[[-14.28674,13.36636],[-14.28016,13.368],[-14.25355,13.35506],[-14.24384,13.33739],[-14.22546,13.33531],[-14.21613,13.3158],[-14.20919,13.31578],[-14.20727,13.31965],[-14.20852,13.33592],[-14.20527,13.34466],[-14.18858,13.35048],[-14.18859,13.35366],[-14.20591,13.34551],[-14.20912,13.34001],[-14.20815,13.31988],[-14.21248,13.31585],[-14.22406,13.33573],[-14.24244,13.33818],[-14.25477,13.35769],[-14.2824,13.36909],[-14.28771,13.3675],[-14.28904,13.35982],[-14.28674,13.36636]],[[-14.18866,13.37313],[-14.18478,13.38686],[-14.17081,13.38755],[-14.16268,13.39326],[-14.15936,13.42096],[-14.15574,13.42536],[-14.14464,13.42106],[-14.14065,13.41406],[-14.13969,13.41651],[-14.14268,13.42093],[-14.15505,13.42667],[-14.16089,13.41952],[-14.16304,13.39564],[-14.16625,13.39124],[-14.18549,13.38803],[-14.19006,13.37082],[-14.18861,13.35861],[-14.18866,13.37313]],[[-14.15015,13.3927],[-14.14815,13.38292],[-14.14155,13.38245],[-14.13035,13.38809],[-14.11682,13.37616],[-14.10734,13.37496],[-14.10431,13.38177],[-14.11162,13.40149],[-14.11,13.41842],[-14.08953,13.44476],[-14.07507,13.4547],[-14.05707,13.44958],[-14.05154,13.43515],[-14.05015,13.40362],[-14.04932,13.43272],[-14.05807,13.45187],[-14.07035,13.45623],[-14.07674,13.45534],[-14.0869,13.44949],[-14.09474,13.43847],[-14.10703,13.46682],[-14.09483,13.43831],[-14.11057,13.42045],[-14.11304,13.41237],[-14.1129,13.40024],[-14.10565,13.38037],[-14.10811,13.37578],[-14.11524,13.37654],[-14.13171,13.38983],[-14.1475,13.38364],[-14.14916,13.39228],[-14.14112,13.41286],[-14.15015,13.3927]],[[-14.04995,13.39896],[-14.04068,13.38849],[-14.02285,13.38697],[-14.03363,13.38795],[-13.99756,13.41165],[-13.99563,13.41763],[-14.00168,13.45055],[-13.97725,13.46531],[-13.95138,13.47562],[-13.94659,13.47348],[-13.94906,13.47643],[-13.97871,13.46646],[-14.00014,13.45376],[-14.00374,13.44661],[-13.99692,13.41497],[-14.03467,13.38893],[-14.04011,13.3895],[-14.0501,13.40228],[-14.04995,13.39896]],[[-13.94296,13.32866],[-13.94562,13.33441],[-13.95079,13.33701],[-13.94296,13.32866]],[[-13.92108,13.42038],[-13.90685,13.40896],[-13.89103,13.40786],[-13.90992,13.41158],[-13.9189,13.41988],[-13.93393,13.45836],[-13.94458,13.47108],[-13.93387,13.4552],[-13.92108,13.42038]],[[-13.88609,13.41294],[-13.88975,13.40777],[-13.8871,13.40759],[-13.88609,13.41294]],[[-13.8733,13.44235],[-13.8686,13.45231],[-13.88711,13.47713],[-13.89069,13.49418],[-13.8869,13.49915],[-13.87095,13.50535],[-13.88586,13.50133],[-13.8919,13.49419],[-13.88907,13.47718],[-13.87021,13.45321],[-13.8742,13.4433],[-13.88343,13.4371],[-13.88488,13.41942],[-13.8813,13.43848],[-13.8733,13.44235]]]}},{"type":"Feature","properties":{"id":"GMB:ADM1:GMB-2153","name":"Banjul","countryCode":"GMB"},"geometry":{"type":"MultiPolygon","coordinates":[[[[-16.6157,13.33832],[-16.62076,13.32257],[-16.63123,13.31933],[-16.64202,13.32665],[-16.68722,13.31841],[-16.69727,13.32236],[-16.69731,13.32959],[-16.72217,13.32766],[-16.73455,13.33192],[-16.73832,13.3389],[-16.76864,13.33314],[-16.77592,13.33935],[-16.77071,13.34901],[-16.77158,13.35445],[-16.76585,13.35842],[-16.77923,13.36085],[-16.78752,13.3583],[-16.78958,13.36524],[-16.79678,13.36049],[-16.79354,13.37913],[-16.76636,13.38972],[-16.75409,13.39888],[-16.73775,13.41838],[-16.72428,13.44374],[-16.71485,13.45893],[-16.70746,13.46071],[-16.70237,13.46647],[-16.69367,13.47577],[-16.6747,13.48326],[-16.67113,13.47866],[-16.66251,13.47313],[-16.65225,13.46825],[-16.64139,13.47387],[-16.62891,13.46787],[-16.634,13.45385],[-16.64063,13.45359],[-16.6488,13.44758],[-16.64952,13.45107],[-16.65429,13.4516],[-16.66109,13.44661],[-16.65537,13.44156],[-16.65679,13.43508],[-16.65738,13.42905],[-16.65401,13.42693],[-16.65602,13.42381],[-16.64994,13.42241],[-16.65546,13.41666],[-16.64616,13.41317],[-16.63528,13.40387],[-16.63581,13.40373],[-16.63277,13.39928],[-16.62216,13.40151],[-16.62246,13.38704],[-16.6157,13.3853],[-16.61775,13.38257],[-16.61301,13.37963],[-16.59521,13.38375],[-16.58837,13.35529],[-16.59073,13.33853],[-16.58648,13.3336],[-16.61228,13.33086],[-16.6105,13.33867],[-16.6157,13.33832]],[[-16.69084,13.42534],[-16.68956,13.41875],[-16.69104,13.43367],[-16.69198,13.42568],[-16.70476,13.42811],[-16.69084,13.42534]],[[-16.66567,13.40422],[-16.68432,13.41662],[-16.68956,13.41875],[-16.66567,13.40422]],[[-16.64241,13.40201],[-16.64273,13.401],[-16.63967,13.40272],[-16.64241,13.40201]]],[[[-16.61859,13.46666],[-16.62713,13.46785],[-16.61639,13.47361],[-16.60155,13.46489],[-16.5931,13.46379],[-16.59073,13.46137],[-16.58665,13.44779],[-16.60578,13.44335],[-16.61281,13.44739],[-16.60747,13.45976],[-16.61859,13.46666]]]]}},{"type":"Feature","properties":{"id":"GMB:ADM1:GMB-2154","name":"Lower River","countryCode":"GMB"},"geometry":{"type":"MultiPolygon","coordinates":[[[[-16.19816,13.25456],[-16.20367,13.24946],[-16.20652,13.2521],[-16.19816,13.25456]]],[[[-15.80998,13.25173],[-15.80566,13.25541],[-15.80746,13.25892],[-15.82528,13.26062],[-15.83154,13.25298],[-15.83843,13.25413],[-15.84413,13.25924],[-15.8504,13.25482],[-15.8527,13.27094],[-15.85929,13.27121],[-15.86122,13.26681],[-15.86811,13.26825],[-15.86604,13.27464],[-15.87504,13.2812],[-15.87952,13.27664],[-15.87934,13.2699],[-15.88846,13.26562],[-15.89535,13.26765],[-15.89953,13.25808],[-15.91401,13.25673],[-15.91629,13.26508],[-15.91392,13.2708],[-15.91888,13.27724],[-15.92502,13.27765],[-15.92739,13.27054],[-15.94266,13.27121],[-15.95274,13.28598],[-15.95142,13.29288],[-15.96123,13.29319],[-15.9657,13.28841],[-15.97634,13.29881],[-15.9938,13.29728],[-15.99956,13.28718],[-16.00519,13.29137],[-16.00577,13.29613],[-16.01157,13.29684],[-16.03094,13.27606],[-16.0517,13.27432],[-16.0597,13.26403],[-16.06775,13.26509],[-16.07061,13.27846],[-16.0839,13.27959],[-16.09134,13.26985],[-16.08906,13.26125],[-16.0765,13.25544],[-16.0832,13.24955],[-16.09593,13.24949],[-16.12485,13.27502],[-16.12506,13.2796],[-16.11646,13.28019],[-16.11086,13.28442],[-16.1107,13.28992],[-16.12083,13.29501],[-16.14309,13.29436],[-16.15466,13.28352],[-16.16226,13.2827],[-16.17252,13.27928],[-16.18175,13.27375],[-16.18981,13.26594],[-16.19929,13.2591],[-16.20352,13.26496],[-16.20646,13.28261],[-16.20206,13.30206],[-16.21062,13.31264],[-16.21076,13.3133],[-16.21159,13.31384],[-16.22126,13.32579],[-16.2232,13.3387],[-16.20801,13.37065],[-16.17166,13.4006],[-16.15082,13.42543],[-16.15034,13.42651],[-16.13512,13.42048],[-16.11452,13.41938],[-16.07231,13.40828],[-16.04649,13.41224],[-16.04247,13.41556],[-15.99486,13.41303],[-15.94131,13.42544],[-15.93795,13.42576],[-15.93756,13.42531],[-15.93339,13.42619],[-15.92223,13.42723],[-15.9191,13.42708],[-15.90971,13.42578],[-15.90866,13.42627],[-15.90563,13.42577],[-15.90062,13.42552],[-15.89123,13.42723],[-15.88378,13.43041],[-15.88194,13.43191],[-15.88172,13.43189],[-15.88137,13.43237],[-15.87841,13.4348],[-15.87438,13.43887],[-15.87307,13.43974],[-15.869,13.44104],[-15.84952,13.44221],[-15.8243,13.43929],[-15.81571,13.4383],[-15.81405,13.43783],[-15.81292,13.43798],[-15.78502,13.43476],[-15.76447,13.43692],[-15.70621,13.45458],[-15.69948,13.45834],[-15.69788,13.45871],[-15.69666,13.45994],[-15.68713,13.46665],[-15.67805,13.47305],[-15.66869,13.47574],[-15.65892,13.4724],[-15.64468,13.45791],[-15.63492,13.45458],[-15.63163,13.45463],[-15.62941,13.45258],[-15.61637,13.448],[-15.60107,13.45046],[-15.59078,13.45773],[-15.5863,13.46493],[-15.58446,13.47413],[-15.58092,13.47818],[-15.56505,13.50251],[-15.55541,13.50922],[-15.54345,13.50967],[-15.531,13.50585],[-15.51971,13.4997],[-15.51732,13.49777],[-15.51703,13.49763],[-15.51073,13.49274],[-15.5004,13.48819],[-15.49852,13.48849],[-15.49632,13.48741],[-15.48149,13.48861],[-15.46571,13.49496],[-15.45108,13.49091],[-15.44878,13.48859],[-15.43887,13.47858],[-15.42943,13.46475],[-15.41885,13.45458],[-15.39032,13.4454],[-15.38703,13.44383],[-15.35302,13.43457],[-15.34598,13.43532],[-15.31529,13.44767],[-15.30813,13.45396],[-15.3048,13.45531],[-15.29475,13.49616],[-15.29996,13.49616],[-15.30111,13.49616],[-15.30252,13.50491],[-15.29528,13.50955],[-15.29711,13.51341],[-15.29165,13.51891],[-15.28315,13.51825],[-15.27981,13.52241],[-15.2751,13.52049],[-15.26904,13.52718],[-15.27041,13.53074],[-15.2654,13.53282],[-15.25705,13.52808],[-15.25674,13.52437],[-15.2625,13.52094],[-15.25597,13.51709],[-15.25628,13.52006],[-15.24263,13.52943],[-15.24552,13.53671],[-15.23824,13.54132],[-15.23718,13.54711],[-15.22943,13.54355],[-15.22261,13.54623],[-15.22017,13.54445],[-15.22108,13.53643],[-15.21531,13.53525],[-15.20423,13.54402],[-15.20409,13.54967],[-15.21168,13.55308],[-15.20637,13.55828],[-15.19529,13.55829],[-15.18678,13.55443],[-15.18238,13.55607],[-15.17722,13.55087],[-15.1705,13.5514],[-15.16943,13.54364],[-15.21063,13.52688],[-15.2078,13.47233],[-15.21089,13.44786],[-15.21835,13.42586],[-15.22972,13.40554],[-15.24782,13.38529],[-15.28089,13.36436],[-15.31621,13.35142],[-15.34579,13.3456],[-15.36651,13.34519],[-15.39977,13.35233],[-15.46431,13.38247],[-15.47893,13.38395],[-15.48377,13.39081],[-15.51665,13.39573],[-15.53073,13.38141],[-15.56733,13.35875],[-15.59201,13.34917],[-15.63108,13.34541],[-15.64875,13.34697],[-15.68723,13.36488],[-15.7377,13.35025],[-15.77047,13.34634],[-15.79368,13.34744],[-15.80339,13.34272],[-15.80217,13.24121],[-15.8101,13.24249],[-15.80998,13.25173]]]]}},{"type":"Feature","properties":{"id":"GMB:ADM1:GMB-5512","name":"West Coast","countryCode":"GMB"},"geometry":{"type":"MultiPolygon","coordinates":[[[[-16.79838,13.35986],[-16.78958,13.36524],[-16.78752,13.3583],[-16.77923,13.36085],[-16.76585,13.35842],[-16.77158,13.35445],[-16.77071,13.34901],[-16.77592,13.33935],[-16.76864,13.33314],[-16.73832,13.3389],[-16.73455,13.33192],[-16.72217,13.32766],[-16.69731,13.32959],[-16.69727,13.32236],[-16.68722,13.31841],[-16.65982,13.3236],[-16.65598,13.30473],[-16.65993,13.32542],[-16.64202,13.32665],[-16.63123,13.31933],[-16.62076,13.32257],[-16.6157,13.33832],[-16.6105,13.33867],[-16.61228,13.33086],[-16.58648,13.3336],[-16.58459,13.33141],[-16.55386,13.2958],[-16.54577,13.29011],[-16.49519,13.28791],[-16.48082,13.28388],[-16.46776,13.27586],[-16.45995,13.26887],[-16.4497,13.26407],[-16.42935,13.26219],[-16.41967,13.25556],[-16.41393,13.23998],[-16.41348,13.22207],[-16.41942,13.2082],[-16.40929,13.2165],[-16.40276,13.22186],[-16.40177,13.22267],[-16.39977,13.22431],[-16.39086,13.2248],[-16.3778,13.21503],[-16.38366,13.22517],[-16.40193,13.24335],[-16.40575,13.24604],[-16.40652,13.24989],[-16.40827,13.25873],[-16.41527,13.26703],[-16.42601,13.27074],[-16.43993,13.2696],[-16.43993,13.27138],[-16.41489,13.27251],[-16.38326,13.2811],[-16.37491,13.2642],[-16.37491,13.2642],[-16.37475,13.26386],[-16.36473,13.26773],[-16.36294,13.2661],[-16.35552,13.27621],[-16.35136,13.28046],[-16.34169,13.28406],[-16.33823,13.28776],[-16.3334,13.29011],[-16.32568,13.29237],[-16.31061,13.29055],[-16.28247,13.30568],[-16.24036,13.31952],[-16.23013,13.31639],[-16.2259,13.29658],[-16.23021,13.27363],[-16.22761,13.25601],[-16.20971,13.25117],[-16.20652,13.2521],[-16.20367,13.24946],[-16.19816,13.25456],[-16.18546,13.25829],[-16.17969,13.26135],[-16.15127,13.27643],[-16.15127,13.28388],[-16.15466,13.28352],[-16.14309,13.29436],[-16.12083,13.29501],[-16.1107,13.28992],[-16.11086,13.28442],[-16.11646,13.28019],[-16.12506,13.2796],[-16.12485,13.27502],[-16.09593,13.24949],[-16.0832,13.24955],[-16.0765,13.25544],[-16.08906,13.26125],[-16.09134,13.26985],[-16.0839,13.27959],[-16.07061,13.27846],[-16.06775,13.26509],[-16.0597,13.26403],[-16.0517,13.27432],[-16.03094,13.27606],[-16.01157,13.29684],[-16.00577,13.29613],[-16.00519,13.29137],[-15.99956,13.28718],[-15.9938,13.29728],[-15.97634,13.29881],[-15.9657,13.28841],[-15.96123,13.29319],[-15.95142,13.29288],[-15.95274,13.28598],[-15.94266,13.27121],[-15.92739,13.27054],[-15.92502,13.27765],[-15.92203,13.2784],[-15.91392,13.2708],[-15.91629,13.26508],[-15.91401,13.25673],[-15.89953,13.25808],[-15.89535,13.26765],[-15.88846,13.26562],[-15.87934,13.2699],[-15.87952,13.27664],[-15.87504,13.2812],[-15.86604,13.27464],[-15.86811,13.26825],[-15.86122,13.26681],[-15.85929,13.27121],[-15.8527,13.27094],[-15.8504,13.25482],[-15.84413,13.25924],[-15.83843,13.25413],[-15.83154,13.25298],[-15.82528,13.26062],[-15.80746,13.25892],[-15.80566,13.25541],[-15.80998,13.25173],[-15.8101,13.24249],[-15.80217,13.24121],[-15.80121,13.16583],[-15.84965,13.16612],[-15.92717,13.16383],[-15.98407,13.16617],[-16.12125,13.16553],[-16.28802,13.1656],[-16.42655,13.16661],[-16.60237,13.16708],[-16.64625,13.16758],[-16.65588,13.1638],[-16.66314,13.16794],[-16.67573,13.16828],[-16.68056,13.16531],[-16.68435,13.16897],[-16.68903,13.16755],[-16.69115,13.15983],[-16.69767,13.15921],[-16.70138,13.16247],[-16.6994,13.15485],[-16.70298,13.15204],[-16.70886,13.1552],[-16.70717,13.14779],[-16.69777,13.14343],[-16.69683,13.14024],[-16.70279,13.13102],[-16.71,13.13302],[-16.70858,13.12741],[-16.7123,13.12083],[-16.7204,13.11856],[-16.72536,13.12213],[-16.72506,13.11615],[-16.71632,13.11022],[-16.72583,13.10639],[-16.72986,13.108],[-16.7304,13.11407],[-16.73574,13.11198],[-16.73581,13.10325],[-16.72564,13.09684],[-16.72753,13.09256],[-16.73329,13.09039],[-16.72859,13.08186],[-16.73221,13.07404],[-16.74158,13.07374],[-16.74423,13.07003],[-16.73663,13.04688],[-16.73947,13.04366],[-16.75217,13.06984],[-16.7661,13.0755],[-16.76887,13.07783],[-16.77216,13.07893],[-16.76707,13.12385],[-16.77386,13.13314],[-16.77339,13.14128],[-16.77747,13.1507],[-16.789,13.15754],[-16.78993,13.15989],[-16.78796,13.16181],[-16.78355,13.18646],[-16.78448,13.23733],[-16.79169,13.2659],[-16.8071,13.27582],[-16.80294,13.30123],[-16.8037,13.3189],[-16.80734,13.33114],[-16.81426,13.33886],[-16.81197,13.34491],[-16.80621,13.34489],[-16.80141,13.34899],[-16.79838,13.35986]]],[[[-16.21062,13.31264],[-16.20206,13.30206],[-16.20646,13.28261],[-16.20808,13.29238],[-16.20861,13.30353],[-16.21062,13.31264]]],[[[-16.22464,13.32468],[-16.22126,13.32579],[-16.21159,13.31384],[-16.21703,13.31737],[-16.22204,13.31977],[-16.22464,13.32468]]]]}},{"type":"Feature","properties":{"id":"GMB:ADM1:GMB-5513","name":"North Bank","countryCode":"GMB"},"geometry":{"type":"MultiPolygon","coordinates":[[[[-16.50753,13.36201],[-16.49846,13.37189],[-16.49645,13.37882],[-16.48261,13.39108],[-16.47736,13.42372],[-16.48492,13.43701],[-16.48464,13.43973],[-16.48055,13.43918],[-16.501,13.46351],[-16.50965,13.46889],[-16.5288,13.47149],[-16.53001,13.47777],[-16.54463,13.48054],[-16.54979,13.48722],[-16.54323,13.48984],[-16.53313,13.50898],[-16.52714,13.53117],[-16.5286,13.55439],[-16.54854,13.58721],[-16.54565,13.59338],[-16.3091,13.59339],[-16.153,13.59309],[-16.14884,13.60205],[-16.13818,13.60386],[-16.12358,13.59323],[-16.08814,13.59303],[-16.0911,13.59024],[-16.0844,13.59286],[-15.98884,13.5927],[-15.98884,13.59268],[-15.8725,13.59305],[-15.58105,13.59081],[-15.47025,13.5903],[-15.46258,13.64008],[-15.4218,13.6402],[-15.41737,13.64258],[-15.41282,13.63866],[-15.40565,13.6427],[-15.40523,13.64653],[-15.3992,13.64375],[-15.39918,13.63104],[-15.37303,13.62965],[-15.37597,13.6132],[-15.37549,13.55194],[-15.36179,13.5268],[-15.35153,13.51642],[-15.33938,13.51105],[-15.31319,13.50681],[-15.30521,13.50097],[-15.30659,13.47656],[-15.31139,13.46784],[-15.32185,13.45824],[-15.33287,13.45458],[-15.35167,13.45673],[-15.38598,13.46613],[-15.40148,13.46825],[-15.41576,13.47321],[-15.4303,13.48341],[-15.44409,13.49975],[-15.45051,13.50086],[-15.45645,13.50609],[-15.46524,13.51016],[-15.47411,13.50853],[-15.48282,13.50503],[-15.49083,13.503],[-15.49987,13.50511],[-15.50756,13.50983],[-15.51358,13.51455],[-15.51789,13.51667],[-15.52787,13.5189],[-15.53046,13.5213],[-15.53526,13.52156],[-15.54304,13.52554],[-15.55614,13.52831],[-15.56432,13.52606],[-15.57584,13.5229],[-15.58601,13.51504],[-15.6007,13.49551],[-15.61067,13.48932],[-15.62776,13.48851],[-15.63406,13.49143],[-15.64007,13.49719],[-15.65355,13.50179],[-15.67348,13.50323],[-15.67672,13.50197],[-15.69017,13.49897],[-15.70603,13.4906],[-15.70626,13.49051],[-15.70638,13.49042],[-15.7342,13.47574],[-15.76989,13.46507],[-15.81697,13.46146],[-15.82074,13.46117],[-15.85334,13.46759],[-15.87859,13.461],[-15.88958,13.45589],[-15.98617,13.44848],[-15.9902,13.44882],[-15.99132,13.44809],[-16.07811,13.44143],[-16.08335,13.44115],[-16.10706,13.4464],[-16.1219,13.45161],[-16.12212,13.45164],[-16.12942,13.45578],[-16.13183,13.46417],[-16.12874,13.46704],[-16.12788,13.47688],[-16.13617,13.49256],[-16.12616,13.49922],[-16.10259,13.49718],[-16.08824,13.51404],[-16.08509,13.52379],[-16.09024,13.53128],[-16.1019,13.52676],[-16.10612,13.5296],[-16.09795,13.54161],[-16.1015,13.55714],[-16.09999,13.56778],[-16.09544,13.57048],[-16.09121,13.56628],[-16.09517,13.57173],[-16.10209,13.56688],[-16.10294,13.55356],[-16.09905,13.5425],[-16.1074,13.5312],[-16.10464,13.52585],[-16.09113,13.52824],[-16.0882,13.52592],[-16.09433,13.50865],[-16.10397,13.4995],[-16.12042,13.50211],[-16.13464,13.49757],[-16.13789,13.49077],[-16.13072,13.47883],[-16.13049,13.46936],[-16.14594,13.45401],[-16.14756,13.45331],[-16.16039,13.45059],[-16.17846,13.44098],[-16.20653,13.42048],[-16.21067,13.41638],[-16.24844,13.37897],[-16.25796,13.37202],[-16.26561,13.36872],[-16.27302,13.36262],[-16.28059,13.35977],[-16.28913,13.36587],[-16.2897,13.37324],[-16.28673,13.38361],[-16.2849,13.39533],[-16.28913,13.40681],[-16.30602,13.39167],[-16.3081,13.38337],[-16.30211,13.37202],[-16.31212,13.36693],[-16.3164,13.36587],[-16.3164,13.35904],[-16.31163,13.35761],[-16.307,13.35456],[-16.30211,13.35277],[-16.32008,13.34375],[-16.32061,13.3444],[-16.33545,13.34723],[-16.3548,13.33975],[-16.36494,13.33767],[-16.39053,13.33686],[-16.41198,13.33853],[-16.43313,13.3436],[-16.44107,13.34922],[-16.45502,13.35472],[-16.47512,13.35974],[-16.50753,13.36201]],[[-16.09214,13.58926],[-16.08496,13.5766],[-16.0853,13.57017],[-16.0892,13.56429],[-16.08791,13.56301],[-16.08356,13.57035],[-16.08304,13.57554],[-16.09128,13.59007],[-16.09214,13.58926]],[[-16.21881,13.49495],[-16.22085,13.50235],[-16.22041,13.48707],[-16.21881,13.49495]]],[[[-15.34153,13.44088],[-15.34762,13.43844],[-15.35559,13.43825],[-15.36743,13.44247],[-15.34153,13.44088]]]]}}]}}
