{"type":"FeatureCollection","features":[{"type":"Feature","properties":{"id":"GNQ:ADM2:11065452B13026737962858","name":"BITICA","countryCode":"GNQ","adminLevel":2,"sourceCode":"11065452B13026737962858","parentId":"GNQ:ADM1:GNQ-1470"},"geometry":{"type":"Polygon","coordinates":[[[9.51919,1.4405],[9.53639,1.45521],[9.54428,1.46412],[9.54955,1.48254],[9.56287,1.48653],[9.57598,1.50927],[9.59569,1.50984],[9.67896,1.47003],[10.10684,1.46868],[10.10993,1.44294],[10.06113,1.40919],[9.80266,1.3593],[9.68606,1.26768],[9.63191,1.28111],[9.61933,1.28151],[9.6001,1.27571],[9.58687,1.2778],[9.57088,1.27169],[9.56045,1.25809],[9.54846,1.24914],[9.50908,1.22996],[9.47851,1.22901],[9.47456,1.23971],[9.47636,1.24333],[9.463,1.24905],[9.44953,1.24333],[9.42676,1.21631],[9.40734,1.2099],[9.38937,1.20877],[9.3808,1.21157],[9.38145,1.21269],[9.38504,1.21431],[9.38767,1.21972],[9.38949,1.23649],[9.39618,1.25752],[9.40002,1.26379],[9.39934,1.26686],[9.4061,1.28083],[9.40954,1.28334],[9.4217,1.28211],[9.42912,1.28474],[9.44105,1.30914],[9.44608,1.31608],[9.45424,1.31781],[9.46168,1.32861],[9.46589,1.35845],[9.46285,1.37732],[9.46174,1.39361],[9.464,1.39735],[9.47037,1.40123],[9.48062,1.41899],[9.49065,1.4228],[9.49442,1.42801],[9.49938,1.43251],[9.51919,1.4405]]]}},{"type":"Feature","properties":{"id":"GNQ:ADM2:11065452B18175278434840","name":"EVINAYONG","countryCode":"GNQ","adminLevel":2,"sourceCode":"11065452B18175278434840","parentId":"GNQ:ADM1:GNQ-1468"},"geometry":{"type":"Polygon","coordinates":[[[10.57002,1.59258],[10.46967,1.49991],[10.43851,1.47509],[10.43813,1.35666],[10.10769,1.35691],[10.12521,1.28231],[10.12373,1.27128],[10.12772,1.25423],[10.14142,1.23917],[10.16583,1.2289],[10.17163,1.22053],[10.19952,1.13983],[10.2032,1.13616],[10.22382,1.13981],[10.23476,1.13],[10.24758,1.12547],[10.25567,1.13771],[10.27022,1.13859],[10.28403,1.1354],[10.28769,1.12795],[10.29676,1.13085],[10.29579,1.12723],[10.29918,1.12494],[10.30642,1.12548],[10.30689,1.13117],[10.31032,1.13345],[10.32332,1.13321],[10.32917,1.12426],[10.34028,1.13859],[10.35696,1.12502],[10.36447,1.12551],[10.37071,1.13464],[10.36934,1.13838],[10.37363,1.14035],[10.36669,1.14881],[10.37481,1.16103],[10.38829,1.16144],[10.39365,1.16657],[10.39531,1.17545],[10.40385,1.17442],[10.40658,1.17912],[10.41788,1.18548],[10.42155,1.17922],[10.44435,1.1681],[10.44648,1.1644],[10.46451,1.15985],[10.47912,1.15192],[10.4996,1.1304],[10.53159,1.1557],[10.53565,1.16624],[10.55101,1.18034],[10.55961,1.1962],[10.57608,1.21579],[10.59521,1.21829],[10.60603,1.22331],[10.62802,1.22177],[10.63528,1.21674],[10.74821,1.23539],[10.71076,1.26917],[10.71493,1.28075],[10.71179,1.30423],[10.72203,1.31568],[10.72169,1.32609],[10.72668,1.33487],[10.72478,1.34274],[10.7446,1.3749],[10.75484,1.40314],[10.77052,1.42483],[10.76572,1.43828],[10.75174,1.45734],[10.75756,1.47509],[10.74878,1.48195],[10.75157,1.48866],[10.74122,1.50043],[10.756,1.50118],[10.7498,1.52293],[10.75325,1.53726],[10.75184,1.54815],[10.7423,1.55381],[10.71545,1.54496],[10.7115,1.54706],[10.71091,1.56009],[10.7074,1.56327],[10.6919,1.55962],[10.68668,1.56407],[10.68223,1.55957],[10.67386,1.56509],[10.67119,1.57431],[10.66494,1.57154],[10.65228,1.58151],[10.64732,1.57687],[10.65081,1.56933],[10.6468,1.56549],[10.64538,1.56866],[10.63553,1.56838],[10.62528,1.57511],[10.62729,1.57735],[10.62399,1.58084],[10.62498,1.58467],[10.61088,1.58606],[10.60418,1.58342],[10.59937,1.58806],[10.57002,1.59258]]]}},{"type":"Feature","properties":{"id":"GNQ:ADM2:11065452B197102371645","name":"MALABO","countryCode":"GNQ","adminLevel":2,"sourceCode":"11065452B197102371645","parentId":"GNQ:ADM1:GNQ-1478"},"geometry":{"type":"Polygon","coordinates":[[[8.80706,3.74838],[8.80752,3.73749],[8.82346,3.7118],[8.82495,3.6852],[8.8214,3.64627],[8.80764,3.625],[8.79664,3.61833],[8.79194,3.60433],[8.78907,3.60207],[8.77646,3.60307],[8.76774,3.58777],[8.76304,3.58371],[8.75801,3.58395],[8.75444,3.57643],[8.73403,3.57375],[8.72073,3.56697],[8.70147,3.56692],[8.69298,3.56983],[8.67934,3.58245],[8.66351,3.5867],[8.64884,3.60077],[8.62945,3.61067],[8.62522,3.61154],[8.62794,3.64834],[8.64096,3.68354],[8.66717,3.72626],[8.7024,3.76093],[8.7256,3.76742],[8.72448,3.76443],[8.73117,3.75627],[8.74504,3.75655],[8.76255,3.75289],[8.76372,3.7523],[8.76427,3.75253],[8.76824,3.75169],[8.78191,3.75096],[8.78614,3.75408],[8.78678,3.75277],[8.79642,3.75677],[8.79733,3.75649],[8.80706,3.74838]]]}},{"type":"Feature","properties":{"id":"GNQ:ADM2:11065452B22787327477805","name":"COGO","countryCode":"GNQ","adminLevel":2,"sourceCode":"11065452B22787327477805","parentId":"GNQ:ADM1:GNQ-1470"},"geometry":{"type":"Polygon","coordinates":[[[9.38937,1.20877],[9.40734,1.2099],[9.42676,1.21631],[9.43855,1.23208],[9.45676,1.24753],[9.46722,1.2488],[9.47636,1.24333],[9.47578,1.23232],[9.47851,1.22901],[9.48751,1.22751],[9.50908,1.22996],[9.54846,1.24914],[9.57758,1.276],[9.59149,1.27802],[9.6001,1.27571],[9.61933,1.28151],[9.63191,1.28111],[9.68606,1.26768],[9.80266,1.3593],[10.06113,1.40919],[10.10769,1.35691],[10.12521,1.28231],[10.12373,1.27128],[10.12772,1.25423],[10.14142,1.23917],[10.16583,1.2289],[10.17163,1.22053],[10.19952,1.13983],[10.2032,1.13616],[10.22382,1.13981],[10.23476,1.13],[10.24758,1.12547],[10.26244,1.09703],[10.25806,1.05709],[10.24845,1.048],[10.23515,1.01478],[10.21039,1.00014],[9.99029,1.00012],[9.99383,0.99516],[9.99023,0.98407],[9.984,0.97887],[9.9869,0.96087],[9.9918,0.95783],[9.98827,0.95361],[9.98915,0.94631],[9.98392,0.94124],[9.99053,0.93571],[9.97717,0.93041],[9.9561,0.93011],[9.95196,0.92457],[9.94716,0.92412],[9.93312,0.9313],[9.9222,0.94334],[9.90217,0.94981],[9.89165,0.9575],[9.88618,0.98213],[9.87309,0.99617],[9.85499,1.00026],[9.84551,1.009],[9.83865,1.01013],[9.80584,1.00456],[9.80453,1.02074],[9.79689,1.04629],[9.79908,1.05817],[9.80196,1.06049],[9.8106,1.06053],[9.81777,1.05762],[9.82489,1.05269],[9.82449,1.04393],[9.83085,1.04542],[9.83239,1.03904],[9.85001,1.05824],[9.85519,1.04791],[9.87624,1.05236],[9.88426,1.04495],[9.90117,1.04427],[9.87831,1.05273],[9.86572,1.05268],[9.85679,1.04932],[9.85171,1.06039],[9.83206,1.05051],[9.82094,1.06307],[9.83234,1.06564],[9.84226,1.0721],[9.8475,1.07245],[9.84601,1.07375],[9.86144,1.07366],[9.87093,1.07973],[9.88252,1.10161],[9.87639,1.11617],[9.87803,1.12767],[9.8727,1.1348],[9.87096,1.14847],[9.87105,1.13403],[9.87711,1.12708],[9.87385,1.12136],[9.87778,1.10488],[9.87587,1.09553],[9.87092,1.09],[9.86208,1.08778],[9.86,1.0943],[9.85073,1.09754],[9.85488,1.10913],[9.83777,1.12263],[9.84278,1.11527],[9.85373,1.10785],[9.84969,1.10181],[9.84949,1.0981],[9.85871,1.09132],[9.84935,1.08021],[9.84218,1.07709],[9.84148,1.0777],[9.82928,1.08186],[9.81479,1.08454],[9.8025,1.08552],[9.79225,1.08869],[9.76726,1.10285],[9.75514,1.10594],[9.71412,1.09711],[9.70346,1.0998],[9.69939,1.10981],[9.70379,1.12059],[9.7102,1.12777],[9.72725,1.13787],[9.74768,1.16165],[9.76566,1.16539],[9.77407,1.17885],[9.77841,1.17562],[9.77737,1.18182],[9.78594,1.18633],[9.78813,1.20063],[9.79176,1.20474],[9.80976,1.19945],[9.80383,1.2058],[9.79076,1.20754],[9.78709,1.20293],[9.78614,1.19073],[9.76045,1.16653],[9.75418,1.16529],[9.75214,1.17108],[9.73651,1.17343],[9.73426,1.1838],[9.73989,1.20121],[9.74697,1.21109],[9.75465,1.21336],[9.75173,1.24139],[9.75144,1.223],[9.74482,1.21114],[9.74239,1.20895],[9.73198,1.21564],[9.74119,1.20817],[9.73246,1.1927],[9.73158,1.17656],[9.74302,1.1646],[9.72157,1.14936],[9.71307,1.15076],[9.70451,1.16281],[9.71093,1.15237],[9.70959,1.14793],[9.71488,1.14227],[9.71153,1.14118],[9.71041,1.14605],[9.70048,1.14489],[9.70288,1.15336],[9.69588,1.15105],[9.70215,1.15236],[9.69852,1.14829],[9.69915,1.14512],[9.70249,1.14323],[9.71004,1.1449],[9.71087,1.14086],[9.71423,1.14021],[9.71598,1.14373],[9.71083,1.14921],[9.72134,1.1467],[9.72023,1.14321],[9.71504,1.13732],[9.69559,1.13055],[9.68192,1.11711],[9.68183,1.11016],[9.67644,1.10541],[9.66962,1.09759],[9.66965,1.09771],[9.66783,1.10166],[9.66239,1.102],[9.66501,1.10612],[9.66236,1.10654],[9.66153,1.10476],[9.66188,1.10104],[9.66874,1.09849],[9.66808,1.09582],[9.65707,1.0832],[9.64894,1.06875],[9.6421,1.06159],[9.60914,1.05345],[9.58432,1.04296],[9.57992,1.04876],[9.57464,1.07226],[9.56139,1.0977],[9.55974,1.10277],[9.55161,1.11542],[9.54078,1.12507],[9.53631,1.12736],[9.53316,1.13006],[9.53152,1.12982],[9.52475,1.13329],[9.50652,1.1376],[9.49765,1.13555],[9.49528,1.13693],[9.4811,1.13794],[9.47341,1.13467],[9.4707,1.12931],[9.45637,1.12537],[9.45491,1.12421],[9.44996,1.12328],[9.43233,1.11487],[9.41971,1.11426],[9.41292,1.10841],[9.41271,1.10754],[9.40603,1.1061],[9.39825,1.11167],[9.39663,1.11139],[9.39649,1.11148],[9.37752,1.13269],[9.37574,1.13693],[9.36703,1.14219],[9.36679,1.1422],[9.3602,1.14696],[9.36046,1.14832],[9.36257,1.14954],[9.36139,1.15307],[9.36215,1.15697],[9.35963,1.16486],[9.34669,1.18171],[9.34804,1.18226],[9.35234,1.18131],[9.36099,1.18651],[9.36822,1.18539],[9.37597,1.20324],[9.3808,1.21157],[9.38937,1.20877]]]}},{"type":"Feature","properties":{"id":"GNQ:ADM2:11065452B27397509806446","name":"AÑISOC","countryCode":"GNQ","adminLevel":2,"sourceCode":"11065452B27397509806446","parentId":"GNQ:ADM1:GNQ-1471"},"geometry":{"type":"Polygon","coordinates":[[[10.7216,1.57531],[10.72542,1.57263],[10.74055,1.58418],[10.74324,1.58026],[10.76529,1.58601],[10.77163,1.59839],[10.78558,1.59144],[10.79057,1.59371],[10.79682,1.58962],[10.81062,1.58781],[10.81433,1.59066],[10.8124,1.59532],[10.81786,1.59689],[10.81767,1.6017],[10.82823,1.59081],[10.83276,1.59718],[10.83823,1.5799],[10.85965,1.57118],[10.85955,1.56645],[10.86388,1.56291],[10.866,1.56656],[10.86425,1.57682],[10.85575,1.58449],[10.85333,1.59479],[10.87108,1.59092],[10.87349,1.60434],[10.88021,1.60049],[10.88734,1.60141],[10.88911,1.59423],[10.88272,1.59107],[10.88298,1.58729],[10.89011,1.58431],[10.90125,1.58567],[10.90393,1.58341],[10.90073,1.58182],[10.90976,1.57631],[10.93084,1.57804],[10.93367,1.57066],[10.93743,1.56988],[10.95384,1.65917],[10.98252,1.67761],[10.993,1.69869],[10.98497,1.70173],[10.97701,1.71083],[10.97559,1.71969],[10.98405,1.73572],[11.00249,1.74084],[11.02319,1.75338],[11.01498,1.77652],[10.95936,1.78729],[10.95202,1.88856],[10.92225,1.90937],[10.92132,1.91785],[10.92919,1.92294],[10.9315,1.93142],[10.85961,1.97241],[10.83142,1.97278],[10.81777,1.96378],[10.72256,1.93928],[10.66406,1.86732],[10.67289,1.86087],[10.7008,1.8545],[10.70961,1.83568],[10.72229,1.81934],[10.7216,1.57531]]]}},{"type":"Feature","properties":{"id":"GNQ:ADM2:11065452B28626668585382","name":"NIEFANG","countryCode":"GNQ","adminLevel":2,"sourceCode":"11065452B28626668585382","parentId":"GNQ:ADM1:GNQ-1468"},"geometry":{"type":"Polygon","coordinates":[[[10.39529,1.67273],[10.30785,1.91153],[10.30695,2.1727],[10.19089,2.1728],[10.18421,2.16312],[10.17715,2.15892],[10.17454,2.16167],[10.16761,2.1594],[10.14705,2.17086],[10.12099,2.15648],[10.1187,2.16076],[10.10629,2.16243],[10.10155,2.16012],[10.09196,2.16456],[10.07996,2.16131],[10.06299,2.16389],[10.0512,2.17031],[10.05058,2.18135],[10.04821,2.18176],[10.04546,2.1667],[10.03652,2.16207],[10.03518,2.14399],[10.05237,1.85646],[10.02125,1.73388],[9.981,1.69681],[9.98118,1.69107],[10.04619,1.60631],[10.0511,1.58393],[10.05604,1.57893],[10.11433,1.57814],[10.3064,1.65755],[10.39529,1.67273]]]}},{"type":"Feature","properties":{"id":"GNQ:ADM2:11065452B2915005607236","name":"MONGOMOYEN","countryCode":"GNQ","adminLevel":2,"sourceCode":"11065452B2915005607236","parentId":"GNQ:ADM1:GNQ-1471"},"geometry":{"type":"Polygon","coordinates":[[[11.01498,1.77652],[11.02319,1.75338],[11.00249,1.74084],[10.98405,1.73572],[10.97559,1.71969],[10.97701,1.71083],[10.98497,1.70173],[10.993,1.69869],[10.99144,1.69262],[10.98252,1.67761],[10.95384,1.65917],[10.94027,1.5832],[10.94953,1.57878],[10.94708,1.5692],[10.95333,1.56116],[10.96241,1.5648],[10.96667,1.58526],[10.97605,1.58052],[10.98011,1.58289],[10.98627,1.56276],[10.98436,1.55934],[10.99039,1.55415],[10.9887,1.54955],[10.999,1.55046],[11.00373,1.54576],[11.00591,1.5365],[11.01354,1.53806],[11.01624,1.5442],[11.01951,1.54157],[11.00921,1.53217],[11.01187,1.52479],[11.02518,1.52768],[11.02268,1.52352],[11.02568,1.51772],[11.03717,1.51614],[11.04129,1.51029],[11.04639,1.51322],[11.06996,1.50483],[11.14887,1.60685],[11.20709,1.70074],[11.20748,1.7071],[11.20491,1.714],[11.17997,1.73628],[11.15644,1.75102],[11.1279,1.75362],[11.01498,1.77652]]]}},{"type":"Feature","properties":{"id":"GNQ:ADM2:11065452B35658646165921","name":"MICOMISENG","countryCode":"GNQ","adminLevel":2,"sourceCode":"11065452B35658646165921","parentId":"GNQ:ADM1:GNQ-1469"},"geometry":{"type":"Polygon","coordinates":[[[10.81777,1.96378],[10.83142,1.97278],[10.85961,1.97241],[10.9315,1.93142],[10.9369,1.9365],[10.94446,1.93465],[10.95426,1.94331],[10.95362,1.94905],[10.96001,1.96106],[10.95826,1.97662],[10.93302,1.98358],[11.02847,2.11804],[11.0363,2.11707],[11.03175,2.12307],[11.01957,2.12622],[10.99464,2.15441],[10.99349,2.17191],[10.52913,2.17248],[10.52912,2.16663],[10.52385,2.15909],[10.49882,2.13549],[10.49789,2.12859],[10.54425,2.12941],[10.63252,2.05491],[10.63254,1.98582],[10.65358,1.98573],[10.65928,1.98009],[10.66347,1.98],[10.69586,1.98491],[10.70446,1.99202],[10.76381,2.0215],[10.7865,2.00886],[10.78948,2.00153],[10.78839,1.98036],[10.81777,1.96378]]]}},{"type":"Feature","properties":{"id":"GNQ:ADM2:11065452B3926826010895","name":"NKUE","countryCode":"GNQ","adminLevel":2,"sourceCode":"11065452B3926826010895","parentId":"GNQ:ADM1:GNQ-1469"},"geometry":{"type":"Polygon","coordinates":[[[10.63254,1.98582],[10.63252,2.05491],[10.54425,2.12941],[10.49789,2.12859],[10.49561,2.11227],[10.49004,2.10674],[10.48757,2.07309],[10.47905,2.0685],[10.47829,2.05603],[10.47305,2.05089],[10.47372,2.03657],[10.46568,2.03315],[10.46551,2.01884],[10.42991,1.99708],[10.3754,1.94545],[10.39328,1.93718],[10.39396,1.9307],[10.41417,1.91971],[10.4202,1.91309],[10.4286,1.91466],[10.43639,1.92213],[10.44692,1.91723],[10.45217,1.92461],[10.46456,1.92045],[10.4771,1.92861],[10.48812,1.92718],[10.50002,1.93256],[10.50697,1.92847],[10.51179,1.93315],[10.51695,1.92417],[10.53895,1.93135],[10.54778,1.94145],[10.56857,1.94479],[10.57899,1.95866],[10.60244,1.9642],[10.60625,1.96822],[10.60827,1.97964],[10.61561,1.98222],[10.62023,1.98013],[10.63254,1.98582]]]}},{"type":"Feature","properties":{"id":"GNQ:ADM2:11065452B43435483695389","name":"NSOC NSOMO","countryCode":"GNQ","adminLevel":2,"sourceCode":"11065452B43435483695389","parentId":"GNQ:ADM1:GNQ-1469"},"geometry":{"type":"Polygon","coordinates":[[[11.12817,2.05737],[11.12833,2.06321],[11.11405,2.08015],[11.10546,2.10713],[11.09038,2.118],[11.02847,2.11804],[10.93302,1.98358],[10.95763,1.9778],[10.96013,1.96809],[10.95426,1.94331],[10.94446,1.93465],[10.9369,1.9365],[10.9315,1.93142],[10.92919,1.92294],[10.92132,1.91785],[10.92225,1.90937],[10.95202,1.88856],[10.95936,1.78729],[11.1279,1.75362],[11.13175,1.7882],[11.12959,1.79419],[11.13507,1.81063],[11.14717,1.8053],[11.15704,1.79389],[11.18789,1.80129],[11.22854,1.78729],[11.23665,1.78831],[11.24504,1.8057],[11.2471,1.8187],[11.24215,1.83127],[11.24567,1.84515],[11.24346,1.88327],[11.18641,1.94524],[11.18837,1.98782],[11.19602,2.02152],[11.14321,2.02198],[11.13961,2.03664],[11.12827,2.05179],[11.12817,2.05737]]]}},{"type":"Feature","properties":{"id":"GNQ:ADM2:11065452B47830871634702","name":"ANNOBON","countryCode":"GNQ","adminLevel":2,"sourceCode":"11065452B47830871634702","parentId":"GNQ:ADM1:GNQ-1467"},"geometry":{"type":"Polygon","coordinates":[[[5.63415,-1.46034],[5.62802,-1.46289],[5.62748,-1.45671],[5.62609,-1.45629],[5.62623,-1.45623],[5.62141,-1.44728],[5.62604,-1.44115],[5.62191,-1.43359],[5.62145,-1.42626],[5.62281,-1.42295],[5.63307,-1.41579],[5.64625,-1.43841],[5.64275,-1.46282],[5.64166,-1.46384],[5.63601,-1.46458],[5.63415,-1.46034]]]}},{"type":"Feature","properties":{"id":"GNQ:ADM2:11065452B58050641555743","name":"NSORK","countryCode":"GNQ","adminLevel":2,"sourceCode":"11065452B58050641555743","parentId":"GNQ:ADM1:GNQ-1471"},"geometry":{"type":"Polygon","coordinates":[[[10.96434,1.07329],[10.96215,1.05976],[10.97653,1.03327],[10.97304,1.01346],[10.96292,1.0001],[11.33644,1.00001],[11.33662,1.43951],[11.30316,1.44129],[11.29552,1.4606],[11.28371,1.46029],[11.27838,1.46662],[11.27396,1.46482],[11.25225,1.46855],[11.24524,1.48631],[11.21896,1.48398],[11.20496,1.4975],[11.18456,1.49579],[11.17564,1.49057],[11.15133,1.52147],[11.14024,1.52527],[11.12977,1.52064],[11.12788,1.51624],[11.124,1.51684],[11.13107,1.4999],[11.16567,1.34671],[11.13455,1.20268],[11.0685,1.09867],[10.96434,1.07329]]]}},{"type":"Feature","properties":{"id":"GNQ:ADM2:11065452B59369715507709","name":"MACHINDA","countryCode":"GNQ","adminLevel":2,"sourceCode":"11065452B59369715507709","parentId":"GNQ:ADM1:GNQ-1470"},"geometry":{"type":"Polygon","coordinates":[[[9.93328,1.67157],[9.95222,1.68389],[9.96057,1.67988],[9.96518,1.68184],[9.9707,1.68836],[9.98111,1.69329],[9.981,1.69681],[10.02125,1.73388],[10.05237,1.85646],[10.03518,2.14399],[10.03652,2.16207],[10.01392,2.17233],[9.99282,2.16396],[9.98899,2.17086],[9.98541,2.17035],[9.95951,2.18605],[9.95108,2.18536],[9.94394,2.19129],[9.94091,2.18699],[9.94106,2.19302],[9.9351,2.19096],[9.92582,2.20032],[9.91627,2.19754],[9.91392,1.78371],[9.93328,1.67157]]]}},{"type":"Feature","properties":{"id":"GNQ:ADM2:11065452B6027875666302","name":"EBEBIYIN","countryCode":"GNQ","adminLevel":2,"sourceCode":"11065452B6027875666302","parentId":"GNQ:ADM1:GNQ-1469"},"geometry":{"type":"Polygon","coordinates":[[[11.23665,1.78831],[11.2552,1.78955],[11.32429,1.7648],[11.39913,1.76143],[11.40238,1.82451],[11.40109,1.83677],[11.39693,1.84071],[11.39868,1.84807],[11.37191,1.88889],[11.35407,1.89546],[11.33891,1.94064],[11.3263,1.96018],[11.32735,1.96603],[11.3347,1.971],[11.33253,1.97543],[11.33528,1.97882],[11.33553,1.99655],[11.33498,2.00163],[11.33226,2.00155],[11.33132,2.00731],[11.32092,2.02032],[11.32363,2.02984],[11.32122,2.03494],[11.32487,2.0386],[11.32123,2.04446],[11.32612,2.05359],[11.32432,2.06166],[11.33235,2.07555],[11.33211,2.08707],[11.34299,2.10426],[11.34142,2.10774],[11.34773,2.10621],[11.34499,2.11344],[11.351,2.11467],[11.35018,2.12063],[11.35364,2.11972],[11.35164,2.12658],[11.35942,2.12806],[11.36363,2.13628],[11.35571,2.14835],[11.35968,2.15067],[11.35711,2.15738],[11.3623,2.17139],[11.26603,2.17153],[11.18765,2.19753],[11.14987,2.17169],[10.99349,2.17191],[10.99464,2.15441],[11.01957,2.12622],[11.03175,2.12307],[11.0363,2.11707],[11.09038,2.118],[11.10546,2.10713],[11.11405,2.08015],[11.12833,2.06321],[11.12817,2.05737],[11.13685,2.03734],[11.13961,2.03664],[11.14321,2.02198],[11.19602,2.02152],[11.18837,1.98782],[11.18641,1.94524],[11.24346,1.88327],[11.24567,1.84515],[11.24215,1.83127],[11.2471,1.8187],[11.24504,1.8057],[11.23665,1.78831]]]}},{"type":"Feature","properties":{"id":"GNQ:ADM2:11065452B61336086634219","name":"AYENE","countryCode":"GNQ","adminLevel":2,"sourceCode":"11065452B61336086634219","parentId":"GNQ:ADM1:GNQ-1471"},"geometry":{"type":"Polygon","coordinates":[[[10.72114,1.57478],[10.72229,1.81934],[10.70961,1.83568],[10.7008,1.8545],[10.67289,1.86087],[10.66406,1.86732],[10.72256,1.93928],[10.81777,1.96378],[10.78839,1.98036],[10.78948,2.00153],[10.7865,2.00886],[10.76381,2.0215],[10.70446,1.99202],[10.69586,1.98491],[10.66347,1.98],[10.65928,1.98009],[10.65358,1.98573],[10.63254,1.98582],[10.62023,1.98013],[10.61561,1.98222],[10.60827,1.97964],[10.60625,1.96822],[10.60244,1.9642],[10.59656,1.96132],[10.58663,1.96242],[10.57899,1.95866],[10.56857,1.94479],[10.54778,1.94145],[10.53895,1.93135],[10.52287,1.92516],[10.53434,1.91789],[10.5405,1.89204],[10.55253,1.88225],[10.56314,1.87904],[10.56628,1.86666],[10.57481,1.86718],[10.57674,1.8629],[10.58571,1.868],[10.59174,1.86542],[10.59276,1.86082],[10.58792,1.85075],[10.59116,1.83548],[10.59773,1.82967],[10.60333,1.83386],[10.61559,1.83228],[10.6193,1.82853],[10.6098,1.81237],[10.6084,1.80175],[10.61176,1.79691],[10.60498,1.78914],[10.60866,1.77475],[10.59798,1.74518],[10.57996,1.71496],[10.56543,1.6721],[10.56737,1.67021],[10.5735,1.67257],[10.57814,1.66339],[10.5865,1.65802],[10.5864,1.64705],[10.59076,1.63961],[10.58732,1.63421],[10.58628,1.61863],[10.57901,1.62376],[10.57545,1.62272],[10.57578,1.60448],[10.57002,1.59258],[10.59937,1.58806],[10.60418,1.58342],[10.61088,1.58606],[10.62498,1.58467],[10.62399,1.58084],[10.62729,1.57735],[10.62528,1.57511],[10.63553,1.56838],[10.64538,1.56866],[10.6468,1.56549],[10.65081,1.56933],[10.64732,1.57687],[10.65228,1.58151],[10.66494,1.57154],[10.67119,1.57431],[10.67386,1.56509],[10.68223,1.55957],[10.68668,1.56407],[10.6919,1.55962],[10.7074,1.56327],[10.71091,1.56009],[10.71349,1.56935],[10.72114,1.57478]]]}},{"type":"Feature","properties":{"id":"GNQ:ADM2:11065452B63780080368940","name":"CORISCO","countryCode":"GNQ","adminLevel":2,"sourceCode":"11065452B63780080368940"},"geometry":{"type":"Polygon","coordinates":[[[9.30816,0.93354],[9.32257,0.93446],[9.3279,0.93072],[9.33191,0.92214],[9.32871,0.91124],[9.33723,0.90391],[9.34131,0.89858],[9.33678,0.89535],[9.33552,0.8903],[9.33122,0.88893],[9.3198,0.88997],[9.31474,0.89418],[9.31405,0.89535],[9.31129,0.89705],[9.31088,0.89739],[9.31076,0.89738],[9.30375,0.9017],[9.30816,0.93354]]]}},{"type":"Feature","properties":{"id":"GNQ:ADM2:11065452B68125244133984","name":"BANEY","countryCode":"GNQ","adminLevel":2,"sourceCode":"11065452B68125244133984","parentId":"GNQ:ADM1:GNQ-1478"},"geometry":{"type":"Polygon","coordinates":[[[8.90261,3.75156],[8.91171,3.74986],[8.91297,3.74392],[8.91715,3.74112],[8.91506,3.73638],[8.91701,3.73011],[8.92375,3.72539],[8.92403,3.71669],[8.92942,3.71677],[8.9336,3.70812],[8.93427,3.67832],[8.93788,3.66312],[8.93183,3.64285],[8.93363,3.63875],[8.91439,3.61128],[8.9043,3.6047],[8.89665,3.58395],[8.87168,3.55651],[8.8668,3.5413],[8.86131,3.53995],[8.85492,3.52598],[8.84469,3.5325],[8.83621,3.53337],[8.81786,3.54721],[8.81465,3.55669],[8.80089,3.56848],[8.79572,3.57988],[8.78724,3.58758],[8.78345,3.58939],[8.77543,3.58678],[8.75444,3.57643],[8.75801,3.58395],[8.76304,3.58371],[8.76774,3.58777],[8.77646,3.60307],[8.78907,3.60207],[8.79194,3.60433],[8.79664,3.61833],[8.80764,3.625],[8.8214,3.64627],[8.82495,3.6852],[8.82346,3.7118],[8.80752,3.73749],[8.80568,3.74744],[8.81289,3.75172],[8.8143,3.75129],[8.84669,3.74641],[8.88063,3.7473],[8.90094,3.75526],[8.90261,3.75156]]]}},{"type":"Feature","properties":{"id":"GNQ:ADM2:11065452B69220194361963","name":"LUBA","countryCode":"GNQ","adminLevel":2,"sourceCode":"11065452B69220194361963","parentId":"GNQ:ADM1:GNQ-1479"},"geometry":{"type":"Polygon","coordinates":[[[8.57376,3.51193],[8.57366,3.512],[8.5857,3.51846],[8.60141,3.52973],[8.61524,3.54312],[8.6211,3.55585],[8.62522,3.61154],[8.62945,3.61067],[8.64884,3.60077],[8.66351,3.5867],[8.67934,3.58245],[8.69298,3.56983],[8.70147,3.56692],[8.72073,3.56697],[8.73403,3.57375],[8.75444,3.57643],[8.69196,3.44165],[8.68257,3.40263],[8.6844,3.37291],[8.67902,3.33603],[8.67329,3.31066],[8.6585,3.28376],[8.66194,3.27715],[8.65965,3.27141],[8.66893,3.25964],[8.67295,3.24225],[8.67731,3.23888],[8.68843,3.23777],[8.69822,3.23051],[8.67524,3.20745],[8.66714,3.21077],[8.66254,3.21758],[8.64587,3.22501],[8.62775,3.23058],[8.61896,3.22826],[8.58812,3.24465],[8.58576,3.24186],[8.56863,3.24366],[8.56382,3.23682],[8.55841,3.23766],[8.52419,3.25101],[8.50507,3.25496],[8.49834,3.25233],[8.46492,3.26604],[8.45958,3.26562],[8.45021,3.27293],[8.44223,3.30231],[8.43767,3.31314],[8.42856,3.32624],[8.42205,3.3393],[8.4253,3.35041],[8.42921,3.35961],[8.43539,3.40192],[8.44215,3.42133],[8.45525,3.44652],[8.47389,3.46308],[8.49757,3.45653],[8.51027,3.46381],[8.51573,3.46356],[8.52301,3.46311],[8.5235,3.4632],[8.52711,3.46304],[8.55546,3.45786],[8.55583,3.45765],[8.55608,3.45775],[8.56275,3.45653],[8.5796,3.46332],[8.58513,3.47932],[8.58369,3.48868],[8.58538,3.498],[8.58169,3.50494],[8.57623,3.50716],[8.57352,3.51136],[8.57376,3.51193]]]}},{"type":"Feature","properties":{"id":"GNQ:ADM2:11065452B69337055746076","name":"MBINI","countryCode":"GNQ","adminLevel":2,"sourceCode":"11065452B69337055746076","parentId":"GNQ:ADM1:GNQ-1470"},"geometry":{"type":"Polygon","coordinates":[[[9.64063,1.69104],[9.64903,1.70217],[9.65893,1.70551],[9.6632,1.71276],[9.71654,1.70204],[9.73442,1.66885],[9.75934,1.65959],[9.92199,1.66],[9.93129,1.67049],[9.94804,1.68178],[9.95275,1.68395],[9.96057,1.67988],[9.98111,1.69329],[10.04619,1.60631],[10.0511,1.58393],[10.05604,1.57893],[10.11433,1.57814],[10.10684,1.46868],[9.67896,1.47003],[9.59569,1.50984],[9.57598,1.50927],[9.59776,1.56098],[9.59882,1.57376],[9.61675,1.58738],[9.62394,1.585],[9.63415,1.57122],[9.65898,1.5549],[9.65797,1.551],[9.66148,1.54798],[9.66171,1.55425],[9.67512,1.55438],[9.68534,1.56047],[9.69441,1.56161],[9.69971,1.57188],[9.71444,1.5743],[9.72363,1.55807],[9.73253,1.55985],[9.73748,1.54959],[9.73886,1.5565],[9.72186,1.56614],[9.71618,1.58066],[9.72189,1.5868],[9.74081,1.59188],[9.75727,1.59136],[9.77773,1.57733],[9.7946,1.57796],[9.79929,1.57287],[9.79873,1.56458],[9.8047,1.55871],[9.82275,1.56012],[9.80447,1.56068],[9.80065,1.56609],[9.80084,1.57402],[9.79692,1.5781],[9.77965,1.58067],[9.75915,1.5953],[9.75075,1.59292],[9.73859,1.59628],[9.73592,1.59581],[9.74448,1.60004],[9.72429,1.59903],[9.68344,1.57136],[9.6657,1.57559],[9.62233,1.61677],[9.61039,1.63871],[9.61176,1.64675],[9.6114,1.65531],[9.61752,1.67145],[9.63664,1.69041],[9.64063,1.69104]]]}},{"type":"Feature","properties":{"id":"GNQ:ADM2:11065452B69866248222639","name":"RIABA","countryCode":"GNQ","adminLevel":2,"sourceCode":"11065452B69866248222639","parentId":"GNQ:ADM1:GNQ-1479"},"geometry":{"type":"Polygon","coordinates":[[[8.75444,3.57643],[8.69196,3.44165],[8.68257,3.40263],[8.6844,3.37291],[8.67753,3.32873],[8.67054,3.30408],[8.6585,3.28376],[8.66194,3.27715],[8.65965,3.27141],[8.66893,3.25964],[8.67295,3.24225],[8.67731,3.23888],[8.68843,3.23777],[8.69822,3.23051],[8.70133,3.24214],[8.72066,3.27087],[8.72669,3.2736],[8.7647,3.31557],[8.77295,3.34115],[8.77021,3.34696],[8.77294,3.35411],[8.77058,3.35786],[8.77317,3.36019],[8.76433,3.38539],[8.77104,3.3949],[8.78195,3.39461],[8.79521,3.40341],[8.79858,3.41355],[8.80653,3.41826],[8.80889,3.42724],[8.80509,3.42798],[8.81016,3.43311],[8.80834,3.43847],[8.81195,3.4477],[8.80945,3.45259],[8.81779,3.45478],[8.82152,3.46389],[8.83255,3.47576],[8.84019,3.49067],[8.84127,3.50054],[8.85492,3.52598],[8.84469,3.5325],[8.83621,3.53337],[8.81786,3.54721],[8.81465,3.55669],[8.80089,3.56848],[8.79572,3.57988],[8.78724,3.58758],[8.78345,3.58939],[8.77543,3.58678],[8.75444,3.57643]]]}},{"type":"Feature","properties":{"id":"GNQ:ADM2:11065452B74289865102960","name":"NKIMI","countryCode":"GNQ","adminLevel":2,"sourceCode":"11065452B74289865102960","parentId":"GNQ:ADM1:GNQ-1468"},"geometry":{"type":"Polygon","coordinates":[[[10.5405,1.89204],[10.53434,1.91789],[10.52287,1.92516],[10.51695,1.92417],[10.51179,1.93315],[10.50697,1.92847],[10.50002,1.93256],[10.48812,1.92718],[10.4771,1.92861],[10.46456,1.92045],[10.45217,1.92461],[10.44692,1.91723],[10.43639,1.92213],[10.4286,1.91466],[10.4202,1.91309],[10.41417,1.91971],[10.39396,1.9307],[10.39328,1.93718],[10.3754,1.94545],[10.42991,1.99708],[10.46551,2.01884],[10.46568,2.03315],[10.47372,2.03657],[10.47305,2.05089],[10.47829,2.05603],[10.47905,2.0685],[10.48757,2.07309],[10.49004,2.10674],[10.49561,2.11227],[10.49882,2.13549],[10.52385,2.15909],[10.52912,2.16663],[10.52913,2.17248],[10.30695,2.1727],[10.30785,1.91153],[10.39529,1.67273],[10.49772,1.74146],[10.57996,1.71496],[10.59798,1.74518],[10.60866,1.77475],[10.60498,1.78914],[10.61176,1.79691],[10.6084,1.80175],[10.6098,1.81237],[10.6193,1.82853],[10.61559,1.83228],[10.60333,1.83386],[10.59773,1.82967],[10.58887,1.83884],[10.58811,1.85386],[10.59276,1.86082],[10.59174,1.86542],[10.58571,1.868],[10.57674,1.8629],[10.57481,1.86718],[10.56628,1.86666],[10.56314,1.87904],[10.55253,1.88225],[10.5405,1.89204]]]}},{"type":"Feature","properties":{"id":"GNQ:ADM2:11065452B87560810385120","name":"BICURGA","countryCode":"GNQ","adminLevel":2,"sourceCode":"11065452B87560810385120","parentId":"GNQ:ADM1:GNQ-1468"},"geometry":{"type":"Polygon","coordinates":[[[10.57996,1.71496],[10.49772,1.74146],[10.39529,1.67273],[10.3064,1.65755],[10.11433,1.57814],[10.10684,1.46868],[10.10993,1.44294],[10.06113,1.40919],[10.10769,1.35691],[10.43813,1.35666],[10.43851,1.47509],[10.46967,1.49991],[10.57002,1.59258],[10.57578,1.60448],[10.57545,1.62272],[10.57901,1.62376],[10.58628,1.61863],[10.58732,1.63421],[10.59076,1.63961],[10.5864,1.64705],[10.5865,1.65802],[10.57814,1.66339],[10.5735,1.67257],[10.56737,1.67021],[10.56543,1.6721],[10.57996,1.71496]]]}},{"type":"Feature","properties":{"id":"GNQ:ADM2:11065452B89932418637458","name":"ACONIBE","countryCode":"GNQ","adminLevel":2,"sourceCode":"11065452B89932418637458","parentId":"GNQ:ADM1:GNQ-1471"},"geometry":{"type":"Polygon","coordinates":[[[10.71091,1.56009],[10.7115,1.54706],[10.71545,1.54496],[10.7423,1.55381],[10.75184,1.54815],[10.75325,1.53726],[10.7498,1.52293],[10.756,1.50118],[10.74122,1.50043],[10.75157,1.48866],[10.74878,1.48195],[10.75756,1.47509],[10.75174,1.45734],[10.76572,1.43828],[10.77052,1.42483],[10.75484,1.40314],[10.7446,1.3749],[10.72478,1.34274],[10.72668,1.33487],[10.72169,1.32609],[10.72203,1.31568],[10.71179,1.30423],[10.71493,1.28075],[10.71076,1.26917],[10.74821,1.23539],[10.82791,1.20534],[10.96434,1.07329],[11.0685,1.09867],[11.13455,1.20268],[11.16567,1.34671],[11.13107,1.4999],[11.124,1.51684],[11.11858,1.50616],[11.10941,1.51067],[11.10243,1.50643],[11.09909,1.50962],[11.09175,1.50429],[11.07504,1.50701],[11.06996,1.50483],[11.04639,1.51322],[11.04129,1.51029],[11.03717,1.51614],[11.02568,1.51772],[11.02268,1.52352],[11.02518,1.52768],[11.0156,1.5244],[11.00974,1.52767],[11.00921,1.53217],[11.01951,1.54157],[11.01624,1.5442],[11.01354,1.53806],[11.00591,1.5365],[11.00373,1.54576],[10.999,1.55046],[10.9887,1.54955],[10.99039,1.55415],[10.98436,1.55934],[10.98627,1.56276],[10.98011,1.58289],[10.97605,1.58052],[10.96667,1.58526],[10.96241,1.5648],[10.95333,1.56116],[10.94708,1.5692],[10.94953,1.57878],[10.94027,1.5832],[10.93743,1.56988],[10.93367,1.57066],[10.93084,1.57804],[10.90976,1.57631],[10.90073,1.58182],[10.90393,1.58341],[10.90125,1.58567],[10.89011,1.58431],[10.88298,1.58729],[10.88272,1.59107],[10.88911,1.59423],[10.88734,1.60141],[10.88021,1.60049],[10.87349,1.60434],[10.87108,1.59092],[10.85333,1.59479],[10.85575,1.58449],[10.86425,1.57682],[10.866,1.56656],[10.86388,1.56291],[10.85955,1.56645],[10.85965,1.57118],[10.83823,1.5799],[10.83276,1.59718],[10.82823,1.59081],[10.81767,1.6017],[10.81786,1.59689],[10.8124,1.59532],[10.81433,1.59066],[10.81062,1.58781],[10.79682,1.58962],[10.79057,1.59371],[10.78558,1.59144],[10.77163,1.59839],[10.76529,1.58601],[10.74324,1.58026],[10.74055,1.58418],[10.72542,1.57263],[10.7216,1.57531],[10.71349,1.56935],[10.71091,1.56009]]]}},{"type":"Feature","properties":{"id":"GNQ:ADM2:11065452B93144755032170","name":"ACURENAM","countryCode":"GNQ","adminLevel":2,"sourceCode":"11065452B93144755032170","parentId":"GNQ:ADM1:GNQ-1468"},"geometry":{"type":"Polygon","coordinates":[[[10.74821,1.23539],[10.63528,1.21674],[10.62802,1.22177],[10.60603,1.22331],[10.59521,1.21829],[10.57608,1.21579],[10.55961,1.1962],[10.55101,1.18034],[10.53565,1.16624],[10.53159,1.1557],[10.4996,1.1304],[10.47912,1.15192],[10.46451,1.15985],[10.44648,1.1644],[10.44435,1.1681],[10.42155,1.17922],[10.41788,1.18548],[10.40658,1.17912],[10.40385,1.17442],[10.39531,1.17545],[10.39365,1.16657],[10.38829,1.16144],[10.37481,1.16103],[10.36669,1.14881],[10.37363,1.14035],[10.36934,1.13838],[10.37071,1.13464],[10.36447,1.12551],[10.35696,1.12502],[10.34028,1.13859],[10.32917,1.12426],[10.32332,1.13321],[10.31032,1.13345],[10.30689,1.13117],[10.30642,1.12548],[10.29918,1.12494],[10.29579,1.12723],[10.29676,1.13085],[10.28769,1.12795],[10.28403,1.1354],[10.27948,1.1374],[10.25804,1.13885],[10.24758,1.12547],[10.26244,1.09703],[10.25806,1.05709],[10.24845,1.048],[10.23515,1.01478],[10.21039,1.00014],[10.697,1.00013],[10.74007,1.03414],[10.87435,1.03419],[10.90619,1.02272],[10.91193,1.01158],[10.92789,1.0001],[10.96292,1.0001],[10.97304,1.01346],[10.97653,1.03327],[10.96215,1.05976],[10.96434,1.07329],[10.82791,1.20534],[10.74821,1.23539]]]}},{"type":"Feature","properties":{"id":"GNQ:ADM2:11065452B93694652116414","name":"MONGOMO","countryCode":"GNQ","adminLevel":2,"sourceCode":"11065452B93694652116414","parentId":"GNQ:ADM1:GNQ-1471"},"geometry":{"type":"Polygon","coordinates":[[[11.1279,1.75362],[11.15644,1.75102],[11.17997,1.73628],[11.20491,1.714],[11.20709,1.70074],[11.14887,1.60685],[11.06996,1.50483],[11.07504,1.50701],[11.09175,1.50429],[11.09909,1.50962],[11.10243,1.50643],[11.10941,1.51067],[11.11858,1.50616],[11.12033,1.51384],[11.14024,1.52527],[11.15133,1.52147],[11.17564,1.49057],[11.18456,1.49579],[11.20496,1.4975],[11.21896,1.48398],[11.24524,1.48631],[11.25225,1.46855],[11.27396,1.46482],[11.27838,1.46662],[11.28371,1.46029],[11.29552,1.4606],[11.30316,1.44129],[11.33662,1.43951],[11.33675,1.64284],[11.35172,1.65056],[11.36529,1.66678],[11.38218,1.67665],[11.3912,1.69096],[11.40558,1.70063],[11.40564,1.70695],[11.39661,1.71383],[11.39378,1.7232],[11.40004,1.74043],[11.39913,1.76143],[11.32429,1.7648],[11.2552,1.78955],[11.22854,1.78729],[11.18789,1.80129],[11.15704,1.79389],[11.14717,1.8053],[11.13507,1.81063],[11.12959,1.79419],[11.13175,1.7882],[11.1279,1.75362]]]}},{"type":"Feature","properties":{"id":"GNQ:ADM2:11065452B98139425844484","name":"BATA","countryCode":"GNQ","adminLevel":2,"sourceCode":"11065452B98139425844484","parentId":"GNQ:ADM1:GNQ-1470"},"geometry":{"type":"Polygon","coordinates":[[[9.79096,2.32898],[9.79647,2.33439],[9.80934,2.33582],[9.81759,2.3397],[9.82082,2.34483],[9.83468,2.31986],[9.83541,2.29811],[9.82874,2.28687],[9.83299,2.28399],[9.84496,2.25097],[9.84703,2.23539],[9.84851,2.24017],[9.8806,2.22701],[9.88752,2.21452],[9.89208,2.21486],[9.89449,2.20893],[9.90067,2.20665],[9.90029,2.2013],[9.90669,2.19304],[9.91342,2.1919],[9.91627,2.19754],[9.91392,1.78371],[9.93328,1.67157],[9.92199,1.66],[9.75934,1.65959],[9.73442,1.66885],[9.71654,1.70204],[9.6632,1.71276],[9.67046,1.72395],[9.67628,1.72972],[9.67897,1.73347],[9.68483,1.74462],[9.68494,1.74475],[9.69545,1.74774],[9.70781,1.75649],[9.73383,1.78506],[9.74444,1.80856],[9.74484,1.82755],[9.74609,1.83563],[9.75946,1.82931],[9.75659,1.8338],[9.74639,1.83756],[9.74676,1.83991],[9.75131,1.84658],[9.75603,1.85147],[9.75717,1.85426],[9.75754,1.8543],[9.75799,1.85629],[9.75815,1.85668],[9.76368,1.86612],[9.76653,1.86893],[9.77592,1.8716],[9.78829,1.88291],[9.79049,1.89262],[9.79908,1.90111],[9.80182,1.9098],[9.80797,1.91154],[9.81074,1.93972],[9.81787,1.93223],[9.80804,1.953],[9.80584,1.97639],[9.79485,2.00873],[9.79269,2.01893],[9.79021,2.02238],[9.7818,2.04715],[9.77636,2.06754],[9.76564,2.08909],[9.76852,2.10481],[9.77857,2.1093],[9.79016,2.12444],[9.79735,2.16059],[9.79302,2.18372],[9.79482,2.21914],[9.78794,2.25361],[9.79021,2.26821],[9.77537,2.3157],[9.77768,2.32501],[9.77947,2.32742],[9.79096,2.32898]]]}}],"admin1":{"type":"FeatureCollection","features":[{"type":"Feature","properties":{"id":"GNQ:ADM1:GNQ-1467","name":"Annobón","countryCode":"GNQ"},"geometry":{"type":"Polygon","coordinates":[[[5.63415,-1.46034],[5.62802,-1.46289],[5.62748,-1.45671],[5.62609,-1.45629],[5.62623,-1.45623],[5.62141,-1.44728],[5.62604,-1.44115],[5.62191,-1.43359],[5.62145,-1.42626],[5.62281,-1.42295],[5.63307,-1.41579],[5.64625,-1.43841],[5.64275,-1.46282],[5.64166,-1.46384],[5.63601,-1.46458],[5.63415,-1.46034]]]}},{"type":"Feature","properties":{"id":"GNQ:ADM1:GNQ-1468","name":"Centro Sur","countryCode":"GNQ"},"geometry":{"type":"Polygon","coordinates":[[[10.22382,1.13981],[10.2032,1.13616],[10.19952,1.13983],[10.17163,1.22053],[10.16583,1.2289],[10.14142,1.23917],[10.12772,1.25423],[10.12373,1.27128],[10.12521,1.28231],[10.10769,1.35691],[10.06113,1.40919],[10.10993,1.44294],[10.10684,1.46868],[10.11433,1.57814],[10.05604,1.57893],[10.0511,1.58393],[10.04619,1.60631],[9.98118,1.69107],[9.981,1.69681],[10.02125,1.73388],[10.05237,1.85646],[10.03518,2.14399],[10.03652,2.16207],[10.04546,2.1667],[10.04821,2.18176],[10.05058,2.18135],[10.0512,2.17031],[10.06299,2.16389],[10.07996,2.16131],[10.09196,2.16456],[10.10155,2.16012],[10.10629,2.16243],[10.1187,2.16076],[10.12099,2.15648],[10.14705,2.17086],[10.16761,2.1594],[10.17454,2.16167],[10.17715,2.15892],[10.18421,2.16312],[10.19089,2.1728],[10.30695,2.1727],[10.52913,2.17248],[10.52912,2.16663],[10.52385,2.15909],[10.49882,2.13549],[10.49561,2.11227],[10.49004,2.10674],[10.48757,2.07309],[10.47905,2.0685],[10.47829,2.05603],[10.47305,2.05089],[10.47372,2.03657],[10.46568,2.03315],[10.46551,2.01884],[10.42991,1.99708],[10.3754,1.94545],[10.39328,1.93718],[10.39396,1.9307],[10.41417,1.91971],[10.4202,1.91309],[10.4286,1.91466],[10.43639,1.92213],[10.44692,1.91723],[10.45217,1.92461],[10.46456,1.92045],[10.4771,1.92861],[10.48812,1.92718],[10.50002,1.93256],[10.50697,1.92847],[10.51179,1.93315],[10.51695,1.92417],[10.52287,1.92516],[10.53434,1.91789],[10.5405,1.89204],[10.55253,1.88225],[10.56314,1.87904],[10.56628,1.86666],[10.57481,1.86718],[10.57674,1.8629],[10.58571,1.868],[10.59174,1.86542],[10.59276,1.86082],[10.58811,1.85386],[10.58887,1.83884],[10.59773,1.82967],[10.60333,1.83386],[10.61559,1.83228],[10.6193,1.82853],[10.6098,1.81237],[10.6084,1.80175],[10.61176,1.79691],[10.60498,1.78914],[10.60866,1.77475],[10.59798,1.74518],[10.57996,1.71496],[10.56543,1.6721],[10.56737,1.67021],[10.5735,1.67257],[10.57814,1.66339],[10.5865,1.65802],[10.5864,1.64705],[10.59076,1.63961],[10.58732,1.63421],[10.58628,1.61863],[10.57901,1.62376],[10.57545,1.62272],[10.57578,1.60448],[10.57002,1.59258],[10.59937,1.58806],[10.60418,1.58342],[10.61088,1.58606],[10.62498,1.58467],[10.62399,1.58084],[10.62729,1.57735],[10.62528,1.57511],[10.63553,1.56838],[10.64538,1.56866],[10.6468,1.56549],[10.65081,1.56933],[10.64732,1.57687],[10.65228,1.58151],[10.66494,1.57154],[10.67119,1.57431],[10.67386,1.56509],[10.68223,1.55957],[10.68668,1.56407],[10.6919,1.55962],[10.7074,1.56327],[10.71091,1.56009],[10.7115,1.54706],[10.71545,1.54496],[10.7423,1.55381],[10.75184,1.54815],[10.75325,1.53726],[10.7498,1.52293],[10.756,1.50118],[10.74122,1.50043],[10.75157,1.48866],[10.74878,1.48195],[10.75756,1.47509],[10.75174,1.45734],[10.76572,1.43828],[10.77052,1.42483],[10.75484,1.40314],[10.7446,1.3749],[10.72478,1.34274],[10.72668,1.33487],[10.72169,1.32609],[10.72203,1.31568],[10.71179,1.30423],[10.71493,1.28075],[10.71076,1.26917],[10.74821,1.23539],[10.82791,1.20534],[10.96434,1.07329],[10.96215,1.05976],[10.97653,1.03327],[10.97304,1.01346],[10.96292,1.0001],[10.92789,1.0001],[10.91193,1.01158],[10.90619,1.02272],[10.87435,1.03419],[10.74007,1.03414],[10.697,1.00013],[10.21039,1.00014],[10.23515,1.01478],[10.24845,1.048],[10.25806,1.05709],[10.26244,1.09703],[10.24758,1.12547],[10.23476,1.13],[10.22382,1.13981]],[[10.25722,1.1378],[10.25567,1.13771],[10.24758,1.12547],[10.25722,1.1378]],[[10.27022,1.13859],[10.26582,1.13832],[10.27367,1.13779],[10.27022,1.13859]]]}},{"type":"Feature","properties":{"id":"GNQ:ADM1:GNQ-1469","name":"Kié-Ntem","countryCode":"GNQ"},"geometry":{"type":"Polygon","coordinates":[[[11.18789,1.80129],[11.15704,1.79389],[11.14717,1.8053],[11.13507,1.81063],[11.12959,1.79419],[11.13175,1.7882],[11.1279,1.75362],[10.95936,1.78729],[10.95202,1.88856],[10.92225,1.90937],[10.92132,1.91785],[10.92919,1.92294],[10.9315,1.93142],[10.85961,1.97241],[10.83142,1.97278],[10.81777,1.96378],[10.78839,1.98036],[10.78948,2.00153],[10.7865,2.00886],[10.76381,2.0215],[10.70446,1.99202],[10.69586,1.98491],[10.66347,1.98],[10.65928,1.98009],[10.65358,1.98573],[10.63254,1.98582],[10.62023,1.98013],[10.61561,1.98222],[10.60827,1.97964],[10.60625,1.96822],[10.60244,1.9642],[10.57899,1.95866],[10.56857,1.94479],[10.54778,1.94145],[10.53895,1.93135],[10.51695,1.92417],[10.51179,1.93315],[10.50697,1.92847],[10.50002,1.93256],[10.48812,1.92718],[10.4771,1.92861],[10.46456,1.92045],[10.45217,1.92461],[10.44692,1.91723],[10.43639,1.92213],[10.4286,1.91466],[10.4202,1.91309],[10.41417,1.91971],[10.39396,1.9307],[10.39328,1.93718],[10.3754,1.94545],[10.42991,1.99708],[10.46551,2.01884],[10.46568,2.03315],[10.47372,2.03657],[10.47305,2.05089],[10.47829,2.05603],[10.47905,2.0685],[10.48757,2.07309],[10.49004,2.10674],[10.49561,2.11227],[10.49789,2.12859],[10.49882,2.13549],[10.52385,2.15909],[10.52912,2.16663],[10.52913,2.17248],[10.99349,2.17191],[11.14987,2.17169],[11.18765,2.19753],[11.26603,2.17153],[11.3623,2.17139],[11.35711,2.15738],[11.35968,2.15067],[11.35571,2.14835],[11.36363,2.13628],[11.35942,2.12806],[11.35164,2.12658],[11.35364,2.11972],[11.35018,2.12063],[11.351,2.11467],[11.34499,2.11344],[11.34773,2.10621],[11.34142,2.10774],[11.34299,2.10426],[11.33211,2.08707],[11.33235,2.07555],[11.32432,2.06166],[11.32612,2.05359],[11.32123,2.04446],[11.32487,2.0386],[11.32122,2.03494],[11.32363,2.02984],[11.32092,2.02032],[11.33132,2.00731],[11.33226,2.00155],[11.33498,2.00163],[11.33553,1.99655],[11.33528,1.97882],[11.33253,1.97543],[11.3347,1.971],[11.32735,1.96603],[11.3263,1.96018],[11.33891,1.94064],[11.35407,1.89546],[11.37191,1.88889],[11.39868,1.84807],[11.39693,1.84071],[11.40109,1.83677],[11.40238,1.82451],[11.39913,1.76143],[11.32429,1.7648],[11.2552,1.78955],[11.23665,1.78831],[11.22854,1.78729],[11.18789,1.80129]],[[10.95722,1.95582],[10.95362,1.94905],[10.95426,1.94331],[10.95722,1.95582]],[[10.96013,1.96809],[10.95851,1.97437],[10.95951,1.96548],[10.96013,1.96809]],[[10.95763,1.9778],[10.93302,1.98358],[10.95791,1.97672],[10.95763,1.9778]],[[11.13378,2.04443],[11.12817,2.05737],[11.12827,2.05179],[11.13378,2.04443]]]}},{"type":"Feature","properties":{"id":"GNQ:ADM1:GNQ-1470","name":"Litoral","countryCode":"GNQ"},"geometry":{"type":"Polygon","coordinates":[[[10.12521,1.28231],[10.12373,1.27128],[10.12772,1.25423],[10.14142,1.23917],[10.16583,1.2289],[10.17163,1.22053],[10.19952,1.13983],[10.2032,1.13616],[10.22382,1.13981],[10.23476,1.13],[10.24758,1.12547],[10.26244,1.09703],[10.25806,1.05709],[10.24845,1.048],[10.23515,1.01478],[10.21039,1.00014],[9.99029,1.00012],[9.99383,0.99516],[9.99023,0.98407],[9.984,0.97887],[9.9869,0.96087],[9.9918,0.95783],[9.98827,0.95361],[9.98915,0.94631],[9.98392,0.94124],[9.99053,0.93571],[9.97717,0.93041],[9.9561,0.93011],[9.95196,0.92457],[9.94716,0.92412],[9.93312,0.9313],[9.9222,0.94334],[9.90217,0.94981],[9.89165,0.9575],[9.88618,0.98213],[9.87309,0.99617],[9.85499,1.00026],[9.84551,1.009],[9.83865,1.01013],[9.80584,1.00456],[9.80453,1.02074],[9.79689,1.04629],[9.79908,1.05817],[9.80196,1.06049],[9.8106,1.06053],[9.81777,1.05762],[9.82489,1.05269],[9.82449,1.04393],[9.83085,1.04542],[9.83239,1.03904],[9.85001,1.05824],[9.85519,1.04791],[9.87624,1.05236],[9.88426,1.04495],[9.90117,1.04427],[9.87831,1.05273],[9.86572,1.05268],[9.85679,1.04932],[9.85171,1.06039],[9.83206,1.05051],[9.82094,1.06307],[9.83234,1.06564],[9.84226,1.0721],[9.8475,1.07245],[9.84601,1.07375],[9.86144,1.07366],[9.87093,1.07973],[9.88252,1.10161],[9.87639,1.11617],[9.87803,1.12767],[9.8727,1.1348],[9.87096,1.14847],[9.87105,1.13403],[9.87711,1.12708],[9.87385,1.12136],[9.87778,1.10488],[9.87587,1.09553],[9.87092,1.09],[9.86208,1.08778],[9.86,1.0943],[9.85073,1.09754],[9.85488,1.10913],[9.83777,1.12263],[9.84278,1.11527],[9.85373,1.10785],[9.84969,1.10181],[9.84949,1.0981],[9.85871,1.09132],[9.84935,1.08021],[9.84218,1.07709],[9.84148,1.0777],[9.82928,1.08186],[9.81479,1.08454],[9.8025,1.08552],[9.79225,1.08869],[9.76726,1.10285],[9.75514,1.10594],[9.71412,1.09711],[9.70346,1.0998],[9.69939,1.10981],[9.70379,1.12059],[9.7102,1.12777],[9.72725,1.13787],[9.74768,1.16165],[9.76566,1.16539],[9.77407,1.17885],[9.77841,1.17562],[9.77737,1.18182],[9.78594,1.18633],[9.78813,1.20063],[9.79176,1.20474],[9.80976,1.19945],[9.80383,1.2058],[9.79076,1.20754],[9.78709,1.20293],[9.78614,1.19073],[9.76045,1.16653],[9.75418,1.16529],[9.75214,1.17108],[9.73651,1.17343],[9.73426,1.1838],[9.73989,1.20121],[9.74697,1.21109],[9.75465,1.21336],[9.75173,1.24139],[9.75144,1.223],[9.74482,1.21114],[9.74239,1.20895],[9.73198,1.21564],[9.74119,1.20817],[9.73246,1.1927],[9.73158,1.17656],[9.74302,1.1646],[9.72157,1.14936],[9.71307,1.15076],[9.70451,1.16281],[9.71093,1.15237],[9.70959,1.14793],[9.71488,1.14227],[9.71153,1.14118],[9.71041,1.14605],[9.70048,1.14489],[9.70288,1.15336],[9.69588,1.15105],[9.70215,1.15236],[9.69852,1.14829],[9.69915,1.14512],[9.70249,1.14323],[9.71004,1.1449],[9.71087,1.14086],[9.71423,1.14021],[9.71598,1.14373],[9.71083,1.14921],[9.72134,1.1467],[9.72023,1.14321],[9.71504,1.13732],[9.69559,1.13055],[9.68192,1.11711],[9.68183,1.11016],[9.67644,1.10541],[9.66962,1.09759],[9.66965,1.09771],[9.66783,1.10166],[9.66239,1.102],[9.66501,1.10612],[9.66236,1.10654],[9.66153,1.10476],[9.66188,1.10104],[9.66874,1.09849],[9.66808,1.09582],[9.65707,1.0832],[9.64894,1.06875],[9.6421,1.06159],[9.60914,1.05345],[9.58432,1.04296],[9.57992,1.04876],[9.57464,1.07226],[9.56139,1.0977],[9.55974,1.10277],[9.55161,1.11542],[9.54078,1.12507],[9.53631,1.12736],[9.53316,1.13006],[9.53152,1.12982],[9.52475,1.13329],[9.50652,1.1376],[9.49765,1.13555],[9.49528,1.13693],[9.4811,1.13794],[9.47341,1.13467],[9.4707,1.12931],[9.45637,1.12537],[9.45491,1.12421],[9.44996,1.12328],[9.43233,1.11487],[9.41971,1.11426],[9.41292,1.10841],[9.41271,1.10754],[9.40603,1.1061],[9.39825,1.11167],[9.39663,1.11139],[9.39649,1.11148],[9.37752,1.13269],[9.37574,1.13693],[9.36703,1.14219],[9.36679,1.1422],[9.3602,1.14696],[9.36046,1.14832],[9.36257,1.14954],[9.36139,1.15307],[9.36215,1.15697],[9.35963,1.16486],[9.34669,1.18171],[9.34804,1.18226],[9.35234,1.18131],[9.36099,1.18651],[9.36822,1.18539],[9.37597,1.20324],[9.3808,1.21157],[9.38145,1.21269],[9.38504,1.21431],[9.38767,1.21972],[9.38949,1.23649],[9.39618,1.25752],[9.40002,1.26379],[9.39934,1.26686],[9.4061,1.28083],[9.40954,1.28334],[9.4217,1.28211],[9.42912,1.28474],[9.44105,1.30914],[9.44608,1.31608],[9.45424,1.31781],[9.46168,1.32861],[9.46589,1.35845],[9.46285,1.37732],[9.46174,1.39361],[9.464,1.39735],[9.47037,1.40123],[9.48062,1.41899],[9.49065,1.4228],[9.49442,1.42801],[9.49938,1.43251],[9.51919,1.4405],[9.53639,1.45521],[9.54428,1.46412],[9.54955,1.48254],[9.56287,1.48653],[9.57598,1.50927],[9.59776,1.56098],[9.59882,1.57376],[9.61675,1.58738],[9.62394,1.585],[9.63415,1.57122],[9.65898,1.5549],[9.65797,1.551],[9.66148,1.54798],[9.66171,1.55425],[9.67512,1.55438],[9.68534,1.56047],[9.69441,1.56161],[9.69971,1.57188],[9.71444,1.5743],[9.72363,1.55807],[9.73253,1.55985],[9.73748,1.54959],[9.73886,1.5565],[9.72186,1.56614],[9.71618,1.58066],[9.72189,1.5868],[9.74081,1.59188],[9.75727,1.59136],[9.77773,1.57733],[9.7946,1.57796],[9.79929,1.57287],[9.79873,1.56458],[9.8047,1.55871],[9.82275,1.56012],[9.80447,1.56068],[9.80065,1.56609],[9.80084,1.57402],[9.79692,1.5781],[9.77965,1.58067],[9.75915,1.5953],[9.75075,1.59292],[9.73859,1.59628],[9.73592,1.59581],[9.74448,1.60004],[9.72429,1.59903],[9.68344,1.57136],[9.6657,1.57559],[9.62233,1.61677],[9.61039,1.63871],[9.61176,1.64675],[9.6114,1.65531],[9.61752,1.67145],[9.63664,1.69041],[9.64063,1.69104],[9.64903,1.70217],[9.65893,1.70551],[9.6632,1.71276],[9.67046,1.72395],[9.67628,1.72972],[9.67897,1.73347],[9.68483,1.74462],[9.68494,1.74475],[9.69545,1.74774],[9.70781,1.75649],[9.73383,1.78506],[9.74444,1.80856],[9.74484,1.82755],[9.74609,1.83563],[9.75946,1.82931],[9.75659,1.8338],[9.74639,1.83756],[9.74676,1.83991],[9.75131,1.84658],[9.75603,1.85147],[9.75717,1.85426],[9.75754,1.8543],[9.75799,1.85629],[9.75815,1.85668],[9.76368,1.86612],[9.76653,1.86893],[9.77592,1.8716],[9.78829,1.88291],[9.79049,1.89262],[9.79908,1.90111],[9.80182,1.9098],[9.80797,1.91154],[9.81074,1.93972],[9.81787,1.93223],[9.80804,1.953],[9.80584,1.97639],[9.79485,2.00873],[9.79269,2.01893],[9.79021,2.02238],[9.7818,2.04715],[9.77636,2.06754],[9.76564,2.08909],[9.76852,2.10481],[9.77857,2.1093],[9.79016,2.12444],[9.79735,2.16059],[9.79302,2.18372],[9.79482,2.21914],[9.78794,2.25361],[9.79021,2.26821],[9.77537,2.3157],[9.77768,2.32501],[9.77947,2.32742],[9.79096,2.32898],[9.79647,2.33439],[9.80934,2.33582],[9.81759,2.3397],[9.82082,2.34483],[9.83468,2.31986],[9.83541,2.29811],[9.82874,2.28687],[9.83299,2.28399],[9.84496,2.25097],[9.84703,2.23539],[9.84851,2.24017],[9.8806,2.22701],[9.88752,2.21452],[9.89208,2.21486],[9.89449,2.20893],[9.90067,2.20665],[9.90029,2.2013],[9.90669,2.19304],[9.91342,2.1919],[9.91627,2.19754],[9.92582,2.20032],[9.9351,2.19096],[9.94106,2.19302],[9.94091,2.18699],[9.94394,2.19129],[9.95108,2.18536],[9.95951,2.18605],[9.98541,2.17035],[9.98899,2.17086],[9.99282,2.16396],[10.01392,2.17233],[10.03652,2.16207],[10.03518,2.14399],[10.05237,1.85646],[10.02125,1.73388],[9.981,1.69681],[9.98111,1.69329],[10.04619,1.60631],[10.0511,1.58393],[10.05604,1.57893],[10.11433,1.57814],[10.10684,1.46868],[10.10993,1.44294],[10.06113,1.40919],[10.10769,1.35691],[10.12521,1.28231]],[[9.9707,1.68836],[9.96717,1.68419],[9.98111,1.69329],[9.9707,1.68836]],[[9.44953,1.24333],[9.44381,1.23654],[9.45409,1.24527],[9.44953,1.24333]],[[9.463,1.24905],[9.46049,1.24798],[9.46439,1.24846],[9.463,1.24905]],[[9.47851,1.22901],[9.47597,1.2359],[9.47578,1.23232],[9.47851,1.22901]],[[9.48751,1.22751],[9.50908,1.22996],[9.47851,1.22901],[9.48751,1.22751]],[[9.57088,1.27169],[9.56598,1.2653],[9.57434,1.27301],[9.57088,1.27169]],[[9.58687,1.2778],[9.58497,1.27707],[9.58836,1.27757],[9.58687,1.2778]],[[9.95222,1.68389],[9.95125,1.68326],[9.95242,1.6838],[9.95222,1.68389]]]}},{"type":"Feature","properties":{"id":"GNQ:ADM1:GNQ-1471","name":"Wele-Nzas","countryCode":"GNQ"},"geometry":{"type":"Polygon","coordinates":[[[10.96292,1.0001],[10.97304,1.01346],[10.97653,1.03327],[10.96215,1.05976],[10.96434,1.07329],[10.82791,1.20534],[10.74821,1.23539],[10.71076,1.26917],[10.71493,1.28075],[10.71179,1.30423],[10.72203,1.31568],[10.72169,1.32609],[10.72668,1.33487],[10.72478,1.34274],[10.7446,1.3749],[10.75484,1.40314],[10.77052,1.42483],[10.76572,1.43828],[10.75174,1.45734],[10.75756,1.47509],[10.74878,1.48195],[10.75157,1.48866],[10.74122,1.50043],[10.756,1.50118],[10.7498,1.52293],[10.75325,1.53726],[10.75184,1.54815],[10.7423,1.55381],[10.71545,1.54496],[10.7115,1.54706],[10.71091,1.56009],[10.7074,1.56327],[10.6919,1.55962],[10.68668,1.56407],[10.68223,1.55957],[10.67386,1.56509],[10.67119,1.57431],[10.66494,1.57154],[10.65228,1.58151],[10.64732,1.57687],[10.65081,1.56933],[10.6468,1.56549],[10.64538,1.56866],[10.63553,1.56838],[10.62528,1.57511],[10.62729,1.57735],[10.62399,1.58084],[10.62498,1.58467],[10.61088,1.58606],[10.60418,1.58342],[10.59937,1.58806],[10.57002,1.59258],[10.57578,1.60448],[10.57545,1.62272],[10.57901,1.62376],[10.58628,1.61863],[10.58732,1.63421],[10.59076,1.63961],[10.5864,1.64705],[10.5865,1.65802],[10.57814,1.66339],[10.5735,1.67257],[10.56737,1.67021],[10.56543,1.6721],[10.57996,1.71496],[10.59798,1.74518],[10.60866,1.77475],[10.60498,1.78914],[10.61176,1.79691],[10.6084,1.80175],[10.6098,1.81237],[10.6193,1.82853],[10.61559,1.83228],[10.60333,1.83386],[10.59773,1.82967],[10.59116,1.83548],[10.58792,1.85075],[10.59276,1.86082],[10.59174,1.86542],[10.58571,1.868],[10.57674,1.8629],[10.57481,1.86718],[10.56628,1.86666],[10.56314,1.87904],[10.55253,1.88225],[10.5405,1.89204],[10.53434,1.91789],[10.52287,1.92516],[10.53895,1.93135],[10.54778,1.94145],[10.56857,1.94479],[10.57899,1.95866],[10.58663,1.96242],[10.59656,1.96132],[10.60244,1.9642],[10.60625,1.96822],[10.60827,1.97964],[10.61561,1.98222],[10.62023,1.98013],[10.63254,1.98582],[10.65358,1.98573],[10.65928,1.98009],[10.66347,1.98],[10.69586,1.98491],[10.70446,1.99202],[10.76381,2.0215],[10.7865,2.00886],[10.78948,2.00153],[10.78839,1.98036],[10.81777,1.96378],[10.83142,1.97278],[10.85961,1.97241],[10.9315,1.93142],[10.92919,1.92294],[10.92132,1.91785],[10.92225,1.90937],[10.95202,1.88856],[10.95936,1.78729],[11.01498,1.77652],[11.1279,1.75362],[11.13175,1.7882],[11.12959,1.79419],[11.13507,1.81063],[11.14717,1.8053],[11.15704,1.79389],[11.18789,1.80129],[11.22854,1.78729],[11.2552,1.78955],[11.32429,1.7648],[11.39913,1.76143],[11.40004,1.74043],[11.39378,1.7232],[11.39661,1.71383],[11.40564,1.70695],[11.40558,1.70063],[11.3912,1.69096],[11.38218,1.67665],[11.36529,1.66678],[11.35172,1.65056],[11.33675,1.64284],[11.33662,1.43951],[11.33644,1.00001],[10.96292,1.0001]],[[10.7216,1.57531],[10.72229,1.81934],[10.72114,1.57497],[10.7216,1.57531]],[[10.94027,1.5832],[10.95384,1.65917],[10.93743,1.56988],[10.94027,1.5832]],[[11.00974,1.52767],[11.01111,1.52691],[11.00921,1.53217],[11.00974,1.52767]],[[11.0156,1.5244],[11.02518,1.52768],[11.01405,1.52526],[11.0156,1.5244]],[[11.12898,1.51881],[11.12523,1.51665],[11.12788,1.51624],[11.12898,1.51881]],[[11.11858,1.50616],[11.12336,1.51558],[11.12033,1.51384],[11.11858,1.50616]],[[10.993,1.69869],[10.98252,1.67761],[10.99144,1.69262],[10.993,1.69869]]]}},{"type":"Feature","properties":{"id":"GNQ:ADM1:GNQ-1478","name":"Bioko Norte","countryCode":"GNQ"},"geometry":{"type":"Polygon","coordinates":[[[8.91171,3.74986],[8.91297,3.74392],[8.91715,3.74112],[8.91506,3.73638],[8.91701,3.73011],[8.92375,3.72539],[8.92403,3.71669],[8.92942,3.71677],[8.9336,3.70812],[8.93427,3.67832],[8.93788,3.66312],[8.93183,3.64285],[8.93363,3.63875],[8.91439,3.61128],[8.9043,3.6047],[8.89665,3.58395],[8.87168,3.55651],[8.8668,3.5413],[8.86131,3.53995],[8.85492,3.52598],[8.84469,3.5325],[8.83621,3.53337],[8.81786,3.54721],[8.81465,3.55669],[8.80089,3.56848],[8.79572,3.57988],[8.78724,3.58758],[8.78345,3.58939],[8.77543,3.58678],[8.75444,3.57643],[8.73403,3.57375],[8.72073,3.56697],[8.70147,3.56692],[8.69298,3.56983],[8.67934,3.58245],[8.66351,3.5867],[8.64884,3.60077],[8.62945,3.61067],[8.62522,3.61154],[8.62794,3.64834],[8.64096,3.68354],[8.66717,3.72626],[8.7024,3.76093],[8.7256,3.76742],[8.72448,3.76443],[8.73117,3.75627],[8.74504,3.75655],[8.76255,3.75289],[8.76372,3.7523],[8.76427,3.75253],[8.76824,3.75169],[8.78191,3.75096],[8.78614,3.75408],[8.78678,3.75277],[8.79642,3.75677],[8.79733,3.75649],[8.80706,3.74838],[8.80706,3.74826],[8.81289,3.75172],[8.8143,3.75129],[8.84669,3.74641],[8.88063,3.7473],[8.90094,3.75526],[8.90261,3.75156],[8.91171,3.74986]]]}},{"type":"Feature","properties":{"id":"GNQ:ADM1:GNQ-1479","name":"Bioko Sur","countryCode":"GNQ"},"geometry":{"type":"Polygon","coordinates":[[[8.57366,3.512],[8.5857,3.51846],[8.60141,3.52973],[8.61524,3.54312],[8.6211,3.55585],[8.62522,3.61154],[8.62945,3.61067],[8.64884,3.60077],[8.66351,3.5867],[8.67934,3.58245],[8.69298,3.56983],[8.70147,3.56692],[8.72073,3.56697],[8.73403,3.57375],[8.75444,3.57643],[8.77543,3.58678],[8.78345,3.58939],[8.78724,3.58758],[8.79572,3.57988],[8.80089,3.56848],[8.81465,3.55669],[8.81786,3.54721],[8.83621,3.53337],[8.84469,3.5325],[8.85492,3.52598],[8.84127,3.50054],[8.84019,3.49067],[8.83255,3.47576],[8.82152,3.46389],[8.81779,3.45478],[8.80945,3.45259],[8.81195,3.4477],[8.80834,3.43847],[8.81016,3.43311],[8.80509,3.42798],[8.80889,3.42724],[8.80653,3.41826],[8.79858,3.41355],[8.79521,3.40341],[8.78195,3.39461],[8.77104,3.3949],[8.76433,3.38539],[8.77317,3.36019],[8.77058,3.35786],[8.77294,3.35411],[8.77021,3.34696],[8.77295,3.34115],[8.7647,3.31557],[8.72669,3.2736],[8.72066,3.27087],[8.70133,3.24214],[8.69822,3.23051],[8.67524,3.20745],[8.66714,3.21077],[8.66254,3.21758],[8.64587,3.22501],[8.62775,3.23058],[8.61896,3.22826],[8.58812,3.24465],[8.58576,3.24186],[8.56863,3.24366],[8.56382,3.23682],[8.55841,3.23766],[8.52419,3.25101],[8.50507,3.25496],[8.49834,3.25233],[8.46492,3.26604],[8.45958,3.26562],[8.45021,3.27293],[8.44223,3.30231],[8.43767,3.31314],[8.42856,3.32624],[8.42205,3.3393],[8.4253,3.35041],[8.42921,3.35961],[8.43539,3.40192],[8.44215,3.42133],[8.45525,3.44652],[8.47389,3.46308],[8.49757,3.45653],[8.51027,3.46381],[8.51573,3.46356],[8.52301,3.46311],[8.5235,3.4632],[8.52711,3.46304],[8.55546,3.45786],[8.55583,3.45765],[8.55608,3.45775],[8.56275,3.45653],[8.5796,3.46332],[8.58513,3.47932],[8.58369,3.48868],[8.58538,3.498],[8.58169,3.50494],[8.57623,3.50716],[8.57352,3.51136],[8.57376,3.51193],[8.57366,3.512]],[[8.67675,3.32598],[8.67753,3.32873],[8.67788,3.33099],[8.67675,3.32598]],[[8.6585,3.28376],[8.67054,3.30408],[8.67146,3.30734],[8.6585,3.28376]]]}}]}}
