{"type":"FeatureCollection","features":[{"type":"Feature","properties":{"id":"GRD:ADM0:78934639B78408271870993","name":"Grenada","countryCode":"GRD","adminLevel":0,"sourceCode":"78934639B78408271870993","parentId":"GRD:ADM1:GRD-5070"},"geometry":{"type":"MultiPolygon","coordinates":[[[[-61.69229,12.01725],[-61.69588,12.01407],[-61.70792,12.01644],[-61.70659,12.01177],[-61.69824,12.0102],[-61.6991,12.0067],[-61.70954,12.01194],[-61.71039,12.01791],[-61.71752,12.01532],[-61.71343,12.0144],[-61.70646,12.00521],[-61.71325,12.00727],[-61.71492,12.00802],[-61.71674,12.0123],[-61.72168,12.0113],[-61.7264,12.01593],[-61.72537,12.01324],[-61.72964,12.01581],[-61.73529,12.01095],[-61.74001,12.01594],[-61.7388,12.00792],[-61.73998,12.0069],[-61.74806,12.00524],[-61.75256,12.00584],[-61.75263,12.00429],[-61.75695,12.0034],[-61.76364,12.00374],[-61.76488,12.00731],[-61.7656,12.00384],[-61.77554,12.00434],[-61.79052,12.00837],[-61.78758,12.01022],[-61.7858,12.01069],[-61.77323,12.01864],[-61.77284,12.01953],[-61.76901,12.02195],[-61.76836,12.0217],[-61.75829,12.02639],[-61.75478,12.03128],[-61.7495,12.03632],[-61.74761,12.04412],[-61.74587,12.04384],[-61.7474,12.045],[-61.74596,12.05093],[-61.74885,12.06265],[-61.75302,12.0724],[-61.75234,12.07384],[-61.75402,12.07543],[-61.75642,12.08784],[-61.7548,12.09454],[-61.74957,12.10934],[-61.74592,12.10868],[-61.74891,12.11414],[-61.73029,12.14932],[-61.72964,12.16665],[-61.70425,12.19695],[-61.70387,12.19712],[-61.70187,12.19978],[-61.68663,12.21797],[-61.68121,12.21955],[-61.66374,12.23401],[-61.65447,12.23463],[-61.643,12.22493],[-61.63444,12.22498],[-61.6251,12.22983],[-61.61296,12.22765],[-61.60603,12.22338],[-61.60668,12.22028],[-61.61295,12.21442],[-61.61003,12.20853],[-61.61016,12.20815],[-61.60441,12.19618],[-61.60335,12.18763],[-61.6045,12.18434],[-61.60324,12.17649],[-61.60388,12.16752],[-61.60524,12.1666],[-61.60965,12.13164],[-61.60822,12.12821],[-61.60871,12.12678],[-61.61001,12.12474],[-61.62101,12.12327],[-61.62739,12.10713],[-61.62218,12.10204],[-61.62568,12.09377],[-61.61729,12.07688],[-61.61831,12.07641],[-61.62669,12.07506],[-61.62743,12.0655],[-61.62527,12.06411],[-61.62555,12.06232],[-61.62883,12.05891],[-61.63282,12.06091],[-61.63068,12.05496],[-61.63716,12.05417],[-61.63259,12.04968],[-61.63741,12.04863],[-61.63471,12.04423],[-61.63861,12.04361],[-61.63846,12.04055],[-61.63917,12.04019],[-61.64441,12.04054],[-61.64331,12.03806],[-61.64332,12.03805],[-61.64826,12.04141],[-61.65162,12.03877],[-61.64795,12.03567],[-61.66383,12.0275],[-61.66389,12.02754],[-61.66387,12.02747],[-61.6721,12.02324],[-61.6726,12.02368],[-61.67251,12.02303],[-61.67443,12.02204],[-61.67443,12.02949],[-61.68297,12.02538],[-61.68936,12.01976],[-61.69115,12.01647],[-61.69229,12.01725]]],[[[-61.58233,12.3102],[-61.58213,12.30985],[-61.58515,12.30675],[-61.58292,12.30085],[-61.58667,12.29348],[-61.59612,12.29938],[-61.58702,12.30991],[-61.5881,12.31497],[-61.58735,12.31537],[-61.58047,12.31155],[-61.58093,12.31109],[-61.58233,12.3102]]],[[[-61.42814,12.48595],[-61.43198,12.47914],[-61.43014,12.45802],[-61.43456,12.45655],[-61.44567,12.45978],[-61.45377,12.45756],[-61.45516,12.45801],[-61.45831,12.45631],[-61.46255,12.45515],[-61.47872,12.44698],[-61.48745,12.44844],[-61.49445,12.44355],[-61.49279,12.44648],[-61.48978,12.45353],[-61.48503,12.45354],[-61.48292,12.45906],[-61.48519,12.4638],[-61.48266,12.46833],[-61.48575,12.46882],[-61.49625,12.46833],[-61.49478,12.47232],[-61.49414,12.47336],[-61.49351,12.47264],[-61.48197,12.47195],[-61.47811,12.4786],[-61.47771,12.47868],[-61.46728,12.47557],[-61.46289,12.48141],[-61.45983,12.48198],[-61.45405,12.48818],[-61.45446,12.49266],[-61.45434,12.49282],[-61.44962,12.50313],[-61.44885,12.50409],[-61.44892,12.50466],[-61.44347,12.51655],[-61.43322,12.52531],[-61.4291,12.52384],[-61.42939,12.50925],[-61.42258,12.50313],[-61.42327,12.4958],[-61.4248,12.49358],[-61.42412,12.49136],[-61.42516,12.48628],[-61.42814,12.48595]]],[[[-61.49496,12.44085],[-61.49625,12.44037],[-61.49465,12.44319],[-61.49496,12.44085]]],[[[-61.38828,12.51169],[-61.39391,12.51857],[-61.38386,12.52021],[-61.38686,12.51165],[-61.38828,12.51169]]]]}}],"admin1":{"type":"FeatureCollection","features":[{"type":"Feature","properties":{"id":"GRD:ADM1:GRD-5070","name":"Saint Andrew","countryCode":"GRD"},"geometry":{"type":"MultiPolygon","coordinates":[[[[-61.70792,12.01644],[-61.70659,12.01177],[-61.69824,12.0102],[-61.6991,12.0067],[-61.70954,12.01194],[-61.71039,12.01791],[-61.71752,12.01532],[-61.71343,12.0144],[-61.70646,12.00521],[-61.71325,12.00727],[-61.71492,12.00802],[-61.71674,12.0123],[-61.72168,12.0113],[-61.7264,12.01593],[-61.72537,12.01324],[-61.72964,12.01581],[-61.73529,12.01095],[-61.74001,12.01594],[-61.7388,12.00792],[-61.73998,12.0069],[-61.74806,12.00524],[-61.75256,12.00584],[-61.75263,12.00429],[-61.75695,12.0034],[-61.76364,12.00374],[-61.76488,12.00731],[-61.7656,12.00384],[-61.77554,12.00434],[-61.79052,12.00837],[-61.78758,12.01022],[-61.7858,12.01069],[-61.77323,12.01864],[-61.77284,12.01953],[-61.76901,12.02195],[-61.76836,12.0217],[-61.75829,12.02639],[-61.75478,12.03128],[-61.7495,12.03632],[-61.74761,12.04412],[-61.74587,12.04384],[-61.7474,12.045],[-61.74596,12.05093],[-61.74885,12.06265],[-61.75302,12.0724],[-61.75234,12.07384],[-61.75402,12.07543],[-61.75642,12.08784],[-61.7548,12.09454],[-61.74957,12.10934],[-61.74592,12.10868],[-61.74891,12.11414],[-61.73029,12.14932],[-61.72964,12.16665],[-61.70425,12.19695],[-61.70387,12.19712],[-61.70187,12.19978],[-61.68663,12.21797],[-61.68121,12.21955],[-61.66374,12.23401],[-61.65447,12.23463],[-61.643,12.22493],[-61.63444,12.22498],[-61.6251,12.22983],[-61.61296,12.22765],[-61.60603,12.22338],[-61.60668,12.22028],[-61.61295,12.21442],[-61.61003,12.20853],[-61.61016,12.20815],[-61.60441,12.19618],[-61.60335,12.18763],[-61.6045,12.18434],[-61.60324,12.17649],[-61.60388,12.16752],[-61.60524,12.1666],[-61.60965,12.13164],[-61.60822,12.12821],[-61.60871,12.12678],[-61.61001,12.12474],[-61.62101,12.12327],[-61.62739,12.10713],[-61.62218,12.10204],[-61.62568,12.09377],[-61.61729,12.07688],[-61.61831,12.07641],[-61.62669,12.07506],[-61.62743,12.0655],[-61.62527,12.06411],[-61.62555,12.06232],[-61.62883,12.05891],[-61.63282,12.06091],[-61.63068,12.05496],[-61.63716,12.05417],[-61.63259,12.04968],[-61.63741,12.04863],[-61.63471,12.04423],[-61.63861,12.04361],[-61.63846,12.04055],[-61.63917,12.04019],[-61.64441,12.04054],[-61.64331,12.03806],[-61.64332,12.03805],[-61.64826,12.04141],[-61.65162,12.03877],[-61.64795,12.03567],[-61.66383,12.0275],[-61.66389,12.02754],[-61.66387,12.02747],[-61.6721,12.02324],[-61.6726,12.02368],[-61.67251,12.02303],[-61.67443,12.02204],[-61.67443,12.02949],[-61.68297,12.02538],[-61.68936,12.01976],[-61.69115,12.01647],[-61.69229,12.01725],[-61.69588,12.01407],[-61.70792,12.01644]]],[[[-61.58515,12.30675],[-61.58292,12.30085],[-61.58667,12.29348],[-61.59612,12.29938],[-61.58702,12.30991],[-61.5881,12.31497],[-61.58735,12.31537],[-61.58047,12.31155],[-61.58093,12.31109],[-61.58233,12.3102],[-61.58213,12.30985],[-61.58515,12.30675]]],[[[-61.49465,12.44319],[-61.49496,12.44085],[-61.49625,12.44037],[-61.49465,12.44319]]],[[[-61.43456,12.45655],[-61.44567,12.45978],[-61.45377,12.45756],[-61.45516,12.45801],[-61.45831,12.45631],[-61.46255,12.45515],[-61.47872,12.44698],[-61.48745,12.44844],[-61.49445,12.44355],[-61.49279,12.44648],[-61.48978,12.45353],[-61.48503,12.45354],[-61.48292,12.45906],[-61.48519,12.4638],[-61.48266,12.46833],[-61.48575,12.46882],[-61.49625,12.46833],[-61.49478,12.47232],[-61.49414,12.47336],[-61.49351,12.47264],[-61.48197,12.47195],[-61.47811,12.4786],[-61.47771,12.47868],[-61.46728,12.47557],[-61.46289,12.48141],[-61.45983,12.48198],[-61.45405,12.48818],[-61.45446,12.49266],[-61.45434,12.49282],[-61.44962,12.50313],[-61.44885,12.50409],[-61.44892,12.50466],[-61.44347,12.51655],[-61.43322,12.52531],[-61.4291,12.52384],[-61.42939,12.50925],[-61.42258,12.50313],[-61.42327,12.4958],[-61.4248,12.49358],[-61.42412,12.49136],[-61.42516,12.48628],[-61.42814,12.48595],[-61.43198,12.47914],[-61.43014,12.45802],[-61.43456,12.45655]]],[[[-61.38686,12.51165],[-61.38828,12.51169],[-61.39391,12.51857],[-61.38386,12.52021],[-61.38686,12.51165]]]]}}]}}
