{"type":"FeatureCollection","features":[{"type":"Feature","properties":{"id":"GUM:ADM0:54299874B37751202631168","name":"Guam","countryCode":"GUM","adminLevel":0,"sourceCode":"54299874B37751202631168","parentId":"GUM:ADM1:GUM+00?"},"geometry":{"type":"MultiPolygon","coordinates":[[[[144.74848,13.48038],[144.74703,13.48032],[144.74769,13.48152],[144.74848,13.48038]]],[[[144.86839,13.65243],[144.87871,13.64554],[144.89056,13.6312],[144.89666,13.61799],[144.90257,13.61378],[144.90796,13.60503],[144.92717,13.59983],[144.93913,13.5995],[144.95192,13.59858],[144.95216,13.58686],[144.94276,13.56978],[144.93993,13.56668],[144.93993,13.56464],[144.93767,13.56053],[144.90699,13.51667],[144.90341,13.51346],[144.90283,13.51327],[144.89187,13.50634],[144.89181,13.50307],[144.87427,13.48735],[144.87055,13.48583],[144.86781,13.48268],[144.80828,13.44579],[144.78739,13.42449],[144.78515,13.42358],[144.78485,13.4219],[144.78346,13.42048],[144.7753,13.39651],[144.77037,13.39393],[144.77332,13.3907],[144.76938,13.37914],[144.76539,13.33896],[144.75944,13.33998],[144.75955,13.3359],[144.75681,13.33649],[144.75967,13.33552],[144.76109,13.33918],[144.76523,13.33728],[144.7601,13.28563],[144.75851,13.28326],[144.75816,13.28321],[144.75825,13.28287],[144.75338,13.27563],[144.74727,13.27828],[144.751,13.27368],[144.73833,13.26815],[144.74342,13.26504],[144.73825,13.26296],[144.72738,13.24661],[144.72153,13.24739],[144.71912,13.2512],[144.70627,13.24644],[144.68934,13.25102],[144.6864,13.25596],[144.67766,13.25461],[144.67343,13.26262],[144.67024,13.26506],[144.66259,13.2747],[144.66288,13.28461],[144.6576,13.29278],[144.66339,13.29786],[144.65835,13.29933],[144.65822,13.30632],[144.6534,13.31241],[144.6578,13.31501],[144.65063,13.322],[144.65278,13.32789],[144.64396,13.33826],[144.6359,13.34119],[144.64359,13.34888],[144.65202,13.37076],[144.65189,13.37769],[144.66045,13.39017],[144.66365,13.40108],[144.659,13.41204],[144.64188,13.41925],[144.63899,13.4305],[144.62727,13.43641],[144.62867,13.43879],[144.63648,13.4431],[144.64064,13.43781],[144.65447,13.43915],[144.65582,13.43992],[144.65519,13.43666],[144.65638,13.44024],[144.66086,13.44278],[144.66432,13.44222],[144.66467,13.43902],[144.66033,13.43693],[144.66306,13.4358],[144.66025,13.43112],[144.66383,13.42949],[144.66169,13.42687],[144.66738,13.41835],[144.67276,13.41834],[144.67045,13.42131],[144.67561,13.4284],[144.67688,13.42653],[144.6756,13.43585],[144.66745,13.43728],[144.66737,13.44234],[144.66993,13.44563],[144.67801,13.44169],[144.68148,13.44414],[144.68199,13.45478],[144.71485,13.47346],[144.71529,13.47384],[144.7166,13.4734],[144.72908,13.48085],[144.74907,13.47751],[144.75352,13.48147],[144.75602,13.47773],[144.769,13.48062],[144.77538,13.4908],[144.77474,13.49414],[144.76993,13.49576],[144.77244,13.50459],[144.78357,13.50814],[144.79134,13.50407],[144.7981,13.50637],[144.8046,13.51435],[144.80653,13.51999],[144.80371,13.52131],[144.80257,13.53578],[144.81115,13.54809],[144.8116,13.55488],[144.81164,13.55499],[144.81771,13.55872],[144.82523,13.57346],[144.83103,13.57664],[144.83793,13.59696],[144.83703,13.62407],[144.84781,13.6413],[144.85043,13.64374],[144.86611,13.65268],[144.86839,13.65243]],[[144.73816,13.41523],[144.73932,13.41635],[144.7384,13.41696],[144.73816,13.41523]],[[144.75109,13.41306],[144.74944,13.41327],[144.74966,13.41235],[144.75109,13.41306]],[[144.70264,13.35829],[144.70606,13.35867],[144.70523,13.36358],[144.70091,13.36116],[144.69701,13.35237],[144.6995,13.3425],[144.702,13.34515],[144.7007,13.35154],[144.70264,13.35829]],[[144.73281,13.26947],[144.7361,13.26782],[144.73502,13.27082],[144.73281,13.26947]]]]}}],"admin1":{"type":"FeatureCollection","features":[{"type":"Feature","properties":{"id":"GUM:ADM1:GUM+00?","name":"Guam","countryCode":"GUM"},"geometry":{"type":"MultiPolygon","coordinates":[[[[144.87871,13.64554],[144.89056,13.6312],[144.89666,13.61799],[144.90257,13.61378],[144.90796,13.60503],[144.92717,13.59983],[144.93913,13.5995],[144.95192,13.59858],[144.95216,13.58686],[144.94276,13.56978],[144.93993,13.56668],[144.93993,13.56464],[144.93767,13.56053],[144.90699,13.51667],[144.90341,13.51346],[144.90283,13.51327],[144.89187,13.50634],[144.89181,13.50307],[144.87427,13.48735],[144.87055,13.48583],[144.86781,13.48268],[144.80828,13.44579],[144.78739,13.42449],[144.78515,13.42358],[144.78485,13.4219],[144.78346,13.42048],[144.7753,13.39651],[144.77037,13.39393],[144.77332,13.3907],[144.76938,13.37914],[144.76539,13.33896],[144.75944,13.33998],[144.75955,13.3359],[144.75681,13.33649],[144.75967,13.33552],[144.76109,13.33918],[144.76523,13.33728],[144.7601,13.28563],[144.75851,13.28326],[144.75816,13.28321],[144.75825,13.28287],[144.75338,13.27563],[144.74727,13.27828],[144.751,13.27368],[144.73833,13.26815],[144.74342,13.26504],[144.73825,13.26296],[144.72738,13.24661],[144.72153,13.24739],[144.71912,13.2512],[144.70627,13.24644],[144.68934,13.25102],[144.6864,13.25596],[144.67766,13.25461],[144.67343,13.26262],[144.67024,13.26506],[144.66259,13.2747],[144.66288,13.28461],[144.6576,13.29278],[144.66339,13.29786],[144.65835,13.29933],[144.65822,13.30632],[144.6534,13.31241],[144.6578,13.31501],[144.65063,13.322],[144.65278,13.32789],[144.64396,13.33826],[144.6359,13.34119],[144.64359,13.34888],[144.65202,13.37076],[144.65189,13.37769],[144.66045,13.39017],[144.66365,13.40108],[144.659,13.41204],[144.64188,13.41925],[144.63899,13.4305],[144.62727,13.43641],[144.62867,13.43879],[144.63648,13.4431],[144.64064,13.43781],[144.65447,13.43915],[144.65582,13.43992],[144.65519,13.43666],[144.65638,13.44024],[144.66086,13.44278],[144.66432,13.44222],[144.66467,13.43902],[144.66033,13.43693],[144.66306,13.4358],[144.66025,13.43112],[144.66383,13.42949],[144.66169,13.42687],[144.66738,13.41835],[144.67276,13.41834],[144.67045,13.42131],[144.67561,13.4284],[144.67688,13.42653],[144.6756,13.43585],[144.66745,13.43728],[144.66737,13.44234],[144.66993,13.44563],[144.67801,13.44169],[144.68148,13.44414],[144.68199,13.45478],[144.71485,13.47346],[144.71529,13.47384],[144.7166,13.4734],[144.72908,13.48085],[144.74907,13.47751],[144.75352,13.48147],[144.75602,13.47773],[144.769,13.48062],[144.77538,13.4908],[144.77474,13.49414],[144.76993,13.49576],[144.77244,13.50459],[144.78357,13.50814],[144.79134,13.50407],[144.7981,13.50637],[144.8046,13.51435],[144.80653,13.51999],[144.80371,13.52131],[144.80257,13.53578],[144.81115,13.54809],[144.8116,13.55488],[144.81164,13.55499],[144.81771,13.55872],[144.82523,13.57346],[144.83103,13.57664],[144.83793,13.59696],[144.83703,13.62407],[144.84781,13.6413],[144.85043,13.64374],[144.86611,13.65268],[144.86839,13.65243],[144.87871,13.64554]],[[144.73932,13.41635],[144.7384,13.41696],[144.73816,13.41523],[144.73932,13.41635]],[[144.74944,13.41327],[144.74966,13.41235],[144.75109,13.41306],[144.74944,13.41327]],[[144.70606,13.35867],[144.70523,13.36358],[144.70091,13.36116],[144.69701,13.35237],[144.6995,13.3425],[144.702,13.34515],[144.7007,13.35154],[144.70264,13.35829],[144.70606,13.35867]],[[144.7361,13.26782],[144.73502,13.27082],[144.73281,13.26947],[144.7361,13.26782]]],[[[144.74703,13.48032],[144.74769,13.48152],[144.74848,13.48038],[144.74703,13.48032]]]]}}]}}
