{"type":"FeatureCollection","features":[{"type":"Feature","properties":{"id":"HKG:ADM0:HKG","name":"Hong Kong","countryCode":"HKG","adminLevel":0,"sourceCode":"HKG","parentId":"HKG:ADM1:HKG-5167"},"geometry":{"type":"MultiPolygon","coordinates":[[[[114.22983,22.55581],[114.33513,22.50642],[114.16749,22.44806],[114.20932,22.39867],[114.32374,22.48005],[114.39975,22.43614],[114.3576,22.33242],[114.25839,22.36209],[114.29672,22.25829],[113.89698,22.40876],[114.22983,22.55581]]],[[[114.13738,22.17878],[114.11085,22.17707],[114.1067,22.23578],[114.15463,22.2036],[114.13738,22.17878]]],[[[114.21559,22.28563],[114.20769,22.18956],[114.11256,22.27151],[114.21559,22.28563]]],[[[113.84645,22.19709],[113.89251,22.29271],[114.05486,22.33633],[114.00017,22.21613],[113.84645,22.19709]]]]}}],"admin1":{"type":"FeatureCollection","features":[{"type":"Feature","properties":{"id":"HKG:ADM1:HKG-5167","name":"Yuen Long","countryCode":"HKG"},"geometry":{"type":"MultiPolygon","coordinates":[[[[114.1067,22.23578],[114.15463,22.2036],[114.13738,22.17878],[114.11085,22.17707],[114.1067,22.23578]]],[[[114.11256,22.27151],[114.21559,22.28563],[114.20769,22.18956],[114.11256,22.27151]]],[[[114.05486,22.33633],[114.00017,22.21613],[113.84645,22.19709],[113.89251,22.29271],[114.05486,22.33633]]],[[[114.16749,22.44806],[114.20932,22.39867],[114.32374,22.48005],[114.39975,22.43614],[114.3576,22.33242],[114.25839,22.36209],[114.29672,22.25829],[113.89698,22.40876],[114.22983,22.55581],[114.33513,22.50642],[114.16749,22.44806]]]]}}]}}
