{"type":"FeatureCollection","features":[{"type":"Feature","properties":{"id":"HMD:ADM0:HMD","name":"Heard Island and McDonald Islands","countryCode":"HMD","adminLevel":0,"sourceCode":"HMD","parentId":"HMD:ADM1:HMD+00?"},"geometry":{"type":"Polygon","coordinates":[[[73.73512,-53.1124],[73.81218,-53.1185],[73.4734,-53.18922],[73.23601,-52.98203],[73.73512,-53.1124]]]}}],"admin1":{"type":"FeatureCollection","features":[{"type":"Feature","properties":{"id":"HMD:ADM1:HMD+00?","name":"Heard Island and McDonald Islands","countryCode":"HMD"},"geometry":{"type":"Polygon","coordinates":[[[73.73512,-53.1124],[73.81218,-53.1185],[73.4734,-53.18922],[73.23601,-52.98203],[73.73512,-53.1124]]]}}]}}
