{"type":"FeatureCollection","features":[{"type":"Feature","properties":{"id":"IMN:ADM0:33885001B56905634658786","name":"Isle of Man","countryCode":"IMN","adminLevel":0,"sourceCode":"33885001B56905634658786","parentId":"IMN:ADM1:IMN+00?"},"geometry":{"type":"MultiPolygon","coordinates":[[[[-4.81953,54.04733],[-4.82408,54.04472],[-4.82936,54.05189],[-4.82779,54.05476],[-4.81037,54.05976],[-4.80101,54.05793],[-4.80563,54.0503],[-4.81359,54.04401],[-4.81953,54.04733]]],[[[-4.62619,54.07093],[-4.62273,54.07082],[-4.62375,54.07265],[-4.63501,54.07712],[-4.64863,54.07537],[-4.65866,54.06965],[-4.66292,54.06824],[-4.66252,54.06515],[-4.67101,54.06704],[-4.68969,54.08153],[-4.69173,54.08199],[-4.69177,54.08255],[-4.69573,54.08289],[-4.7045,54.08487],[-4.70792,54.08393],[-4.72024,54.08499],[-4.72806,54.08371],[-4.73053,54.08151],[-4.72919,54.0777],[-4.73803,54.07752],[-4.73767,54.07231],[-4.73744,54.07221],[-4.74278,54.06904],[-4.74805,54.07019],[-4.75129,54.06512],[-4.76074,54.06139],[-4.76919,54.0609],[-4.76974,54.0599],[-4.79015,54.06379],[-4.79015,54.06856],[-4.78801,54.07197],[-4.78482,54.07306],[-4.78132,54.07477],[-4.78056,54.07504],[-4.77814,54.07567],[-4.77785,54.07598],[-4.77709,54.07624],[-4.76968,54.07746],[-4.77009,54.08414],[-4.76947,54.08479],[-4.76048,54.08541],[-4.76247,54.09071],[-4.77051,54.09106],[-4.77086,54.09683],[-4.75829,54.10731],[-4.75082,54.10722],[-4.74745,54.11634],[-4.73717,54.1249],[-4.72814,54.14256],[-4.72765,54.17259],[-4.72458,54.18281],[-4.72098,54.18499],[-4.71732,54.19218],[-4.71832,54.19419],[-4.71447,54.20034],[-4.71432,54.20075],[-4.71396,54.20118],[-4.71408,54.20144],[-4.71109,54.20991],[-4.71222,54.21634],[-4.70516,54.22137],[-4.68814,54.22378],[-4.66397,54.23355],[-4.6619,54.23512],[-4.66068,54.23543],[-4.65947,54.23696],[-4.64306,54.24942],[-4.61246,54.26545],[-4.59838,54.2766],[-4.5546,54.33918],[-4.53099,54.36612],[-4.50264,54.38185],[-4.47538,54.39281],[-4.45388,54.40025],[-4.41347,54.40838],[-4.40445,54.40965],[-4.40001,54.41109],[-4.36543,54.41805],[-4.36163,54.41636],[-4.36379,54.38824],[-4.37516,54.36627],[-4.37755,54.36188],[-4.37753,54.3617],[-4.38297,54.35118],[-4.38257,54.32975],[-4.36967,54.313],[-4.31877,54.30366],[-4.31322,54.2956],[-4.31312,54.29495],[-4.31438,54.29476],[-4.31659,54.2906],[-4.32512,54.29261],[-4.32317,54.2823],[-4.32673,54.28034],[-4.32777,54.27907],[-4.34228,54.27016],[-4.34279,54.26405],[-4.34689,54.26458],[-4.34629,54.26126],[-4.36296,54.25125],[-4.36945,54.24255],[-4.3657,54.24014],[-4.37065,54.23235],[-4.37947,54.22869],[-4.39916,54.22207],[-4.39831,54.21931],[-4.40099,54.21577],[-4.40121,54.20377],[-4.39299,54.20196],[-4.39078,54.19473],[-4.41259,54.18008],[-4.44689,54.16913],[-4.44983,54.16749],[-4.46616,54.16503],[-4.47764,54.15357],[-4.47538,54.15154],[-4.47507,54.14736],[-4.47671,54.14695],[-4.47503,54.14681],[-4.4746,54.14082],[-4.50812,54.1275],[-4.51053,54.12822],[-4.53128,54.12301],[-4.53042,54.11826],[-4.53566,54.11441],[-4.54134,54.11223],[-4.54221,54.10961],[-4.54377,54.10847],[-4.5485,54.10234],[-4.55097,54.10097],[-4.57665,54.10316],[-4.57713,54.10077],[-4.60409,54.09163],[-4.6064,54.08471],[-4.62304,54.07664],[-4.61829,54.07099],[-4.60796,54.07163],[-4.61603,54.06269],[-4.62076,54.06965],[-4.62515,54.07006],[-4.62619,54.07093]],[[-4.39249,54.32684],[-4.3913,54.32402],[-4.39137,54.32607],[-4.39249,54.32684]],[[-4.36893,54.40483],[-4.36604,54.40219],[-4.36933,54.40171],[-4.36343,54.40015],[-4.3628,54.40405],[-4.36893,54.40483]],[[-4.39859,54.4001],[-4.39644,54.40022],[-4.3968,54.40149],[-4.39859,54.4001]],[[-4.37821,54.40974],[-4.37556,54.41269],[-4.3824,54.41152],[-4.38004,54.4068],[-4.37197,54.40499],[-4.37821,54.40974]],[[-4.50958,54.26513],[-4.49203,54.26414],[-4.49959,54.26774],[-4.50045,54.27143],[-4.50775,54.26989],[-4.50438,54.26834],[-4.50683,54.26607],[-4.50958,54.26513]],[[-4.51873,54.21775],[-4.51593,54.21703],[-4.51372,54.2219],[-4.51727,54.2247],[-4.51873,54.21775]],[[-4.45622,54.19265],[-4.45066,54.19525],[-4.45249,54.19453],[-4.45622,54.19265]],[[-4.62363,54.17071],[-4.62066,54.17071],[-4.62066,54.17269],[-4.62363,54.17071]],[[-4.61941,54.16074],[-4.617,54.16021],[-4.61725,54.16155],[-4.61941,54.16074]],[[-4.67717,54.1381],[-4.6769,54.13595],[-4.67447,54.13631],[-4.67717,54.1381]]],[[[-4.60535,54.07322],[-4.60848,54.07349],[-4.60503,54.0754],[-4.60535,54.07322]]]]}}],"admin1":{"type":"FeatureCollection","features":[{"type":"Feature","properties":{"id":"IMN:ADM1:IMN+00?","name":"Isle of Man","countryCode":"IMN"},"geometry":{"type":"MultiPolygon","coordinates":[[[[-4.82408,54.04472],[-4.82936,54.05189],[-4.82779,54.05476],[-4.81037,54.05976],[-4.80101,54.05793],[-4.80563,54.0503],[-4.81359,54.04401],[-4.81953,54.04733],[-4.82408,54.04472]]],[[[-4.60503,54.0754],[-4.60535,54.07322],[-4.60848,54.07349],[-4.60503,54.0754]]],[[[-4.62375,54.07265],[-4.63501,54.07712],[-4.64863,54.07537],[-4.65866,54.06965],[-4.66292,54.06824],[-4.66252,54.06515],[-4.67101,54.06704],[-4.68969,54.08153],[-4.69173,54.08199],[-4.69177,54.08255],[-4.69573,54.08289],[-4.7045,54.08487],[-4.70792,54.08393],[-4.72024,54.08499],[-4.72806,54.08371],[-4.73053,54.08151],[-4.72919,54.0777],[-4.73803,54.07752],[-4.73767,54.07231],[-4.73744,54.07221],[-4.74278,54.06904],[-4.74805,54.07019],[-4.75129,54.06512],[-4.76074,54.06139],[-4.76919,54.0609],[-4.76974,54.0599],[-4.79015,54.06379],[-4.79015,54.06856],[-4.78801,54.07197],[-4.78482,54.07306],[-4.78132,54.07477],[-4.78056,54.07504],[-4.77814,54.07567],[-4.77785,54.07598],[-4.77709,54.07624],[-4.76968,54.07746],[-4.77009,54.08414],[-4.76947,54.08479],[-4.76048,54.08541],[-4.76247,54.09071],[-4.77051,54.09106],[-4.77086,54.09683],[-4.75829,54.10731],[-4.75082,54.10722],[-4.74745,54.11634],[-4.73717,54.1249],[-4.72814,54.14256],[-4.72765,54.17259],[-4.72458,54.18281],[-4.72098,54.18499],[-4.71732,54.19218],[-4.71832,54.19419],[-4.71447,54.20034],[-4.71432,54.20075],[-4.71396,54.20118],[-4.71408,54.20144],[-4.71109,54.20991],[-4.71222,54.21634],[-4.70516,54.22137],[-4.68814,54.22378],[-4.66397,54.23355],[-4.6619,54.23512],[-4.66068,54.23543],[-4.65947,54.23696],[-4.64306,54.24942],[-4.61246,54.26545],[-4.59838,54.2766],[-4.5546,54.33918],[-4.53099,54.36612],[-4.50264,54.38185],[-4.47538,54.39281],[-4.45388,54.40025],[-4.41347,54.40838],[-4.40445,54.40965],[-4.40001,54.41109],[-4.36543,54.41805],[-4.36163,54.41636],[-4.36379,54.38824],[-4.37516,54.36627],[-4.37755,54.36188],[-4.37753,54.3617],[-4.38297,54.35118],[-4.38257,54.32975],[-4.36967,54.313],[-4.31877,54.30366],[-4.31322,54.2956],[-4.31312,54.29495],[-4.31438,54.29476],[-4.31659,54.2906],[-4.32512,54.29261],[-4.32317,54.2823],[-4.32673,54.28034],[-4.32777,54.27907],[-4.34228,54.27016],[-4.34279,54.26405],[-4.34689,54.26458],[-4.34629,54.26126],[-4.36296,54.25125],[-4.36945,54.24255],[-4.3657,54.24014],[-4.37065,54.23235],[-4.37947,54.22869],[-4.39916,54.22207],[-4.39831,54.21931],[-4.40099,54.21577],[-4.40121,54.20377],[-4.39299,54.20196],[-4.39078,54.19473],[-4.41259,54.18008],[-4.44689,54.16913],[-4.44983,54.16749],[-4.46616,54.16503],[-4.47764,54.15357],[-4.47538,54.15154],[-4.47507,54.14736],[-4.47671,54.14695],[-4.47503,54.14681],[-4.4746,54.14082],[-4.50812,54.1275],[-4.51053,54.12822],[-4.53128,54.12301],[-4.53042,54.11826],[-4.53566,54.11441],[-4.54134,54.11223],[-4.54221,54.10961],[-4.54377,54.10847],[-4.5485,54.10234],[-4.55097,54.10097],[-4.57665,54.10316],[-4.57713,54.10077],[-4.60409,54.09163],[-4.6064,54.08471],[-4.62304,54.07664],[-4.61829,54.07099],[-4.60796,54.07163],[-4.61603,54.06269],[-4.62076,54.06965],[-4.62515,54.07006],[-4.62619,54.07093],[-4.62273,54.07082],[-4.62375,54.07265]],[[-4.39137,54.32607],[-4.39249,54.32684],[-4.3913,54.32402],[-4.39137,54.32607]],[[-4.36933,54.40171],[-4.36343,54.40015],[-4.3628,54.40405],[-4.36893,54.40483],[-4.36604,54.40219],[-4.36933,54.40171]],[[-4.3968,54.40149],[-4.39859,54.4001],[-4.39644,54.40022],[-4.3968,54.40149]],[[-4.3824,54.41152],[-4.38004,54.4068],[-4.37197,54.40499],[-4.37821,54.40974],[-4.37556,54.41269],[-4.3824,54.41152]],[[-4.49959,54.26774],[-4.50045,54.27143],[-4.50775,54.26989],[-4.50438,54.26834],[-4.50683,54.26607],[-4.50958,54.26513],[-4.49203,54.26414],[-4.49959,54.26774]],[[-4.51372,54.2219],[-4.51727,54.2247],[-4.51873,54.21775],[-4.51593,54.21703],[-4.51372,54.2219]],[[-4.45249,54.19453],[-4.45622,54.19265],[-4.45066,54.19525],[-4.45249,54.19453]],[[-4.62066,54.17269],[-4.62363,54.17071],[-4.62066,54.17071],[-4.62066,54.17269]],[[-4.61725,54.16155],[-4.61941,54.16074],[-4.617,54.16021],[-4.61725,54.16155]],[[-4.67447,54.13631],[-4.67717,54.1381],[-4.6769,54.13595],[-4.67447,54.13631]]]]}}]}}
