{"type":"FeatureCollection","features":[{"type":"Feature","properties":{"id":"IOT:ADM0:IOT","name":"British Indian Ocean Territory","countryCode":"IOT","adminLevel":0,"sourceCode":"IOT","parentId":"IOT:ADM1:IOT+00?"},"geometry":{"type":"MultiPolygon","coordinates":[[[[72.46754,-7.38388],[72.47153,-7.37908],[72.47478,-7.37656],[72.47771,-7.37282],[72.48032,-7.36468],[72.48316,-7.37029],[72.48463,-7.37591],[72.48414,-7.3825],[72.48064,-7.39056],[72.47267,-7.4],[72.4441,-7.42498],[72.43287,-7.43222],[72.42693,-7.40398],[72.43287,-7.34678],[72.42604,-7.32293],[72.41944,-7.31731],[72.39666,-7.30486],[72.38819,-7.3025],[72.37924,-7.29681],[72.35768,-7.26832],[72.37094,-7.2702],[72.42018,-7.30389],[72.43287,-7.31609],[72.43897,-7.34026],[72.43287,-7.42539],[72.44321,-7.41644],[72.46754,-7.38388]]],[[[72.48422,-7.27825],[72.49464,-7.29616],[72.48959,-7.30983],[72.47934,-7.32317],[72.47381,-7.34002],[72.47429,-7.34694],[72.47535,-7.3528],[72.47902,-7.36191],[72.47495,-7.35654],[72.47047,-7.34889],[72.46803,-7.34059],[72.47071,-7.33319],[72.4865,-7.30242],[72.47722,-7.27842],[72.4568,-7.25514],[72.43971,-7.22674],[72.45045,-7.23414],[72.48422,-7.27825]]],[[[71.35035,-6.65252],[71.36207,-6.65293],[71.35523,-6.65634],[71.35174,-6.65569],[71.35035,-6.6535],[71.35035,-6.65252]]],[[[71.2614,-6.3886],[71.261,-6.37803],[71.26238,-6.37396],[71.26735,-6.37005],[71.26881,-6.37811],[71.26759,-6.38274],[71.26482,-6.38592],[71.2614,-6.3886]]],[[[71.33839,-6.1959],[71.3423,-6.18808],[71.34702,-6.18222],[71.35328,-6.1784],[71.36052,-6.17734],[71.3567,-6.18874],[71.35108,-6.20029],[71.34474,-6.20485],[71.33839,-6.1959]]],[[[71.7732,-5.4402],[71.76466,-5.43385],[71.76238,-5.43174],[71.77174,-5.43336],[71.77459,-5.43572],[71.77418,-5.43808],[71.7732,-5.4402]]],[[[72.22145,-5.32781],[72.23097,-5.31927],[72.22828,-5.3248],[72.22535,-5.32724],[72.22291,-5.32773],[72.22145,-5.32781]]],[[[71.73707,-5.28525],[71.74708,-5.26995],[71.74545,-5.27874],[71.74236,-5.28314],[71.73894,-5.28493],[71.73707,-5.28525]]],[[[71.76027,-5.23659],[71.76856,-5.23414],[71.76645,-5.23919],[71.7645,-5.23968],[71.76271,-5.23797],[71.76027,-5.23659]]],[[[71.96616,-5.2348],[71.96461,-5.23235],[71.96274,-5.23121],[71.96168,-5.23008],[71.96274,-5.22698],[71.96648,-5.22747],[71.96705,-5.22918],[71.96616,-5.2317],[71.96616,-5.2348]]]]}}],"admin1":{"type":"FeatureCollection","features":[{"type":"Feature","properties":{"id":"IOT:ADM1:IOT+00?","name":"British Indian Ocean Territory","countryCode":"IOT"},"geometry":{"type":"MultiPolygon","coordinates":[[[[72.47771,-7.37282],[72.48032,-7.36468],[72.48316,-7.37029],[72.48463,-7.37591],[72.48414,-7.3825],[72.48064,-7.39056],[72.47267,-7.4],[72.4441,-7.42498],[72.43287,-7.43222],[72.42693,-7.40398],[72.43287,-7.34678],[72.42604,-7.32293],[72.41944,-7.31731],[72.39666,-7.30486],[72.38819,-7.3025],[72.37924,-7.29681],[72.35768,-7.26832],[72.37094,-7.2702],[72.42018,-7.30389],[72.43287,-7.31609],[72.43897,-7.34026],[72.43287,-7.42539],[72.44321,-7.41644],[72.46754,-7.38388],[72.47153,-7.37908],[72.47478,-7.37656],[72.47771,-7.37282]]],[[[72.47934,-7.32317],[72.47381,-7.34002],[72.47429,-7.34694],[72.47535,-7.3528],[72.47902,-7.36191],[72.47495,-7.35654],[72.47047,-7.34889],[72.46803,-7.34059],[72.47071,-7.33319],[72.4865,-7.30242],[72.47722,-7.27842],[72.4568,-7.25514],[72.43971,-7.22674],[72.45045,-7.23414],[72.48422,-7.27825],[72.49464,-7.29616],[72.48959,-7.30983],[72.47934,-7.32317]]],[[[71.35174,-6.65569],[71.35035,-6.6535],[71.35035,-6.65252],[71.36207,-6.65293],[71.35523,-6.65634],[71.35174,-6.65569]]],[[[71.26881,-6.37811],[71.26759,-6.38274],[71.26482,-6.38592],[71.2614,-6.3886],[71.261,-6.37803],[71.26238,-6.37396],[71.26735,-6.37005],[71.26881,-6.37811]]],[[[71.36052,-6.17734],[71.3567,-6.18874],[71.35108,-6.20029],[71.34474,-6.20485],[71.33839,-6.1959],[71.3423,-6.18808],[71.34702,-6.18222],[71.35328,-6.1784],[71.36052,-6.17734]]],[[[71.77174,-5.43336],[71.77459,-5.43572],[71.77418,-5.43808],[71.7732,-5.4402],[71.76466,-5.43385],[71.76238,-5.43174],[71.77174,-5.43336]]],[[[72.22535,-5.32724],[72.22291,-5.32773],[72.22145,-5.32781],[72.23097,-5.31927],[72.22828,-5.3248],[72.22535,-5.32724]]],[[[71.74236,-5.28314],[71.73894,-5.28493],[71.73707,-5.28525],[71.74708,-5.26995],[71.74545,-5.27874],[71.74236,-5.28314]]],[[[71.76271,-5.23797],[71.76027,-5.23659],[71.76856,-5.23414],[71.76645,-5.23919],[71.7645,-5.23968],[71.76271,-5.23797]]],[[[71.96274,-5.22698],[71.96648,-5.22747],[71.96705,-5.22918],[71.96616,-5.2317],[71.96616,-5.2348],[71.96461,-5.23235],[71.96274,-5.23121],[71.96168,-5.23008],[71.96274,-5.22698]]]]}}]}}
