{"type":"FeatureCollection","features":[{"type":"Feature","properties":{"id":"ISR:ADM2:584046B11408100439208","name":"Ashqelon","countryCode":"ISR","adminLevel":2,"sourceCode":"584046B11408100439208","parentId":"ISR:ADM1:ISR-3053"},"geometry":{"type":"Polygon","coordinates":[[[34.66027,31.8514],[34.66444,31.86072],[34.67803,31.85423],[34.68797,31.86122],[34.69914,31.86017],[34.71156,31.85081],[34.70892,31.84434],[34.69511,31.83894],[34.69247,31.83023],[34.67881,31.82878],[34.66996,31.82271],[34.67073,31.802],[34.67601,31.8082],[34.683,31.80913],[34.69029,31.80174],[34.6757,31.78736],[34.67322,31.78261],[34.6757,31.77878],[34.68688,31.78221],[34.70489,31.77086],[34.70908,31.77099],[34.72023,31.78123],[34.72401,31.77878],[34.72917,31.78402],[34.7245,31.79162],[34.71258,31.80015],[34.71169,31.80429],[34.72679,31.80403],[34.73921,31.81324],[34.74636,31.81256],[34.76156,31.80462],[34.76226,31.79846],[34.75669,31.78909],[34.76325,31.78588],[34.76623,31.79407],[34.77597,31.79035],[34.78352,31.76459],[34.79813,31.75885],[34.79962,31.7673],[34.82556,31.79143],[34.82789,31.78478],[34.837,31.78216],[34.83847,31.77908],[34.83901,31.77077],[34.84316,31.76667],[34.84236,31.75529],[34.87048,31.75289],[34.87423,31.74936],[34.87356,31.74059],[34.86205,31.73296],[34.86955,31.72408],[34.86633,31.69571],[34.87089,31.68978],[34.86874,31.66892],[34.87182,31.65673],[34.89888,31.64282],[34.93169,31.61499],[34.95044,31.61248],[34.96258,31.60227],[34.95093,31.59242],[34.95035,31.58261],[34.94565,31.57812],[34.94587,31.55952],[34.94,31.53319],[34.9409,31.51819],[34.94646,31.50888],[34.94587,31.50041],[34.94179,31.49719],[34.93439,31.47546],[34.92384,31.46613],[34.92384,31.46022],[34.90097,31.43782],[34.88109,31.43558],[34.87632,31.43914],[34.86907,31.43914],[34.86648,31.43388],[34.86907,31.42549],[34.87433,31.42049],[34.87403,31.41421],[34.8633,31.41396],[34.84572,31.42184],[34.82803,31.44194],[34.78342,31.45846],[34.76444,31.4827],[34.7412,31.48253],[34.73096,31.47533],[34.73037,31.4694],[34.73653,31.45762],[34.73454,31.45194],[34.72262,31.46075],[34.70553,31.45618],[34.69082,31.46329],[34.68248,31.46084],[34.6791,31.46533],[34.6791,31.47363],[34.68039,31.48406],[34.68456,31.48728],[34.68456,31.49778],[34.68188,31.50108],[34.67294,31.50176],[34.66559,31.4999],[34.65704,31.49151],[34.6486,31.48973],[34.6474,31.48346],[34.62296,31.49363],[34.6174,31.48702],[34.61809,31.47177],[34.61541,31.46652],[34.60567,31.46846],[34.60379,31.46041],[34.5713,31.4649],[34.56603,31.47829],[34.54715,31.48304],[34.52987,31.47211],[34.53096,31.46092],[34.52023,31.45423],[34.51407,31.45651],[34.50264,31.45321],[34.49579,31.45609],[34.48903,31.45372],[34.47572,31.4577],[34.47099,31.46792],[34.4787,31.47727],[34.51146,31.50043],[34.5453,31.51182],[34.5647,31.53312],[34.56595,31.54291],[34.49236,31.59489],[34.51109,31.62223],[34.51165,31.62465],[34.51393,31.62714],[34.54155,31.66778],[34.55258,31.68126],[34.57441,31.71407],[34.58241,31.71861],[34.59939,31.74234],[34.60692,31.76249],[34.60963,31.76553],[34.65172,31.84651],[34.66027,31.8514]]]}},{"type":"Feature","properties":{"id":"ISR:ADM2:584046B13386645158990","name":"Zefat","countryCode":"ISR","adminLevel":2,"sourceCode":"584046B13386645158990","parentId":"ISR:ADM1:ISR-3056"},"geometry":{"type":"Polygon","coordinates":[[[35.62786,32.94558],[35.62391,32.95614],[35.63188,32.96218],[35.63351,32.96887],[35.63334,32.9895],[35.62956,32.99777],[35.63299,33.0087],[35.62879,33.01639],[35.64396,33.04772],[35.64731,33.06546],[35.64336,33.07509],[35.64902,33.08399],[35.6489,33.10041],[35.65416,33.10891],[35.65438,33.12545],[35.66843,33.14741],[35.66777,33.17115],[35.66349,33.17551],[35.66394,33.21001],[35.66908,33.21726],[35.66985,33.22995],[35.68459,33.23977],[35.68271,33.24766],[35.65408,33.25024],[35.64148,33.24429],[35.618,33.24319],[35.58621,33.26529],[35.58611,33.27808],[35.58015,33.28514],[35.56813,33.29029],[35.56415,33.28431],[35.56475,33.27326],[35.5568,33.25914],[35.54567,33.25241],[35.54557,33.23505],[35.53604,33.22939],[35.53633,33.20903],[35.54279,33.19689],[35.53623,33.16679],[35.53186,33.16288],[35.53127,33.15074],[35.52699,33.14417],[35.53226,33.13202],[35.52083,33.11746],[35.50454,33.11471],[35.50534,33.0974],[35.49987,33.09132],[35.45963,33.09307],[35.44602,33.09024],[35.44145,33.08444],[35.47615,33.08069],[35.48268,33.07486],[35.46834,33.05747],[35.46231,33.05309],[35.45267,33.05287],[35.44088,33.04344],[35.42749,33.02323],[35.40887,33.01189],[35.4145,32.99628],[35.42387,32.98583],[35.4295,32.9637],[35.43499,32.96291],[35.43593,32.94954],[35.41985,32.94807],[35.41517,32.94122],[35.40633,32.9456],[35.39106,32.94628],[35.39173,32.94088],[35.41249,32.9302],[35.40124,32.91581],[35.39017,32.91434],[35.37705,32.90492],[35.37794,32.89475],[35.3874,32.89393],[35.39052,32.90139],[35.39809,32.89756],[35.42239,32.9012],[35.42898,32.89572],[35.43431,32.88484],[35.4326,32.8766],[35.41652,32.8761],[35.42058,32.87297],[35.41861,32.8685],[35.42404,32.85979],[35.43446,32.86739],[35.44757,32.85873],[35.45833,32.86426],[35.46738,32.85794],[35.48318,32.85905],[35.49086,32.86403],[35.49854,32.85946],[35.50084,32.86297],[35.49903,32.86532],[35.48685,32.86762],[35.48043,32.87246],[35.4755,32.879],[35.47489,32.88927],[35.47028,32.89439],[35.47807,32.89153],[35.48087,32.89678],[35.48466,32.89733],[35.49859,32.88904],[35.51,32.88656],[35.51839,32.88854],[35.52295,32.88121],[35.52662,32.88089],[35.53666,32.88596],[35.53875,32.89227],[35.54977,32.89337],[35.56475,32.90116],[35.57473,32.89789],[35.58609,32.91009],[35.58735,32.91741],[35.61286,32.92805],[35.6133,32.93859],[35.62786,32.94558]]]}},{"type":"Feature","properties":{"id":"ISR:ADM2:584046B15624900320210","name":"Kinneret","countryCode":"ISR","adminLevel":2,"sourceCode":"584046B15624900320210","parentId":"ISR:ADM1:ISR-3056"},"geometry":{"type":"Polygon","coordinates":[[[35.38254,32.8933],[35.38682,32.8844],[35.38785,32.87066],[35.39479,32.86072],[35.39402,32.85575],[35.38828,32.85122],[35.38597,32.84063],[35.40397,32.81967],[35.40345,32.81081],[35.39447,32.8102],[35.40002,32.79431],[35.39788,32.77947],[35.38262,32.77341],[35.38177,32.76823],[35.38862,32.75864],[35.38322,32.75165],[35.38237,32.74249],[35.39325,32.74408],[35.40139,32.73737],[35.41177,32.73607],[35.41365,32.72721],[35.41014,32.72432],[35.39805,32.72894],[35.38605,32.72793],[35.37919,32.72259],[35.37842,32.70867],[35.38999,32.6993],[35.41339,32.68913],[35.41297,32.6809],[35.39934,32.6739],[35.40182,32.66748],[35.41399,32.67145],[35.44048,32.655],[35.44914,32.65731],[35.46628,32.65442],[35.47005,32.65038],[35.46791,32.63486],[35.47639,32.63205],[35.48162,32.62519],[35.49748,32.6236],[35.53459,32.60743],[35.54171,32.60887],[35.54136,32.61725],[35.55096,32.62562],[35.55173,32.6376],[35.55654,32.64482],[35.55542,32.6524],[35.53914,32.65565],[35.53116,32.66575],[35.53579,32.6721],[35.53326,32.67929],[35.54527,32.68405],[35.55992,32.68354],[35.55696,32.67574],[35.5732,32.65911],[35.56892,32.64566],[35.57528,32.64244],[35.58094,32.64528],[35.58879,32.64294],[35.59267,32.6529],[35.60678,32.65198],[35.60678,32.66051],[35.59952,32.6672],[35.61453,32.681],[35.62436,32.67765],[35.63354,32.6856],[35.63856,32.70362],[35.64834,32.71257],[35.64945,32.72641],[35.65708,32.74444],[35.65408,32.75547],[35.65879,32.75972],[35.66325,32.77644],[35.65339,32.79273],[35.65254,32.80901],[35.64259,32.81247],[35.64294,32.83545],[35.64911,32.83991],[35.64816,32.85395],[35.64199,32.86907],[35.62168,32.89239],[35.61371,32.89707],[35.62614,32.91103],[35.62254,32.91967],[35.62828,32.92859],[35.62786,32.94558],[35.6133,32.93859],[35.61286,32.92805],[35.58735,32.91741],[35.58609,32.91009],[35.57473,32.89789],[35.56475,32.90116],[35.54977,32.89337],[35.53875,32.89227],[35.53666,32.88596],[35.52662,32.88089],[35.52295,32.88121],[35.51839,32.88854],[35.51,32.88656],[35.49859,32.88904],[35.48466,32.89733],[35.48087,32.89678],[35.47807,32.89153],[35.47028,32.89439],[35.47489,32.88927],[35.4755,32.879],[35.48043,32.87246],[35.48685,32.86762],[35.49903,32.86532],[35.50084,32.86297],[35.49854,32.85946],[35.49086,32.86403],[35.48318,32.85905],[35.46738,32.85794],[35.45833,32.86426],[35.44757,32.85873],[35.43446,32.86739],[35.42404,32.85979],[35.41861,32.8685],[35.42058,32.87297],[35.41652,32.8761],[35.4326,32.8766],[35.43431,32.88484],[35.42898,32.89572],[35.42239,32.9012],[35.39809,32.89756],[35.39052,32.90139],[35.3874,32.89393],[35.38254,32.8933]]]}},{"type":"Feature","properties":{"id":"ISR:ADM2:584046B25822139954764","name":"Rehovot","countryCode":"ISR","adminLevel":2,"sourceCode":"584046B25822139954764","parentId":"ISR:ADM1:ISR-3055"},"geometry":{"type":"Polygon","coordinates":[[[34.87521,31.80909],[34.86888,31.8245],[34.85401,31.82689],[34.85254,31.83235],[34.85722,31.85169],[34.85106,31.85772],[34.84865,31.86545],[34.84022,31.86716],[34.83888,31.87091],[34.84236,31.87615],[34.83526,31.88615],[34.8512,31.90764],[34.83138,31.91685],[34.82147,31.91822],[34.81852,31.92254],[34.82294,31.9297],[34.82026,31.93765],[34.82388,31.94368],[34.83218,31.9472],[34.84249,31.97208],[34.83138,31.9906],[34.81493,32.01059],[34.80723,31.99582],[34.79686,31.98993],[34.78091,31.9908],[34.7696,31.9964],[34.7606,31.99393],[34.74946,31.99545],[34.74594,31.99931],[34.73351,32.00234],[34.71485,31.95477],[34.68817,31.91298],[34.66444,31.86072],[34.67803,31.85423],[34.68797,31.86122],[34.69914,31.86017],[34.71156,31.85081],[34.70892,31.84434],[34.69511,31.83894],[34.69247,31.83023],[34.67881,31.82878],[34.66996,31.82271],[34.67073,31.802],[34.67601,31.8082],[34.683,31.80913],[34.69029,31.80174],[34.6757,31.78736],[34.67322,31.78261],[34.6757,31.77878],[34.68688,31.78221],[34.70489,31.77086],[34.70908,31.77099],[34.72023,31.78123],[34.72401,31.77878],[34.72917,31.78402],[34.7245,31.79162],[34.71258,31.80015],[34.71169,31.80429],[34.72679,31.80403],[34.73921,31.81324],[34.74636,31.81256],[34.76156,31.80462],[34.76226,31.79846],[34.75669,31.78909],[34.76325,31.78588],[34.76623,31.79407],[34.77597,31.79035],[34.78352,31.76459],[34.79813,31.75885],[34.79962,31.7673],[34.82241,31.78934],[34.8429,31.80372],[34.87521,31.80909]]]}},{"type":"Feature","properties":{"id":"ISR:ADM2:584046B34315111222202","name":"Tel Aviv","countryCode":"ISR","adminLevel":2,"sourceCode":"584046B34315111222202","parentId":"ISR:ADM1:ISR-3057"},"geometry":{"type":"Polygon","coordinates":[[[34.81044,32.20107],[34.85334,32.1818],[34.86432,32.17058],[34.86365,32.15334],[34.85722,32.14609],[34.86847,32.12295],[34.8674,32.11898],[34.85897,32.11637],[34.84865,32.10582],[34.84879,32.08699],[34.8449,32.0778],[34.85334,32.07303],[34.8488,32.0671],[34.86663,32.06935],[34.8686,32.03281],[34.87528,32.02736],[34.87391,32.02249],[34.86448,32.01704],[34.84083,32.02191],[34.83766,32.02605],[34.82617,32.02453],[34.81546,32.01152],[34.81194,32.00127],[34.79686,31.98993],[34.78091,31.9908],[34.7696,31.9964],[34.7606,31.99393],[34.74946,31.99545],[34.74594,31.99931],[34.73351,32.00234],[34.74153,32.02739],[34.74279,32.03833],[34.74334,32.03986],[34.74399,32.04462],[34.74394,32.04501],[34.75002,32.05474],[34.75803,32.0607],[34.76603,32.079],[34.77016,32.09852],[34.78738,32.13468],[34.7927,32.16135],[34.79671,32.17198],[34.81044,32.20107]]]}},{"type":"Feature","properties":{"id":"ISR:ADM2:584046B37321511847561","name":"Haifa","countryCode":"ISR","adminLevel":2,"sourceCode":"584046B37321511847561","parentId":"ISR:ADM1:ISR-3054"},"geometry":{"type":"Polygon","coordinates":[[[35.02728,32.8159],[35.03912,32.82078],[35.04906,32.82756],[35.05015,32.83982],[35.05636,32.84152],[35.06474,32.84999],[35.07862,32.88788],[35.08665,32.88779],[35.09523,32.87548],[35.10191,32.87325],[35.11468,32.83033],[35.12351,32.83177],[35.13474,32.82435],[35.14871,32.82248],[35.15008,32.80743],[35.15934,32.79554],[35.15034,32.78696],[35.15908,32.77889],[35.15951,32.77392],[35.1554,32.76859],[35.15428,32.75561],[35.14502,32.75035],[35.14382,32.74004],[35.13234,32.73658],[35.14888,32.73002],[35.13405,32.71693],[35.13446,32.70487],[35.12133,32.70273],[35.1145,32.70555],[35.11196,32.68808],[35.10365,32.67038],[35.10217,32.65947],[35.08168,32.65442],[35.06223,32.662],[35.07807,32.65178],[35.08048,32.64253],[35.07405,32.63779],[35.06133,32.64625],[35.04941,32.64617],[35.03708,32.66974],[35.02649,32.67615],[35.01887,32.67703],[35.01459,32.68308],[35.01909,32.69098],[35.0164,32.70519],[35.0023,32.70962],[35.00351,32.72266],[35.02263,32.728],[35.02554,32.73355],[35.01371,32.73377],[35.00583,32.751],[34.99991,32.74941],[34.99794,32.74098],[34.98714,32.73925],[34.97385,32.72865],[34.97403,32.74718],[34.96254,32.75669],[34.96203,32.76109],[34.96674,32.76808],[34.96108,32.77457],[34.95545,32.77563],[34.95596,32.78287],[34.9499,32.79307],[34.95038,32.821],[34.95072,32.82218],[34.95372,32.82971],[34.96203,32.83669],[34.971,32.8373],[34.98895,32.83506],[35.00326,32.82711],[35.00547,32.8272],[35.01873,32.82502],[35.02346,32.82586],[35.02728,32.8159]]]}},{"type":"Feature","properties":{"id":"ISR:ADM2:584046B54386898087809","name":"Petah Tiqwa","countryCode":"ISR","adminLevel":2,"sourceCode":"584046B54386898087809","parentId":"ISR:ADM1:ISR-3055"},"geometry":{"type":"Polygon","coordinates":[[[34.86892,32.01986],[34.87563,32.01501],[34.88505,32.01653],[34.91891,32.01028],[34.92594,32.0057],[34.9376,32.01094],[34.94488,31.99974],[34.95405,32.00512],[34.96168,32.0214],[35.00503,32.0219],[35.00606,32.03129],[35.0004,32.05226],[34.98386,32.09391],[34.98598,32.09966],[34.99178,32.10335],[34.99285,32.10914],[34.98459,32.12689],[34.98939,32.13912],[34.98829,32.14929],[34.98158,32.14674],[34.97673,32.15218],[34.97523,32.16259],[34.95976,32.17719],[34.95871,32.1868],[34.95948,32.19579],[34.98947,32.20853],[35.01216,32.23349],[35.01909,32.23526],[35.02411,32.25171],[34.99477,32.24322],[34.985,32.2451],[34.98131,32.24075],[34.9844,32.22959],[34.98003,32.22197],[34.9604,32.21422],[34.95448,32.22415],[34.93811,32.22966],[34.92757,32.22821],[34.92465,32.22205],[34.91351,32.21683],[34.88994,32.22901],[34.88505,32.22807],[34.88437,32.22096],[34.88891,32.20986],[34.88077,32.20667],[34.87648,32.20116],[34.87134,32.20776],[34.84914,32.20667],[34.84906,32.20109],[34.84297,32.19572],[34.84308,32.18609],[34.85334,32.1818],[34.86432,32.17058],[34.86365,32.15334],[34.85722,32.14609],[34.86847,32.12295],[34.8674,32.11898],[34.85897,32.11637],[34.84865,32.10582],[34.84879,32.08699],[34.8449,32.0778],[34.85334,32.07303],[34.8488,32.0671],[34.86663,32.06935],[34.8686,32.03281],[34.87528,32.02736],[34.87391,32.02249],[34.86892,32.01986]]]}},{"type":"Feature","properties":{"id":"ISR:ADM2:584046B58948260517771","name":"Ramla","countryCode":"ISR","adminLevel":2,"sourceCode":"584046B58948260517771","parentId":"ISR:ADM1:ISR-3055"},"geometry":{"type":"Polygon","coordinates":[[[34.99826,31.85253],[35.00508,31.85553],[35.03131,31.85637],[35.03558,31.86177],[35.04001,31.88525],[35.0374,31.89335],[35.04046,31.90506],[35.03753,31.91581],[35.02621,31.92601],[35.00631,31.92881],[35.0025,31.93809],[35.00625,31.94187],[35.00618,31.94716],[34.99194,31.95838],[34.98819,31.9662],[34.99467,31.97419],[34.99595,31.98627],[35.00065,31.99393],[34.99843,32.00876],[34.9997,32.01598],[35.00503,32.0219],[34.96168,32.0214],[34.95405,32.00512],[34.94488,31.99974],[34.9376,32.01094],[34.92594,32.0057],[34.91891,32.01028],[34.88505,32.01653],[34.87563,32.01501],[34.86892,32.01986],[34.8596,32.01726],[34.84083,32.02191],[34.83766,32.02605],[34.82617,32.02453],[34.81493,32.01059],[34.84249,31.97208],[34.83218,31.9472],[34.82388,31.94368],[34.82026,31.93765],[34.82294,31.9297],[34.81852,31.92254],[34.82147,31.91822],[34.83138,31.91685],[34.8512,31.90764],[34.83526,31.88615],[34.84236,31.87615],[34.83888,31.87091],[34.84022,31.86716],[34.84865,31.86545],[34.85106,31.85772],[34.85722,31.85169],[34.85254,31.83235],[34.85401,31.82689],[34.86888,31.8245],[34.87521,31.80909],[34.89785,31.80965],[34.91291,31.81453],[34.9126,31.83287],[34.92362,31.84144],[34.93123,31.83933],[34.93806,31.84659],[34.9719,31.85634],[34.99286,31.85661],[34.99826,31.85253]]]}},{"type":"Feature","properties":{"id":"ISR:ADM2:584046B61571705909900","name":"HaSharon","countryCode":"ISR","adminLevel":2,"sourceCode":"584046B61571705909900","parentId":"ISR:ADM1:ISR-3055"},"geometry":{"type":"Polygon","coordinates":[[[34.85166,32.33206],[34.87307,32.41173],[34.90954,32.4046],[34.9164,32.41123],[34.92693,32.41252],[34.93954,32.4116],[34.94602,32.40734],[34.98173,32.40479],[34.98469,32.40067],[34.99484,32.3971],[35.00504,32.38195],[35.01486,32.3813],[35.0277,32.37343],[35.04365,32.37872],[35.05031,32.37545],[35.05141,32.36277],[35.04238,32.35558],[35.04173,32.34785],[35.02883,32.34558],[35.02699,32.34011],[35.0191,32.34087],[35.01674,32.33736],[35.01636,32.31263],[35.0121,32.30553],[35.0114,32.28548],[35.03124,32.26758],[35.02411,32.25171],[34.99477,32.24322],[34.985,32.2451],[34.98131,32.24075],[34.9844,32.22959],[34.98003,32.22197],[34.9604,32.21422],[34.95448,32.22415],[34.93811,32.22966],[34.92757,32.22821],[34.92465,32.22205],[34.91351,32.21683],[34.90074,32.2248],[34.88505,32.22807],[34.88437,32.22096],[34.88891,32.20986],[34.88077,32.20667],[34.87648,32.20116],[34.87134,32.20776],[34.84914,32.20667],[34.84906,32.20109],[34.84297,32.19572],[34.84308,32.18609],[34.81044,32.20107],[34.82452,32.24584],[34.83766,32.28071],[34.8443,32.30867],[34.85166,32.33206]]]}},{"type":"Feature","properties":{"id":"ISR:ADM2:584046B72217003232480","name":"Hadera","countryCode":"ISR","adminLevel":2,"sourceCode":"584046B72217003232480","parentId":"ISR:ADM1:ISR-3054"},"geometry":{"type":"Polygon","coordinates":[[[34.94626,32.71555],[34.95545,32.77563],[34.96108,32.77457],[34.96674,32.76808],[34.96203,32.76109],[34.96254,32.75669],[34.97403,32.74718],[34.97385,32.72865],[34.98714,32.73925],[34.99794,32.74098],[34.99991,32.74941],[35.00583,32.751],[35.01371,32.73377],[35.02554,32.73355],[35.02263,32.728],[35.00351,32.72266],[35.0023,32.70962],[35.0164,32.70519],[35.01909,32.69098],[35.01459,32.68308],[35.01887,32.67703],[35.02649,32.67615],[35.03708,32.66974],[35.04941,32.64617],[35.04834,32.63937],[35.05182,32.63497],[35.04727,32.62877],[35.05798,32.62347],[35.04606,32.60948],[35.0312,32.60079],[35.03495,32.58759],[35.04084,32.58477],[35.04392,32.57224],[35.0474,32.57089],[35.03642,32.56231],[35.04539,32.55599],[35.05611,32.55531],[35.06829,32.54786],[35.08209,32.54583],[35.08932,32.53262],[35.10137,32.54211],[35.14222,32.54391],[35.14356,32.55678],[35.1591,32.56502],[35.17611,32.56434],[35.19298,32.55497],[35.20659,32.54289],[35.18681,32.52298],[35.18021,32.52394],[35.16007,32.50404],[35.14147,32.49615],[35.13818,32.491],[35.11404,32.48032],[35.11201,32.47654],[35.09243,32.47654],[35.07461,32.46133],[35.06264,32.44004],[35.06163,32.43087],[35.05685,32.42423],[35.05605,32.40561],[35.0436,32.38535],[35.04365,32.37872],[35.0277,32.37343],[35.01486,32.3813],[35.00504,32.38195],[34.99484,32.3971],[34.98469,32.40067],[34.98173,32.40479],[34.94602,32.40734],[34.93954,32.4116],[34.92693,32.41252],[34.9164,32.41123],[34.90954,32.4046],[34.87307,32.41173],[34.88052,32.457],[34.87976,32.45798],[34.88415,32.47647],[34.88635,32.47665],[34.8895,32.48238],[34.91812,32.59996],[34.93074,32.67962],[34.92966,32.68043],[34.93584,32.7024],[34.94626,32.71555]]]}},{"type":"Feature","properties":{"id":"ISR:ADM2:584046B72335129252345","name":"Golan","countryCode":"ISR","adminLevel":2,"sourceCode":"584046B72335129252345","parentId":"ISR:ADM1:ISR-3056"},"geometry":{"type":"Polygon","coordinates":[[[35.62786,32.94558],[35.62828,32.92859],[35.62254,32.91967],[35.62614,32.91103],[35.61371,32.89707],[35.62168,32.89239],[35.64199,32.86907],[35.64816,32.85395],[35.64911,32.83991],[35.64294,32.83545],[35.64259,32.81247],[35.65254,32.80901],[35.65339,32.79273],[35.66325,32.77644],[35.65879,32.75972],[35.65408,32.75547],[35.65708,32.74444],[35.64945,32.72641],[35.64834,32.71257],[35.63856,32.70362],[35.63814,32.69569],[35.63342,32.69129],[35.63354,32.6856],[35.64572,32.67866],[35.65337,32.68485],[35.66341,32.68133],[35.67285,32.68644],[35.67166,32.69505],[35.67831,32.7065],[35.69153,32.70851],[35.70236,32.71578],[35.70782,32.71495],[35.7112,32.71963],[35.71617,32.71561],[35.72431,32.72698],[35.74726,32.73417],[35.83599,32.82798],[35.84553,32.85444],[35.84364,32.87105],[35.85308,32.89633],[35.86897,32.91843],[35.89511,32.94303],[35.88626,32.96121],[35.87384,32.9763],[35.86977,32.99071],[35.86828,33.01138],[35.86361,33.01738],[35.86321,33.03895],[35.85815,33.05003],[35.85844,33.06427],[35.85318,33.07476],[35.85189,33.09632],[35.84324,33.10381],[35.81642,33.11388],[35.81771,33.12753],[35.82238,33.13693],[35.83162,33.14591],[35.84404,33.16804],[35.83879,33.1795],[35.83841,33.19078],[35.8166,33.20525],[35.81642,33.24668],[35.7875,33.26529],[35.77816,33.27659],[35.81165,33.31471],[35.81045,33.31877],[35.78939,33.32874],[35.77151,33.3343],[35.74428,33.32434],[35.73107,33.32932],[35.71984,33.3284],[35.7116,33.31869],[35.70713,33.30466],[35.68646,33.29494],[35.66093,33.27559],[35.65715,33.27426],[35.64294,33.28032],[35.62397,33.2741],[35.62108,33.27002],[35.62257,33.24252],[35.64148,33.24429],[35.65408,33.25024],[35.68271,33.24766],[35.68459,33.23977],[35.66985,33.22995],[35.66908,33.21726],[35.66394,33.21001],[35.66349,33.17551],[35.66777,33.17115],[35.66843,33.14741],[35.65438,33.12545],[35.65416,33.10891],[35.6489,33.10041],[35.64902,33.08399],[35.64336,33.07509],[35.64731,33.06546],[35.64396,33.04772],[35.62879,33.01639],[35.63299,33.0087],[35.62956,32.99777],[35.63334,32.9895],[35.63351,32.96887],[35.63188,32.96218],[35.62391,32.95614],[35.62786,32.94558]]]}},{"type":"Feature","properties":{"id":"ISR:ADM2:584046B83064859640631","name":"Yizre'el","countryCode":"ISR","adminLevel":2,"sourceCode":"584046B83064859640631","parentId":"ISR:ADM1:ISR-3056"},"geometry":{"type":"Polygon","coordinates":[[[35.04941,32.64617],[35.04834,32.63937],[35.05182,32.63497],[35.04727,32.62877],[35.05798,32.62347],[35.05798,32.62042],[35.0312,32.60079],[35.03495,32.58759],[35.04084,32.58477],[35.04392,32.57224],[35.0474,32.57089],[35.03642,32.56231],[35.04539,32.55599],[35.05611,32.55531],[35.06829,32.54786],[35.08209,32.54583],[35.08932,32.53262],[35.10137,32.54211],[35.14222,32.54391],[35.14356,32.55678],[35.14718,32.55994],[35.1591,32.56502],[35.17611,32.56434],[35.19298,32.55497],[35.20659,32.54289],[35.21462,32.54465],[35.2234,32.55237],[35.22677,32.55162],[35.23662,32.53618],[35.25436,32.52262],[35.28737,32.51168],[35.3196,32.51195],[35.34377,32.52015],[35.37061,32.51602],[35.38333,32.50689],[35.40181,32.50136],[35.40906,32.47705],[35.4191,32.46289],[35.418,32.45451],[35.41363,32.44931],[35.41194,32.4322],[35.419,32.41786],[35.42764,32.41082],[35.44244,32.40754],[35.45546,32.41342],[35.47722,32.41258],[35.49192,32.40259],[35.50484,32.39857],[35.53037,32.39429],[35.54119,32.38765],[35.55458,32.3892],[35.55193,32.40083],[35.55899,32.40335],[35.557,32.40729],[35.56008,32.41056],[35.5573,32.41434],[35.55889,32.41803],[35.55352,32.42105],[35.55909,32.42382],[35.55581,32.42642],[35.5574,32.43354],[35.56664,32.43707],[35.56713,32.45006],[35.573,32.45518],[35.57101,32.46113],[35.56302,32.46512],[35.56766,32.4802],[35.57974,32.48744],[35.57624,32.49645],[35.5662,32.49849],[35.56175,32.50337],[35.56435,32.5076],[35.55348,32.51516],[35.55698,32.52111],[35.56639,32.52331],[35.56117,32.53248],[35.56181,32.54197],[35.56588,32.5395],[35.57058,32.54127],[35.57111,32.54919],[35.57707,32.55263],[35.57777,32.55706],[35.5725,32.56401],[35.57737,32.57247],[35.57747,32.59415],[35.56803,32.59951],[35.5722,32.61416],[35.56117,32.62654],[35.56545,32.62889],[35.56644,32.64445],[35.5732,32.65911],[35.55696,32.67574],[35.55992,32.68354],[35.54527,32.68405],[35.53326,32.67929],[35.53579,32.6721],[35.53116,32.66575],[35.53914,32.65565],[35.55542,32.6524],[35.55654,32.64482],[35.55173,32.6376],[35.55096,32.62562],[35.54136,32.61725],[35.54171,32.60887],[35.53854,32.60714],[35.50888,32.61674],[35.49748,32.6236],[35.48162,32.62519],[35.47639,32.63205],[35.46791,32.63486],[35.47005,32.65038],[35.46628,32.65442],[35.44914,32.65731],[35.44048,32.655],[35.41399,32.67145],[35.40182,32.66748],[35.39934,32.6739],[35.41297,32.6809],[35.41339,32.68913],[35.38999,32.6993],[35.37842,32.70867],[35.37919,32.72259],[35.38605,32.72793],[35.39805,32.72894],[35.41014,32.72432],[35.41365,32.72721],[35.41177,32.73607],[35.40139,32.73737],[35.39325,32.74408],[35.38237,32.74249],[35.38322,32.75165],[35.38862,32.75864],[35.38177,32.76823],[35.38262,32.77341],[35.39788,32.77947],[35.40002,32.79431],[35.39447,32.8102],[35.38365,32.81434],[35.37499,32.81198],[35.36387,32.82324],[35.35798,32.82335],[35.35718,32.80804],[35.35115,32.79904],[35.31911,32.79316],[35.31182,32.78927],[35.29442,32.78941],[35.28362,32.79763],[35.276,32.79849],[35.26717,32.7933],[35.2556,32.79575],[35.23811,32.79323],[35.23185,32.78884],[35.22945,32.77615],[35.22182,32.77147],[35.21497,32.77305],[35.2124,32.79323],[35.2064,32.79251],[35.2052,32.78091],[35.19637,32.77176],[35.18565,32.7763],[35.17996,32.78806],[35.17364,32.79231],[35.1593,32.79544],[35.15034,32.78696],[35.15977,32.77659],[35.1554,32.76859],[35.15428,32.75561],[35.14502,32.75035],[35.14382,32.74004],[35.13234,32.73658],[35.14888,32.73002],[35.13405,32.71693],[35.13446,32.70487],[35.12133,32.70273],[35.1145,32.70555],[35.11196,32.68808],[35.10365,32.67038],[35.10217,32.65947],[35.08168,32.65442],[35.06223,32.662],[35.07807,32.65178],[35.08048,32.64253],[35.07405,32.63779],[35.06133,32.64625],[35.04941,32.64617]]]}},{"type":"Feature","properties":{"id":"ISR:ADM2:584046B83749751332199","name":"Akko","countryCode":"ISR","adminLevel":2,"sourceCode":"584046B83749751332199","parentId":"ISR:ADM1:ISR-3056"},"geometry":{"type":"Polygon","coordinates":[[[35.14875,33.09157],[35.16028,33.08741],[35.17885,33.09332],[35.19098,33.087],[35.19952,33.08675],[35.20687,33.08916],[35.21224,33.09956],[35.22386,33.09915],[35.23797,33.09174],[35.29381,33.10681],[35.30345,33.10081],[35.31686,33.10356],[35.32282,33.0999],[35.32381,33.0825],[35.33335,33.07776],[35.33862,33.06818],[35.35302,33.05777],[35.37488,33.05394],[35.38363,33.0621],[35.40648,33.06202],[35.43211,33.06776],[35.44145,33.08444],[35.47615,33.08069],[35.48268,33.07486],[35.46834,33.05747],[35.46231,33.05309],[35.45267,33.05287],[35.44088,33.04344],[35.42749,33.02323],[35.40887,33.01189],[35.4145,32.99628],[35.42387,32.98583],[35.4295,32.9637],[35.43499,32.96291],[35.43593,32.94954],[35.41985,32.94807],[35.41517,32.94122],[35.40633,32.9456],[35.39106,32.94628],[35.39173,32.94088],[35.41249,32.9302],[35.40124,32.91581],[35.39017,32.91434],[35.37705,32.90492],[35.37794,32.89475],[35.38254,32.8933],[35.38682,32.8844],[35.38785,32.87066],[35.39479,32.86072],[35.39402,32.85575],[35.38828,32.85122],[35.38597,32.84063],[35.40165,32.82435],[35.40345,32.81081],[35.39222,32.81031],[35.38365,32.81434],[35.37499,32.81198],[35.36387,32.82324],[35.35798,32.82335],[35.35718,32.80804],[35.35115,32.79904],[35.31911,32.79316],[35.31182,32.78927],[35.29442,32.78941],[35.28362,32.79763],[35.276,32.79849],[35.26717,32.7933],[35.2556,32.79575],[35.23811,32.79323],[35.23185,32.78884],[35.22945,32.77615],[35.22182,32.77147],[35.21497,32.77305],[35.2124,32.79323],[35.2064,32.79251],[35.2052,32.78091],[35.19637,32.77176],[35.18565,32.7763],[35.17996,32.78806],[35.17364,32.79231],[35.15514,32.79849],[35.1542,32.80498],[35.15008,32.80743],[35.14871,32.82248],[35.13474,32.82435],[35.12351,32.83177],[35.11468,32.83033],[35.10191,32.87325],[35.09523,32.87548],[35.08665,32.88779],[35.07862,32.88788],[35.08228,32.9127],[35.08026,32.91987],[35.07382,32.91955],[35.06825,32.9219],[35.07188,32.93017],[35.07747,32.97198],[35.10215,33.05347],[35.1042,33.07923],[35.10646,33.08076],[35.10448,33.08273],[35.10497,33.08888],[35.10524,33.08902],[35.10524,33.09064],[35.10565,33.09215],[35.14875,33.09157]]]}},{"type":"Feature","properties":{"id":"ISR:ADM2:584046B86518607604876","name":"Jerusalem","countryCode":"ISR","adminLevel":2,"sourceCode":"584046B86518607604876","parentId":"ISR:ADM1:ISR-3058"},"geometry":{"type":"Polygon","coordinates":[[[34.96258,31.60227],[34.97979,31.61798],[34.99353,31.64234],[35.00631,31.65128],[35.02717,31.65707],[35.05057,31.6726],[35.08172,31.68694],[35.10519,31.71237],[35.11829,31.71296],[35.12503,31.72686],[35.13342,31.73249],[35.13972,31.7274],[35.15129,31.73714],[35.17329,31.72805],[35.18194,31.71967],[35.20718,31.72335],[35.22149,31.71545],[35.22823,31.71751],[35.23198,31.71193],[35.24038,31.70939],[35.2515,31.72454],[35.25271,31.73665],[35.2625,31.74525],[35.26155,31.75514],[35.25125,31.76266],[35.25074,31.76774],[35.2564,31.78315],[35.26219,31.7892],[35.25614,31.80704],[35.25697,31.81433],[35.26479,31.82438],[35.25475,31.83157],[35.25589,31.83897],[35.24807,31.84437],[35.24196,31.84469],[35.23643,31.84091],[35.23141,31.84291],[35.2262,31.84982],[35.22804,31.8623],[35.22518,31.87488],[35.21787,31.8825],[35.20648,31.87742],[35.20508,31.86705],[35.21151,31.86376],[35.21488,31.8502],[35.21589,31.81611],[35.18963,31.82789],[35.18486,31.8246],[35.18683,31.80968],[35.18391,31.80693],[35.14112,31.81287],[35.12274,31.82492],[35.10805,31.82638],[35.09527,31.83654],[35.08599,31.85031],[35.07689,31.8562],[35.06526,31.85679],[35.05222,31.8528],[35.02704,31.83054],[35.01611,31.82767],[34.97985,31.83088],[34.97965,31.83848],[34.99826,31.85253],[34.99286,31.85661],[34.9719,31.85634],[34.93806,31.84659],[34.93123,31.83933],[34.92362,31.84144],[34.9126,31.83287],[34.91291,31.81453],[34.89785,31.80965],[34.8727,31.80913],[34.8429,31.80372],[34.82556,31.79143],[34.82789,31.78478],[34.837,31.78216],[34.83847,31.77908],[34.83901,31.77077],[34.84316,31.76667],[34.84236,31.75529],[34.87048,31.75289],[34.87423,31.74936],[34.87356,31.74059],[34.86205,31.73296],[34.86955,31.72408],[34.86633,31.69571],[34.87089,31.68978],[34.86874,31.66892],[34.87182,31.65673],[34.89888,31.64282],[34.93169,31.61499],[34.95044,31.61248],[34.96258,31.60227]]]}},{"type":"Feature","properties":{"id":"ISR:ADM2:584046B9730835639199","name":"Be'er Sheva","countryCode":"ISR","adminLevel":2,"sourceCode":"584046B9730835639199","parentId":"ISR:ADM1:ISR-3053"},"geometry":{"type":"Polygon","coordinates":[[[34.28734,31.23887],[34.32071,31.25372],[34.33432,31.26562],[34.34278,31.27856],[34.36605,31.29154],[34.37203,31.30871],[34.37165,31.32018],[34.36694,31.32621],[34.3677,31.33647],[34.36421,31.34511],[34.36319,31.3608],[34.36713,31.37003],[34.3719,31.37285],[34.38392,31.39392],[34.40185,31.41157],[34.4239,31.42469],[34.43213,31.43648],[34.44967,31.44628],[34.47099,31.46792],[34.47572,31.4577],[34.48903,31.45372],[34.49579,31.45609],[34.50264,31.45321],[34.51407,31.45651],[34.52023,31.45423],[34.53096,31.46092],[34.52987,31.47211],[34.54715,31.48304],[34.56603,31.47829],[34.5713,31.4649],[34.60379,31.46041],[34.60567,31.46846],[34.61541,31.46652],[34.61809,31.47177],[34.6174,31.48702],[34.62296,31.49363],[34.6474,31.48346],[34.6486,31.48973],[34.65704,31.49151],[34.66559,31.4999],[34.67294,31.50176],[34.68188,31.50108],[34.68456,31.49778],[34.68456,31.48728],[34.68039,31.48406],[34.6791,31.47363],[34.6791,31.46533],[34.68248,31.46084],[34.69082,31.46329],[34.70553,31.45618],[34.72262,31.46075],[34.73454,31.45194],[34.73653,31.45762],[34.73037,31.4694],[34.73096,31.47533],[34.7412,31.48253],[34.76444,31.4827],[34.78342,31.45846],[34.82803,31.44194],[34.84572,31.42184],[34.8633,31.41396],[34.87403,31.41421],[34.87433,31.42049],[34.86907,31.42549],[34.86648,31.43388],[34.86907,31.43914],[34.87632,31.43914],[34.88109,31.43558],[34.90097,31.43782],[34.89389,31.41888],[34.88467,31.4052],[34.88162,31.38925],[34.88937,31.37948],[34.89154,31.36916],[34.9054,31.35884],[34.91093,31.35021],[34.92587,31.34147],[34.93408,31.34652],[34.96244,31.3475],[35.0154,31.35868],[35.15084,31.35985],[35.21343,31.37232],[35.22754,31.3791],[35.4031,31.49465],[35.465,31.49626],[35.47454,31.49405],[35.47563,31.49109],[35.47505,31.42308],[35.46643,31.38219],[35.44894,31.34321],[35.41899,31.30377],[35.40443,31.2729],[35.39896,31.25252],[35.39845,31.2441],[35.40475,31.22599],[35.4485,31.16927],[35.45797,31.13759],[35.45683,31.10656],[35.4518,31.09023],[35.42243,31.03821],[35.41702,31.00072],[35.41499,30.94985],[35.39305,30.92771],[35.37302,30.92662],[35.36812,30.9234],[35.35044,30.90229],[35.33124,30.86572],[35.32946,30.83979],[35.34046,30.81571],[35.33626,30.7996],[35.31617,30.79048],[35.31185,30.76759],[35.30829,30.76267],[35.29525,30.75879],[35.29455,30.73579],[35.28597,30.72114],[35.29385,30.71819],[35.29252,30.7084],[35.28215,30.70703],[35.27719,30.70162],[35.26969,30.67948],[35.26339,30.67187],[35.266,30.66701],[35.2599,30.65399],[35.22626,30.62351],[35.20667,30.58553],[35.20362,30.57606],[35.20305,30.54726],[35.19383,30.52782],[35.19281,30.49709],[35.18378,30.47445],[35.16,30.43669],[35.16019,30.42057],[35.16502,30.40148],[35.18811,30.35734],[35.19071,30.34663],[35.17724,30.32773],[35.15539,30.30532],[35.14603,30.28283],[35.15034,30.25907],[35.14493,30.23801],[35.15113,30.20516],[35.14417,30.16625],[35.14493,30.16103],[35.15402,30.15514],[35.15193,30.14228],[35.16076,30.13315],[35.16146,30.12232],[35.15441,30.09509],[35.14836,30.08683],[35.15173,30.08375],[35.14658,30.06317],[35.12961,30.06015],[35.11447,30.04259],[35.10137,30.01396],[35.11314,30.00598],[35.11593,29.99783],[35.09947,29.99116],[35.08904,29.97409],[35.09063,29.96533],[35.07702,29.95371],[35.07708,29.94968],[35.08382,29.94654],[35.08459,29.94175],[35.07702,29.92605],[35.08395,29.91932],[35.08344,29.88327],[35.06685,29.86066],[35.05642,29.83221],[35.05209,29.82801],[35.04414,29.79055],[35.03244,29.77824],[35.02774,29.76743],[35.01149,29.7048],[35.01112,29.69604],[35.01568,29.69091],[35.02012,29.6744],[35.01926,29.65474],[35.0135,29.63824],[35.00542,29.63066],[34.9803,29.58439],[34.97838,29.55013],[34.97608,29.55215],[34.96241,29.55215],[34.9616,29.55541],[34.9616,29.55809],[34.96022,29.55952],[34.95558,29.55899],[34.95135,29.54564],[34.94941,29.54296],[34.93291,29.52366],[34.92775,29.51801],[34.91977,29.50739],[34.91578,29.50023],[34.91416,29.49411],[34.90603,29.49078],[34.8806,29.53887],[34.8736,29.57947],[34.86642,29.59689],[34.87697,29.61309],[34.87831,29.64349],[34.85669,29.68857],[34.84887,29.76097],[34.8256,29.80843],[34.74815,30.02002],[34.70058,30.13496],[34.61849,30.35348],[34.60819,30.36961],[34.56514,30.39287],[34.54657,30.40686],[34.54092,30.41591],[34.54047,30.44557],[34.55236,30.46722],[34.55083,30.47418],[34.55643,30.48487],[34.55579,30.49391],[34.53659,30.5098],[34.51518,30.53348],[34.51814,30.59028],[34.49261,30.6844],[34.39709,30.86796],[34.28939,31.14987],[34.26747,31.21907],[34.28734,31.23887]]]}}],"admin1":{"type":"FeatureCollection","features":[{"type":"Feature","properties":{"id":"ISR:ADM1:ISR-3053","name":"Southern","countryCode":"ISR"},"geometry":{"type":"Polygon","coordinates":[[[34.32071,31.25372],[34.33432,31.26562],[34.34278,31.27856],[34.36605,31.29154],[34.37203,31.30871],[34.37165,31.32018],[34.36694,31.32621],[34.3677,31.33647],[34.36421,31.34511],[34.36319,31.3608],[34.36713,31.37003],[34.3719,31.37285],[34.38392,31.39392],[34.40185,31.41157],[34.4239,31.42469],[34.43213,31.43648],[34.44967,31.44628],[34.47099,31.46792],[34.4787,31.47727],[34.51146,31.50043],[34.5453,31.51182],[34.5647,31.53312],[34.56595,31.54291],[34.49236,31.59489],[34.51109,31.62223],[34.51165,31.62465],[34.51393,31.62714],[34.54155,31.66778],[34.55258,31.68126],[34.57441,31.71407],[34.58241,31.71861],[34.59939,31.74234],[34.60692,31.76249],[34.60963,31.76553],[34.65172,31.84651],[34.66027,31.8514],[34.66444,31.86072],[34.67803,31.85423],[34.68797,31.86122],[34.69914,31.86017],[34.71156,31.85081],[34.70892,31.84434],[34.69511,31.83894],[34.69247,31.83023],[34.67881,31.82878],[34.66996,31.82271],[34.67073,31.802],[34.67601,31.8082],[34.683,31.80913],[34.69029,31.80174],[34.6757,31.78736],[34.67322,31.78261],[34.6757,31.77878],[34.68688,31.78221],[34.70489,31.77086],[34.70908,31.77099],[34.72023,31.78123],[34.72401,31.77878],[34.72917,31.78402],[34.7245,31.79162],[34.71258,31.80015],[34.71169,31.80429],[34.72679,31.80403],[34.73921,31.81324],[34.74636,31.81256],[34.76156,31.80462],[34.76226,31.79846],[34.75669,31.78909],[34.76325,31.78588],[34.76623,31.79407],[34.77597,31.79035],[34.78352,31.76459],[34.79813,31.75885],[34.79962,31.7673],[34.82556,31.79143],[34.82789,31.78478],[34.837,31.78216],[34.83847,31.77908],[34.83901,31.77077],[34.84316,31.76667],[34.84236,31.75529],[34.87048,31.75289],[34.87423,31.74936],[34.87356,31.74059],[34.86205,31.73296],[34.86955,31.72408],[34.86633,31.69571],[34.87089,31.68978],[34.86874,31.66892],[34.87182,31.65673],[34.89888,31.64282],[34.93169,31.61499],[34.95044,31.61248],[34.96258,31.60227],[34.95093,31.59242],[34.95035,31.58261],[34.94565,31.57812],[34.94587,31.55952],[34.94,31.53319],[34.9409,31.51819],[34.94646,31.50888],[34.94587,31.50041],[34.94179,31.49719],[34.93439,31.47546],[34.92384,31.46613],[34.92384,31.46022],[34.90097,31.43782],[34.89389,31.41888],[34.88467,31.4052],[34.88162,31.38925],[34.88937,31.37948],[34.89154,31.36916],[34.9054,31.35884],[34.91093,31.35021],[34.92587,31.34147],[34.93408,31.34652],[34.96244,31.3475],[35.0154,31.35868],[35.15084,31.35985],[35.21343,31.37232],[35.22754,31.3791],[35.4031,31.49465],[35.465,31.49626],[35.47454,31.49405],[35.47563,31.49109],[35.47505,31.42308],[35.46643,31.38219],[35.44894,31.34321],[35.41899,31.30377],[35.40443,31.2729],[35.39896,31.25252],[35.39845,31.2441],[35.40475,31.22599],[35.4485,31.16927],[35.45797,31.13759],[35.45683,31.10656],[35.4518,31.09023],[35.42243,31.03821],[35.41702,31.00072],[35.41499,30.94985],[35.39305,30.92771],[35.37302,30.92662],[35.36812,30.9234],[35.35044,30.90229],[35.33124,30.86572],[35.32946,30.83979],[35.34046,30.81571],[35.33626,30.7996],[35.31617,30.79048],[35.31185,30.76759],[35.30829,30.76267],[35.29525,30.75879],[35.29455,30.73579],[35.28597,30.72114],[35.29385,30.71819],[35.29252,30.7084],[35.28215,30.70703],[35.27719,30.70162],[35.26969,30.67948],[35.26339,30.67187],[35.266,30.66701],[35.2599,30.65399],[35.22626,30.62351],[35.20667,30.58553],[35.20362,30.57606],[35.20305,30.54726],[35.19383,30.52782],[35.19281,30.49709],[35.18378,30.47445],[35.16,30.43669],[35.16019,30.42057],[35.16502,30.40148],[35.18811,30.35734],[35.19071,30.34663],[35.17724,30.32773],[35.15539,30.30532],[35.14603,30.28283],[35.15034,30.25907],[35.14493,30.23801],[35.15113,30.20516],[35.14417,30.16625],[35.14493,30.16103],[35.15402,30.15514],[35.15193,30.14228],[35.16076,30.13315],[35.16146,30.12232],[35.15441,30.09509],[35.14836,30.08683],[35.15173,30.08375],[35.14658,30.06317],[35.12961,30.06015],[35.11447,30.04259],[35.10137,30.01396],[35.11314,30.00598],[35.11593,29.99783],[35.09947,29.99116],[35.08904,29.97409],[35.09063,29.96533],[35.07702,29.95371],[35.07708,29.94968],[35.08382,29.94654],[35.08459,29.94175],[35.07702,29.92605],[35.08395,29.91932],[35.08344,29.88327],[35.06685,29.86066],[35.05642,29.83221],[35.05209,29.82801],[35.04414,29.79055],[35.03244,29.77824],[35.02774,29.76743],[35.01149,29.7048],[35.01112,29.69604],[35.01568,29.69091],[35.02012,29.6744],[35.01926,29.65474],[35.0135,29.63824],[35.00542,29.63066],[34.9803,29.58439],[34.97838,29.55013],[34.97608,29.55215],[34.96241,29.55215],[34.9616,29.55541],[34.9616,29.55809],[34.96022,29.55952],[34.95558,29.55899],[34.95135,29.54564],[34.94941,29.54296],[34.93291,29.52366],[34.92775,29.51801],[34.91977,29.50739],[34.91578,29.50023],[34.91416,29.49411],[34.90603,29.49078],[34.8806,29.53887],[34.8736,29.57947],[34.86642,29.59689],[34.87697,29.61309],[34.87831,29.64349],[34.85669,29.68857],[34.84887,29.76097],[34.8256,29.80843],[34.74815,30.02002],[34.70058,30.13496],[34.61849,30.35348],[34.60819,30.36961],[34.56514,30.39287],[34.54657,30.40686],[34.54092,30.41591],[34.54047,30.44557],[34.55236,30.46722],[34.55083,30.47418],[34.55643,30.48487],[34.55579,30.49391],[34.53659,30.5098],[34.51518,30.53348],[34.51814,30.59028],[34.49261,30.6844],[34.39709,30.86796],[34.28939,31.14987],[34.26747,31.21907],[34.28734,31.23887],[34.32071,31.25372]]]}},{"type":"Feature","properties":{"id":"ISR:ADM1:ISR-3054","name":"Haifa","countryCode":"ISR"},"geometry":{"type":"Polygon","coordinates":[[[34.95545,32.77563],[34.95596,32.78287],[34.9499,32.79307],[34.95038,32.821],[34.95072,32.82218],[34.95372,32.82971],[34.96203,32.83669],[34.971,32.8373],[34.98895,32.83506],[35.00326,32.82711],[35.00547,32.8272],[35.01873,32.82502],[35.02346,32.82586],[35.02728,32.8159],[35.03912,32.82078],[35.04906,32.82756],[35.05015,32.83982],[35.05636,32.84152],[35.06474,32.84999],[35.07862,32.88788],[35.08665,32.88779],[35.09523,32.87548],[35.10191,32.87325],[35.11468,32.83033],[35.12351,32.83177],[35.13474,32.82435],[35.14871,32.82248],[35.15008,32.80743],[35.15934,32.79554],[35.15034,32.78696],[35.15908,32.77889],[35.15951,32.77392],[35.1554,32.76859],[35.15428,32.75561],[35.14502,32.75035],[35.14382,32.74004],[35.13234,32.73658],[35.14888,32.73002],[35.13405,32.71693],[35.13446,32.70487],[35.12133,32.70273],[35.1145,32.70555],[35.11196,32.68808],[35.10365,32.67038],[35.10217,32.65947],[35.08168,32.65442],[35.06223,32.662],[35.07807,32.65178],[35.08048,32.64253],[35.07405,32.63779],[35.06133,32.64625],[35.04941,32.64617],[35.04834,32.63937],[35.05182,32.63497],[35.04727,32.62877],[35.05798,32.62347],[35.04606,32.60948],[35.0312,32.60079],[35.03495,32.58759],[35.04084,32.58477],[35.04392,32.57224],[35.0474,32.57089],[35.03642,32.56231],[35.04539,32.55599],[35.05611,32.55531],[35.06829,32.54786],[35.08209,32.54583],[35.08932,32.53262],[35.10137,32.54211],[35.14222,32.54391],[35.14356,32.55678],[35.1591,32.56502],[35.17611,32.56434],[35.19298,32.55497],[35.20659,32.54289],[35.18681,32.52298],[35.18021,32.52394],[35.16007,32.50404],[35.14147,32.49615],[35.13818,32.491],[35.11404,32.48032],[35.11201,32.47654],[35.09243,32.47654],[35.07461,32.46133],[35.06264,32.44004],[35.06163,32.43087],[35.05685,32.42423],[35.05605,32.40561],[35.0436,32.38535],[35.04365,32.37872],[35.0277,32.37343],[35.01486,32.3813],[35.00504,32.38195],[34.99484,32.3971],[34.98469,32.40067],[34.98173,32.40479],[34.94602,32.40734],[34.93954,32.4116],[34.92693,32.41252],[34.9164,32.41123],[34.90954,32.4046],[34.87307,32.41173],[34.88052,32.457],[34.87976,32.45798],[34.88415,32.47647],[34.88635,32.47665],[34.8895,32.48238],[34.91812,32.59996],[34.93074,32.67962],[34.92966,32.68043],[34.93584,32.7024],[34.94626,32.71555],[34.95545,32.77563]]]}},{"type":"Feature","properties":{"id":"ISR:ADM1:ISR-3055","name":"Central","countryCode":"ISR"},"geometry":{"type":"Polygon","coordinates":[[[34.82241,31.78934],[34.79962,31.7673],[34.79813,31.75885],[34.78352,31.76459],[34.77597,31.79035],[34.76623,31.79407],[34.76325,31.78588],[34.75669,31.78909],[34.76226,31.79846],[34.76156,31.80462],[34.74636,31.81256],[34.73921,31.81324],[34.72679,31.80403],[34.71169,31.80429],[34.71258,31.80015],[34.7245,31.79162],[34.72917,31.78402],[34.72401,31.77878],[34.72023,31.78123],[34.70908,31.77099],[34.70489,31.77086],[34.68688,31.78221],[34.6757,31.77878],[34.67322,31.78261],[34.6757,31.78736],[34.69029,31.80174],[34.683,31.80913],[34.67601,31.8082],[34.67073,31.802],[34.66996,31.82271],[34.67881,31.82878],[34.69247,31.83023],[34.69511,31.83894],[34.70892,31.84434],[34.71156,31.85081],[34.69914,31.86017],[34.68797,31.86122],[34.67803,31.85423],[34.66444,31.86072],[34.68817,31.91298],[34.71485,31.95477],[34.73351,32.00234],[34.74594,31.99931],[34.74946,31.99545],[34.7606,31.99393],[34.7696,31.9964],[34.78091,31.9908],[34.79686,31.98993],[34.80723,31.99582],[34.81493,32.01059],[34.82617,32.02453],[34.83766,32.02605],[34.84083,32.02191],[34.8596,32.01726],[34.86892,32.01986],[34.87391,32.02249],[34.87528,32.02736],[34.8686,32.03281],[34.86663,32.06935],[34.8488,32.0671],[34.85334,32.07303],[34.8449,32.0778],[34.84879,32.08699],[34.84865,32.10582],[34.85897,32.11637],[34.8674,32.11898],[34.86847,32.12295],[34.85722,32.14609],[34.86365,32.15334],[34.86432,32.17058],[34.85334,32.1818],[34.84308,32.18609],[34.81044,32.20107],[34.82452,32.24584],[34.83766,32.28071],[34.8443,32.30867],[34.85166,32.33206],[34.87307,32.41173],[34.90954,32.4046],[34.9164,32.41123],[34.92693,32.41252],[34.93954,32.4116],[34.94602,32.40734],[34.98173,32.40479],[34.98469,32.40067],[34.99484,32.3971],[35.00504,32.38195],[35.01486,32.3813],[35.0277,32.37343],[35.04365,32.37872],[35.05031,32.37545],[35.05141,32.36277],[35.04238,32.35558],[35.04173,32.34785],[35.02883,32.34558],[35.02699,32.34011],[35.0191,32.34087],[35.01674,32.33736],[35.01636,32.31263],[35.0121,32.30553],[35.0114,32.28548],[35.03124,32.26758],[35.02411,32.25171],[35.01909,32.23526],[35.01216,32.23349],[34.98947,32.20853],[34.95948,32.19579],[34.95871,32.1868],[34.95976,32.17719],[34.97523,32.16259],[34.97673,32.15218],[34.98158,32.14674],[34.98829,32.14929],[34.98939,32.13912],[34.98459,32.12689],[34.99285,32.10914],[34.99178,32.10335],[34.98598,32.09966],[34.98386,32.09391],[35.0004,32.05226],[35.00606,32.03129],[35.00503,32.0219],[34.9997,32.01598],[34.99843,32.00876],[35.00065,31.99393],[34.99595,31.98627],[34.99467,31.97419],[34.98819,31.9662],[34.99194,31.95838],[35.00618,31.94716],[35.00625,31.94187],[35.0025,31.93809],[35.00631,31.92881],[35.02621,31.92601],[35.03753,31.91581],[35.04046,31.90506],[35.0374,31.89335],[35.04001,31.88525],[35.03558,31.86177],[35.03131,31.85637],[35.00508,31.85553],[34.99826,31.85253],[34.99286,31.85661],[34.9719,31.85634],[34.93806,31.84659],[34.93123,31.83933],[34.92362,31.84144],[34.9126,31.83287],[34.91291,31.81453],[34.89785,31.80965],[34.87521,31.80909],[34.8429,31.80372],[34.82241,31.78934]],[[34.90074,32.2248],[34.89629,32.22573],[34.91351,32.21683],[34.90074,32.2248]]]}},{"type":"Feature","properties":{"id":"ISR:ADM1:ISR-3056","name":"Northern","countryCode":"ISR"},"geometry":{"type":"Polygon","coordinates":[[[35.56545,32.62889],[35.56117,32.62654],[35.5722,32.61416],[35.56803,32.59951],[35.57747,32.59415],[35.57737,32.57247],[35.5725,32.56401],[35.57777,32.55706],[35.57707,32.55263],[35.57111,32.54919],[35.57058,32.54127],[35.56588,32.5395],[35.56181,32.54197],[35.56117,32.53248],[35.56639,32.52331],[35.55698,32.52111],[35.55348,32.51516],[35.56435,32.5076],[35.56175,32.50337],[35.5662,32.49849],[35.57624,32.49645],[35.57974,32.48744],[35.56766,32.4802],[35.56302,32.46512],[35.57101,32.46113],[35.573,32.45518],[35.56713,32.45006],[35.56664,32.43707],[35.5574,32.43354],[35.55581,32.42642],[35.55909,32.42382],[35.55352,32.42105],[35.55889,32.41803],[35.5573,32.41434],[35.56008,32.41056],[35.557,32.40729],[35.55899,32.40335],[35.55193,32.40083],[35.55458,32.3892],[35.54119,32.38765],[35.53037,32.39429],[35.50484,32.39857],[35.49192,32.40259],[35.47722,32.41258],[35.45546,32.41342],[35.44244,32.40754],[35.42764,32.41082],[35.419,32.41786],[35.41194,32.4322],[35.41363,32.44931],[35.418,32.45451],[35.4191,32.46289],[35.40906,32.47705],[35.40181,32.50136],[35.38333,32.50689],[35.37061,32.51602],[35.34377,32.52015],[35.3196,32.51195],[35.28737,32.51168],[35.25436,32.52262],[35.23662,32.53618],[35.22677,32.55162],[35.2234,32.55237],[35.21462,32.54465],[35.20659,32.54289],[35.19298,32.55497],[35.17611,32.56434],[35.1591,32.56502],[35.14718,32.55994],[35.14356,32.55678],[35.14222,32.54391],[35.10137,32.54211],[35.08932,32.53262],[35.08209,32.54583],[35.06829,32.54786],[35.05611,32.55531],[35.04539,32.55599],[35.03642,32.56231],[35.0474,32.57089],[35.04392,32.57224],[35.04084,32.58477],[35.03495,32.58759],[35.0312,32.60079],[35.05798,32.62042],[35.05798,32.62347],[35.04727,32.62877],[35.05182,32.63497],[35.04834,32.63937],[35.04941,32.64617],[35.06133,32.64625],[35.07405,32.63779],[35.08048,32.64253],[35.07807,32.65178],[35.06223,32.662],[35.08168,32.65442],[35.10217,32.65947],[35.10365,32.67038],[35.11196,32.68808],[35.1145,32.70555],[35.12133,32.70273],[35.13446,32.70487],[35.13405,32.71693],[35.14888,32.73002],[35.13234,32.73658],[35.14382,32.74004],[35.14502,32.75035],[35.15428,32.75561],[35.1554,32.76859],[35.15977,32.77659],[35.15034,32.78696],[35.1593,32.79544],[35.17364,32.79231],[35.15514,32.79849],[35.1542,32.80498],[35.15008,32.80743],[35.14871,32.82248],[35.13474,32.82435],[35.12351,32.83177],[35.11468,32.83033],[35.10191,32.87325],[35.09523,32.87548],[35.08665,32.88779],[35.07862,32.88788],[35.08228,32.9127],[35.08026,32.91987],[35.07382,32.91955],[35.06825,32.9219],[35.07188,32.93017],[35.07747,32.97198],[35.10215,33.05347],[35.1042,33.07923],[35.10646,33.08076],[35.10448,33.08273],[35.10497,33.08888],[35.10524,33.08902],[35.10524,33.09064],[35.10565,33.09215],[35.14875,33.09157],[35.16028,33.08741],[35.17885,33.09332],[35.19098,33.087],[35.19952,33.08675],[35.20687,33.08916],[35.21224,33.09956],[35.22386,33.09915],[35.23797,33.09174],[35.29381,33.10681],[35.30345,33.10081],[35.31686,33.10356],[35.32282,33.0999],[35.32381,33.0825],[35.33335,33.07776],[35.33862,33.06818],[35.35302,33.05777],[35.37488,33.05394],[35.38363,33.0621],[35.40648,33.06202],[35.43211,33.06776],[35.44145,33.08444],[35.44602,33.09024],[35.45963,33.09307],[35.49987,33.09132],[35.50534,33.0974],[35.50454,33.11471],[35.52083,33.11746],[35.53226,33.13202],[35.52699,33.14417],[35.53127,33.15074],[35.53186,33.16288],[35.53623,33.16679],[35.54279,33.19689],[35.53633,33.20903],[35.53604,33.22939],[35.54557,33.23505],[35.54567,33.25241],[35.5568,33.25914],[35.56475,33.27326],[35.56415,33.28431],[35.56813,33.29029],[35.58015,33.28514],[35.58611,33.27808],[35.58621,33.26529],[35.618,33.24319],[35.62252,33.2434],[35.62108,33.27002],[35.62397,33.2741],[35.64294,33.28032],[35.65715,33.27426],[35.66093,33.27559],[35.68646,33.29494],[35.70713,33.30466],[35.7116,33.31869],[35.71984,33.3284],[35.73107,33.32932],[35.74428,33.32434],[35.77151,33.3343],[35.78939,33.32874],[35.81045,33.31877],[35.81165,33.31471],[35.77816,33.27659],[35.7875,33.26529],[35.81642,33.24668],[35.8166,33.20525],[35.83841,33.19078],[35.83879,33.1795],[35.84404,33.16804],[35.83162,33.14591],[35.82238,33.13693],[35.81771,33.12753],[35.81642,33.11388],[35.84324,33.10381],[35.85189,33.09632],[35.85318,33.07476],[35.85844,33.06427],[35.85815,33.05003],[35.86321,33.03895],[35.86361,33.01738],[35.86828,33.01138],[35.86977,32.99071],[35.87384,32.9763],[35.88626,32.96121],[35.89511,32.94303],[35.86897,32.91843],[35.85308,32.89633],[35.84364,32.87105],[35.84553,32.85444],[35.83599,32.82798],[35.74726,32.73417],[35.72431,32.72698],[35.71617,32.71561],[35.7112,32.71963],[35.70782,32.71495],[35.70236,32.71578],[35.69153,32.70851],[35.67831,32.7065],[35.67166,32.69505],[35.67285,32.68644],[35.66341,32.68133],[35.65337,32.68485],[35.64572,32.67866],[35.63354,32.6856],[35.62436,32.67765],[35.61453,32.681],[35.59952,32.6672],[35.60678,32.66051],[35.60678,32.65198],[35.59267,32.6529],[35.58879,32.64294],[35.58094,32.64528],[35.57528,32.64244],[35.56892,32.64566],[35.5732,32.65911],[35.56644,32.64445],[35.56545,32.62889]],[[35.39447,32.8102],[35.40345,32.81081],[35.39398,32.81039],[35.39447,32.8102]],[[35.40397,32.81967],[35.40196,32.82201],[35.40345,32.81081],[35.40397,32.81967]],[[35.3874,32.89393],[35.37794,32.89475],[35.38254,32.8933],[35.3874,32.89393]],[[35.63572,32.69344],[35.63814,32.69569],[35.63856,32.70362],[35.63572,32.69344]],[[35.54171,32.60887],[35.53647,32.60781],[35.53854,32.60714],[35.54171,32.60887]],[[35.52577,32.61127],[35.49748,32.6236],[35.50888,32.61674],[35.52577,32.61127]]]}},{"type":"Feature","properties":{"id":"ISR:ADM1:ISR-3057","name":"Tel Aviv","countryCode":"ISR"},"geometry":{"type":"Polygon","coordinates":[[[34.81044,32.20107],[34.85334,32.1818],[34.86432,32.17058],[34.86365,32.15334],[34.85722,32.14609],[34.86847,32.12295],[34.8674,32.11898],[34.85897,32.11637],[34.84865,32.10582],[34.84879,32.08699],[34.8449,32.0778],[34.85334,32.07303],[34.8488,32.0671],[34.86663,32.06935],[34.8686,32.03281],[34.87528,32.02736],[34.87391,32.02249],[34.86448,32.01704],[34.84083,32.02191],[34.83766,32.02605],[34.82617,32.02453],[34.81546,32.01152],[34.81194,32.00127],[34.79686,31.98993],[34.78091,31.9908],[34.7696,31.9964],[34.7606,31.99393],[34.74946,31.99545],[34.74594,31.99931],[34.73351,32.00234],[34.74153,32.02739],[34.74279,32.03833],[34.74334,32.03986],[34.74399,32.04462],[34.74394,32.04501],[34.75002,32.05474],[34.75803,32.0607],[34.76603,32.079],[34.77016,32.09852],[34.78738,32.13468],[34.7927,32.16135],[34.79671,32.17198],[34.81044,32.20107]]]}},{"type":"Feature","properties":{"id":"ISR:ADM1:ISR-3058","name":"Jerusalem","countryCode":"ISR"},"geometry":{"type":"Polygon","coordinates":[[[34.96258,31.60227],[34.97979,31.61798],[34.99353,31.64234],[35.00631,31.65128],[35.02717,31.65707],[35.05057,31.6726],[35.08172,31.68694],[35.10519,31.71237],[35.11829,31.71296],[35.12503,31.72686],[35.13342,31.73249],[35.13972,31.7274],[35.15129,31.73714],[35.17329,31.72805],[35.18194,31.71967],[35.20718,31.72335],[35.22149,31.71545],[35.22823,31.71751],[35.23198,31.71193],[35.24038,31.70939],[35.2515,31.72454],[35.25271,31.73665],[35.2625,31.74525],[35.26155,31.75514],[35.25125,31.76266],[35.25074,31.76774],[35.2564,31.78315],[35.26219,31.7892],[35.25614,31.80704],[35.25697,31.81433],[35.26479,31.82438],[35.25475,31.83157],[35.25589,31.83897],[35.24807,31.84437],[35.24196,31.84469],[35.23643,31.84091],[35.23141,31.84291],[35.2262,31.84982],[35.22804,31.8623],[35.22518,31.87488],[35.21787,31.8825],[35.20648,31.87742],[35.20508,31.86705],[35.21151,31.86376],[35.21488,31.8502],[35.21589,31.81611],[35.18963,31.82789],[35.18486,31.8246],[35.18683,31.80968],[35.18391,31.80693],[35.14112,31.81287],[35.12274,31.82492],[35.10805,31.82638],[35.09527,31.83654],[35.08599,31.85031],[35.07689,31.8562],[35.06526,31.85679],[35.05222,31.8528],[35.02704,31.83054],[35.01611,31.82767],[34.97985,31.83088],[34.97965,31.83848],[34.99826,31.85253],[34.99286,31.85661],[34.9719,31.85634],[34.93806,31.84659],[34.93123,31.83933],[34.92362,31.84144],[34.9126,31.83287],[34.91291,31.81453],[34.89785,31.80965],[34.8727,31.80913],[34.8429,31.80372],[34.82556,31.79143],[34.82789,31.78478],[34.837,31.78216],[34.83847,31.77908],[34.83901,31.77077],[34.84316,31.76667],[34.84236,31.75529],[34.87048,31.75289],[34.87423,31.74936],[34.87356,31.74059],[34.86205,31.73296],[34.86955,31.72408],[34.86633,31.69571],[34.87089,31.68978],[34.86874,31.66892],[34.87182,31.65673],[34.89888,31.64282],[34.93169,31.61499],[34.95044,31.61248],[34.96258,31.60227]]]}}]}}
