{"type":"FeatureCollection","features":[{"type":"Feature","properties":{"id":"JEY:ADM0:JEY","name":"Jersey","countryCode":"JEY","adminLevel":0,"sourceCode":"JEY","parentId":"JEY:ADM1:JEY+00?"},"geometry":{"type":"Polygon","coordinates":[[[-2.08267,49.26024],[-2.02453,49.17133],[-2.23363,49.18452],[-2.24112,49.26024],[-2.08267,49.26024]]]}}],"admin1":{"type":"FeatureCollection","features":[{"type":"Feature","properties":{"id":"JEY:ADM1:JEY+00?","name":"Jersey","countryCode":"JEY"},"geometry":{"type":"Polygon","coordinates":[[[-2.08267,49.26024],[-2.02453,49.17133],[-2.23363,49.18452],[-2.24112,49.26024],[-2.08267,49.26024]]]}}]}}
