{"type":"FeatureCollection","features":[{"type":"Feature","properties":{"id":"JOR:ADM2:86222999B1125449299555","name":"Al-Mafraq","countryCode":"JOR","adminLevel":2,"sourceCode":"86222999B1125449299555","parentId":"JOR:ADM1:JOR-850"},"geometry":{"type":"Polygon","coordinates":[[[36.34418,32.15383],[36.34205,32.16637],[36.34675,32.18122],[36.35664,32.20561],[36.35946,32.20561],[36.36371,32.21438],[36.40792,32.23509],[36.41827,32.24581],[36.42533,32.26809],[36.47016,32.2669],[36.47525,32.29408],[36.47254,32.31062],[36.46621,32.32513],[36.46922,32.37067],[36.39678,32.37984],[36.36073,32.41076],[36.34381,32.40141],[36.34143,32.39242],[36.34425,32.38391],[36.33203,32.36881],[36.32156,32.36689],[36.29603,32.37792],[36.2879,32.39267],[36.26424,32.41863],[36.23429,32.42849],[36.16514,32.42945],[36.1344,32.42226],[36.12511,32.42274],[36.08963,32.40336],[36.05386,32.39539],[36.0548,32.39159],[36.08012,32.37582],[36.13054,32.3609],[36.15553,32.35777],[36.17019,32.348],[36.17917,32.33192],[36.17877,32.3208],[36.18473,32.31144],[36.18072,32.29323],[36.1728,32.28269],[36.16996,32.26253],[36.20578,32.24405],[36.21255,32.23184],[36.20914,32.21992],[36.19056,32.19673],[36.19099,32.18586],[36.19672,32.18586],[36.2194,32.17498],[36.22908,32.16457],[36.25281,32.15096],[36.27819,32.1451],[36.30839,32.14565],[36.3218,32.15215],[36.34418,32.15383]]]}},{"type":"Feature","properties":{"id":"JOR:ADM2:86222999B11270423850308","name":"Al-Aghwar Shamaliyyeh","countryCode":"JOR","adminLevel":2,"sourceCode":"86222999B11270423850308","parentId":"JOR:ADM1:JOR-854"},"geometry":{"type":"Polygon","coordinates":[[[35.94762,32.5354],[35.92849,32.53424],[35.92112,32.52958],[35.9197,32.5241],[35.90686,32.52206],[35.89645,32.52214],[35.88312,32.53244],[35.84663,32.52373],[35.83499,32.51423],[35.83625,32.49894],[35.84521,32.48639],[35.85308,32.45898],[35.8631,32.45022],[35.86349,32.44512],[35.85125,32.43708],[35.85175,32.42822],[35.84756,32.42377],[35.83477,32.42014],[35.83186,32.4136],[35.83518,32.41062],[35.8668,32.4091],[35.86365,32.40004],[35.85826,32.3953],[35.8656,32.39301],[35.89865,32.41369],[35.92454,32.42274],[35.96296,32.40141],[35.98431,32.40141],[36.00156,32.39312],[36.00752,32.39518],[36.00816,32.41244],[35.99311,32.42969],[35.99368,32.44263],[35.97352,32.46203],[35.94854,32.47233],[35.95706,32.48933],[35.95479,32.51208],[35.94762,32.5354]]]}},{"type":"Feature","properties":{"id":"JOR:ADM2:86222999B11966316103194","name":"Birin","countryCode":"JOR","adminLevel":2,"sourceCode":"86222999B11966316103194","parentId":"JOR:ADM1:JOR-856"},"geometry":{"type":"Polygon","coordinates":[[[35.92884,32.06885],[35.93084,32.0654],[35.95866,32.05288],[35.99546,32.06997],[35.99868,32.07985],[36.00416,32.08497],[35.99458,32.10724],[35.99423,32.12202],[35.98703,32.13582],[35.98772,32.15477],[35.9947,32.16788],[35.9771,32.19282],[35.96231,32.20297],[35.91611,32.1934],[35.88424,32.17977],[35.86334,32.15715],[35.86403,32.15106],[35.85512,32.14091],[35.85649,32.13597],[35.85272,32.12698],[35.86231,32.11972],[35.87319,32.08424],[35.89031,32.09124],[35.90137,32.09174],[35.93118,32.07154],[35.92884,32.06885]]]}},{"type":"Feature","properties":{"id":"JOR:ADM2:86222999B15546982005952","name":"Al-Tafila","countryCode":"JOR","adminLevel":2,"sourceCode":"86222999B15546982005952","parentId":"JOR:ADM1:JOR-852"},"geometry":{"type":"Polygon","coordinates":[[[35.50396,30.62723],[35.51047,30.63353],[35.53596,30.63094],[35.54014,30.63995],[35.54026,30.64897],[35.54446,30.65322],[35.53103,30.68654],[35.52987,30.7061],[35.54278,30.71107],[35.59405,30.71322],[35.60388,30.71869],[35.6457,30.72764],[35.65268,30.72314],[35.65331,30.71927],[35.68544,30.7004],[35.69354,30.69912],[35.71623,30.75948],[35.70964,30.76959],[35.70309,30.83344],[35.71717,30.86639],[35.72357,30.89773],[35.74635,30.94479],[35.63938,30.97938],[35.61482,30.98126],[35.58741,30.97826],[35.57094,30.98655],[35.55863,30.98655],[35.48903,31.02372],[35.46922,31.01133],[35.46869,30.98655],[35.47458,30.96727],[35.47672,30.94386],[35.46976,30.92209],[35.45637,30.90123],[35.45423,30.88372],[35.45798,30.86877],[35.44743,30.82605],[35.42423,30.80417],[35.40037,30.79635],[35.37087,30.79727],[35.35003,30.81503],[35.33526,30.8152],[35.33154,30.80271],[35.32093,30.79857],[35.31664,30.79251],[35.30956,30.76187],[35.35246,30.694],[35.3584,30.69236],[35.43606,30.62586],[35.50396,30.62723]]]}},{"type":"Feature","properties":{"id":"JOR:ADM2:86222999B15878731234050","name":"Al-Aqaba","countryCode":"JOR","adminLevel":2,"sourceCode":"86222999B15878731234050","parentId":"JOR:ADM1:JOR-849"},"geometry":{"type":"Polygon","coordinates":[[[34.97796,29.57557],[35.0092,29.63095],[35.01741,29.65179],[35.01951,29.67671],[35.01048,29.69571],[35.03126,29.77396],[35.04361,29.78675],[35.05023,29.82042],[35.06047,29.83923],[35.17611,29.74514],[35.19388,29.72841],[35.19508,29.72318],[35.21887,29.69362],[35.24808,29.69205],[35.32427,29.6965],[35.36493,29.69414],[35.37968,29.6774],[35.38842,29.66536],[35.38962,29.6562],[35.38027,29.63461],[35.37838,29.62097],[35.3798,29.60692],[35.38688,29.59163],[35.45932,29.53108],[35.46835,29.51254],[35.48505,29.49546],[35.50074,29.46598],[35.50225,29.43651],[35.50767,29.42188],[35.50508,29.33517],[35.49993,29.3273],[35.50214,29.2977],[35.49905,29.27458],[34.95868,29.35717],[34.95868,29.35746],[34.96241,29.35977],[34.96405,29.38232],[34.96531,29.38591],[34.96464,29.39047],[34.9654,29.40099],[34.97434,29.40624],[34.96922,29.42142],[34.97073,29.43494],[34.96827,29.44073],[34.96894,29.44989],[34.97284,29.45376],[34.972,29.4619],[34.97355,29.46767],[34.97821,29.47307],[34.9835,29.49102],[34.98667,29.49697],[34.99994,29.51792],[34.99753,29.52868],[34.99714,29.52895],[34.99684,29.53388],[34.97796,29.5505],[34.97796,29.57557]]]}},{"type":"Feature","properties":{"id":"JOR:ADM2:86222999B24356459584241","name":"Wastiyyeh","countryCode":"JOR","adminLevel":2,"sourceCode":"86222999B24356459584241","parentId":"JOR:ADM1:JOR-854"},"geometry":{"type":"Polygon","coordinates":[[[35.96904,32.66219],[35.91793,32.6578],[35.90971,32.65096],[35.89052,32.62217],[35.867,32.60663],[35.8357,32.62382],[35.79364,32.6212],[35.76608,32.62904],[35.71683,32.6339],[35.7099,32.62197],[35.73782,32.56951],[35.76459,32.55324],[35.76459,32.54702],[35.75918,32.5422],[35.76973,32.53975],[35.77188,32.53497],[35.76247,32.53378],[35.75538,32.51907],[35.76232,32.51196],[35.76467,32.51741],[35.77027,32.518],[35.76885,32.49777],[35.77425,32.49556],[35.79031,32.49819],[35.80101,32.49371],[35.82031,32.50625],[35.82733,32.5037],[35.83444,32.50589],[35.83499,32.51423],[35.84663,32.52373],[35.88405,32.53246],[35.89645,32.52214],[35.91005,32.52236],[35.91988,32.52422],[35.92112,32.52958],[35.92849,32.53424],[35.94762,32.5354],[35.94656,32.55611],[35.95138,32.57956],[35.944,32.60922],[35.94457,32.61878],[35.96904,32.66219]]]}},{"type":"Feature","properties":{"id":"JOR:ADM2:86222999B29584929245749","name":"Al-Karak","countryCode":"JOR","adminLevel":2,"sourceCode":"86222999B29584929245749","parentId":"JOR:ADM1:JOR-859"},"geometry":{"type":"Polygon","coordinates":[[[35.65809,31.1777],[35.65073,31.17805],[35.62838,31.16861],[35.61527,31.15382],[35.61116,31.14447],[35.6091,31.12222],[35.61745,31.10201],[35.64045,31.09345],[35.67352,31.10182],[35.67558,31.12102],[35.67009,31.12766],[35.67078,31.15023],[35.66598,31.16734],[35.65809,31.1777]]]}},{"type":"Feature","properties":{"id":"JOR:ADM2:86222999B29585849598318","name":"Birsayra","countryCode":"JOR","adminLevel":2,"sourceCode":"86222999B29585849598318","parentId":"JOR:ADM1:JOR-852"},"geometry":{"type":"Polygon","coordinates":[[[35.6775,30.62387],[35.67812,30.64377],[35.688,30.66967],[35.69354,30.69912],[35.68544,30.7004],[35.65331,30.71927],[35.65268,30.72314],[35.6457,30.72764],[35.60388,30.71869],[35.59405,30.71322],[35.57092,30.71107],[35.56283,30.71389],[35.52987,30.7061],[35.53103,30.68654],[35.54446,30.65322],[35.54026,30.64897],[35.53596,30.63094],[35.60238,30.6198],[35.64463,30.59974],[35.65274,30.6048],[35.66851,30.60496],[35.67772,30.60997],[35.68039,30.61392],[35.6775,30.62387]]]}},{"type":"Feature","properties":{"id":"JOR:ADM2:86222999B32399668533563","name":"Ayy","countryCode":"JOR","adminLevel":2,"sourceCode":"86222999B32399668533563","parentId":"JOR:ADM1:JOR-859"},"geometry":{"type":"Polygon","coordinates":[[[35.42119,31.2006],[35.45145,31.16646],[35.45847,31.13369],[35.45847,31.11169],[35.44948,31.08187],[35.42479,31.04666],[35.42586,31.01923],[35.41312,30.98711],[35.41087,30.94948],[35.39534,30.92617],[35.37056,30.92319],[35.35626,30.90985],[35.33645,30.87899],[35.3304,30.8635],[35.32931,30.84382],[35.3402,30.81688],[35.35186,30.81411],[35.36716,30.79957],[35.37918,30.79589],[35.40345,30.79681],[35.42423,30.80417],[35.44834,30.82763],[35.45798,30.86877],[35.45423,30.88372],[35.45637,30.90123],[35.46976,30.92209],[35.47672,30.94386],[35.47458,30.96727],[35.46869,30.98655],[35.46922,31.01133],[35.48903,31.02372],[35.52734,31.00302],[35.52974,31.01844],[35.57074,31.08706],[35.59191,31.10038],[35.60197,31.09918],[35.60815,31.09419],[35.61438,31.09645],[35.61745,31.10201],[35.6091,31.12222],[35.61116,31.14447],[35.62524,31.1656],[35.60461,31.17775],[35.57584,31.18051],[35.56924,31.17775],[35.53865,31.17943],[35.53332,31.18411],[35.51855,31.18559],[35.51285,31.18991],[35.48434,31.19103],[35.47777,31.19441],[35.44268,31.19591],[35.43457,31.20041],[35.42119,31.2006]]]}},{"type":"Feature","properties":{"id":"JOR:ADM2:86222999B3327615489091","name":"Al-Qasr","countryCode":"JOR","adminLevel":2,"sourceCode":"86222999B3327615489091","parentId":"JOR:ADM1:JOR-859"},"geometry":{"type":"Polygon","coordinates":[[[35.83455,31.43402],[35.8363,31.42822],[35.83345,31.42092],[35.84134,31.38143],[35.85143,31.37581],[35.85384,31.35671],[35.79135,31.39173],[35.77293,31.39753],[35.76372,31.39528],[35.77885,31.37095],[35.76481,31.32881],[35.76466,31.31383],[35.76946,31.30915],[35.76946,31.29656],[35.76535,31.28778],[35.75849,31.28778],[35.74787,31.27636],[35.68723,31.27343],[35.679,31.23184],[35.65502,31.20752],[35.65844,31.19843],[35.65809,31.1777],[35.66598,31.16734],[35.67078,31.15023],[35.67009,31.12766],[35.67558,31.12102],[35.67321,31.10665],[35.7096,31.10059],[35.71566,31.09447],[35.71361,31.0797],[35.74058,31.06649],[35.76395,31.06264],[35.76979,31.07494],[35.77117,31.09798],[35.78405,31.10225],[35.78973,31.10934],[35.79493,31.109],[35.8315,31.0761],[35.85752,31.03563],[35.83871,31.00736],[35.83982,31.00213],[35.86674,30.99311],[35.9053,30.99931],[35.94348,30.99262],[35.95943,30.98427],[35.9602,30.97356],[35.94755,30.88243],[35.95538,30.88637],[35.97776,30.88705],[35.99039,30.89697],[36.10434,30.8864],[36.21735,31.10538],[36.14172,31.17505],[36.12842,31.20299],[36.13125,31.22979],[36.12795,31.24185],[36.13266,31.25634],[36.09708,31.28899],[36.09132,31.28887],[36.08066,31.29871],[36.07897,31.30866],[36.07364,31.31334],[36.07322,31.32305],[36.04857,31.34342],[36.02006,31.35391],[36.00076,31.37806],[35.98081,31.39397],[35.96436,31.40202],[35.93059,31.41175],[35.87687,31.41961],[35.83455,31.43402]]]}},{"type":"Feature","properties":{"id":"JOR:ADM2:86222999B33973362353345","name":"Al-Azraq","countryCode":"JOR","adminLevel":2,"sourceCode":"86222999B33973362353345","parentId":"JOR:ADM1:JOR-860"},"geometry":{"type":"Polygon","coordinates":[[[36.42797,32.07387],[36.38869,32.03012],[36.43851,32.00571],[36.51108,31.94082],[36.47555,31.92651],[36.40565,31.88393],[36.46289,31.82254],[36.47869,31.81108],[36.50105,31.78323],[36.55829,31.72341],[36.58759,31.70521],[36.60823,31.68605],[36.6286,31.6796],[36.75528,31.71083],[36.7683,31.71029],[37.00598,31.50058],[37.79735,31.70467],[37.38208,31.83366],[36.45393,32.10633],[36.42797,32.08127],[36.42797,32.07387]]]}},{"type":"Feature","properties":{"id":"JOR:ADM2:86222999B34085424448272","name":"Bani Knana","countryCode":"JOR","adminLevel":2,"sourceCode":"86222999B34085424448272","parentId":"JOR:ADM1:JOR-854"},"geometry":{"type":"Polygon","coordinates":[[[35.85125,32.43708],[35.86349,32.44512],[35.8631,32.45022],[35.85308,32.45898],[35.84521,32.48639],[35.83444,32.50589],[35.82733,32.5037],[35.82031,32.50625],[35.80101,32.49371],[35.79031,32.49819],[35.77198,32.49556],[35.76885,32.49777],[35.77055,32.5171],[35.76836,32.5183],[35.76402,32.51682],[35.75993,32.50466],[35.7504,32.4981],[35.75246,32.48988],[35.7325,32.4934],[35.72882,32.49037],[35.73371,32.47659],[35.74664,32.4598],[35.74415,32.43853],[35.75774,32.42354],[35.76775,32.42597],[35.77195,32.41938],[35.78328,32.42269],[35.80828,32.40954],[35.82326,32.41999],[35.82082,32.42498],[35.82314,32.42833],[35.84068,32.4383],[35.85125,32.43708]]]}},{"type":"Feature","properties":{"id":"JOR:ADM2:86222999B36589903937176","name":"Aljun","countryCode":"JOR","adminLevel":2,"sourceCode":"86222999B36589903937176","parentId":"JOR:ADM1:JOR-855"},"geometry":{"type":"Polygon","coordinates":[[[35.67207,32.20441],[35.70707,32.2292],[35.71415,32.24646],[35.71151,32.26771],[35.71372,32.28691],[35.71814,32.2963],[35.71949,32.31171],[35.72684,32.32479],[35.79555,32.35445],[35.83041,32.37669],[35.8656,32.39301],[35.85826,32.3953],[35.86365,32.40004],[35.8668,32.4091],[35.83518,32.41062],[35.83186,32.4136],[35.83477,32.42014],[35.84756,32.42377],[35.85175,32.42822],[35.85111,32.43722],[35.84068,32.4383],[35.82314,32.42833],[35.82082,32.42498],[35.82326,32.41999],[35.80828,32.40954],[35.78328,32.42269],[35.77195,32.41938],[35.76579,32.4265],[35.75328,32.42181],[35.74724,32.42596],[35.73685,32.4268],[35.73158,32.41784],[35.73558,32.40923],[35.71868,32.40767],[35.7185,32.40077],[35.70749,32.38845],[35.6774,32.3903],[35.6608,32.40057],[35.61054,32.39212],[35.61013,32.38363],[35.61606,32.36978],[35.61039,32.35589],[35.60168,32.34963],[35.60695,32.34385],[35.60095,32.34009],[35.60386,32.33381],[35.59187,32.31007],[35.5955,32.30353],[35.59296,32.28079],[35.59931,32.27363],[35.59914,32.26336],[35.60527,32.25161],[35.6271,32.26809],[35.64589,32.28921],[35.65698,32.27633],[35.66838,32.26925],[35.66454,32.23841],[35.67207,32.20441]]]}},{"type":"Feature","properties":{"id":"JOR:ADM2:86222999B37011435365148","name":"Al-Mazar al-Janubiyya","countryCode":"JOR","adminLevel":2,"sourceCode":"86222999B37011435365148","parentId":"JOR:ADM1:JOR-859"},"geometry":{"type":"Polygon","coordinates":[[[35.77055,31.09703],[35.76843,31.07001],[35.76395,31.06264],[35.75778,31.06264],[35.74058,31.06649],[35.71361,31.0797],[35.71566,31.09447],[35.7028,31.10284],[35.67314,31.10665],[35.6724,31.10041],[35.64113,31.09345],[35.62026,31.10245],[35.60991,31.09419],[35.6008,31.09953],[35.58991,31.09982],[35.57074,31.08706],[35.56329,31.07697],[35.52974,31.01844],[35.52734,31.00302],[35.55863,30.98655],[35.57094,30.98655],[35.58741,30.97826],[35.61482,30.98126],[35.63938,30.97938],[35.74635,30.94479],[35.78388,30.93642],[35.83218,30.9344],[35.84092,30.92207],[35.84798,30.89928],[35.87043,30.88887],[35.87809,30.89797],[35.8819,30.8978],[35.88686,30.89445],[35.89126,30.8844],[35.89889,30.88473],[35.90996,30.89152],[35.91839,30.89168],[35.94755,30.88243],[35.9602,30.97356],[35.95943,30.98427],[35.94348,30.99262],[35.9053,30.99931],[35.86674,30.99311],[35.83982,31.00213],[35.83871,31.00736],[35.85752,31.03563],[35.84141,31.06435],[35.79493,31.109],[35.78973,31.10934],[35.78405,31.10225],[35.77055,31.09703]]]}},{"type":"Feature","properties":{"id":"JOR:ADM2:86222999B39141668555739","name":"Ayi","countryCode":"JOR","adminLevel":2,"sourceCode":"86222999B39141668555739","parentId":"JOR:ADM1:JOR-853"},"geometry":{"type":"Polygon","coordinates":[[[35.31539,29.97472],[35.31799,29.97154],[35.46461,29.97027],[35.545,29.96371],[35.55434,29.95745],[35.59239,29.88902],[35.63448,29.84089],[35.6611,29.81836],[35.66535,29.88297],[35.64918,29.93141],[35.64771,30.01484],[35.61951,30.12693],[35.57543,30.12485],[35.56251,30.12019],[35.54215,30.11938],[35.46327,30.13631],[35.41368,30.12902],[35.37908,30.13892],[35.35179,30.11771],[35.33714,30.11131],[35.33694,30.09622],[35.3435,30.08491],[35.34504,30.03331],[35.3228,29.99383],[35.31539,29.97472]]]}},{"type":"Feature","properties":{"id":"JOR:ADM2:86222999B39522483181416","name":"Az-Zarqa","countryCode":"JOR","adminLevel":2,"sourceCode":"86222999B39522483181416","parentId":"JOR:ADM1:JOR-860"},"geometry":{"type":"Polygon","coordinates":[[[36.45393,32.10633],[36.44162,32.11549],[36.42506,32.14273],[36.40949,32.15104],[36.38414,32.15662],[36.3218,32.15215],[36.30839,32.14565],[36.27819,32.1451],[36.25281,32.15096],[36.22908,32.16457],[36.22011,32.17456],[36.19672,32.18586],[36.17959,32.18586],[36.12212,32.16212],[36.09801,32.1682],[36.08358,32.17716],[36.07282,32.17774],[36.04967,32.15773],[36.02609,32.1557],[36.00579,32.16585],[35.99249,32.16668],[35.98772,32.15477],[35.98703,32.13582],[35.99423,32.12202],[35.99458,32.10724],[36.00416,32.08497],[35.99868,32.07985],[35.99546,32.06997],[35.95866,32.05288],[35.96169,32.03781],[35.9785,32.01954],[35.97884,32.01211],[35.99963,32.00055],[36.03925,31.99979],[36.06326,32.01438],[36.07967,32.01912],[36.09986,31.99421],[36.13375,31.99235],[36.15114,31.99625],[36.18518,31.997],[36.20147,31.99904],[36.21976,32.00685],[36.26989,32.01376],[36.29208,32.02372],[36.30829,32.03941],[36.3261,32.04831],[36.3462,32.04977],[36.38885,32.0303],[36.42797,32.07387],[36.42797,32.08127],[36.45393,32.10633]]]}},{"type":"Feature","properties":{"id":"JOR:ADM2:86222999B39795935139344","name":"Sama as-Sarhan","countryCode":"JOR","adminLevel":2,"sourceCode":"86222999B39795935139344","parentId":"JOR:ADM1:JOR-850"},"geometry":{"type":"Polygon","coordinates":[[[35.97352,32.46203],[35.99368,32.44263],[35.99311,32.42969],[36.00816,32.41244],[36.00752,32.39518],[36.02844,32.38937],[36.08963,32.40336],[36.12511,32.42274],[36.1344,32.42226],[36.16514,32.42945],[36.23429,32.42849],[36.26424,32.41863],[36.2879,32.39267],[36.29603,32.37792],[36.32684,32.36641],[36.34313,32.38156],[36.34143,32.39577],[36.34381,32.40141],[36.36073,32.41076],[36.31314,32.45624],[36.23554,32.50035],[36.20545,32.52644],[36.1958,32.53003],[36.16486,32.51232],[36.15634,32.52405],[36.12398,32.52572],[36.08679,32.51423],[36.06805,32.48574],[36.05102,32.44455],[36.04023,32.44646],[36.01156,32.46275],[35.97352,32.46203]]]}},{"type":"Feature","properties":{"id":"JOR:ADM2:86222999B40529855036644","name":"Ar Ramtha","countryCode":"JOR","adminLevel":2,"sourceCode":"86222999B40529855036644","parentId":"JOR:ADM1:JOR-854"},"geometry":{"type":"Polygon","coordinates":[[[35.97352,32.46203],[36.01156,32.46275],[36.04023,32.44646],[36.05102,32.44455],[36.06805,32.48574],[36.08679,32.51423],[36.07837,32.51255],[36.07871,32.53677],[36.06151,32.57757],[36.04062,32.59104],[36.03353,32.60359],[36.02663,32.60466],[36.02391,32.61293],[36.02845,32.63771],[36.02736,32.65546],[36.02282,32.6576],[35.96904,32.66219],[35.94457,32.61878],[35.944,32.60922],[35.95138,32.57956],[35.94599,32.54582],[35.94939,32.52405],[35.95479,32.51208],[35.95706,32.48933],[35.94854,32.47233],[35.97352,32.46203]]]}},{"type":"Feature","properties":{"id":"JOR:ADM2:86222999B41984369727866","name":"Bal'ama","countryCode":"JOR","adminLevel":2,"sourceCode":"86222999B41984369727866","parentId":"JOR:ADM1:JOR-850"},"geometry":{"type":"Polygon","coordinates":[[[36.19099,32.18586],[36.19056,32.19673],[36.20914,32.21992],[36.21255,32.23184],[36.20578,32.24405],[36.16996,32.26253],[36.1728,32.28269],[36.18072,32.29323],[36.18473,32.31144],[36.17877,32.3208],[36.18018,32.32831],[36.17641,32.33723],[36.16626,32.35274],[36.1611,32.35568],[36.13054,32.3609],[36.08012,32.37582],[36.05358,32.39309],[36.03898,32.39336],[36.03636,32.38968],[36.02844,32.38937],[36.00752,32.39518],[36.00156,32.39312],[35.98936,32.37417],[35.96138,32.36218],[35.90284,32.32072],[35.90084,32.29446],[35.95438,32.2781],[35.95602,32.26749],[35.96149,32.25888],[35.96217,32.24765],[35.9536,32.23659],[35.954,32.22162],[35.96014,32.21423],[35.96231,32.20297],[35.9771,32.19282],[35.9947,32.16788],[36.00579,32.16585],[36.02609,32.1557],[36.04967,32.15773],[36.06601,32.17344],[36.07693,32.17774],[36.08842,32.17524],[36.09801,32.1682],[36.12212,32.16212],[36.17959,32.18586],[36.19099,32.18586]]]}},{"type":"Feature","properties":{"id":"JOR:ADM2:86222999B4308266651580","name":"Al-Quwayra","countryCode":"JOR","adminLevel":2,"sourceCode":"86222999B4308266651580","parentId":"JOR:ADM1:JOR-849"},"geometry":{"type":"Polygon","coordinates":[[[35.15292,29.76371],[35.19388,29.72841],[35.19508,29.72318],[35.21887,29.69362],[35.24808,29.69205],[35.32427,29.6965],[35.36493,29.69414],[35.38842,29.66536],[35.38962,29.6562],[35.38027,29.63461],[35.37838,29.62097],[35.3798,29.60692],[35.38688,29.59163],[35.45932,29.53108],[35.46835,29.51254],[35.48505,29.49546],[35.50074,29.46598],[35.50225,29.43651],[35.50767,29.42188],[35.50508,29.33517],[35.49993,29.3273],[35.50214,29.2977],[35.49903,29.27425],[35.75357,29.2353],[35.75228,29.27459],[35.73373,29.45944],[35.73888,29.49464],[35.7352,29.65066],[35.72417,29.6775],[35.7102,29.73369],[35.69256,29.77518],[35.6611,29.81836],[35.63448,29.84089],[35.59239,29.88902],[35.55434,29.95745],[35.53677,29.96577],[35.44561,29.9709],[35.33239,29.9709],[35.31799,29.97154],[35.31539,29.97472],[35.28157,29.94925],[35.25069,29.91165],[35.2404,29.89126],[35.15292,29.76371]]]}},{"type":"Feature","properties":{"id":"JOR:ADM2:86222999B45500739099206","name":"Irbid","countryCode":"JOR","adminLevel":2,"sourceCode":"86222999B45500739099206","parentId":"JOR:ADM1:JOR-854"},"geometry":{"type":"Polygon","coordinates":[[[35.7099,32.62197],[35.69031,32.63137],[35.66779,32.63525],[35.64678,32.62283],[35.64224,32.61752],[35.64394,32.61395],[35.63872,32.61165],[35.63523,32.60386],[35.64797,32.59584],[35.66271,32.56769],[35.71018,32.53527],[35.75988,32.54282],[35.76459,32.54702],[35.76459,32.55324],[35.73782,32.56951],[35.7099,32.62197]]]}},{"type":"Feature","properties":{"id":"JOR:ADM2:86222999B50921182597038","name":"Sahab","countryCode":"JOR","adminLevel":2,"sourceCode":"86222999B50921182597038","parentId":"JOR:ADM1:JOR-851"},"geometry":{"type":"Polygon","coordinates":[[[36.38885,32.0303],[36.3462,32.04977],[36.3261,32.04831],[36.30829,32.03941],[36.29208,32.02372],[36.26828,32.01326],[36.21976,32.00685],[36.19984,31.99867],[36.15114,31.99625],[36.13375,31.99235],[36.09803,31.99503],[36.09053,32.00827],[36.07967,32.01912],[36.06326,32.01438],[36.04664,32.00265],[36.03101,31.99923],[35.99963,32.00055],[35.97884,32.01211],[35.95459,32.01522],[35.93198,32.00617],[35.92513,31.98825],[35.93636,31.98584],[35.96428,31.97203],[35.96699,31.95571],[35.95778,31.94305],[35.95797,31.93309],[35.99134,31.93765],[36.0091,31.94658],[36.03936,31.94751],[36.05208,31.93747],[36.05339,31.93244],[36.04703,31.92611],[36.04769,31.91737],[36.03541,31.90676],[36.03717,31.90303],[36.02445,31.89093],[36.0189,31.87738],[36.04425,31.85672],[36.06824,31.84741],[36.14396,31.84537],[36.15458,31.85178],[36.22773,31.86095],[36.23628,31.86616],[36.26895,31.86728],[36.27531,31.87063],[36.29417,31.87119],[36.33233,31.85909],[36.38276,31.86132],[36.40778,31.88085],[36.40565,31.88393],[36.41181,31.88933],[36.47555,31.92651],[36.51108,31.94082],[36.43851,32.00571],[36.38885,32.0303]]]}},{"type":"Feature","properties":{"id":"JOR:ADM2:86222999B51380816957748","name":"Al-Balqa","countryCode":"JOR","adminLevel":2,"sourceCode":"86222999B51380816957748","parentId":"JOR:ADM1:JOR-857"},"geometry":{"type":"Polygon","coordinates":[[[35.68965,32.103],[35.7016,32.11095],[35.70778,32.11065],[35.7116,32.11557],[35.71886,32.11557],[35.7334,32.12788],[35.73703,32.1365],[35.72559,32.17772],[35.65891,32.17772],[35.654,32.17341],[35.656,32.15849],[35.65117,32.12087],[35.65433,32.09195],[35.68965,32.103]]]}},{"type":"Feature","properties":{"id":"JOR:ADM2:86222999B52255495566406","name":"Wadi Araba","countryCode":"JOR","adminLevel":2,"sourceCode":"86222999B52255495566406","parentId":"JOR:ADM1:JOR-849"},"geometry":{"type":"Polygon","coordinates":[[[35.50396,30.62723],[35.43606,30.62586],[35.3584,30.69236],[35.35246,30.694],[35.32785,30.73519],[35.31768,30.74583],[35.31075,30.76121],[35.29628,30.76368],[35.29525,30.74242],[35.28771,30.72639],[35.29063,30.71273],[35.28052,30.70825],[35.2675,30.68337],[35.2677,30.67826],[35.26078,30.67395],[35.26441,30.66316],[35.22021,30.61753],[35.21816,30.60477],[35.20381,30.58273],[35.20214,30.54604],[35.1921,30.52758],[35.19294,30.49454],[35.17203,30.44905],[35.16214,30.43735],[35.16115,30.4248],[35.16868,30.40067],[35.17534,30.39263],[35.19127,30.34644],[35.16115,30.31442],[35.15195,30.30021],[35.14777,30.28411],[35.14442,30.23936],[35.15028,30.22699],[35.15028,30.20386],[35.1486,30.19276],[35.14526,30.19132],[35.14359,30.16631],[35.15346,30.1535],[35.15362,30.14496],[35.15697,30.14164],[35.15781,30.11879],[35.14777,30.09458],[35.14657,30.06087],[35.13653,30.05942],[35.12217,30.05073],[35.11265,30.0395],[35.10103,30.01254],[35.1098,30.01026],[35.1098,30.0038],[35.11528,30.00152],[35.11528,29.99564],[35.09971,29.99165],[35.08897,29.97265],[35.08897,29.96449],[35.07888,29.95746],[35.07559,29.94948],[35.08305,29.94796],[35.08415,29.94131],[35.07801,29.93161],[35.08453,29.89094],[35.07973,29.8743],[35.06431,29.85202],[35.06047,29.83923],[35.15292,29.76371],[35.2404,29.89126],[35.25069,29.91165],[35.28157,29.94925],[35.31539,29.97472],[35.3228,29.99383],[35.34504,30.03331],[35.3435,30.08491],[35.33694,30.09622],[35.33714,30.11131],[35.35179,30.11771],[35.37929,30.13892],[35.37838,30.14604],[35.39496,30.18054],[35.40093,30.1842],[35.40055,30.1912],[35.40652,30.19719],[35.40633,30.20236],[35.41172,30.20619],[35.4123,30.21352],[35.41809,30.21835],[35.41809,30.23467],[35.42367,30.24033],[35.4231,30.25665],[35.42849,30.26231],[35.42888,30.27346],[35.41635,30.29227],[35.41693,30.30158],[35.40421,30.31828],[35.39952,30.33542],[35.42262,30.362],[35.42676,30.43461],[35.44892,30.44159],[35.45938,30.4518],[35.47786,30.46262],[35.47974,30.53462],[35.48305,30.54439],[35.49382,30.55795],[35.49412,30.58959],[35.50396,30.62723]]]}},{"type":"Feature","properties":{"id":"JOR:ADM2:86222999B5587866835972","name":"Dair Alla","countryCode":"JOR","adminLevel":2,"sourceCode":"86222999B5587866835972","parentId":"JOR:ADM1:JOR-857"},"geometry":{"type":"Polygon","coordinates":[[[35.63396,32.19672],[35.60396,32.24831],[35.57106,32.24792],[35.56752,32.24207],[35.56146,32.24257],[35.56439,32.23911],[35.56246,32.23103],[35.57228,32.22943],[35.56633,32.22348],[35.56912,32.21358],[35.57347,32.21059],[35.56803,32.21169],[35.56291,32.20392],[35.56692,32.19718],[35.56975,32.19755],[35.5702,32.19254],[35.56614,32.18729],[35.55907,32.1894],[35.56134,32.18487],[35.55978,32.17438],[35.55384,32.17688],[35.55257,32.1729],[35.55674,32.16803],[35.54862,32.1669],[35.54989,32.16015],[35.55862,32.15931],[35.55641,32.15344],[35.56001,32.15102],[35.55728,32.14391],[35.55148,32.14618],[35.55036,32.14257],[35.54559,32.14379],[35.54388,32.14135],[35.54598,32.13594],[35.55117,32.13514],[35.54594,32.13228],[35.55106,32.12786],[35.54138,32.11328],[35.53269,32.10735],[35.53966,32.0928],[35.57443,32.09002],[35.58624,32.10311],[35.58587,32.10926],[35.60525,32.13412],[35.60443,32.14074],[35.61745,32.16281],[35.62512,32.16901],[35.63338,32.18761],[35.63943,32.19224],[35.63396,32.19672]]]}},{"type":"Feature","properties":{"id":"JOR:ADM2:86222999B56224922120093","name":"Al-Mazra'a","countryCode":"JOR","adminLevel":2,"sourceCode":"86222999B56224922120093","parentId":"JOR:ADM1:JOR-859"},"geometry":{"type":"Polygon","coordinates":[[[35.67238,31.42563],[35.63258,31.44768],[35.60362,31.45599],[35.59574,31.4633],[35.50837,31.4934],[35.47822,31.49398],[35.47548,31.41565],[35.46451,31.37558],[35.45218,31.34983],[35.42338,31.3112],[35.40659,31.28075],[35.4007,31.25604],[35.4007,31.23636],[35.42119,31.2006],[35.43457,31.20041],[35.44268,31.19591],[35.47777,31.19441],[35.48434,31.19103],[35.51285,31.18991],[35.51855,31.18559],[35.53332,31.18411],[35.53865,31.17943],[35.56924,31.17775],[35.57584,31.18051],[35.60461,31.17775],[35.62524,31.1656],[35.65073,31.17805],[35.65809,31.1777],[35.65844,31.19843],[35.65502,31.20752],[35.679,31.23184],[35.68743,31.27344],[35.6814,31.32027],[35.70889,31.33576],[35.7146,31.35034],[35.72249,31.35988],[35.70934,31.38873],[35.70429,31.4059],[35.70654,31.41031],[35.67238,31.42563]]]}},{"type":"Feature","properties":{"id":"JOR:ADM2:86222999B57727576293089","name":"Ar-Ruwayshid","countryCode":"JOR","adminLevel":2,"sourceCode":"86222999B57727576293089","parentId":"JOR:ADM1:JOR-850"},"geometry":{"type":"Polygon","coordinates":[[[37.79735,31.70467],[39.00624,32.00153],[39.30079,32.23029],[39.26033,32.35518],[39.04341,32.30429],[38.98647,32.47792],[39.08811,32.50293],[38.79444,33.37515],[37.09832,32.46727],[37.12625,32.42225],[37.1488,32.40504],[37.15843,32.38881],[37.16549,32.36376],[37.16402,32.34162],[37.15843,32.32951],[37.11034,32.28321],[37.06459,32.2569],[37.00991,32.23582],[36.95853,32.2217],[36.93254,32.21016],[36.83173,32.19143],[36.80791,32.19016],[36.76187,32.20519],[36.74201,32.20839],[36.70851,32.20959],[36.69952,32.206],[36.67901,32.20561],[36.64272,32.22233],[36.58057,32.2343],[36.54404,32.24899],[36.48953,32.25894],[36.47016,32.2669],[36.42533,32.26809],[36.41827,32.24581],[36.40373,32.23209],[36.38122,32.22476],[36.36371,32.21438],[36.35946,32.20561],[36.35664,32.20561],[36.34675,32.18122],[36.34205,32.16637],[36.34418,32.15383],[36.38414,32.15662],[36.40949,32.15104],[36.42506,32.14273],[36.44839,32.10801],[37.38208,31.83366],[37.79735,31.70467]]]}},{"type":"Feature","properties":{"id":"JOR:ADM2:86222999B58028934713712","name":"Al-Muwaqqar","countryCode":"JOR","adminLevel":2,"sourceCode":"86222999B58028934713712","parentId":"JOR:ADM1:JOR-851"},"geometry":{"type":"Polygon","coordinates":[[[36.40778,31.88085],[36.38276,31.86132],[36.33233,31.85909],[36.29417,31.87119],[36.27531,31.87063],[36.26895,31.86728],[36.23628,31.86616],[36.22773,31.86095],[36.15458,31.85178],[36.14396,31.84537],[36.06824,31.84741],[36.04425,31.85672],[36.0189,31.87738],[36.01326,31.87287],[36.00603,31.87253],[35.98735,31.84974],[35.96729,31.84068],[35.96092,31.83344],[35.95894,31.82354],[35.98862,31.81492],[36.00211,31.79291],[35.99641,31.78434],[35.97264,31.76903],[35.97504,31.76532],[35.99111,31.7586],[36.02529,31.75947],[36.07287,31.76675],[36.08331,31.77141],[36.10394,31.76996],[36.1327,31.75721],[36.18466,31.74082],[36.29016,31.74264],[36.31361,31.74902],[36.39478,31.74811],[36.4363,31.73064],[36.45082,31.72124],[36.49752,31.7217],[36.51908,31.72807],[36.55329,31.72891],[36.50105,31.78323],[36.47869,31.81108],[36.46289,31.82254],[36.40778,31.88085]]]}},{"type":"Feature","properties":{"id":"JOR:ADM2:86222999B58358481420186","name":"Al-Hasa","countryCode":"JOR","adminLevel":2,"sourceCode":"86222999B58358481420186","parentId":"JOR:ADM1:JOR-852"},"geometry":{"type":"Polygon","coordinates":[[[35.95538,30.88637],[35.94696,30.88242],[35.91839,30.89168],[35.90996,30.89152],[35.89889,30.88473],[35.89126,30.8844],[35.88686,30.89445],[35.87809,30.89797],[35.87043,30.88887],[35.84798,30.89928],[35.84092,30.92207],[35.83218,30.9344],[35.78388,30.93642],[35.74635,30.94479],[35.72357,30.89773],[35.71717,30.86639],[35.70309,30.83344],[35.70964,30.76959],[35.71623,30.75948],[35.69412,30.70123],[35.688,30.66967],[35.67812,30.64377],[35.6775,30.62387],[35.80953,30.62902],[35.8347,30.65226],[35.88983,30.65311],[35.99103,30.6466],[36.01926,30.70933],[36.07954,30.82716],[36.10434,30.8864],[35.99039,30.89697],[35.97686,30.88676],[35.95538,30.88637]]]}},{"type":"Feature","properties":{"id":"JOR:ADM2:86222999B60325545530524","name":"Hariema","countryCode":"JOR","adminLevel":2,"sourceCode":"86222999B60325545530524","parentId":"JOR:ADM1:JOR-854"},"geometry":{"type":"Polygon","coordinates":[[[35.75988,32.54282],[35.71397,32.53673],[35.70282,32.53132],[35.72468,32.52734],[35.74243,32.51819],[35.75538,32.51907],[35.76247,32.53378],[35.77188,32.53497],[35.76973,32.53975],[35.75988,32.54282]]]}},{"type":"Feature","properties":{"id":"JOR:ADM2:86222999B60982713729185","name":"Wadi Musa","countryCode":"JOR","adminLevel":2,"sourceCode":"86222999B60982713729185","parentId":"JOR:ADM1:JOR-853"},"geometry":{"type":"Polygon","coordinates":[[[35.37929,30.13892],[35.41368,30.12902],[35.46327,30.13631],[35.54215,30.11938],[35.56251,30.12019],[35.57543,30.12485],[35.61951,30.12693],[35.5705,30.30979],[35.55875,30.32816],[35.54616,30.33581],[35.52331,30.3421],[35.52425,30.37782],[35.52871,30.38614],[35.49421,30.41035],[35.4892,30.41085],[35.46608,30.43113],[35.45952,30.43129],[35.44892,30.44159],[35.42676,30.43461],[35.42262,30.362],[35.39952,30.33542],[35.40421,30.31828],[35.41693,30.30158],[35.41635,30.29227],[35.42888,30.27346],[35.42849,30.26231],[35.4231,30.25665],[35.42367,30.24033],[35.41809,30.23467],[35.41809,30.21835],[35.4123,30.21352],[35.41172,30.20619],[35.40633,30.20236],[35.40652,30.19719],[35.40055,30.1912],[35.40093,30.1842],[35.39496,30.18054],[35.37838,30.14604],[35.37929,30.13892]]]}},{"type":"Feature","properties":{"id":"JOR:ADM2:86222999B61959892681036","name":"Ma'an","countryCode":"JOR","adminLevel":2,"sourceCode":"86222999B61959892681036","parentId":"JOR:ADM1:JOR-853"},"geometry":{"type":"Polygon","coordinates":[[[35.75357,29.2353],[36.06899,29.18444],[36.50718,29.50168],[36.75347,29.8664],[37.50413,30.00147],[37.6732,30.33479],[38.00399,30.50076],[37.24595,31.26398],[36.13266,31.25634],[36.12795,31.24185],[36.13125,31.22979],[36.12842,31.20299],[36.14172,31.17505],[36.21735,31.10538],[36.10454,30.88687],[36.07954,30.82716],[36.01926,30.70933],[35.99103,30.6466],[35.96515,30.64822],[35.89315,30.52508],[35.85598,30.43668],[35.83298,30.41208],[35.80284,30.40057],[35.74668,30.409],[35.70491,30.42283],[35.67161,30.43855],[35.61177,30.42978],[35.58308,30.43424],[35.57742,30.43056],[35.56788,30.41506],[35.53709,30.39739],[35.52425,30.37782],[35.52331,30.3421],[35.54616,30.33581],[35.56242,30.32425],[35.5705,30.30979],[35.57995,30.28059],[35.64771,30.01484],[35.64918,29.93141],[35.66535,29.88297],[35.66094,29.81857],[35.69256,29.77518],[35.7102,29.73369],[35.72417,29.6775],[35.7352,29.65066],[35.73888,29.49464],[35.73373,29.45944],[35.75228,29.27459],[35.75357,29.2353]]]}},{"type":"Feature","properties":{"id":"JOR:ADM2:86222999B63092752330130","name":"Madaba","countryCode":"JOR","adminLevel":2,"sourceCode":"86222999B63092752330130","parentId":"JOR:ADM1:JOR-858"},"geometry":{"type":"Polygon","coordinates":[[[35.84529,31.73549],[35.83799,31.74386],[35.8606,31.76471],[35.86197,31.7886],[35.80515,31.80487],[35.77228,31.79835],[35.74722,31.80972],[35.70751,31.82146],[35.70034,31.82012],[35.68806,31.80173],[35.68842,31.7682],[35.66087,31.73739],[35.60846,31.73515],[35.58982,31.74596],[35.58302,31.7469],[35.57118,31.76125],[35.55956,31.76424],[35.55408,31.75976],[35.55254,31.75081],[35.53215,31.72675],[35.52338,31.71109],[35.49535,31.64841],[35.49398,31.63295],[35.48473,31.61602],[35.48027,31.58159],[35.47548,31.57458],[35.47572,31.49629],[35.47822,31.49398],[35.50837,31.4934],[35.59574,31.4633],[35.60362,31.45599],[35.63258,31.44768],[35.67238,31.42563],[35.69366,31.44898],[35.72629,31.49738],[35.74308,31.51501],[35.74308,31.54464],[35.73451,31.56466],[35.73757,31.60018],[35.76122,31.63109],[35.78643,31.64234],[35.80783,31.65631],[35.80304,31.6724],[35.80647,31.6869],[35.82594,31.68965],[35.83808,31.69477],[35.8491,31.71035],[35.85649,31.71494],[35.85705,31.71868],[35.84838,31.72692],[35.84529,31.73549]]]}},{"type":"Feature","properties":{"id":"JOR:ADM2:86222999B64128102999374","name":"As-Salt","countryCode":"JOR","adminLevel":2,"sourceCode":"86222999B64128102999374","parentId":"JOR:ADM1:JOR-857"},"geometry":{"type":"Polygon","coordinates":[[[35.80231,31.98565],[35.80621,31.99253],[35.81948,31.99953],[35.8164,32.01326],[35.81777,32.02794],[35.8103,32.04455],[35.80916,32.06644],[35.7626,32.09242],[35.75182,32.07871],[35.72428,32.0727],[35.7169,32.08593],[35.6993,32.09194],[35.68965,32.103],[35.65384,32.09177],[35.65036,32.03657],[35.64492,32.01728],[35.64583,32.00134],[35.64329,31.99517],[35.64837,31.96942],[35.6589,31.9494],[35.68013,31.94047],[35.69323,31.92551],[35.7029,31.91947],[35.7334,31.91161],[35.74269,31.90622],[35.75604,31.95022],[35.78485,31.97914],[35.80231,31.98565]]]}},{"type":"Feature","properties":{"id":"JOR:ADM2:86222999B65876825797942","name":"Ash-Shibek","countryCode":"JOR","adminLevel":2,"sourceCode":"86222999B65876825797942","parentId":"JOR:ADM1:JOR-853"},"geometry":{"type":"Polygon","coordinates":[[[35.44892,30.44159],[35.45952,30.43129],[35.46608,30.43113],[35.4892,30.41085],[35.49421,30.41035],[35.52871,30.38614],[35.54452,30.40344],[35.56788,30.41506],[35.58131,30.43384],[35.61177,30.42978],[35.66805,30.43855],[35.67842,30.4621],[35.64042,30.51591],[35.62648,30.5395],[35.62476,30.54885],[35.62525,30.55724],[35.64463,30.59974],[35.61337,30.61643],[35.59133,30.6228],[35.51008,30.63335],[35.49924,30.61672],[35.49412,30.58959],[35.49382,30.55795],[35.48305,30.54439],[35.47974,30.53462],[35.47786,30.46262],[35.45938,30.4518],[35.44892,30.44159]]]}},{"type":"Feature","properties":{"id":"JOR:ADM2:86222999B67539387689070","name":"Jerash","countryCode":"JOR","adminLevel":2,"sourceCode":"86222999B67539387689070","parentId":"JOR:ADM1:JOR-856"},"geometry":{"type":"Polygon","coordinates":[[[35.96231,32.20297],[35.96014,32.21423],[35.954,32.22162],[35.9536,32.23659],[35.96217,32.24765],[35.96149,32.25888],[35.95602,32.26749],[35.95438,32.2781],[35.90084,32.29446],[35.90284,32.32072],[35.96138,32.36218],[35.98936,32.37417],[36.00156,32.39312],[35.98431,32.40141],[35.96146,32.40195],[35.94408,32.41032],[35.93181,32.42082],[35.92113,32.42274],[35.89865,32.41369],[35.85253,32.38559],[35.83041,32.37669],[35.79555,32.35445],[35.72684,32.32479],[35.71949,32.31171],[35.71814,32.2963],[35.71372,32.28691],[35.71151,32.26771],[35.71415,32.24646],[35.70707,32.2292],[35.67207,32.20441],[35.66268,32.19125],[35.6581,32.17809],[35.7383,32.17833],[35.74375,32.18248],[35.76646,32.18464],[35.78972,32.18033],[35.80262,32.17695],[35.81715,32.16787],[35.81297,32.16326],[35.8137,32.15173],[35.82097,32.13403],[35.85272,32.12973],[35.85649,32.13597],[35.85512,32.14091],[35.86403,32.15106],[35.86334,32.15715],[35.88424,32.17977],[35.91611,32.1934],[35.96231,32.20297]]]}},{"type":"Feature","properties":{"id":"JOR:ADM2:86222999B69136151762035","name":"Al-Husanyniyya","countryCode":"JOR","adminLevel":2,"sourceCode":"86222999B69136151762035","parentId":"JOR:ADM1:JOR-853"},"geometry":{"type":"Polygon","coordinates":[[[35.6877,30.43196],[35.72033,30.417],[35.79114,30.40051],[35.80509,30.40119],[35.83298,30.41208],[35.85598,30.43668],[35.89315,30.52508],[35.92186,30.57695],[35.96731,30.64808],[35.88983,30.65311],[35.8347,30.65226],[35.80953,30.62902],[35.6775,30.62387],[35.68039,30.61392],[35.67772,30.60997],[35.66851,30.60496],[35.65274,30.6048],[35.64474,30.59999],[35.62525,30.55724],[35.62648,30.5395],[35.67842,30.4621],[35.66805,30.43855],[35.6877,30.43196]]]}},{"type":"Feature","properties":{"id":"JOR:ADM2:86222999B7432817006575","name":"Tayybeh","countryCode":"JOR","adminLevel":2,"sourceCode":"86222999B7432817006575","parentId":"JOR:ADM1:JOR-854"},"geometry":{"type":"Polygon","coordinates":[[[35.60396,32.24831],[35.60527,32.25161],[35.59914,32.26336],[35.5995,32.27317],[35.59296,32.28079],[35.5955,32.30353],[35.59187,32.31007],[35.60386,32.33381],[35.60095,32.34009],[35.60695,32.34385],[35.60168,32.34963],[35.61039,32.35589],[35.61606,32.36978],[35.61013,32.38363],[35.61024,32.39162],[35.6174,32.39325],[35.6144,32.41645],[35.6164,32.45234],[35.62675,32.48131],[35.62221,32.50666],[35.62675,32.51964],[35.61858,32.52782],[35.62123,32.53577],[35.62118,32.56067],[35.63656,32.58436],[35.63402,32.59854],[35.63872,32.61165],[35.64394,32.61395],[35.64224,32.61752],[35.66779,32.63525],[35.69031,32.63137],[35.7099,32.62197],[35.71683,32.6339],[35.71944,32.6339],[35.76608,32.62904],[35.79364,32.6212],[35.8357,32.62382],[35.85389,32.61242],[35.8699,32.60742],[35.89052,32.62217],[35.90971,32.65096],[35.91793,32.6578],[35.96747,32.66211],[35.95422,32.67706],[35.97097,32.67711],[35.96687,32.69045],[35.94016,32.69813],[35.93525,32.71931],[35.92507,32.72225],[35.91856,32.72177],[35.91851,32.71867],[35.91164,32.72225],[35.90735,32.71962],[35.90674,32.72371],[35.89807,32.72536],[35.89801,32.71844],[35.88278,32.717],[35.88217,32.7224],[35.87533,32.73056],[35.86921,32.73252],[35.85401,32.72989],[35.85543,32.72679],[35.85231,32.72587],[35.84604,32.73061],[35.83317,32.72894],[35.80767,32.73634],[35.80734,32.74112],[35.79894,32.73863],[35.79128,32.74552],[35.7978,32.75166],[35.79777,32.75452],[35.79447,32.75473],[35.78314,32.74709],[35.75477,32.74446],[35.74419,32.73184],[35.73734,32.73362],[35.73441,32.72488],[35.72542,32.72693],[35.72286,32.7228],[35.71807,32.72321],[35.71684,32.7165],[35.70206,32.7143],[35.67722,32.70389],[35.67269,32.69515],[35.6746,32.68402],[35.67144,32.68018],[35.65501,32.68355],[35.64287,32.67973],[35.63906,32.68362],[35.62884,32.68377],[35.59913,32.66874],[35.60732,32.66012],[35.60562,32.65504],[35.5924,32.65331],[35.59114,32.64627],[35.58616,32.64245],[35.57236,32.64225],[35.57208,32.64603],[35.56162,32.64623],[35.56616,32.64077],[35.56105,32.63803],[35.56673,32.63304],[35.5619,32.62412],[35.57127,32.61152],[35.56823,32.5991],[35.57638,32.59726],[35.57831,32.58822],[35.57723,32.5738],[35.57159,32.5676],[35.5761,32.55234],[35.569,32.55032],[35.569,32.5389],[35.56559,32.5455],[35.55992,32.54583],[35.5602,32.5321],[35.56701,32.52455],[35.55551,32.52189],[35.55254,32.51526],[35.55993,32.50897],[35.56286,32.51229],[35.55881,32.5008],[35.56909,32.49676],[35.57238,32.49843],[35.57865,32.49028],[35.56713,32.48143],[35.56928,32.475],[35.56134,32.4672],[35.56636,32.46066],[35.57269,32.46003],[35.56787,32.45166],[35.56975,32.44126],[35.5643,32.43339],[35.55793,32.43397],[35.55651,32.43015],[35.56178,32.42777],[35.56175,32.4237],[35.55469,32.42575],[35.55112,32.421],[35.5619,32.41148],[35.55907,32.40944],[35.56048,32.40058],[35.5531,32.40333],[35.54487,32.40085],[35.54779,32.3932],[35.56048,32.3846],[35.55963,32.37924],[35.56329,32.37322],[35.56046,32.36569],[35.55485,32.36785],[35.55284,32.36569],[35.55736,32.34885],[35.55396,32.32501],[35.56134,32.31111],[35.55594,32.29914],[35.56408,32.2932],[35.56792,32.28516],[35.56268,32.27417],[35.5578,32.27235],[35.55892,32.26411],[35.56524,32.26157],[35.56222,32.25469],[35.56395,32.24969],[35.60396,32.24831]]]}},{"type":"Feature","properties":{"id":"JOR:ADM2:86222999B75702263193476","name":"Um al-Basatin","countryCode":"JOR","adminLevel":2,"sourceCode":"86222999B75702263193476","parentId":"JOR:ADM1:JOR-851"},"geometry":{"type":"Polygon","coordinates":[[[35.92411,31.82188],[35.89945,31.84307],[35.89397,31.84363],[35.89244,31.85369],[35.89704,31.86318],[35.84266,31.8792],[35.79595,31.88013],[35.76481,31.87045],[35.75604,31.87622],[35.7317,31.87641],[35.7328,31.85126],[35.726,31.84642],[35.72819,31.84102],[35.70758,31.82798],[35.70714,31.82146],[35.74722,31.80972],[35.77228,31.79835],[35.80515,31.80487],[35.86197,31.7886],[35.92411,31.82188]]]}},{"type":"Feature","properties":{"id":"JOR:ADM2:86222999B75802458029993","name":"Sabha","countryCode":"JOR","adminLevel":2,"sourceCode":"86222999B75802458029993","parentId":"JOR:ADM1:JOR-850"},"geometry":{"type":"Polygon","coordinates":[[[36.54404,32.24899],[36.58057,32.2343],[36.64272,32.22233],[36.67901,32.20561],[36.69952,32.206],[36.70851,32.20959],[36.74201,32.20839],[36.76187,32.20519],[36.80791,32.19016],[36.87497,32.19908],[36.93254,32.21016],[36.95853,32.2217],[37.00991,32.23582],[37.08801,32.26849],[37.11034,32.28321],[37.15843,32.32951],[37.16402,32.34162],[37.16549,32.36376],[37.16197,32.38042],[37.1488,32.40504],[37.12625,32.42225],[37.09848,32.46702],[36.86821,32.34053],[36.83795,32.30926],[36.72466,32.32898],[36.70727,32.32179],[36.70048,32.33315],[36.49967,32.36014],[36.48413,32.37004],[36.46922,32.37067],[36.46621,32.32513],[36.47254,32.31062],[36.47525,32.29408],[36.47016,32.2669],[36.48953,32.25894],[36.54404,32.24899]]]}},{"type":"Feature","properties":{"id":"JOR:ADM2:86222999B75984396095942","name":"Mazar Shamaliyyeh","countryCode":"JOR","adminLevel":2,"sourceCode":"86222999B75984396095942","parentId":"JOR:ADM1:JOR-854"},"geometry":{"type":"Polygon","coordinates":[[[35.73535,32.41284],[35.73158,32.41784],[35.73685,32.4268],[35.74724,32.42596],[35.75328,32.42181],[35.75774,32.42354],[35.74415,32.43853],[35.74664,32.4598],[35.73371,32.47659],[35.72882,32.49037],[35.7325,32.4934],[35.75246,32.48988],[35.7504,32.4981],[35.75993,32.50466],[35.76232,32.51196],[35.75538,32.51907],[35.74243,32.51819],[35.72468,32.52734],[35.70873,32.52856],[35.68177,32.53668],[35.67093,32.53775],[35.65325,32.53393],[35.62049,32.53531],[35.61858,32.52782],[35.62675,32.51964],[35.62221,32.50666],[35.62675,32.48131],[35.6164,32.45234],[35.6144,32.41645],[35.6174,32.39325],[35.6608,32.40057],[35.6774,32.3903],[35.70749,32.38845],[35.7185,32.40077],[35.71832,32.40737],[35.73354,32.40824],[35.73535,32.41284]]]}},{"type":"Feature","properties":{"id":"JOR:ADM2:86222999B77584192075792","name":"Dhiban","countryCode":"JOR","adminLevel":2,"sourceCode":"86222999B77584192075792","parentId":"JOR:ADM1:JOR-858"},"geometry":{"type":"Polygon","coordinates":[[[35.80783,31.65631],[35.78643,31.64234],[35.76122,31.63109],[35.73757,31.60018],[35.73451,31.56466],[35.74308,31.54464],[35.74308,31.51501],[35.72629,31.49738],[35.69366,31.44898],[35.67238,31.42563],[35.68017,31.42074],[35.70654,31.41031],[35.72883,31.42392],[35.74684,31.44284],[35.76021,31.44898],[35.76706,31.45687],[35.78008,31.46067],[35.81145,31.45497],[35.83304,31.51428],[35.84836,31.53081],[35.86128,31.55515],[35.85217,31.56162],[35.83373,31.56741],[35.8301,31.57484],[35.8301,31.58651],[35.83382,31.5921],[35.85717,31.60097],[35.84407,31.63411],[35.8132,31.65045],[35.80783,31.65631]]]}},{"type":"Feature","properties":{"id":"JOR:ADM2:86222999B80157070750914","name":"Ardhah","countryCode":"JOR","adminLevel":2,"sourceCode":"86222999B80157070750914","parentId":"JOR:ADM1:JOR-857"},"geometry":{"type":"Polygon","coordinates":[[[35.87319,32.08424],[35.86231,32.11972],[35.85272,32.12973],[35.82097,32.13403],[35.8137,32.15173],[35.81297,32.16326],[35.81715,32.16787],[35.80262,32.17695],[35.76646,32.18464],[35.72559,32.17772],[35.73703,32.1365],[35.7334,32.12788],[35.71886,32.11557],[35.7116,32.11557],[35.70778,32.11065],[35.7016,32.11095],[35.68965,32.103],[35.6993,32.09194],[35.7169,32.08593],[35.72428,32.0727],[35.75182,32.07871],[35.7626,32.09242],[35.78077,32.08039],[35.79894,32.07366],[35.80916,32.06644],[35.8103,32.04455],[35.81777,32.02794],[35.84846,32.04819],[35.8534,32.06742],[35.87319,32.08424]]]}},{"type":"Feature","properties":{"id":"JOR:ADM2:86222999B80282499365551","name":"Wadi al-Sayr","countryCode":"JOR","adminLevel":2,"sourceCode":"86222999B80282499365551","parentId":"JOR:ADM1:JOR-851"},"geometry":{"type":"Polygon","coordinates":[[[35.92513,31.98825],[35.93158,32.00555],[35.93841,32.01013],[35.95459,32.01522],[35.97699,32.01131],[35.97927,32.01794],[35.96217,32.03686],[35.95785,32.05395],[35.93084,32.0654],[35.92884,32.06885],[35.93118,32.07154],[35.90137,32.09174],[35.89672,32.09186],[35.87227,32.08373],[35.8534,32.06742],[35.84846,32.04819],[35.81777,32.02794],[35.8164,32.01326],[35.81948,31.99953],[35.80621,31.99253],[35.80231,31.98565],[35.81047,31.98026],[35.84539,31.97322],[35.86684,31.9637],[35.89222,31.98163],[35.90906,31.98751],[35.92513,31.98825]]]}},{"type":"Feature","properties":{"id":"JOR:ADM2:86222999B81424774794690","name":"Al-Jizah","countryCode":"JOR","adminLevel":2,"sourceCode":"86222999B81424774794690","parentId":"JOR:ADM1:JOR-851"},"geometry":{"type":"Polygon","coordinates":[[[37.00598,31.50058],[36.76459,31.7115],[36.6286,31.6796],[36.6073,31.68665],[36.58759,31.70521],[36.5712,31.7139],[36.55329,31.72891],[36.51908,31.72807],[36.49752,31.7217],[36.45082,31.72124],[36.4363,31.73064],[36.39478,31.74811],[36.31361,31.74902],[36.29016,31.74264],[36.18466,31.74082],[36.1327,31.75721],[36.10394,31.76996],[36.08331,31.77141],[36.06596,31.76559],[35.99718,31.75774],[35.98523,31.76005],[35.9727,31.76792],[36.0017,31.79035],[35.99115,31.81275],[35.96407,31.82325],[35.94839,31.82354],[35.92536,31.82267],[35.86197,31.7886],[35.8606,31.76471],[35.83799,31.74386],[35.84655,31.73394],[35.84975,31.72499],[35.85705,31.71868],[35.85649,31.71494],[35.8491,31.71035],[35.83808,31.69477],[35.82594,31.68965],[35.80768,31.68785],[35.80338,31.67619],[35.80852,31.65439],[35.84234,31.63653],[35.85717,31.6033],[35.85683,31.60068],[35.83382,31.5921],[35.8301,31.58651],[35.83148,31.57024],[35.86128,31.55515],[35.84836,31.53081],[35.83304,31.51428],[35.81145,31.45497],[35.83455,31.43402],[35.85209,31.42728],[35.87687,31.41961],[35.93059,31.41175],[35.96436,31.40202],[35.98081,31.39397],[36.00076,31.37806],[36.02006,31.35391],[36.04857,31.34342],[36.07322,31.32305],[36.07364,31.31334],[36.07897,31.30866],[36.08066,31.29871],[36.09132,31.28887],[36.09708,31.28899],[36.13266,31.25634],[37.24594,31.26398],[37.00598,31.50058]]]}},{"type":"Feature","properties":{"id":"JOR:ADM2:86222999B82988540247313","name":"Faqqu","countryCode":"JOR","adminLevel":2,"sourceCode":"86222999B82988540247313","parentId":"JOR:ADM1:JOR-859"},"geometry":{"type":"Polygon","coordinates":[[[35.70654,31.41031],[35.70429,31.4059],[35.70934,31.38873],[35.72249,31.35988],[35.7146,31.35034],[35.70889,31.33576],[35.6814,31.32027],[35.68743,31.27344],[35.74787,31.27636],[35.75849,31.28778],[35.76535,31.28778],[35.76946,31.29656],[35.76946,31.30915],[35.76466,31.31383],[35.76481,31.32881],[35.77885,31.37095],[35.77797,31.37544],[35.76437,31.3906],[35.76372,31.39528],[35.74288,31.40558],[35.74223,31.42739],[35.73793,31.43346],[35.72883,31.42392],[35.70654,31.41031]]]}},{"type":"Feature","properties":{"id":"JOR:ADM2:86222999B87134792488183","name":"Kora","countryCode":"JOR","adminLevel":2,"sourceCode":"86222999B87134792488183","parentId":"JOR:ADM1:JOR-854"},"geometry":{"type":"Polygon","coordinates":[[[35.62123,32.53577],[35.65325,32.53393],[35.6742,32.53775],[35.70282,32.53132],[35.71018,32.53527],[35.66271,32.56769],[35.64797,32.59584],[35.63523,32.60386],[35.63656,32.58436],[35.62118,32.56067],[35.62123,32.53577]]]}},{"type":"Feature","properties":{"id":"JOR:ADM2:86222999B88668932349329","name":"Na'ur","countryCode":"JOR","adminLevel":2,"sourceCode":"86222999B88668932349329","parentId":"JOR:ADM1:JOR-851"},"geometry":{"type":"Polygon","coordinates":[[[35.95894,31.82354],[35.96092,31.83344],[35.96729,31.84068],[35.98735,31.84974],[36.00603,31.87253],[36.01326,31.87287],[36.0189,31.87738],[36.02445,31.89093],[36.03717,31.90303],[36.03541,31.90676],[36.04769,31.91737],[36.04703,31.92611],[36.05339,31.93244],[36.05208,31.93747],[36.03936,31.94751],[36.0091,31.94658],[35.99134,31.93765],[35.95406,31.93281],[35.95296,31.925],[35.96085,31.91848],[35.96085,31.9142],[35.94792,31.89391],[35.93498,31.89819],[35.89616,31.89875],[35.89068,31.89484],[35.86919,31.8941],[35.85911,31.8833],[35.85902,31.87336],[35.89704,31.86318],[35.89244,31.85369],[35.89397,31.84363],[35.89945,31.84307],[35.92411,31.82188],[35.95894,31.82354]]]}},{"type":"Feature","properties":{"id":"JOR:ADM2:86222999B89051160819958","name":"Kofranjah","countryCode":"JOR","adminLevel":2,"sourceCode":"86222999B89051160819958","parentId":"JOR:ADM1:JOR-855"},"geometry":{"type":"Polygon","coordinates":[[[35.6514,32.18122],[35.6581,32.17809],[35.66687,32.19893],[35.67222,32.20395],[35.66454,32.23841],[35.66943,32.26355],[35.66838,32.26925],[35.65698,32.27633],[35.64589,32.28921],[35.6271,32.26809],[35.60709,32.25518],[35.60396,32.24831],[35.63396,32.19672],[35.6514,32.18122]]]}},{"type":"Feature","properties":{"id":"JOR:ADM2:86222999B9102542539853","name":"Al-Safi","countryCode":"JOR","adminLevel":2,"sourceCode":"86222999B9102542539853","parentId":"JOR:ADM1:JOR-858"},"geometry":{"type":"Polygon","coordinates":[[[35.81145,31.45497],[35.78008,31.46067],[35.76706,31.45687],[35.76021,31.44898],[35.74684,31.44284],[35.73912,31.43274],[35.74223,31.42739],[35.74288,31.40558],[35.76372,31.39528],[35.77293,31.39753],[35.79135,31.39173],[35.85384,31.35671],[35.85143,31.37581],[35.84134,31.38143],[35.83345,31.42092],[35.8363,31.42822],[35.83455,31.43402],[35.81145,31.45497]]]}},{"type":"Feature","properties":{"id":"JOR:ADM2:86222999B92273363321680","name":"Shuna al-Jabiniyya","countryCode":"JOR","adminLevel":2,"sourceCode":"86222999B92273363321680","parentId":"JOR:ADM1:JOR-857"},"geometry":{"type":"Polygon","coordinates":[[[35.70714,31.82146],[35.70758,31.82798],[35.72819,31.84102],[35.726,31.84642],[35.7328,31.85126],[35.73192,31.88452],[35.74091,31.89743],[35.74269,31.90622],[35.7334,31.91161],[35.7029,31.91947],[35.69323,31.92551],[35.68013,31.94047],[35.65824,31.94998],[35.64837,31.96942],[35.64329,31.99517],[35.64583,32.00134],[35.64492,32.01728],[35.65036,32.03657],[35.6511,32.07516],[35.65433,32.09195],[35.65117,32.12087],[35.656,32.15849],[35.654,32.17341],[35.65891,32.17772],[35.63943,32.19224],[35.63338,32.18761],[35.62512,32.16901],[35.61745,32.16281],[35.60443,32.14074],[35.60525,32.13412],[35.58587,32.10926],[35.58624,32.10311],[35.57443,32.09002],[35.54198,32.09142],[35.54445,32.08221],[35.53421,32.07559],[35.53591,32.07217],[35.52865,32.06382],[35.53101,32.06089],[35.52846,32.05682],[35.52992,32.05041],[35.51922,32.04664],[35.51988,32.04357],[35.52429,32.04328],[35.5192,32.03434],[35.52356,32.0283],[35.52247,32.02245],[35.52865,32.01995],[35.52216,32.0138],[35.53155,32.01544],[35.52628,32.00479],[35.52967,32.00132],[35.53361,32.00225],[35.53846,31.99622],[35.53629,31.98716],[35.53215,31.98587],[35.54515,31.96911],[35.54809,31.97038],[35.54445,31.96455],[35.54718,31.96102],[35.54321,31.95931],[35.54518,31.95087],[35.54227,31.94974],[35.54209,31.93671],[35.545,31.93465],[35.53874,31.93289],[35.53581,31.92425],[35.52787,31.92231],[35.52559,31.90594],[35.53245,31.89624],[35.5304,31.89311],[35.53396,31.89469],[35.52955,31.89018],[35.53623,31.88471],[35.53385,31.88176],[35.53809,31.88092],[35.54003,31.87445],[35.54955,31.87374],[35.54629,31.87015],[35.54827,31.86609],[35.54455,31.86571],[35.54693,31.86373],[35.54382,31.86494],[35.54322,31.85904],[35.5399,31.86062],[35.53745,31.85552],[35.54245,31.85524],[35.5392,31.85087],[35.54329,31.84808],[35.54662,31.84958],[35.54396,31.84572],[35.54813,31.84363],[35.54501,31.84225],[35.54625,31.83646],[35.54931,31.83628],[35.54524,31.83132],[35.54736,31.82474],[35.541,31.81906],[35.54354,31.8157],[35.54227,31.80596],[35.54799,31.79934],[35.55171,31.79926],[35.54881,31.78177],[35.5559,31.77318],[35.55208,31.76484],[35.57118,31.76125],[35.58302,31.7469],[35.58982,31.74596],[35.60846,31.73515],[35.66087,31.73739],[35.68842,31.7682],[35.68806,31.80173],[35.70034,31.82012],[35.70714,31.82146]]]}},{"type":"Feature","properties":{"id":"JOR:ADM2:86222999B98708860863844","name":"Amman","countryCode":"JOR","adminLevel":2,"sourceCode":"86222999B98708860863844","parentId":"JOR:ADM1:JOR-851"},"geometry":{"type":"Polygon","coordinates":[[[35.85902,31.87336],[35.85911,31.8833],[35.86919,31.8941],[35.89068,31.89484],[35.89616,31.89875],[35.93498,31.89819],[35.94792,31.89391],[35.96085,31.9142],[35.96085,31.91848],[35.95296,31.925],[35.95406,31.93281],[35.95797,31.93309],[35.95778,31.94305],[35.96699,31.95571],[35.96428,31.97203],[35.93636,31.98584],[35.90906,31.98751],[35.89222,31.98163],[35.86509,31.9637],[35.84539,31.97322],[35.81047,31.98026],[35.80231,31.98565],[35.78485,31.97914],[35.75604,31.95022],[35.74091,31.89743],[35.73214,31.88518],[35.7317,31.87641],[35.75604,31.87622],[35.76481,31.87045],[35.79595,31.88013],[35.84266,31.8792],[35.85902,31.87336]]]}}],"admin1":{"type":"FeatureCollection","features":[{"type":"Feature","properties":{"id":"JOR:ADM1:JOR-849","name":"Aqaba","countryCode":"JOR"},"geometry":{"type":"Polygon","coordinates":[[[35.0092,29.63095],[35.01741,29.65179],[35.01951,29.67671],[35.01048,29.69571],[35.03126,29.77396],[35.04361,29.78675],[35.05023,29.82042],[35.06047,29.83923],[35.06431,29.85202],[35.07973,29.8743],[35.08453,29.89094],[35.07801,29.93161],[35.08415,29.94131],[35.08305,29.94796],[35.07559,29.94948],[35.07888,29.95746],[35.08897,29.96449],[35.08897,29.97265],[35.09971,29.99165],[35.11528,29.99564],[35.11528,30.00152],[35.1098,30.0038],[35.1098,30.01026],[35.10103,30.01254],[35.11265,30.0395],[35.12217,30.05073],[35.13653,30.05942],[35.14657,30.06087],[35.14777,30.09458],[35.15781,30.11879],[35.15697,30.14164],[35.15362,30.14496],[35.15346,30.1535],[35.14359,30.16631],[35.14526,30.19132],[35.1486,30.19276],[35.15028,30.20386],[35.15028,30.22699],[35.14442,30.23936],[35.14777,30.28411],[35.15195,30.30021],[35.16115,30.31442],[35.19127,30.34644],[35.17534,30.39263],[35.16868,30.40067],[35.16115,30.4248],[35.16214,30.43735],[35.17203,30.44905],[35.19294,30.49454],[35.1921,30.52758],[35.20214,30.54604],[35.20381,30.58273],[35.21816,30.60477],[35.22021,30.61753],[35.26441,30.66316],[35.26078,30.67395],[35.2677,30.67826],[35.2675,30.68337],[35.28052,30.70825],[35.29063,30.71273],[35.28771,30.72639],[35.29525,30.74242],[35.29628,30.76368],[35.31075,30.76121],[35.31768,30.74583],[35.32785,30.73519],[35.35246,30.694],[35.3584,30.69236],[35.43606,30.62586],[35.50396,30.62723],[35.49412,30.58959],[35.49382,30.55795],[35.48305,30.54439],[35.47974,30.53462],[35.47786,30.46262],[35.45938,30.4518],[35.44892,30.44159],[35.42676,30.43461],[35.42262,30.362],[35.39952,30.33542],[35.40421,30.31828],[35.41693,30.30158],[35.41635,30.29227],[35.42888,30.27346],[35.42849,30.26231],[35.4231,30.25665],[35.42367,30.24033],[35.41809,30.23467],[35.41809,30.21835],[35.4123,30.21352],[35.41172,30.20619],[35.40633,30.20236],[35.40652,30.19719],[35.40055,30.1912],[35.40093,30.1842],[35.39496,30.18054],[35.37838,30.14604],[35.37929,30.13892],[35.35179,30.11771],[35.33714,30.11131],[35.33694,30.09622],[35.3435,30.08491],[35.34504,30.03331],[35.3228,29.99383],[35.31539,29.97472],[35.31799,29.97154],[35.33239,29.9709],[35.44561,29.9709],[35.53677,29.96577],[35.55434,29.95745],[35.59239,29.88902],[35.63448,29.84089],[35.6611,29.81836],[35.69256,29.77518],[35.7102,29.73369],[35.72417,29.6775],[35.7352,29.65066],[35.73888,29.49464],[35.73373,29.45944],[35.75228,29.27459],[35.75357,29.2353],[35.49903,29.27425],[35.50214,29.2977],[35.49905,29.27458],[34.95868,29.35717],[34.95868,29.35746],[34.96241,29.35977],[34.96405,29.38232],[34.96531,29.38591],[34.96464,29.39047],[34.9654,29.40099],[34.97434,29.40624],[34.96922,29.42142],[34.97073,29.43494],[34.96827,29.44073],[34.96894,29.44989],[34.97284,29.45376],[34.972,29.4619],[34.97355,29.46767],[34.97821,29.47307],[34.9835,29.49102],[34.98667,29.49697],[34.99994,29.51792],[34.99753,29.52868],[34.99714,29.52895],[34.99684,29.53388],[34.97796,29.5505],[34.97796,29.57557],[35.0092,29.63095]]]}},{"type":"Feature","properties":{"id":"JOR:ADM1:JOR-850","name":"Mafraq","countryCode":"JOR"},"geometry":{"type":"Polygon","coordinates":[[[36.12212,32.16212],[36.09801,32.1682],[36.08842,32.17524],[36.07693,32.17774],[36.06601,32.17344],[36.04967,32.15773],[36.02609,32.1557],[36.00579,32.16585],[35.9947,32.16788],[35.9771,32.19282],[35.96231,32.20297],[35.96014,32.21423],[35.954,32.22162],[35.9536,32.23659],[35.96217,32.24765],[35.96149,32.25888],[35.95602,32.26749],[35.95438,32.2781],[35.90084,32.29446],[35.90284,32.32072],[35.96138,32.36218],[35.98936,32.37417],[36.00156,32.39312],[36.00752,32.39518],[36.00816,32.41244],[35.99311,32.42969],[35.99368,32.44263],[35.97352,32.46203],[36.01156,32.46275],[36.04023,32.44646],[36.05102,32.44455],[36.06805,32.48574],[36.08679,32.51423],[36.12398,32.52572],[36.15634,32.52405],[36.16486,32.51232],[36.1958,32.53003],[36.20545,32.52644],[36.23554,32.50035],[36.31314,32.45624],[36.36073,32.41076],[36.39678,32.37984],[36.46922,32.37067],[36.48413,32.37004],[36.49967,32.36014],[36.70048,32.33315],[36.70727,32.32179],[36.72466,32.32898],[36.83795,32.30926],[36.86821,32.34053],[37.09848,32.46702],[37.09832,32.46727],[38.79444,33.37515],[39.08811,32.50293],[38.98647,32.47792],[39.04341,32.30429],[39.26033,32.35518],[39.30079,32.23029],[39.00624,32.00153],[37.79735,31.70467],[37.38208,31.83366],[36.44839,32.10801],[36.42506,32.14273],[36.40949,32.15104],[36.38414,32.15662],[36.34418,32.15383],[36.3218,32.15215],[36.30839,32.14565],[36.27819,32.1451],[36.25281,32.15096],[36.22908,32.16457],[36.2194,32.17498],[36.19672,32.18586],[36.19099,32.18586],[36.17959,32.18586],[36.12212,32.16212]],[[36.03636,32.38968],[36.03764,32.39147],[36.02844,32.38937],[36.03636,32.38968]],[[36.05358,32.39309],[36.05459,32.39243],[36.05391,32.39519],[36.04537,32.39324],[36.05358,32.39309]],[[36.32156,32.36689],[36.32424,32.36738],[36.29603,32.37792],[36.32156,32.36689]],[[36.33203,32.36881],[36.33997,32.37862],[36.32878,32.36821],[36.33203,32.36881]],[[36.34425,32.38391],[36.34206,32.39053],[36.34303,32.3824],[36.34425,32.38391]],[[36.34381,32.40141],[36.34143,32.39577],[36.34171,32.39346],[36.34381,32.40141]],[[36.39647,32.22973],[36.40373,32.23209],[36.40591,32.23415],[36.39647,32.22973]],[[36.17917,32.33192],[36.17705,32.33572],[36.17913,32.3308],[36.17917,32.33192]],[[36.17019,32.348],[36.16872,32.34898],[36.17501,32.33937],[36.17019,32.348]],[[36.15553,32.35777],[36.13054,32.3609],[36.15783,32.35624],[36.15553,32.35777]],[[36.83173,32.19143],[36.8677,32.19811],[36.80791,32.19016],[36.83173,32.19143]],[[37.06459,32.2569],[37.07603,32.26348],[37.00991,32.23582],[37.06459,32.2569]],[[37.15843,32.38881],[37.1488,32.40504],[37.15949,32.38506],[37.15843,32.38881]]]}},{"type":"Feature","properties":{"id":"JOR:ADM1:JOR-851","name":"Amman","countryCode":"JOR"},"geometry":{"type":"Polygon","coordinates":[[[36.58759,31.70521],[36.6073,31.68665],[36.6286,31.6796],[36.76459,31.7115],[37.00598,31.50058],[37.24594,31.26398],[36.13266,31.25634],[36.09708,31.28899],[36.09132,31.28887],[36.08066,31.29871],[36.07897,31.30866],[36.07364,31.31334],[36.07322,31.32305],[36.04857,31.34342],[36.02006,31.35391],[36.00076,31.37806],[35.98081,31.39397],[35.96436,31.40202],[35.93059,31.41175],[35.87687,31.41961],[35.85209,31.42728],[35.83455,31.43402],[35.81145,31.45497],[35.83304,31.51428],[35.84836,31.53081],[35.86128,31.55515],[35.83148,31.57024],[35.8301,31.58651],[35.83382,31.5921],[35.85683,31.60068],[35.85717,31.6033],[35.84234,31.63653],[35.80852,31.65439],[35.80338,31.67619],[35.80768,31.68785],[35.82594,31.68965],[35.83808,31.69477],[35.8491,31.71035],[35.85649,31.71494],[35.85705,31.71868],[35.84975,31.72499],[35.84655,31.73394],[35.83799,31.74386],[35.8606,31.76471],[35.86197,31.7886],[35.80515,31.80487],[35.77228,31.79835],[35.74722,31.80972],[35.70714,31.82146],[35.70758,31.82798],[35.72819,31.84102],[35.726,31.84642],[35.7328,31.85126],[35.7317,31.87641],[35.73214,31.88518],[35.74091,31.89743],[35.75604,31.95022],[35.78485,31.97914],[35.80231,31.98565],[35.80621,31.99253],[35.81948,31.99953],[35.8164,32.01326],[35.81777,32.02794],[35.84846,32.04819],[35.8534,32.06742],[35.87227,32.08373],[35.89672,32.09186],[35.90137,32.09174],[35.93118,32.07154],[35.92884,32.06885],[35.93084,32.0654],[35.95785,32.05395],[35.96217,32.03686],[35.97927,32.01794],[35.97733,32.0123],[35.97884,32.01211],[35.99963,32.00055],[36.03101,31.99923],[36.04664,32.00265],[36.06326,32.01438],[36.07967,32.01912],[36.09053,32.00827],[36.09803,31.99503],[36.13375,31.99235],[36.15114,31.99625],[36.19984,31.99867],[36.21976,32.00685],[36.26828,32.01326],[36.29208,32.02372],[36.30829,32.03941],[36.3261,32.04831],[36.3462,32.04977],[36.38885,32.0303],[36.43851,32.00571],[36.51108,31.94082],[36.47555,31.92651],[36.41181,31.88933],[36.40565,31.88393],[36.40778,31.88085],[36.46289,31.82254],[36.47869,31.81108],[36.50105,31.78323],[36.55329,31.72891],[36.5712,31.7139],[36.58759,31.70521]],[[35.95966,31.82333],[35.95894,31.82354],[35.95599,31.8234],[35.95966,31.82333]],[[36.06652,31.76578],[36.06332,31.76529],[36.06596,31.76559],[36.06652,31.76578]],[[36.00862,31.75905],[35.99254,31.75864],[35.99718,31.75774],[36.00862,31.75905]],[[35.98972,31.75918],[35.98042,31.76307],[35.98523,31.76005],[35.98972,31.75918]],[[35.97381,31.76722],[35.97314,31.76826],[35.9727,31.76792],[35.97381,31.76722]],[[35.99641,31.78434],[35.99904,31.78829],[35.98158,31.77479],[35.99641,31.78434]],[[36.00211,31.79291],[35.99513,31.80429],[36.00116,31.79149],[36.00211,31.79291]],[[35.98862,31.81492],[35.9764,31.81847],[35.98958,31.81336],[35.98862,31.81492]],[[35.86579,31.96416],[35.84539,31.97322],[35.86509,31.9637],[35.86579,31.96416]],[[35.92513,31.98825],[35.90906,31.98751],[35.93636,31.98584],[35.92513,31.98825]],[[35.9318,32.0057],[35.93158,32.00555],[35.92513,31.98825],[35.9318,32.0057]],[[35.93328,32.00669],[35.95459,32.01522],[35.93841,32.01013],[35.93328,32.00669]]]}},{"type":"Feature","properties":{"id":"JOR:ADM1:JOR-852","name":"Tafilah","countryCode":"JOR"},"geometry":{"type":"Polygon","coordinates":[[[35.68039,30.61392],[35.67772,30.60997],[35.66851,30.60496],[35.65274,30.6048],[35.64463,30.59974],[35.60238,30.6198],[35.53596,30.63094],[35.51047,30.63353],[35.50396,30.62723],[35.43606,30.62586],[35.3584,30.69236],[35.35246,30.694],[35.30956,30.76187],[35.31664,30.79251],[35.32093,30.79857],[35.33154,30.80271],[35.33526,30.8152],[35.35003,30.81503],[35.37087,30.79727],[35.40037,30.79635],[35.42423,30.80417],[35.44743,30.82605],[35.45798,30.86877],[35.45423,30.88372],[35.45637,30.90123],[35.46976,30.92209],[35.47672,30.94386],[35.47458,30.96727],[35.46869,30.98655],[35.46922,31.01133],[35.48903,31.02372],[35.55863,30.98655],[35.57094,30.98655],[35.58741,30.97826],[35.61482,30.98126],[35.63938,30.97938],[35.74635,30.94479],[35.78388,30.93642],[35.83218,30.9344],[35.84092,30.92207],[35.84798,30.89928],[35.87043,30.88887],[35.87809,30.89797],[35.88686,30.89445],[35.89126,30.8844],[35.89889,30.88473],[35.90996,30.89152],[35.91839,30.89168],[35.94696,30.88242],[35.95538,30.88637],[35.97686,30.88676],[35.99039,30.89697],[36.10434,30.8864],[36.07954,30.82716],[36.01926,30.70933],[35.99103,30.6466],[35.88983,30.65311],[35.8347,30.65226],[35.80953,30.62902],[35.6775,30.62387],[35.68039,30.61392]],[[35.688,30.66967],[35.69389,30.70006],[35.69354,30.69912],[35.688,30.66967]],[[35.57092,30.71107],[35.59405,30.71322],[35.5679,30.71212],[35.57092,30.71107]],[[35.55265,30.71148],[35.54278,30.71107],[35.52987,30.7061],[35.55265,30.71148]]]}},{"type":"Feature","properties":{"id":"JOR:ADM1:JOR-853","name":"Ma'an","countryCode":"JOR"},"geometry":{"type":"Polygon","coordinates":[[[35.59239,29.88902],[35.55434,29.95745],[35.545,29.96371],[35.46461,29.97027],[35.31799,29.97154],[35.31539,29.97472],[35.3228,29.99383],[35.34504,30.03331],[35.3435,30.08491],[35.33694,30.09622],[35.33714,30.11131],[35.35179,30.11771],[35.37908,30.13892],[35.41368,30.12902],[35.37929,30.13892],[35.37838,30.14604],[35.39496,30.18054],[35.40093,30.1842],[35.40055,30.1912],[35.40652,30.19719],[35.40633,30.20236],[35.41172,30.20619],[35.4123,30.21352],[35.41809,30.21835],[35.41809,30.23467],[35.42367,30.24033],[35.4231,30.25665],[35.42849,30.26231],[35.42888,30.27346],[35.41635,30.29227],[35.41693,30.30158],[35.40421,30.31828],[35.39952,30.33542],[35.42262,30.362],[35.42676,30.43461],[35.44892,30.44159],[35.45938,30.4518],[35.47786,30.46262],[35.47974,30.53462],[35.48305,30.54439],[35.49382,30.55795],[35.49412,30.58959],[35.49924,30.61672],[35.51008,30.63335],[35.59133,30.6228],[35.61337,30.61643],[35.64463,30.59974],[35.64474,30.59999],[35.65274,30.6048],[35.66851,30.60496],[35.67772,30.60997],[35.68039,30.61392],[35.6775,30.62387],[35.80953,30.62902],[35.8347,30.65226],[35.88983,30.65311],[35.96525,30.64821],[35.99103,30.6466],[36.01926,30.70933],[36.07954,30.82716],[36.10454,30.88687],[36.21735,31.10538],[36.14172,31.17505],[36.12842,31.20299],[36.13125,31.22979],[36.12795,31.24185],[36.13266,31.25634],[37.24595,31.26398],[38.00399,30.50076],[37.6732,30.33479],[37.50413,30.00147],[36.75347,29.8664],[36.50718,29.50168],[36.06899,29.18444],[35.75357,29.2353],[35.75228,29.27459],[35.73373,29.45944],[35.73888,29.49464],[35.7352,29.65066],[35.72417,29.6775],[35.7102,29.73369],[35.69256,29.77518],[35.66108,29.81838],[35.63448,29.84089],[35.59239,29.88902]],[[35.57995,30.28059],[35.5705,30.30979],[35.61169,30.15609],[35.57995,30.28059]],[[35.56242,30.32425],[35.56028,30.32577],[35.5705,30.30979],[35.56242,30.32425]],[[35.53225,30.39001],[35.52871,30.38614],[35.52425,30.37782],[35.53225,30.39001]],[[35.56788,30.41506],[35.54452,30.40344],[35.54109,30.39968],[35.56788,30.41506]],[[35.58227,30.43371],[35.58131,30.43384],[35.58031,30.43244],[35.58227,30.43371]],[[35.66913,30.43819],[35.66805,30.43855],[35.61177,30.42978],[35.66913,30.43819]],[[35.70491,30.42283],[35.71464,30.41961],[35.6877,30.43196],[35.68034,30.43443],[35.70491,30.42283]],[[35.74668,30.409],[35.7692,30.40562],[35.72771,30.41528],[35.74668,30.409]],[[35.80284,30.40057],[35.80437,30.40115],[35.80027,30.40096],[35.80284,30.40057]],[[35.94091,30.60677],[35.92186,30.57695],[35.89315,30.52508],[35.94091,30.60677]],[[35.62648,30.5395],[35.64042,30.51591],[35.67842,30.4621],[35.62648,30.5395]],[[35.62525,30.55724],[35.62476,30.54885],[35.62648,30.5395],[35.62525,30.55724]]]}},{"type":"Feature","properties":{"id":"JOR:ADM1:JOR-854","name":"Irbid","countryCode":"JOR"},"geometry":{"type":"Polygon","coordinates":[[[35.73685,32.4268],[35.73158,32.41784],[35.73535,32.41284],[35.73354,32.40824],[35.71832,32.40737],[35.7185,32.40077],[35.70749,32.38845],[35.6774,32.3903],[35.6608,32.40057],[35.6174,32.39325],[35.61024,32.39162],[35.61013,32.38363],[35.61606,32.36978],[35.61039,32.35589],[35.60168,32.34963],[35.60695,32.34385],[35.60095,32.34009],[35.60386,32.33381],[35.59187,32.31007],[35.5955,32.30353],[35.59296,32.28079],[35.5995,32.27317],[35.59914,32.26336],[35.60527,32.25161],[35.60396,32.24831],[35.56395,32.24969],[35.56222,32.25469],[35.56524,32.26157],[35.55892,32.26411],[35.5578,32.27235],[35.56268,32.27417],[35.56792,32.28516],[35.56408,32.2932],[35.55594,32.29914],[35.56134,32.31111],[35.55396,32.32501],[35.55736,32.34885],[35.55284,32.36569],[35.55485,32.36785],[35.56046,32.36569],[35.56329,32.37322],[35.55963,32.37924],[35.56048,32.3846],[35.54779,32.3932],[35.54487,32.40085],[35.5531,32.40333],[35.56048,32.40058],[35.55907,32.40944],[35.5619,32.41148],[35.55112,32.421],[35.55469,32.42575],[35.56175,32.4237],[35.56178,32.42777],[35.55651,32.43015],[35.55793,32.43397],[35.5643,32.43339],[35.56975,32.44126],[35.56787,32.45166],[35.57269,32.46003],[35.56636,32.46066],[35.56134,32.4672],[35.56928,32.475],[35.56713,32.48143],[35.57865,32.49028],[35.57238,32.49843],[35.56909,32.49676],[35.55881,32.5008],[35.56286,32.51229],[35.55993,32.50897],[35.55254,32.51526],[35.55551,32.52189],[35.56701,32.52455],[35.5602,32.5321],[35.55992,32.54583],[35.56559,32.5455],[35.569,32.5389],[35.569,32.55032],[35.5761,32.55234],[35.57159,32.5676],[35.57723,32.5738],[35.57831,32.58822],[35.57638,32.59726],[35.56823,32.5991],[35.57127,32.61152],[35.5619,32.62412],[35.56673,32.63304],[35.56105,32.63803],[35.56616,32.64077],[35.56162,32.64623],[35.57208,32.64603],[35.57236,32.64225],[35.58616,32.64245],[35.59114,32.64627],[35.5924,32.65331],[35.60562,32.65504],[35.60732,32.66012],[35.59913,32.66874],[35.62884,32.68377],[35.63906,32.68362],[35.64287,32.67973],[35.65501,32.68355],[35.67144,32.68018],[35.6746,32.68402],[35.67269,32.69515],[35.67722,32.70389],[35.70206,32.7143],[35.71684,32.7165],[35.71807,32.72321],[35.72286,32.7228],[35.72542,32.72693],[35.73441,32.72488],[35.73734,32.73362],[35.74419,32.73184],[35.75477,32.74446],[35.78314,32.74709],[35.79447,32.75473],[35.79777,32.75452],[35.7978,32.75166],[35.79128,32.74552],[35.79894,32.73863],[35.80734,32.74112],[35.80767,32.73634],[35.83317,32.72894],[35.84604,32.73061],[35.85231,32.72587],[35.85543,32.72679],[35.85401,32.72989],[35.86921,32.73252],[35.87533,32.73056],[35.88217,32.7224],[35.88278,32.717],[35.89801,32.71844],[35.89807,32.72536],[35.90674,32.72371],[35.90735,32.71962],[35.91164,32.72225],[35.91851,32.71867],[35.91856,32.72177],[35.92507,32.72225],[35.93525,32.71931],[35.94016,32.69813],[35.96687,32.69045],[35.97097,32.67711],[35.95422,32.67706],[35.96747,32.66211],[35.91793,32.6578],[35.96904,32.66219],[36.02282,32.6576],[36.02736,32.65546],[36.02845,32.63771],[36.02391,32.61293],[36.02663,32.60466],[36.03353,32.60359],[36.04062,32.59104],[36.06151,32.57757],[36.07871,32.53677],[36.07837,32.51255],[36.08679,32.51423],[36.06805,32.48574],[36.05102,32.44455],[36.04023,32.44646],[36.01156,32.46275],[35.97352,32.46203],[35.99368,32.44263],[35.99311,32.42969],[36.00816,32.41244],[36.00752,32.39518],[36.00156,32.39312],[35.98431,32.40141],[35.96296,32.40141],[35.92454,32.42274],[35.89865,32.41369],[35.8656,32.39301],[35.85826,32.3953],[35.86365,32.40004],[35.8668,32.4091],[35.83518,32.41062],[35.83186,32.4136],[35.83477,32.42014],[35.84756,32.42377],[35.85175,32.42822],[35.85125,32.43708],[35.84068,32.4383],[35.82314,32.42833],[35.82082,32.42498],[35.82326,32.41999],[35.80828,32.40954],[35.78328,32.42269],[35.77195,32.41938],[35.76775,32.42597],[35.75774,32.42354],[35.75328,32.42181],[35.74724,32.42596],[35.73685,32.4268]],[[35.85984,32.61056],[35.867,32.60663],[35.86874,32.60778],[35.85984,32.61056]],[[35.71944,32.6339],[35.71683,32.6339],[35.76608,32.62904],[35.71944,32.6339]],[[35.63402,32.59854],[35.63656,32.58436],[35.63534,32.60223],[35.63402,32.59854]],[[35.62107,32.53529],[35.65325,32.53393],[35.62123,32.53577],[35.62107,32.53529]],[[35.67676,32.53717],[35.6742,32.53775],[35.67305,32.53754],[35.67676,32.53717]],[[35.70873,32.52856],[35.72468,32.52734],[35.70282,32.53132],[35.69001,32.5342],[35.70873,32.52856]],[[35.71132,32.53544],[35.71018,32.53527],[35.70282,32.53132],[35.71132,32.53544]],[[35.75993,32.50466],[35.76262,32.51265],[35.76232,32.51196],[35.75993,32.50466]],[[35.76623,32.51757],[35.76467,32.51741],[35.76448,32.51698],[35.76623,32.51757]],[[35.77022,32.51728],[35.77027,32.518],[35.76913,32.51788],[35.77022,32.51728]],[[35.77198,32.49556],[35.77366,32.4958],[35.76885,32.49777],[35.77198,32.49556]],[[35.83589,32.50326],[35.83499,32.51423],[35.83444,32.50589],[35.83589,32.50326]],[[35.89645,32.52214],[35.88405,32.53246],[35.88332,32.53229],[35.89645,32.52214]],[[35.90686,32.52206],[35.9086,32.52234],[35.89645,32.52214],[35.90686,32.52206]],[[35.9197,32.5241],[35.91972,32.52419],[35.91687,32.52365],[35.9197,32.5241]],[[35.94656,32.55611],[35.94682,32.55102],[35.95138,32.57956],[35.94656,32.55611]]]}},{"type":"Feature","properties":{"id":"JOR:ADM1:JOR-855","name":"Ajloun","countryCode":"JOR"},"geometry":{"type":"Polygon","coordinates":[[[35.67222,32.20395],[35.66687,32.19893],[35.6581,32.17809],[35.6514,32.18122],[35.63396,32.19672],[35.60396,32.24831],[35.60556,32.25183],[35.60527,32.25161],[35.59914,32.26336],[35.59931,32.27363],[35.59296,32.28079],[35.5955,32.30353],[35.59187,32.31007],[35.60386,32.33381],[35.60095,32.34009],[35.60695,32.34385],[35.60168,32.34963],[35.61039,32.35589],[35.61606,32.36978],[35.61013,32.38363],[35.61054,32.39212],[35.6608,32.40057],[35.6774,32.3903],[35.70749,32.38845],[35.7185,32.40077],[35.71868,32.40767],[35.73558,32.40923],[35.73158,32.41784],[35.73685,32.4268],[35.74724,32.42596],[35.75328,32.42181],[35.76579,32.4265],[35.77195,32.41938],[35.78328,32.42269],[35.80828,32.40954],[35.82326,32.41999],[35.82082,32.42498],[35.82314,32.42833],[35.84068,32.4383],[35.85111,32.43722],[35.85175,32.42822],[35.84756,32.42377],[35.83477,32.42014],[35.83186,32.4136],[35.83518,32.41062],[35.8668,32.4091],[35.86365,32.40004],[35.85826,32.3953],[35.8656,32.39301],[35.83041,32.37669],[35.79555,32.35445],[35.72684,32.32479],[35.71949,32.31171],[35.71814,32.2963],[35.71372,32.28691],[35.71151,32.26771],[35.71415,32.24646],[35.70707,32.2292],[35.67211,32.20444],[35.67222,32.20395]]]}},{"type":"Feature","properties":{"id":"JOR:ADM1:JOR-856","name":"Jerash","countryCode":"JOR"},"geometry":{"type":"Polygon","coordinates":[[[35.9771,32.19282],[35.9947,32.16788],[35.98772,32.15477],[35.98703,32.13582],[35.99423,32.12202],[35.99458,32.10724],[36.00416,32.08497],[35.99868,32.07985],[35.99546,32.06997],[35.95866,32.05288],[35.93084,32.0654],[35.92884,32.06885],[35.93118,32.07154],[35.90137,32.09174],[35.89031,32.09124],[35.87319,32.08424],[35.86231,32.11972],[35.85272,32.12698],[35.85649,32.13597],[35.85272,32.12973],[35.82097,32.13403],[35.8137,32.15173],[35.81297,32.16326],[35.81715,32.16787],[35.80262,32.17695],[35.78972,32.18033],[35.76646,32.18464],[35.74375,32.18248],[35.7383,32.17833],[35.6581,32.17809],[35.66268,32.19125],[35.67207,32.20441],[35.70707,32.2292],[35.71415,32.24646],[35.71151,32.26771],[35.71372,32.28691],[35.71814,32.2963],[35.71949,32.31171],[35.72684,32.32479],[35.79555,32.35445],[35.83041,32.37669],[35.85253,32.38559],[35.89865,32.41369],[35.92113,32.42274],[35.93181,32.42082],[35.94408,32.41032],[35.96146,32.40195],[35.98431,32.40141],[36.00156,32.39312],[35.98936,32.37417],[35.96138,32.36218],[35.90284,32.32072],[35.90084,32.29446],[35.95438,32.2781],[35.95602,32.26749],[35.96149,32.25888],[35.96217,32.24765],[35.9536,32.23659],[35.954,32.22162],[35.96014,32.21423],[35.96231,32.20297],[35.9771,32.19282]]]}},{"type":"Feature","properties":{"id":"JOR:ADM1:JOR-857","name":"Balqa","countryCode":"JOR"},"geometry":{"type":"Polygon","coordinates":[[[35.73192,31.88452],[35.7328,31.85126],[35.726,31.84642],[35.72819,31.84102],[35.70758,31.82798],[35.70714,31.82146],[35.70034,31.82012],[35.68806,31.80173],[35.68842,31.7682],[35.66087,31.73739],[35.60846,31.73515],[35.58982,31.74596],[35.58302,31.7469],[35.57118,31.76125],[35.55208,31.76484],[35.5559,31.77318],[35.54881,31.78177],[35.55171,31.79926],[35.54799,31.79934],[35.54227,31.80596],[35.54354,31.8157],[35.541,31.81906],[35.54736,31.82474],[35.54524,31.83132],[35.54931,31.83628],[35.54625,31.83646],[35.54501,31.84225],[35.54813,31.84363],[35.54396,31.84572],[35.54662,31.84958],[35.54329,31.84808],[35.5392,31.85087],[35.54245,31.85524],[35.53745,31.85552],[35.5399,31.86062],[35.54322,31.85904],[35.54382,31.86494],[35.54693,31.86373],[35.54455,31.86571],[35.54827,31.86609],[35.54629,31.87015],[35.54955,31.87374],[35.54003,31.87445],[35.53809,31.88092],[35.53385,31.88176],[35.53623,31.88471],[35.52955,31.89018],[35.53396,31.89469],[35.5304,31.89311],[35.53245,31.89624],[35.52559,31.90594],[35.52787,31.92231],[35.53581,31.92425],[35.53874,31.93289],[35.545,31.93465],[35.54209,31.93671],[35.54227,31.94974],[35.54518,31.95087],[35.54321,31.95931],[35.54718,31.96102],[35.54445,31.96455],[35.54809,31.97038],[35.54515,31.96911],[35.53215,31.98587],[35.53629,31.98716],[35.53846,31.99622],[35.53361,32.00225],[35.52967,32.00132],[35.52628,32.00479],[35.53155,32.01544],[35.52216,32.0138],[35.52865,32.01995],[35.52247,32.02245],[35.52356,32.0283],[35.5192,32.03434],[35.52429,32.04328],[35.51988,32.04357],[35.51922,32.04664],[35.52992,32.05041],[35.52846,32.05682],[35.53101,32.06089],[35.52865,32.06382],[35.53591,32.07217],[35.53421,32.07559],[35.54445,32.08221],[35.54198,32.09142],[35.57443,32.09002],[35.53966,32.0928],[35.53269,32.10735],[35.54138,32.11328],[35.55106,32.12786],[35.54594,32.13228],[35.55117,32.13514],[35.54598,32.13594],[35.54388,32.14135],[35.54559,32.14379],[35.55036,32.14257],[35.55148,32.14618],[35.55728,32.14391],[35.56001,32.15102],[35.55641,32.15344],[35.55862,32.15931],[35.54989,32.16015],[35.54862,32.1669],[35.55674,32.16803],[35.55257,32.1729],[35.55384,32.17688],[35.55978,32.17438],[35.56134,32.18487],[35.55907,32.1894],[35.56614,32.18729],[35.5702,32.19254],[35.56975,32.19755],[35.56692,32.19718],[35.56291,32.20392],[35.56803,32.21169],[35.57347,32.21059],[35.56912,32.21358],[35.56633,32.22348],[35.57228,32.22943],[35.56246,32.23103],[35.56439,32.23911],[35.56146,32.24257],[35.56752,32.24207],[35.57106,32.24792],[35.60396,32.24831],[35.63396,32.19672],[35.63943,32.19224],[35.65891,32.17772],[35.72559,32.17772],[35.76646,32.18464],[35.80262,32.17695],[35.81715,32.16787],[35.81297,32.16326],[35.8137,32.15173],[35.82097,32.13403],[35.85272,32.12973],[35.86231,32.11972],[35.87319,32.08424],[35.8534,32.06742],[35.84846,32.04819],[35.81777,32.02794],[35.8164,32.01326],[35.81948,31.99953],[35.80621,31.99253],[35.80231,31.98565],[35.78485,31.97914],[35.75604,31.95022],[35.74269,31.90622],[35.74091,31.89743],[35.73192,31.88452]],[[35.65432,32.09192],[35.68965,32.103],[35.65433,32.09195],[35.65432,32.09192]],[[35.80916,32.06644],[35.79894,32.07366],[35.79085,32.07666],[35.80916,32.06644]],[[35.6587,31.94978],[35.64837,31.96942],[35.65824,31.94998],[35.6587,31.94978]],[[35.65036,32.03657],[35.65362,32.08825],[35.6511,32.07516],[35.65036,32.03657]]]}},{"type":"Feature","properties":{"id":"JOR:ADM1:JOR-858","name":"Madaba","countryCode":"JOR"},"geometry":{"type":"Polygon","coordinates":[[[35.83455,31.43402],[35.8363,31.42822],[35.83345,31.42092],[35.84134,31.38143],[35.85143,31.37581],[35.85384,31.35671],[35.79135,31.39173],[35.77293,31.39753],[35.76372,31.39528],[35.74288,31.40558],[35.74223,31.42739],[35.73912,31.43274],[35.74684,31.44284],[35.72883,31.42392],[35.70654,31.41031],[35.68017,31.42074],[35.67238,31.42563],[35.63258,31.44768],[35.60362,31.45599],[35.59574,31.4633],[35.50837,31.4934],[35.47822,31.49398],[35.47572,31.49629],[35.47548,31.57458],[35.48027,31.58159],[35.48473,31.61602],[35.49398,31.63295],[35.49535,31.64841],[35.52338,31.71109],[35.53215,31.72675],[35.55254,31.75081],[35.55408,31.75976],[35.55956,31.76424],[35.57118,31.76125],[35.58302,31.7469],[35.58982,31.74596],[35.60846,31.73515],[35.66087,31.73739],[35.68842,31.7682],[35.68806,31.80173],[35.70034,31.82012],[35.70751,31.82146],[35.74722,31.80972],[35.77228,31.79835],[35.80515,31.80487],[35.86197,31.7886],[35.8606,31.76471],[35.83799,31.74386],[35.84529,31.73549],[35.84838,31.72692],[35.85705,31.71868],[35.85649,31.71494],[35.8491,31.71035],[35.83808,31.69477],[35.82594,31.68965],[35.80647,31.6869],[35.80304,31.6724],[35.80783,31.65631],[35.8132,31.65045],[35.84407,31.63411],[35.85717,31.60097],[35.83382,31.5921],[35.8301,31.58651],[35.8301,31.57484],[35.83373,31.56741],[35.85217,31.56162],[35.86128,31.55515],[35.84836,31.53081],[35.83304,31.51428],[35.81145,31.45497],[35.83455,31.43402]]]}},{"type":"Feature","properties":{"id":"JOR:ADM1:JOR-859","name":"Karak","countryCode":"JOR"},"geometry":{"type":"Polygon","coordinates":[[[35.91839,30.89168],[35.90996,30.89152],[35.89889,30.88473],[35.89126,30.8844],[35.88686,30.89445],[35.8819,30.8978],[35.87809,30.89797],[35.87043,30.88887],[35.84798,30.89928],[35.84092,30.92207],[35.83218,30.9344],[35.78388,30.93642],[35.74635,30.94479],[35.63938,30.97938],[35.61482,30.98126],[35.58741,30.97826],[35.57094,30.98655],[35.55863,30.98655],[35.52734,31.00302],[35.48903,31.02372],[35.46922,31.01133],[35.46869,30.98655],[35.47458,30.96727],[35.47672,30.94386],[35.46976,30.92209],[35.45637,30.90123],[35.45423,30.88372],[35.45798,30.86877],[35.44834,30.82763],[35.42423,30.80417],[35.40345,30.79681],[35.37918,30.79589],[35.36716,30.79957],[35.35186,30.81411],[35.3402,30.81688],[35.32931,30.84382],[35.3304,30.8635],[35.33645,30.87899],[35.35626,30.90985],[35.37056,30.92319],[35.39534,30.92617],[35.41087,30.94948],[35.41312,30.98711],[35.42586,31.01923],[35.42479,31.04666],[35.44948,31.08187],[35.45847,31.11169],[35.45847,31.13369],[35.45145,31.16646],[35.42119,31.2006],[35.4007,31.23636],[35.4007,31.25604],[35.40659,31.28075],[35.42338,31.3112],[35.45218,31.34983],[35.46451,31.37558],[35.47548,31.41565],[35.47822,31.49398],[35.50837,31.4934],[35.59574,31.4633],[35.60362,31.45599],[35.63258,31.44768],[35.67238,31.42563],[35.70654,31.41031],[35.72883,31.42392],[35.73793,31.43346],[35.74223,31.42739],[35.74288,31.40558],[35.76372,31.39528],[35.77293,31.39753],[35.79135,31.39173],[35.85384,31.35671],[35.85143,31.37581],[35.84134,31.38143],[35.83345,31.42092],[35.8363,31.42822],[35.83455,31.43402],[35.87687,31.41961],[35.93059,31.41175],[35.96436,31.40202],[35.98081,31.39397],[36.00076,31.37806],[36.02006,31.35391],[36.04857,31.34342],[36.07322,31.32305],[36.07364,31.31334],[36.07897,31.30866],[36.08066,31.29871],[36.09132,31.28887],[36.09708,31.28899],[36.13266,31.25634],[36.12795,31.24185],[36.13125,31.22979],[36.12842,31.20299],[36.14172,31.17505],[36.21735,31.10538],[36.10434,30.8864],[35.99039,30.89697],[35.97776,30.88705],[35.95538,30.88637],[35.94755,30.88243],[35.91839,30.89168]],[[35.76437,31.3906],[35.77174,31.38239],[35.76372,31.39528],[35.76437,31.3906]],[[35.71566,31.09447],[35.7096,31.10059],[35.70511,31.10134],[35.71566,31.09447]],[[35.75778,31.06264],[35.76395,31.06264],[35.74058,31.06649],[35.75778,31.06264]],[[35.76843,31.07001],[35.76862,31.07248],[35.76395,31.06264],[35.76843,31.07001]],[[35.78405,31.10225],[35.77117,31.09798],[35.77113,31.09725],[35.78405,31.10225]],[[35.83525,31.07027],[35.8315,31.0761],[35.79493,31.109],[35.83525,31.07027]],[[35.62381,31.16346],[35.62607,31.16601],[35.62524,31.1656],[35.62381,31.16346]],[[35.6724,31.10041],[35.67254,31.10157],[35.64088,31.09356],[35.64113,31.09345],[35.6724,31.10041]],[[35.61745,31.10201],[35.61567,31.09879],[35.61899,31.10144],[35.61745,31.10201]],[[35.61138,31.09536],[35.60924,31.09458],[35.60991,31.09419],[35.61138,31.09536]],[[35.60197,31.09918],[35.60125,31.09927],[35.60349,31.09795],[35.60197,31.09918]],[[35.59191,31.10038],[35.59097,31.09979],[35.59853,31.09959],[35.59191,31.10038]],[[35.68743,31.27344],[35.68743,31.27344],[35.74787,31.27636],[35.68743,31.27344]]]}},{"type":"Feature","properties":{"id":"JOR:ADM1:JOR-860","name":"Zarqa","countryCode":"JOR"},"geometry":{"type":"Polygon","coordinates":[[[37.38208,31.83366],[37.79735,31.70467],[37.00598,31.50058],[36.7683,31.71029],[36.75528,31.71083],[36.6286,31.6796],[36.60823,31.68605],[36.58759,31.70521],[36.55829,31.72341],[36.50105,31.78323],[36.47869,31.81108],[36.46289,31.82254],[36.40565,31.88393],[36.47555,31.92651],[36.51108,31.94082],[36.43851,32.00571],[36.38869,32.03012],[36.42797,32.07387],[36.38885,32.0303],[36.3462,32.04977],[36.3261,32.04831],[36.30829,32.03941],[36.29208,32.02372],[36.26989,32.01376],[36.21976,32.00685],[36.20147,31.99904],[36.18518,31.997],[36.15114,31.99625],[36.13375,31.99235],[36.09986,31.99421],[36.07967,32.01912],[36.06326,32.01438],[36.03925,31.99979],[35.99963,32.00055],[35.97884,32.01211],[35.9785,32.01954],[35.96169,32.03781],[35.95866,32.05288],[35.99546,32.06997],[35.99868,32.07985],[36.00416,32.08497],[35.99458,32.10724],[35.99423,32.12202],[35.98703,32.13582],[35.98772,32.15477],[35.99249,32.16668],[36.00579,32.16585],[36.02609,32.1557],[36.04967,32.15773],[36.07282,32.17774],[36.08358,32.17716],[36.09801,32.1682],[36.12212,32.16212],[36.17959,32.18586],[36.19672,32.18586],[36.22011,32.17456],[36.22908,32.16457],[36.25281,32.15096],[36.27819,32.1451],[36.30839,32.14565],[36.3218,32.15215],[36.38414,32.15662],[36.40949,32.15104],[36.42506,32.14273],[36.44162,32.11549],[36.45393,32.10633],[37.38208,31.83366]]]}}]}}
