{"type":"FeatureCollection","features":[{"type":"Feature","properties":{"id":"KIR:ADM0:77750713B33971535264472","name":"Kiribati","countryCode":"KIR","adminLevel":0,"sourceCode":"77750713B33971535264472","parentId":"KIR:ADM1:KIR+00?"},"geometry":{"type":"MultiPolygon","coordinates":[[[[-171.72083,-2.76666],[-171.71674,-2.76462],[-171.70562,-2.76762],[-171.69779,-2.76829],[-171.68209,-2.77622],[-171.66055,-2.79433],[-171.64772,-2.80045],[-171.64325,-2.80706],[-171.66204,-2.79732],[-171.66486,-2.79498],[-171.6667,-2.79314],[-171.6688,-2.7917],[-171.69043,-2.77375],[-171.71281,-2.76865],[-171.71613,-2.77073],[-171.71618,-2.7758],[-171.72057,-2.78385],[-171.72083,-2.76666]]],[[[-171.72097,-2.78458],[-171.72191,-2.78631],[-171.7221,-2.78606],[-171.72097,-2.78458]]],[[[-171.62873,-2.84117],[-171.63507,-2.81919],[-171.62963,-2.82724],[-171.62592,-2.84599],[-171.62873,-2.84117]]],[[[-171.62752,-2.86329],[-171.62517,-2.86335],[-171.62555,-2.86715],[-171.63143,-2.8632],[-171.63285,-2.86166],[-171.63161,-2.85978],[-171.62752,-2.86329]]],[[[-171.67862,-2.83191],[-171.65784,-2.83876],[-171.65282,-2.84319],[-171.65195,-2.84418],[-171.65984,-2.83917],[-171.66926,-2.83637],[-171.67414,-2.83416],[-171.67781,-2.83318],[-171.68235,-2.83197],[-171.67862,-2.83191]]],[[[-171.7065,-2.8255],[-171.70788,-2.82513],[-171.71211,-2.82301],[-171.71268,-2.82224],[-171.71269,-2.82221],[-171.70758,-2.8238],[-171.7065,-2.8255]]],[[[176.81234,-2.62936],[176.79152,-2.61275],[176.80951,-2.61733],[176.81998,-2.62416],[176.8434,-2.6556],[176.84435,-2.65965],[176.84067,-2.66277],[176.83927,-2.66208],[176.81234,-2.62936]]],[[[175.98063,-2.5018],[175.97822,-2.50016],[175.97682,-2.49782],[175.97315,-2.48968],[175.97999,-2.49358],[175.98512,-2.49831],[175.98927,-2.50384],[175.99318,-2.51035],[175.98943,-2.51092],[175.98699,-2.50986],[175.98675,-2.50965],[175.98063,-2.5018]]],[[[175.58542,-1.86953],[175.58295,-1.86593],[175.58682,-1.86717],[175.58971,-1.87153],[175.58542,-1.86953]]],[[[175.5567,-1.82773],[175.55226,-1.81927],[175.55744,-1.8241],[175.5567,-1.82773]]],[[[175.06127,-1.5238],[175.06271,-1.52242],[175.06186,-1.52605],[175.06127,-1.5238]]],[[[175.05748,-1.46747],[175.06702,-1.46768],[175.06787,-1.48336],[175.05882,-1.482],[175.05885,-1.48056],[175.05574,-1.46834],[175.05748,-1.46747]]],[[[175.06751,-1.49673],[175.06846,-1.49421],[175.06857,-1.49621],[175.06827,-1.49666],[175.0686,-1.49671],[175.06861,-1.497],[175.0682,-1.49878],[175.06751,-1.49673]]],[[[175.94724,-1.28336],[175.95331,-1.28158],[175.95187,-1.28601],[175.94571,-1.28519],[175.94724,-1.28336]]],[[[175.94494,-1.2939],[175.94459,-1.28989],[175.94557,-1.29217],[175.94681,-1.29423],[175.94494,-1.2939]]],[[[175.96252,-1.28145],[175.96214,-1.2812],[175.96994,-1.28307],[175.98172,-1.29443],[176.00527,-1.33729],[176.0184,-1.35268],[176.02345,-1.36289],[176.02115,-1.37406],[176.01937,-1.37379],[176.01803,-1.37276],[176.0149,-1.35654],[176.00636,-1.34271],[175.995,-1.33119],[175.99422,-1.32782],[175.97863,-1.30107],[175.96915,-1.29669],[175.96688,-1.29663],[175.96583,-1.29518],[175.96037,-1.29044],[175.96252,-1.28145]]],[[[174.75792,-1.21459],[174.75028,-1.20668],[174.75074,-1.19948],[174.75065,-1.19917],[174.75806,-1.20016],[174.76685,-1.213],[174.76714,-1.21468],[174.7659,-1.21729],[174.76752,-1.21694],[174.76818,-1.22088],[174.75792,-1.21459]]],[[[174.75106,-1.19355],[174.74931,-1.19461],[174.74879,-1.19286],[174.75106,-1.19355]]],[[[169.54804,-0.85119],[169.54925,-0.86342],[169.54217,-0.87424],[169.53788,-0.8677],[169.52642,-0.86586],[169.52328,-0.85825],[169.52377,-0.85662],[169.52475,-0.85467],[169.52508,-0.85377],[169.5276,-0.85084],[169.53248,-0.84954],[169.53639,-0.84791],[169.5407,-0.84791],[169.54377,-0.84791],[169.54804,-0.85119]]],[[[174.47525,-0.80682],[174.47162,-0.80947],[174.46974,-0.80674],[174.47234,-0.80185],[174.47633,-0.8008],[174.47525,-0.80682]]],[[[174.43787,-0.6408],[174.43841,-0.64138],[174.43718,-0.6408],[174.43486,-0.63901],[174.43787,-0.6408]]],[[[174.39556,-0.6052],[174.40529,-0.61619],[174.39161,-0.60564],[174.38316,-0.59559],[174.39556,-0.6052]]],[[[173.54422,0.17692],[173.53641,0.18299],[173.53671,0.18322],[173.55047,0.18106],[173.55047,0.17459],[173.54422,0.17692]]],[[[173.63073,0.20426],[173.63212,0.20201],[173.63137,0.20252],[173.63085,0.20345],[173.63076,0.20293],[173.63,0.20345],[173.63073,0.20426]]],[[[173.63489,0.17784],[173.63786,0.19272],[173.64015,0.18901],[173.63754,0.1765],[173.63698,0.17506],[173.63489,0.17784]]],[[[173.94342,0.34364],[173.94457,0.33798],[173.94278,0.34184],[173.9401,0.33694],[173.94052,0.3404],[173.93865,0.34443],[173.93862,0.34458],[173.94342,0.34364]]],[[[173.92973,0.31416],[173.93638,0.31841],[173.93621,0.32112],[173.93897,0.32762],[173.93943,0.3314],[173.93997,0.32974],[173.94048,0.33566],[173.94457,0.33643],[173.94483,0.33283],[173.94176,0.33463],[173.94534,0.32871],[173.94342,0.33051],[173.94367,0.31969],[173.94166,0.3143],[173.9371,0.31],[173.9336,0.30899],[173.92758,0.31208],[173.92732,0.31391],[173.92973,0.31416]]],[[[173.93103,0.38716],[173.94215,0.3627],[173.94483,0.35265],[173.94278,0.34557],[173.93997,0.34635],[173.93843,0.34566],[173.93776,0.34939],[173.938,0.35724],[173.92923,0.38686],[173.93103,0.38716]]],[[[173.93154,0.39025],[173.92899,0.38768],[173.92672,0.39534],[173.93154,0.39025]]],[[[173.92784,0.39953],[173.92628,0.39681],[173.92547,0.39956],[173.92649,0.40181],[173.92784,0.39953]]],[[[173.00883,1.01078],[173.00699,1.01932],[173.00761,1.01496],[173.00294,1.01182],[173.00537,1.01517],[173.00397,1.02006],[173.00358,1.0144],[173.00013,1.01311],[172.9936,1.02316],[172.9941,1.02408],[173.00367,1.02408],[173.00833,1.01763],[173.00883,1.01078]]],[[[173.05609,0.98067],[173.05314,0.98392],[173.06495,0.97626],[173.07178,0.96981],[173.06995,0.96502],[173.06227,0.97516],[173.05693,0.97905],[173.05609,0.98067]]],[[[173.14381,1.38063],[173.14962,1.3843],[173.16301,1.37524],[173.16471,1.36547],[173.15893,1.35869],[173.12685,1.36491],[173.11226,1.36202],[173.08937,1.36378],[173.05851,1.35574],[173.05324,1.35683],[173.05436,1.35734],[173.05876,1.35687],[173.0871,1.36567],[173.11637,1.36436],[173.12406,1.36945],[173.13807,1.36417],[173.14476,1.36566],[173.14526,1.36187],[173.14453,1.37127],[173.15154,1.37181],[173.16065,1.37495],[173.14385,1.38015],[173.14381,1.38063]]],[[[173.02407,1.34006],[173.03911,1.34927],[173.03887,1.35016],[173.04468,1.35285],[173.04503,1.35231],[173.03216,1.34106],[173.02305,1.33647],[173.01808,1.33592],[173.01406,1.33676],[173.02407,1.34006]]],[[[173.04688,1.35279],[173.04593,1.35344],[173.04645,1.35368],[173.04688,1.35279]]],[[[172.96238,1.6186],[172.96314,1.61983],[172.96484,1.61436],[172.96478,1.61432],[172.96487,1.61427],[172.9693,1.6],[172.9699,1.59521],[172.97192,1.59158],[172.97234,1.59024],[172.97475,1.57709],[172.97468,1.57627],[172.97154,1.57415],[172.977,1.56485],[172.97809,1.55889],[172.97006,1.56907],[172.96972,1.58771],[172.96534,1.60042],[172.95938,1.60695],[172.95916,1.60969],[172.95648,1.61433],[172.96071,1.62166],[172.9629,1.62059],[172.96305,1.62011],[172.96238,1.6186]]],[[[172.94373,1.92243],[172.93369,1.93236],[172.93401,1.93546],[172.93697,1.93291],[172.94156,1.92735],[172.94174,1.92695],[172.94212,1.92668],[172.95296,1.91354],[172.97615,1.8963],[172.97937,1.88528],[172.97602,1.89015],[172.95964,1.9052],[172.95627,1.9064],[172.95509,1.90795],[172.94532,1.9169],[172.94373,1.92243]]],[[[172.99107,1.85894],[172.98518,1.87545],[172.99043,1.86837],[172.99163,1.86364],[173.01434,1.83143],[173.00012,1.84703],[172.99107,1.85894]]],[[[173.03781,1.75082],[173.03834,1.74238],[173.03748,1.7399],[173.02488,1.72322],[173.0305,1.734],[173.03053,1.73403],[173.03057,1.73412],[173.03549,1.74356],[173.03538,1.74522],[173.03781,1.75082]]],[[[173.01198,1.71627],[173.01917,1.72034],[173.02321,1.721],[173.02155,1.71882],[173.01412,1.71329],[172.99295,1.71411],[172.99077,1.71565],[173.00167,1.71745],[173.01198,1.71627]]],[[[173.26727,1.97267],[173.25746,1.97483],[173.25587,1.98566],[173.2562,1.98998],[173.25837,1.9927],[173.25767,1.98625],[173.26111,1.98066],[173.26379,1.97989],[173.26389,1.97849],[173.25814,1.98118],[173.26353,1.97649],[173.28203,1.97202],[173.28497,1.97122],[173.26727,1.97267]]],[[[173.29751,1.99676],[173.30734,1.98303],[173.30782,1.97486],[173.30742,1.97466],[173.30681,1.97647],[173.30592,1.9807],[173.30079,1.98566],[173.29737,1.98989],[173.29762,1.99144],[173.29672,1.99372],[173.29622,1.99662],[173.29751,1.99676]]],[[[-157.49682,2.03141],[-157.4956,2.03438],[-157.4746,2.03335],[-157.42382,2.02045],[-157.38585,1.99046],[-157.32185,1.97211],[-157.31013,1.97309],[-157.31139,1.96259],[-157.31505,1.95279],[-157.32067,1.9455],[-157.33617,1.93911],[-157.34044,1.93024],[-157.34492,1.90795],[-157.34505,1.90581],[-157.34579,1.90419],[-157.34539,1.89998],[-157.34773,1.86078],[-157.34093,1.85318],[-157.34012,1.84472],[-157.32922,1.82986],[-157.31882,1.82791],[-157.31162,1.81834],[-157.29847,1.81034],[-157.2757,1.80496],[-157.26522,1.79682],[-157.2488,1.79134],[-157.23246,1.77913],[-157.23075,1.77866],[-157.22297,1.77359],[-157.2069,1.76655],[-157.19099,1.7639],[-157.17939,1.75389],[-157.17463,1.73379],[-157.17878,1.71849],[-157.19408,1.72297],[-157.20307,1.71748],[-157.21325,1.7128],[-157.22411,1.7097],[-157.23506,1.7093],[-157.24641,1.71332],[-157.25463,1.72028],[-157.26085,1.72687],[-157.27119,1.73298],[-157.28157,1.74706],[-157.28686,1.75023],[-157.30521,1.7516],[-157.31425,1.75829],[-157.34864,1.7728],[-157.36716,1.77697],[-157.38682,1.77599],[-157.4058,1.78051],[-157.41059,1.78193],[-157.44896,1.80024],[-157.46676,1.81352],[-157.48101,1.84455],[-157.48862,1.84979],[-157.47883,1.84797],[-157.45478,1.84707],[-157.43468,1.83853],[-157.42854,1.83857],[-157.43737,1.85017],[-157.44795,1.85749],[-157.45861,1.86213],[-157.46809,1.86835],[-157.47478,1.87986],[-157.47422,1.88027],[-157.46235,1.87629],[-157.45165,1.87641],[-157.44579,1.88373],[-157.44734,1.90111],[-157.43659,1.89387],[-157.43249,1.88373],[-157.43,1.87279],[-157.4237,1.86323],[-157.41198,1.85847],[-157.40795,1.86616],[-157.41002,1.87938],[-157.42443,1.90184],[-157.42638,1.91206],[-157.42439,1.92121],[-157.41999,1.92902],[-157.40831,1.92145],[-157.40315,1.92422],[-157.40632,1.94269],[-157.39472,1.93574],[-157.39399,1.92674],[-157.39586,1.91698],[-157.39208,1.90795],[-157.38207,1.90217],[-157.37719,1.90526],[-157.37397,1.91136],[-157.36384,1.91738],[-157.35847,1.9239],[-157.35412,1.93183],[-157.35237,1.93895],[-157.35505,1.94766],[-157.36168,1.95148],[-157.37963,1.95572],[-157.40888,1.96931],[-157.42905,1.98318],[-157.4291,2.0032],[-157.4371,2.00282],[-157.43533,2.00509],[-157.43962,2.00848],[-157.44113,2.01508],[-157.44277,2.00076],[-157.45082,2.00374],[-157.4535,2.01129],[-157.44726,2.00773],[-157.44726,2.01268],[-157.44413,2.01433],[-157.46054,2.01596],[-157.45762,2.01718],[-157.45071,2.01667],[-157.44704,2.01836],[-157.45617,2.02638],[-157.45859,2.01858],[-157.4661,2.0207],[-157.46816,2.02696],[-157.48059,2.02235],[-157.48467,2.01443],[-157.4828,2.00704],[-157.48474,2.00457],[-157.49682,2.03141]]],[[[-157.54004,1.86995],[-157.54941,1.8734],[-157.55183,1.87963],[-157.55441,1.87138],[-157.53885,1.86398],[-157.53361,1.86581],[-157.52693,1.86481],[-157.51305,1.8666],[-157.50092,1.86587],[-157.49572,1.85668],[-157.49238,1.85237],[-157.50022,1.85776],[-157.51651,1.85478],[-157.52827,1.86249],[-157.5373,1.85668],[-157.54682,1.85643],[-157.55286,1.85873],[-157.56111,1.87059],[-157.56162,1.87618],[-157.54921,1.88575],[-157.54951,1.88447],[-157.53988,1.87018],[-157.54004,1.86995]]],[[[173.27367,2.05954],[173.27383,2.05951],[173.28202,2.0499],[173.28501,2.04004],[173.28468,2.04027],[173.28159,2.04182],[173.27703,2.04438],[173.27052,2.04556],[173.26612,2.04385],[173.26532,2.03996],[173.26156,2.03819],[173.2619,2.00898],[173.26022,2.00694],[173.26027,2.00723],[173.26051,2.01284],[173.26002,2.01878],[173.2575,2.02847],[173.25807,2.034],[173.25961,2.0434],[173.26206,2.04987],[173.26466,2.05516],[173.26838,2.05911],[173.27367,2.05954]]],[[[173.29709,2.00013],[173.29575,1.9984],[173.29371,2.00544],[173.29152,2.01512],[173.29172,2.01786],[173.29709,2.00013]]],[[[172.89429,3.10269],[172.89655,3.10025],[172.88697,3.10025],[172.89381,3.10349],[172.89429,3.10269]]],[[[-159.28249,3.81924],[-159.27991,3.81581],[-159.28162,3.82069],[-159.27753,3.82107],[-159.27788,3.82391],[-159.26921,3.82889],[-159.27086,3.83075],[-159.25686,3.83322],[-159.25329,3.82868],[-159.25281,3.8274],[-159.27818,3.81112],[-159.28906,3.80924],[-159.28523,3.81143],[-159.28443,3.81885],[-159.28249,3.81924]]],[[[-159.30999,3.80564],[-159.32754,3.80794],[-159.33718,3.81318],[-159.34217,3.8194],[-159.29979,3.80739],[-159.30999,3.80564]]],[[[-159.29103,3.87252],[-159.29898,3.877],[-159.29467,3.87726],[-159.28454,3.87482],[-159.28197,3.87159],[-159.29103,3.87252]]],[[[-159.39458,3.90046],[-159.3819,3.92371],[-159.36919,3.93163],[-159.35217,3.92792],[-159.3729,3.92435],[-159.38033,3.91946],[-159.38508,3.91121],[-159.38487,3.90139],[-159.38789,3.89875],[-159.39155,3.89244],[-159.39458,3.90046]]]]}}],"admin1":{"type":"FeatureCollection","features":[{"type":"Feature","properties":{"id":"KIR:ADM1:KIR+00?","name":"Kiribati","countryCode":"KIR"},"geometry":{"type":"MultiPolygon","coordinates":[[[[-171.63161,-2.85978],[-171.62752,-2.86329],[-171.62517,-2.86335],[-171.62555,-2.86715],[-171.63143,-2.8632],[-171.63285,-2.86166],[-171.63161,-2.85978]]],[[[-171.67414,-2.83416],[-171.67781,-2.83318],[-171.68235,-2.83197],[-171.67862,-2.83191],[-171.65784,-2.83876],[-171.65282,-2.84319],[-171.65195,-2.84418],[-171.65984,-2.83917],[-171.66926,-2.83637],[-171.67414,-2.83416]]],[[[-171.62963,-2.82724],[-171.62592,-2.84599],[-171.62873,-2.84117],[-171.63507,-2.81919],[-171.62963,-2.82724]]],[[[-171.70758,-2.8238],[-171.7065,-2.8255],[-171.70788,-2.82513],[-171.71211,-2.82301],[-171.71268,-2.82224],[-171.71269,-2.82221],[-171.70758,-2.8238]]],[[[-171.64772,-2.80045],[-171.64325,-2.80706],[-171.66204,-2.79732],[-171.66486,-2.79498],[-171.6667,-2.79314],[-171.6688,-2.7917],[-171.69043,-2.77375],[-171.71281,-2.76865],[-171.71613,-2.77073],[-171.71618,-2.7758],[-171.72057,-2.78385],[-171.72083,-2.76666],[-171.71674,-2.76462],[-171.70562,-2.76762],[-171.69779,-2.76829],[-171.68209,-2.77622],[-171.66055,-2.79433],[-171.64772,-2.80045]]],[[[-171.72097,-2.78458],[-171.72191,-2.78631],[-171.7221,-2.78606],[-171.72097,-2.78458]]],[[[169.52328,-0.85825],[169.52377,-0.85662],[169.52475,-0.85467],[169.52508,-0.85377],[169.5276,-0.85084],[169.53248,-0.84954],[169.53639,-0.84791],[169.5407,-0.84791],[169.54377,-0.84791],[169.54804,-0.85119],[169.54925,-0.86342],[169.54217,-0.87424],[169.53788,-0.8677],[169.52642,-0.86586],[169.52328,-0.85825]]],[[[172.9699,1.59521],[172.97192,1.59158],[172.97234,1.59024],[172.97475,1.57709],[172.97468,1.57627],[172.97154,1.57415],[172.977,1.56485],[172.97809,1.55889],[172.97006,1.56907],[172.96972,1.58771],[172.96534,1.60042],[172.95938,1.60695],[172.95916,1.60969],[172.95648,1.61433],[172.96071,1.62166],[172.9629,1.62059],[172.96305,1.62011],[172.96238,1.6186],[172.96314,1.61983],[172.96484,1.61436],[172.96478,1.61432],[172.96487,1.61427],[172.9693,1.6],[172.9699,1.59521]]],[[[172.99107,1.85894],[172.98518,1.87545],[172.99043,1.86837],[172.99163,1.86364],[173.01434,1.83143],[173.00012,1.84703],[172.99107,1.85894]]],[[[-157.53361,1.86581],[-157.52693,1.86481],[-157.51305,1.8666],[-157.50092,1.86587],[-157.49572,1.85668],[-157.49238,1.85237],[-157.50022,1.85776],[-157.51651,1.85478],[-157.52827,1.86249],[-157.5373,1.85668],[-157.54682,1.85643],[-157.55286,1.85873],[-157.56111,1.87059],[-157.56162,1.87618],[-157.54921,1.88575],[-157.54951,1.88447],[-157.53988,1.87018],[-157.54004,1.86995],[-157.54941,1.8734],[-157.55183,1.87963],[-157.55441,1.87138],[-157.53885,1.86398],[-157.53361,1.86581]]],[[[-157.31013,1.97309],[-157.31139,1.96259],[-157.31505,1.95279],[-157.32067,1.9455],[-157.33617,1.93911],[-157.34044,1.93024],[-157.34492,1.90795],[-157.34505,1.90581],[-157.34579,1.90419],[-157.34539,1.89998],[-157.34773,1.86078],[-157.34093,1.85318],[-157.34012,1.84472],[-157.32922,1.82986],[-157.31882,1.82791],[-157.31162,1.81834],[-157.29847,1.81034],[-157.2757,1.80496],[-157.26522,1.79682],[-157.2488,1.79134],[-157.23246,1.77913],[-157.23075,1.77866],[-157.22297,1.77359],[-157.2069,1.76655],[-157.19099,1.7639],[-157.17939,1.75389],[-157.17463,1.73379],[-157.17878,1.71849],[-157.19408,1.72297],[-157.20307,1.71748],[-157.21325,1.7128],[-157.22411,1.7097],[-157.23506,1.7093],[-157.24641,1.71332],[-157.25463,1.72028],[-157.26085,1.72687],[-157.27119,1.73298],[-157.28157,1.74706],[-157.28686,1.75023],[-157.30521,1.7516],[-157.31425,1.75829],[-157.34864,1.7728],[-157.36716,1.77697],[-157.38682,1.77599],[-157.4058,1.78051],[-157.41059,1.78193],[-157.44896,1.80024],[-157.46676,1.81352],[-157.48101,1.84455],[-157.48862,1.84979],[-157.47883,1.84797],[-157.45478,1.84707],[-157.43468,1.83853],[-157.42854,1.83857],[-157.43737,1.85017],[-157.44795,1.85749],[-157.45861,1.86213],[-157.46809,1.86835],[-157.47478,1.87986],[-157.47422,1.88027],[-157.46235,1.87629],[-157.45165,1.87641],[-157.44579,1.88373],[-157.44734,1.90111],[-157.43659,1.89387],[-157.43249,1.88373],[-157.43,1.87279],[-157.4237,1.86323],[-157.41198,1.85847],[-157.40795,1.86616],[-157.41002,1.87938],[-157.42443,1.90184],[-157.42638,1.91206],[-157.42439,1.92121],[-157.41999,1.92902],[-157.40831,1.92145],[-157.40315,1.92422],[-157.40632,1.94269],[-157.39472,1.93574],[-157.39399,1.92674],[-157.39586,1.91698],[-157.39208,1.90795],[-157.38207,1.90217],[-157.37719,1.90526],[-157.37397,1.91136],[-157.36384,1.91738],[-157.35847,1.9239],[-157.35412,1.93183],[-157.35237,1.93895],[-157.35505,1.94766],[-157.36168,1.95148],[-157.37963,1.95572],[-157.40888,1.96931],[-157.42905,1.98318],[-157.4291,2.0032],[-157.4371,2.00282],[-157.43533,2.00509],[-157.43962,2.00848],[-157.44113,2.01508],[-157.44277,2.00076],[-157.45082,2.00374],[-157.4535,2.01129],[-157.44726,2.00773],[-157.44726,2.01268],[-157.44413,2.01433],[-157.46054,2.01596],[-157.45762,2.01718],[-157.45071,2.01667],[-157.44704,2.01836],[-157.45617,2.02638],[-157.45859,2.01858],[-157.4661,2.0207],[-157.46816,2.02696],[-157.48059,2.02235],[-157.48467,2.01443],[-157.4828,2.00704],[-157.48474,2.00457],[-157.49682,2.03141],[-157.4956,2.03438],[-157.4746,2.03335],[-157.42382,2.02045],[-157.38585,1.99046],[-157.32185,1.97211],[-157.31013,1.97309]]],[[[172.94212,1.92668],[172.95296,1.91354],[172.97615,1.8963],[172.97937,1.88528],[172.97602,1.89015],[172.95964,1.9052],[172.95627,1.9064],[172.95509,1.90795],[172.94532,1.9169],[172.94373,1.92243],[172.93369,1.93236],[172.93401,1.93546],[172.93697,1.93291],[172.94156,1.92735],[172.94174,1.92695],[172.94212,1.92668]]],[[[172.89655,3.10025],[172.88697,3.10025],[172.89381,3.10349],[172.89429,3.10269],[172.89655,3.10025]]],[[[-159.32754,3.80794],[-159.33718,3.81318],[-159.34217,3.8194],[-159.29979,3.80739],[-159.30999,3.80564],[-159.32754,3.80794]]],[[[-159.27086,3.83075],[-159.25686,3.83322],[-159.25329,3.82868],[-159.25281,3.8274],[-159.27818,3.81112],[-159.28906,3.80924],[-159.28523,3.81143],[-159.28443,3.81885],[-159.28249,3.81924],[-159.27991,3.81581],[-159.28162,3.82069],[-159.27753,3.82107],[-159.27788,3.82391],[-159.26921,3.82889],[-159.27086,3.83075]]],[[[-159.29103,3.87252],[-159.29898,3.877],[-159.29467,3.87726],[-159.28454,3.87482],[-159.28197,3.87159],[-159.29103,3.87252]]],[[[-159.38508,3.91121],[-159.38487,3.90139],[-159.38789,3.89875],[-159.39155,3.89244],[-159.39458,3.90046],[-159.3819,3.92371],[-159.36919,3.93163],[-159.35217,3.92792],[-159.3729,3.92435],[-159.38033,3.91946],[-159.38508,3.91121]]],[[[173.53641,0.18299],[173.53671,0.18322],[173.55047,0.18106],[173.55047,0.17459],[173.54422,0.17692],[173.53641,0.18299]]],[[[173.63489,0.17784],[173.63786,0.19272],[173.64015,0.18901],[173.63754,0.1765],[173.63698,0.17506],[173.63489,0.17784]]],[[[173.63073,0.20426],[173.63212,0.20201],[173.63137,0.20252],[173.63085,0.20345],[173.63076,0.20293],[173.63,0.20345],[173.63073,0.20426]]],[[[173.94048,0.33566],[173.94457,0.33643],[173.94483,0.33283],[173.94176,0.33463],[173.94534,0.32871],[173.94342,0.33051],[173.94367,0.31969],[173.94166,0.3143],[173.9371,0.31],[173.9336,0.30899],[173.92758,0.31208],[173.92732,0.31391],[173.92973,0.31416],[173.93638,0.31841],[173.93621,0.32112],[173.93897,0.32762],[173.93943,0.3314],[173.93997,0.32974],[173.94048,0.33566]]],[[[173.93154,0.39025],[173.92899,0.38768],[173.92672,0.39534],[173.93154,0.39025]]],[[[173.92547,0.39956],[173.92649,0.40181],[173.92784,0.39953],[173.92628,0.39681],[173.92547,0.39956]]],[[[173.05693,0.97905],[173.05609,0.98067],[173.05314,0.98392],[173.06495,0.97626],[173.07178,0.96981],[173.06995,0.96502],[173.06227,0.97516],[173.05693,0.97905]]],[[[173.00358,1.0144],[173.00013,1.01311],[172.9936,1.02316],[172.9941,1.02408],[173.00367,1.02408],[173.00833,1.01763],[173.00883,1.01078],[173.00699,1.01932],[173.00761,1.01496],[173.00294,1.01182],[173.00537,1.01517],[173.00397,1.02006],[173.00358,1.0144]]],[[[173.03216,1.34106],[173.02305,1.33647],[173.01808,1.33592],[173.01406,1.33676],[173.02407,1.34006],[173.03911,1.34927],[173.03887,1.35016],[173.04468,1.35285],[173.04503,1.35231],[173.03216,1.34106]]],[[[173.04688,1.35279],[173.04593,1.35344],[173.04645,1.35368],[173.04688,1.35279]]],[[[173.11226,1.36202],[173.08937,1.36378],[173.05851,1.35574],[173.05324,1.35683],[173.05436,1.35734],[173.05876,1.35687],[173.0871,1.36567],[173.11637,1.36436],[173.12406,1.36945],[173.13807,1.36417],[173.14476,1.36566],[173.14526,1.36187],[173.14453,1.37127],[173.15154,1.37181],[173.16065,1.37495],[173.14385,1.38015],[173.14381,1.38063],[173.14962,1.3843],[173.16301,1.37524],[173.16471,1.36547],[173.15893,1.35869],[173.12685,1.36491],[173.11226,1.36202]]],[[[172.99295,1.71411],[172.99077,1.71565],[173.00167,1.71745],[173.01198,1.71627],[173.01917,1.72034],[173.02321,1.721],[173.02155,1.71882],[173.01412,1.71329],[172.99295,1.71411]]],[[[173.03057,1.73412],[173.03549,1.74356],[173.03538,1.74522],[173.03781,1.75082],[173.03834,1.74238],[173.03748,1.7399],[173.02488,1.72322],[173.0305,1.734],[173.03053,1.73403],[173.03057,1.73412]]],[[[173.26111,1.98066],[173.26379,1.97989],[173.26389,1.97849],[173.25814,1.98118],[173.26353,1.97649],[173.28203,1.97202],[173.28497,1.97122],[173.26727,1.97267],[173.25746,1.97483],[173.25587,1.98566],[173.2562,1.98998],[173.25837,1.9927],[173.25767,1.98625],[173.26111,1.98066]]],[[[173.30592,1.9807],[173.30079,1.98566],[173.29737,1.98989],[173.29762,1.99144],[173.29672,1.99372],[173.29622,1.99662],[173.29751,1.99676],[173.30734,1.98303],[173.30782,1.97486],[173.30742,1.97466],[173.30681,1.97647],[173.30592,1.9807]]],[[[173.29575,1.9984],[173.29371,2.00544],[173.29152,2.01512],[173.29172,2.01786],[173.29709,2.00013],[173.29575,1.9984]]],[[[173.27703,2.04438],[173.27052,2.04556],[173.26612,2.04385],[173.26532,2.03996],[173.26156,2.03819],[173.2619,2.00898],[173.26022,2.00694],[173.26027,2.00723],[173.26051,2.01284],[173.26002,2.01878],[173.2575,2.02847],[173.25807,2.034],[173.25961,2.0434],[173.26206,2.04987],[173.26466,2.05516],[173.26838,2.05911],[173.27367,2.05954],[173.27383,2.05951],[173.28202,2.0499],[173.28501,2.04004],[173.28468,2.04027],[173.28159,2.04182],[173.27703,2.04438]]],[[[176.84067,-2.66277],[176.83927,-2.66208],[176.81234,-2.62936],[176.79152,-2.61275],[176.80951,-2.61733],[176.81998,-2.62416],[176.8434,-2.6556],[176.84435,-2.65965],[176.84067,-2.66277]]],[[[175.98927,-2.50384],[175.99318,-2.51035],[175.98943,-2.51092],[175.98699,-2.50986],[175.98675,-2.50965],[175.98063,-2.5018],[175.97822,-2.50016],[175.97682,-2.49782],[175.97315,-2.48968],[175.97999,-2.49358],[175.98512,-2.49831],[175.98927,-2.50384]]],[[[175.58682,-1.86717],[175.58971,-1.87153],[175.58542,-1.86953],[175.58295,-1.86593],[175.58682,-1.86717]]],[[[175.5567,-1.82773],[175.55226,-1.81927],[175.55744,-1.8241],[175.5567,-1.82773]]],[[[175.06186,-1.52605],[175.06127,-1.5238],[175.06271,-1.52242],[175.06186,-1.52605]]],[[[175.0682,-1.49878],[175.06751,-1.49673],[175.06846,-1.49421],[175.06857,-1.49621],[175.06827,-1.49666],[175.0686,-1.49671],[175.06861,-1.497],[175.0682,-1.49878]]],[[[175.05748,-1.46747],[175.06702,-1.46768],[175.06787,-1.48336],[175.05882,-1.482],[175.05885,-1.48056],[175.05574,-1.46834],[175.05748,-1.46747]]],[[[176.0184,-1.35268],[176.02345,-1.36289],[176.02115,-1.37406],[176.01937,-1.37379],[176.01803,-1.37276],[176.0149,-1.35654],[176.00636,-1.34271],[175.995,-1.33119],[175.99422,-1.32782],[175.97863,-1.30107],[175.96915,-1.29669],[175.96688,-1.29663],[175.96583,-1.29518],[175.96037,-1.29044],[175.96252,-1.28145],[175.96214,-1.2812],[175.96994,-1.28307],[175.98172,-1.29443],[176.00527,-1.33729],[176.0184,-1.35268]]],[[[175.94557,-1.29217],[175.94681,-1.29423],[175.94494,-1.2939],[175.94459,-1.28989],[175.94557,-1.29217]]],[[[175.95187,-1.28601],[175.94571,-1.28519],[175.94724,-1.28336],[175.95331,-1.28158],[175.95187,-1.28601]]],[[[174.76685,-1.213],[174.76714,-1.21468],[174.7659,-1.21729],[174.76752,-1.21694],[174.76818,-1.22088],[174.75792,-1.21459],[174.75028,-1.20668],[174.75074,-1.19948],[174.75065,-1.19917],[174.75806,-1.20016],[174.76685,-1.213]]],[[[174.75106,-1.19355],[174.74931,-1.19461],[174.74879,-1.19286],[174.75106,-1.19355]]],[[[174.47162,-0.80947],[174.46974,-0.80674],[174.47234,-0.80185],[174.47633,-0.8008],[174.47525,-0.80682],[174.47162,-0.80947]]],[[[174.43718,-0.6408],[174.43486,-0.63901],[174.43787,-0.6408],[174.43841,-0.64138],[174.43718,-0.6408]]],[[[174.39161,-0.60564],[174.38316,-0.59559],[174.39556,-0.6052],[174.40529,-0.61619],[174.39161,-0.60564]]],[[[173.93862,0.34458],[173.94342,0.34364],[173.94457,0.33798],[173.94278,0.34184],[173.9401,0.33694],[173.94052,0.3404],[173.93865,0.34443],[173.93862,0.34458]]],[[[173.93776,0.34939],[173.938,0.35724],[173.92923,0.38686],[173.93103,0.38716],[173.94215,0.3627],[173.94483,0.35265],[173.94278,0.34557],[173.93997,0.34635],[173.93843,0.34566],[173.93776,0.34939]]]]}}]}}
