{"type":"FeatureCollection","features":[{"type":"Feature","properties":{"id":"KNA:ADM0:85017041B19065856442398","name":"Saint Kitts and Nevis","countryCode":"KNA","adminLevel":0,"sourceCode":"85017041B19065856442398","parentId":"KNA:ADM1:KNA-5112"},"geometry":{"type":"MultiPolygon","coordinates":[[[[-62.54164,17.13205],[-62.54797,17.11407],[-62.55446,17.10682],[-62.56573,17.10657],[-62.57807,17.10149],[-62.61217,17.10415],[-62.62637,17.14069],[-62.61864,17.18281],[-62.59923,17.20295],[-62.57844,17.20254],[-62.57209,17.2005],[-62.56777,17.19626],[-62.55832,17.19481],[-62.5518,17.18873],[-62.54548,17.18057],[-62.53967,17.14532],[-62.54164,17.13205]]],[[[-62.81842,17.41518],[-62.7267,17.36242],[-62.72649,17.36221],[-62.705,17.33553],[-62.69135,17.31286],[-62.69058,17.30477],[-62.68417,17.30162],[-62.68185,17.28436],[-62.67708,17.28401],[-62.67282,17.27768],[-62.66741,17.27442],[-62.66686,17.27351],[-62.66212,17.27122],[-62.6592,17.26946],[-62.65592,17.26317],[-62.651,17.26262],[-62.6418,17.2498],[-62.63588,17.25522],[-62.6339,17.25421],[-62.62483,17.24185],[-62.62481,17.23759],[-62.62826,17.23489],[-62.62702,17.22663],[-62.63427,17.22959],[-62.64127,17.22232],[-62.64561,17.22675],[-62.65025,17.22639],[-62.65104,17.2198],[-62.65974,17.22549],[-62.66193,17.23319],[-62.6587,17.23569],[-62.66007,17.24557],[-62.65721,17.25099],[-62.65961,17.26052],[-62.6681,17.26966],[-62.68893,17.281],[-62.6968,17.28202],[-62.70336,17.28913],[-62.7105,17.2916],[-62.7127,17.29409],[-62.72922,17.2935],[-62.73251,17.29122],[-62.74226,17.29069],[-62.76158,17.29411],[-62.78873,17.30467],[-62.79039,17.30566],[-62.79721,17.31773],[-62.82844,17.33248],[-62.8474,17.34872],[-62.84752,17.35434],[-62.85353,17.36307],[-62.85991,17.36706],[-62.85314,17.39472],[-62.84923,17.39814],[-62.84655,17.39997],[-62.84358,17.40107],[-62.83886,17.40217],[-62.82665,17.40717],[-62.82234,17.4101],[-62.82004,17.41486],[-62.81842,17.41518]]]]}}],"admin1":{"type":"FeatureCollection","features":[{"type":"Feature","properties":{"id":"KNA:ADM1:KNA-5112","name":"Trinity Palmetto Point","countryCode":"KNA"},"geometry":{"type":"MultiPolygon","coordinates":[[[[-62.54797,17.11407],[-62.55446,17.10682],[-62.56573,17.10657],[-62.57807,17.10149],[-62.61217,17.10415],[-62.62637,17.14069],[-62.61864,17.18281],[-62.59923,17.20295],[-62.57844,17.20254],[-62.57209,17.2005],[-62.56777,17.19626],[-62.55832,17.19481],[-62.5518,17.18873],[-62.54548,17.18057],[-62.53967,17.14532],[-62.54164,17.13205],[-62.54797,17.11407]]],[[[-62.7267,17.36242],[-62.72649,17.36221],[-62.705,17.33553],[-62.69135,17.31286],[-62.69058,17.30477],[-62.68417,17.30162],[-62.68185,17.28436],[-62.67708,17.28401],[-62.67282,17.27768],[-62.66741,17.27442],[-62.66686,17.27351],[-62.66212,17.27122],[-62.6592,17.26946],[-62.65592,17.26317],[-62.651,17.26262],[-62.6418,17.2498],[-62.63588,17.25522],[-62.6339,17.25421],[-62.62483,17.24185],[-62.62481,17.23759],[-62.62826,17.23489],[-62.62702,17.22663],[-62.63427,17.22959],[-62.64127,17.22232],[-62.64561,17.22675],[-62.65025,17.22639],[-62.65104,17.2198],[-62.65974,17.22549],[-62.66193,17.23319],[-62.6587,17.23569],[-62.66007,17.24557],[-62.65721,17.25099],[-62.65961,17.26052],[-62.6681,17.26966],[-62.68893,17.281],[-62.6968,17.28202],[-62.70336,17.28913],[-62.7105,17.2916],[-62.7127,17.29409],[-62.72922,17.2935],[-62.73251,17.29122],[-62.74226,17.29069],[-62.76158,17.29411],[-62.78873,17.30467],[-62.79039,17.30566],[-62.79721,17.31773],[-62.82844,17.33248],[-62.8474,17.34872],[-62.84752,17.35434],[-62.85353,17.36307],[-62.85991,17.36706],[-62.85314,17.39472],[-62.84923,17.39814],[-62.84655,17.39997],[-62.84358,17.40107],[-62.83886,17.40217],[-62.82665,17.40717],[-62.82234,17.4101],[-62.82004,17.41486],[-62.81842,17.41518],[-62.7267,17.36242]]]]}}]}}
