{"type":"FeatureCollection","features":[{"type":"Feature","properties":{"id":"KWT:ADM2:36326507B1134321935046","name":"Sulaibiya_Industrial_1","countryCode":"KWT","adminLevel":2,"sourceCode":"36326507B1134321935046","parentId":"KWT:ADM1:KWT-1667"},"geometry":{"type":"Polygon","coordinates":[[[47.8519,29.29776],[47.83275,29.29748],[47.83612,29.28455],[47.84344,29.27941],[47.8519,29.29776]]]}},{"type":"Feature","properties":{"id":"KWT:ADM2:36326507B11821748390108","name":"Fnaitees","countryCode":"KWT","adminLevel":2,"sourceCode":"36326507B11821748390108","parentId":"KWT:ADM1:KWT-1666"},"geometry":{"type":"Polygon","coordinates":[[[48.10186,29.21455],[48.08879,29.21093],[48.08455,29.22241],[48.07943,29.22698],[48.08159,29.23017],[48.08803,29.22873],[48.08803,29.23213],[48.09946,29.23559],[48.10058,29.22454],[48.10406,29.22206],[48.1048,29.21899],[48.10186,29.21455]]]}},{"type":"Feature","properties":{"id":"KWT:ADM2:36326507B11941126008030","name":"Qortuba","countryCode":"KWT","adminLevel":2,"sourceCode":"36326507B11941126008030","parentId":"KWT:ADM1:KWT-1664"},"geometry":{"type":"Polygon","coordinates":[[[47.97484,29.31871],[47.97924,29.30418],[47.99926,29.30579],[47.99297,29.3208],[47.97484,29.31871]]]}},{"type":"Feature","properties":{"id":"KWT:ADM2:36326507B12035894090440","name":"Salam","countryCode":"KWT","adminLevel":2,"sourceCode":"36326507B12035894090440","parentId":"KWT:ADM1:KWT-3506"},"geometry":{"type":"Polygon","coordinates":[[[48.01552,29.28909],[48.02949,29.29121],[48.02224,29.30788],[48.00028,29.30593],[48.00282,29.29067],[48.01552,29.28909]]]}},{"type":"Feature","properties":{"id":"KWT:ADM2:36326507B13150908659513","name":"Khaldiya","countryCode":"KWT","adminLevel":2,"sourceCode":"36326507B13150908659513","parentId":"KWT:ADM1:KWT-1664"},"geometry":{"type":"Polygon","coordinates":[[[47.96132,29.31687],[47.97458,29.31862],[47.97094,29.33203],[47.95259,29.33314],[47.96132,29.31687]]]}},{"type":"Feature","properties":{"id":"KWT:ADM2:36326507B13479737703652","name":"Makaber_Elsolybekhat","countryCode":"KWT","adminLevel":2,"sourceCode":"36326507B13479737703652","parentId":"KWT:ADM1:KWT-1667"},"geometry":{"type":"Polygon","coordinates":[[[47.85428,29.31279],[47.85428,29.31298],[47.80816,29.31279],[47.80845,29.30775],[47.81815,29.29786],[47.85238,29.29852],[47.85428,29.31279]]]}},{"type":"Feature","properties":{"id":"KWT:ADM2:36326507B14659465063446","name":"Jahra_Industrial","countryCode":"KWT","adminLevel":2,"sourceCode":"36326507B14659465063446","parentId":"KWT:ADM1:KWT-1667"},"geometry":{"type":"Polygon","coordinates":[[[47.67701,29.30528],[47.68141,29.30489],[47.6816,29.31317],[47.65848,29.32217],[47.65174,29.32773],[47.65051,29.3371],[47.6371,29.33741],[47.63844,29.32914],[47.6439,29.32261],[47.66828,29.30617],[47.67701,29.30528]]]}},{"type":"Feature","properties":{"id":"KWT:ADM2:36326507B14851901808766","name":"Subhan","countryCode":"KWT","adminLevel":2,"sourceCode":"36326507B14851901808766","parentId":"KWT:ADM1:KWT-1664"},"geometry":{"type":"Polygon","coordinates":[[[47.99036,29.24472],[47.99176,29.23353],[47.99723,29.22314],[48.0159,29.22389],[48.01619,29.23308],[48.0085,29.23353],[48.00855,29.24447],[47.99036,29.24472]]]}},{"type":"Feature","properties":{"id":"KWT:ADM2:36326507B15087571652949","name":"Abdulla_Al-Salem","countryCode":"KWT","adminLevel":2,"sourceCode":"36326507B15087571652949","parentId":"KWT:ADM1:KWT-1663"},"geometry":{"type":"Polygon","coordinates":[[[47.98609,29.36136],[47.97386,29.35892],[47.97227,29.3437],[47.99337,29.35069],[47.98609,29.36136]]]}},{"type":"Feature","properties":{"id":"KWT:ADM2:36326507B15566861646735","name":"Magwa","countryCode":"KWT","adminLevel":2,"sourceCode":"36326507B15566861646735","parentId":"KWT:ADM1:KWT-1665"},"geometry":{"type":"Polygon","coordinates":[[[48.09344,29.09487],[48.08756,29.13357],[48.07593,29.15359],[48.06172,29.15515],[48.04953,29.17294],[48.03421,29.17439],[48.02023,29.183],[47.98555,29.1801],[47.98555,29.16475],[48.04721,29.10613],[48.05512,29.11198],[48.06899,29.1103],[48.08689,29.09509],[48.09344,29.09487]]]}},{"type":"Feature","properties":{"id":"KWT:ADM2:36326507B15663314220054","name":"West_Jahra","countryCode":"KWT","adminLevel":2,"sourceCode":"36326507B15663314220054","parentId":"KWT:ADM1:KWT-1667"},"geometry":{"type":"Polygon","coordinates":[[[47.66157,29.37626],[47.63518,29.35883],[47.63121,29.33855],[47.65298,29.33703],[47.65488,29.34882],[47.66468,29.35072],[47.67647,29.36137],[47.66157,29.37626]]]}},{"type":"Feature","properties":{"id":"KWT:ADM2:36326507B15879280159469","name":"Salwa","countryCode":"KWT","adminLevel":2,"sourceCode":"36326507B15879280159469","parentId":"KWT:ADM1:KWT-1666"},"geometry":{"type":"Polygon","coordinates":[[[48.08477,29.26966],[48.08847,29.2736],[48.08471,29.29474],[48.08557,29.30857],[48.06949,29.30914],[48.06099,29.30442],[48.08477,29.26966]]]}},{"type":"Feature","properties":{"id":"KWT:ADM2:36326507B16040598622878","name":"Bar Jahra","countryCode":"KWT","adminLevel":2,"sourceCode":"36326507B16040598622878","parentId":"KWT:ADM1:KWT-1667"},"geometry":{"type":"Polygon","coordinates":[[[47.76254,29.341],[47.75251,29.3269],[47.67677,29.36143],[47.66117,29.37665],[47.63518,29.35883],[47.63073,29.33692],[47.61736,29.33655],[47.60399,29.32467],[47.5754,29.13531],[47.69607,29.13382],[47.69385,29.08889],[47.7087,29.08704],[47.70721,29.07738],[47.78593,29.0759],[47.78407,29.03431],[47.72875,29.04805],[47.71427,29.041],[47.69607,29.04545],[47.56872,29.03728],[47.56315,29.02986],[47.55535,29.03357],[47.59694,29.32764],[47.56463,29.35846],[47.54347,29.35957],[47.5301,29.37219],[46.72402,29.26526],[46.77823,29.32764],[46.78974,29.35474],[46.81239,29.36848],[46.88256,29.45054],[46.90855,29.50289],[46.91301,29.52443],[46.94717,29.57307],[46.95831,29.59831],[46.97947,29.61874],[46.98318,29.63841],[47.00657,29.66403],[47.01474,29.72084],[47.02774,29.73347],[47.0864,29.84263],[47.11054,29.91577],[47.14767,29.98298],[47.177,30.01157],[47.20745,30.02976],[47.25831,30.04721],[47.29582,30.05612],[47.37861,30.09994],[47.70833,30.10142],[47.65672,30.02011],[47.65672,29.98483],[47.66785,29.97407],[47.66785,29.94733],[47.67714,29.93471],[47.67714,29.90946],[47.70758,29.95253],[47.72726,29.92654],[47.84942,29.84745],[47.84801,29.79809],[47.88854,29.80734],[47.94559,29.82035],[48.0618,29.69299],[48.04658,29.67369],[48.01205,29.65252],[47.94261,29.6425],[47.89806,29.61465],[47.68785,29.41195],[47.68642,29.39365],[47.70163,29.3794],[47.70488,29.36388],[47.70472,29.36363],[47.70493,29.36362],[47.70591,29.35896],[47.72991,29.3592],[47.73445,29.36308],[47.76117,29.36724],[47.76254,29.341]]]}},{"type":"Feature","properties":{"id":"KWT:ADM2:36326507B16099346977854","name":"South_Sabahiya","countryCode":"KWT","adminLevel":2,"sourceCode":"36326507B16099346977854","parentId":"KWT:ADM1:KWT-1665"},"geometry":{"type":"Polygon","coordinates":[[[48.10792,29.07193],[48.11298,29.09229],[48.09419,29.09302],[48.09467,29.06342],[48.10402,29.06217],[48.10792,29.07193]]]}},{"type":"Feature","properties":{"id":"KWT:ADM2:36326507B16818514884382","name":"Ferdous","countryCode":"KWT","adminLevel":2,"sourceCode":"36326507B16818514884382","parentId":"KWT:ADM1:KWT-1664"},"geometry":{"type":"Polygon","coordinates":[[[47.87327,29.27523],[47.88902,29.27564],[47.88026,29.28914],[47.87895,29.29715],[47.86605,29.29631],[47.86536,29.27555],[47.87327,29.27523]]]}},{"type":"Feature","properties":{"id":"KWT:ADM2:36326507B17793499664589","name":"El_Kehran_Loloet_Elkheran","countryCode":"KWT","adminLevel":2,"sourceCode":"36326507B17793499664589","parentId":"KWT:ADM1:KWT-1665"},"geometry":{"type":"Polygon","coordinates":[[[48.38278,28.64775],[48.38226,28.63174],[48.37718,28.61377],[48.36664,28.60492],[48.35375,28.60166],[48.3406,28.60245],[48.29777,28.67418],[48.29894,28.67965],[48.31821,28.68238],[48.35218,28.68056],[48.35974,28.70386],[48.37692,28.70035],[48.3807,28.69032],[48.38141,28.6901],[48.38343,28.68441],[48.38252,28.68342],[48.38489,28.68029],[48.38673,28.67512],[48.37159,28.68439],[48.36622,28.68871],[48.365,28.68081],[48.36598,28.67573],[48.37045,28.67194],[48.37989,28.66767],[48.37241,28.65917],[48.36769,28.65672],[48.36378,28.65815],[48.35955,28.66144],[48.35271,28.66144],[48.35182,28.64053],[48.36101,28.63556],[48.37468,28.64167],[48.38673,28.654],[48.38692,28.65329],[48.38278,28.64775]]]}},{"type":"Feature","properties":{"id":"KWT:ADM2:36326507B17858019706282","name":"Dhajeej","countryCode":"KWT","adminLevel":2,"sourceCode":"36326507B17858019706282","parentId":"KWT:ADM1:KWT-1664"},"geometry":{"type":"Polygon","coordinates":[[[47.9717,29.25938],[47.97089,29.26638],[47.95279,29.26665],[47.95361,29.26046],[47.96144,29.25638],[47.9717,29.25938]]]}},{"type":"Feature","properties":{"id":"KWT:ADM2:36326507B18350696257426","name":"Sharq","countryCode":"KWT","adminLevel":2,"sourceCode":"36326507B18350696257426","parentId":"KWT:ADM1:KWT-1663"},"geometry":{"type":"Polygon","coordinates":[[[47.996,29.37644],[47.98179,29.3721],[47.97346,29.38034],[47.98431,29.38865],[47.99033,29.39008],[47.99301,29.38793],[47.99446,29.38617],[47.996,29.37644]]]}},{"type":"Feature","properties":{"id":"KWT:ADM2:36326507B18500052278761","name":"El_Noyseep","countryCode":"KWT","adminLevel":2,"sourceCode":"36326507B18500052278761","parentId":"KWT:ADM1:KWT-1665"},"geometry":{"type":"Polygon","coordinates":[[[48.40085,28.53654],[48.33856,28.58198],[48.33525,28.59433],[48.33514,28.60984],[48.3406,28.60245],[48.34554,28.60106],[48.36664,28.60492],[48.37415,28.60933],[48.37987,28.61823],[48.3839,28.65095],[48.38683,28.65362],[48.3895,28.64374],[48.39051,28.63179],[48.38591,28.62903],[48.38623,28.6195],[48.39036,28.61537],[48.38972,28.6071],[48.39286,28.60396],[48.39357,28.59565],[48.39715,28.58332],[48.40224,28.57492],[48.40275,28.57182],[48.40712,28.56774],[48.42091,28.55158],[48.42107,28.55143],[48.42977,28.53559],[48.40085,28.53654]]]}},{"type":"Feature","properties":{"id":"KWT:ADM2:36326507B187213644255","name":"Sikrab","countryCode":"KWT","adminLevel":2,"sourceCode":"36326507B187213644255","parentId":"KWT:ADM1:KWT-1667"},"geometry":{"type":"Polygon","coordinates":[[[47.78896,29.28647],[47.78753,29.31355],[47.76328,29.31706],[47.7532,29.2971],[47.78896,29.28647]]]}},{"type":"Feature","properties":{"id":"KWT:ADM2:36326507B20459349391287","name":"Doha","countryCode":"KWT","adminLevel":2,"sourceCode":"36326507B20459349391287","parentId":"KWT:ADM1:KWT-1667"},"geometry":{"type":"Polygon","coordinates":[[[47.82373,29.32785],[47.8283,29.32214],[47.83341,29.32278],[47.83233,29.31288],[47.78919,29.31335],[47.79165,29.32739],[47.80447,29.34013],[47.80413,29.37021],[47.8406,29.38473],[47.83825,29.38701],[47.85113,29.38021],[47.85113,29.38019],[47.84978,29.37939],[47.83733,29.37593],[47.819,29.36304],[47.82237,29.36176],[47.81875,29.36162],[47.82066,29.35604],[47.82267,29.35548],[47.8227,29.35143],[47.81643,29.33756],[47.82373,29.3332],[47.82373,29.32785]]]}},{"type":"Feature","properties":{"id":"KWT:ADM2:36326507B21383766387922","name":"Fahad_Al-Ahmad","countryCode":"KWT","adminLevel":2,"sourceCode":"36326507B21383766387922","parentId":"KWT:ADM1:KWT-1665"},"geometry":{"type":"Polygon","coordinates":[[[48.09959,29.12187],[48.11388,29.11921],[48.10976,29.13744],[48.08777,29.13249],[48.08951,29.12375],[48.09959,29.12187]]]}},{"type":"Feature","properties":{"id":"KWT:ADM2:36326507B22954302224107","name":"Sulaibiya_Industrial_2","countryCode":"KWT","adminLevel":2,"sourceCode":"36326507B22954302224107","parentId":"KWT:ADM1:KWT-1664"},"geometry":{"type":"Polygon","coordinates":[[[47.85967,29.2684],[47.86502,29.26857],[47.86606,29.29748],[47.85333,29.297],[47.83836,29.26783],[47.85967,29.2684]]]}},{"type":"Feature","properties":{"id":"KWT:ADM2:36326507B25026169818342","name":"Abo_Elhaseena","countryCode":"KWT","adminLevel":2,"sourceCode":"36326507B25026169818342","parentId":"KWT:ADM1:KWT-1665"},"geometry":{"type":"Polygon","coordinates":[[[48.11633,29.1884],[48.10992,29.18639],[48.10119,29.21345],[48.10548,29.2162],[48.10613,29.21353],[48.11332,29.19644],[48.11633,29.1884]]]}},{"type":"Feature","properties":{"id":"KWT:ADM2:36326507B25478375809912","name":"Khaitan","countryCode":"KWT","adminLevel":2,"sourceCode":"36326507B25478375809912","parentId":"KWT:ADM1:KWT-1664"},"geometry":{"type":"Polygon","coordinates":[[[47.98804,29.26658],[47.9796,29.30405],[47.96425,29.30253],[47.97062,29.26665],[47.98804,29.26658]]]}},{"type":"Feature","properties":{"id":"KWT:ADM2:36326507B26148442025294","name":"Yarmouk","countryCode":"KWT","adminLevel":2,"sourceCode":"36326507B26148442025294","parentId":"KWT:ADM1:KWT-1664"},"geometry":{"type":"Polygon","coordinates":[[[47.96343,29.30713],[47.9644,29.30263],[47.97908,29.30405],[47.97468,29.31856],[47.96132,29.31687],[47.96343,29.30713]]]}},{"type":"Feature","properties":{"id":"KWT:ADM2:36326507B26642641984942","name":"Abu_Fataira","countryCode":"KWT","adminLevel":2,"sourceCode":"36326507B26642641984942","parentId":"KWT:ADM1:KWT-1665"},"geometry":{"type":"Polygon","coordinates":[[[48.10103,29.18369],[48.1099,29.1863],[48.10107,29.21416],[48.08891,29.21081],[48.08982,29.19818],[48.09462,29.19584],[48.10103,29.18369]]]}},{"type":"Feature","properties":{"id":"KWT:ADM2:36326507B2821707601789","name":"Wista","countryCode":"KWT","adminLevel":2,"sourceCode":"36326507B2821707601789","parentId":"KWT:ADM1:KWT-1666"},"geometry":{"type":"Polygon","coordinates":[[[48.04028,29.26526],[47.98759,29.26491],[47.99026,29.24472],[48.00855,29.24447],[48.0085,29.23353],[48.01619,29.23308],[48.0159,29.22389],[47.99726,29.22319],[48.008,29.1971],[48.05823,29.20754],[48.04028,29.26526]]]}},{"type":"Feature","properties":{"id":"KWT:ADM2:36326507B31420261158676","name":"Rehab","countryCode":"KWT","adminLevel":2,"sourceCode":"36326507B31420261158676","parentId":"KWT:ADM1:KWT-1664"},"geometry":{"type":"Polygon","coordinates":[[[47.94838,29.28915],[47.9462,29.30136],[47.96018,29.30236],[47.92794,29.30059],[47.92761,29.28051],[47.91523,29.27958],[47.91473,29.28931],[47.91513,29.27954],[47.92761,29.28044],[47.92609,29.27212],[47.92766,29.28032],[47.94998,29.28005],[47.95237,29.26789],[47.94838,29.28915]],[[47.94451,29.28915],[47.92863,29.28902],[47.92798,29.30059],[47.94609,29.3014],[47.9483,29.28918],[47.94451,29.28915]]]}},{"type":"Feature","properties":{"id":"KWT:ADM2:36326507B3157091791986","name":"Ardhiya_Hkomeya","countryCode":"KWT","adminLevel":2,"sourceCode":"36326507B3157091791986","parentId":"KWT:ADM1:KWT-1664"},"geometry":{"type":"Polygon","coordinates":[[[47.92609,29.27212],[47.92761,29.28044],[47.90733,29.27898],[47.90802,29.26831],[47.92528,29.26771],[47.92609,29.27212]]]}},{"type":"Feature","properties":{"id":"KWT:ADM2:36326507B32378525048645","name":"The_Sea_Front","countryCode":"KWT","adminLevel":2,"sourceCode":"36326507B32378525048645","parentId":"KWT:ADM1:KWT-1663"},"geometry":{"type":"Polygon","coordinates":[[[47.97505,29.38488],[47.98015,29.39122],[47.98764,29.39224],[47.99076,29.38973],[47.98431,29.38865],[47.95764,29.36483],[47.96501,29.37407],[47.96531,29.3808],[47.96658,29.38259],[47.97505,29.38488]]]}},{"type":"Feature","properties":{"id":"KWT:ADM2:36326507B33224331564429","name":"Salmy","countryCode":"KWT","adminLevel":2,"sourceCode":"36326507B33224331564429","parentId":"KWT:ADM1:KWT-1667"},"geometry":{"type":"MultiPolygon","coordinates":[[[[46.71509,29.26536],[46.68536,29.21733],[46.6321,29.1657],[46.61381,29.15919],[46.55893,29.1039],[47.4655,29.00552],[47.53461,28.91324],[47.55006,28.94576],[47.55901,28.97584],[47.56648,28.98537],[47.56717,29.00443],[47.57464,29.01339],[47.56244,29.0302],[47.55453,29.03073],[47.59675,29.32629],[47.56463,29.35846],[47.54347,29.35957],[47.53086,29.37148],[46.71509,29.26536]]],[[[47.5638,29.03073],[47.56378,29.0307],[47.56389,29.03072],[47.56388,29.03073],[47.5638,29.03073]]]]}},{"type":"Feature","properties":{"id":"KWT:ADM2:36326507B33644428325327","name":"Abu_Halifa","countryCode":"KWT","adminLevel":2,"sourceCode":"36326507B33644428325327","parentId":"KWT:ADM1:KWT-1665"},"geometry":{"type":"Polygon","coordinates":[[[48.13401,29.12083],[48.12622,29.13745],[48.10997,29.13744],[48.11404,29.11898],[48.13401,29.12083]]]}},{"type":"Feature","properties":{"id":"KWT:ADM2:36326507B3365314413647","name":"South_Coast_Strip","countryCode":"KWT","adminLevel":2,"sourceCode":"36326507B3365314413647","parentId":"KWT:ADM1:KWT-1665"},"geometry":{"type":"Polygon","coordinates":[[[48.27911,28.80786],[48.29579,28.78123],[48.33755,28.74774],[48.33729,28.74554],[48.31517,28.74459],[48.28312,28.74321],[48.26794,28.80398],[48.2142,28.90703],[48.20515,28.92203],[48.1674,28.95823],[48.14684,28.98849],[48.16429,28.98888],[48.15835,29.00323],[48.16145,29.00413],[48.17283,28.97246],[48.1811,28.95914],[48.2014,28.94091],[48.20619,28.92617],[48.21485,28.91272],[48.25028,28.88841],[48.28182,28.88237],[48.2824,28.87938],[48.27817,28.85969],[48.27806,28.85804],[48.27782,28.85738],[48.27787,28.85516],[48.27687,28.83959],[48.27837,28.83601],[48.27911,28.80786]]]}},{"type":"Feature","properties":{"id":"KWT:ADM2:36326507B34003832174664","name":"Nuzha","countryCode":"KWT","adminLevel":2,"sourceCode":"36326507B34003832174664","parentId":"KWT:ADM1:KWT-3506"},"geometry":{"type":"Polygon","coordinates":[[[47.99809,29.33993],[47.9934,29.35075],[47.98263,29.34577],[47.98694,29.33521],[47.99809,29.33993]]]}},{"type":"Feature","properties":{"id":"KWT:ADM2:36326507B35314954602016","name":"Ardhiya_Makhzen","countryCode":"KWT","adminLevel":2,"sourceCode":"36326507B35314954602016","parentId":"KWT:ADM1:KWT-1664"},"geometry":{"type":"Polygon","coordinates":[[[47.91947,29.29981],[47.9159,29.29961],[47.91523,29.27958],[47.92761,29.28051],[47.92796,29.30027],[47.91947,29.29981]]]}},{"type":"Feature","properties":{"id":"KWT:ADM2:36326507B36316951373685","name":"Zahra","countryCode":"KWT","adminLevel":2,"sourceCode":"36326507B36316951373685","parentId":"KWT:ADM1:KWT-1664"},"geometry":{"type":"Polygon","coordinates":[[[48.01429,29.28064],[48.00266,29.28601],[47.98586,29.28473],[47.98804,29.26658],[48.01272,29.26604],[48.01429,29.28064]]]}},{"type":"Feature","properties":{"id":"KWT:ADM2:36326507B36643936931430","name":"Adailiya","countryCode":"KWT","adminLevel":2,"sourceCode":"36326507B36643936931430","parentId":"KWT:ADM1:KWT-1664"},"geometry":{"type":"Polygon","coordinates":[[[47.97586,29.31882],[47.99257,29.32093],[47.98675,29.33505],[47.97116,29.33199],[47.97586,29.31882]]]}},{"type":"Feature","properties":{"id":"KWT:ADM2:36326507B36938484037444","name":"Hadiya","countryCode":"KWT","adminLevel":2,"sourceCode":"36326507B36938484037444","parentId":"KWT:ADM1:KWT-1665"},"geometry":{"type":"Polygon","coordinates":[[[48.09671,29.13448],[48.08901,29.15862],[48.07496,29.15502],[48.08777,29.13249],[48.09671,29.13448]]]}},{"type":"Feature","properties":{"id":"KWT:ADM2:36326507B37526421677528","name":"Mishrift","countryCode":"KWT","adminLevel":2,"sourceCode":"36326507B37526421677528","parentId":"KWT:ADM1:KWT-1666"},"geometry":{"type":"Polygon","coordinates":[[[48.06906,29.29373],[48.05159,29.28527],[48.0566,29.26503],[48.08458,29.26932],[48.06906,29.29373]]]}},{"type":"Feature","properties":{"id":"KWT:ADM2:36326507B37679014423839","name":"Rawda","countryCode":"KWT","adminLevel":2,"sourceCode":"36326507B37679014423839","parentId":"KWT:ADM1:KWT-3506"},"geometry":{"type":"Polygon","coordinates":[[[48.00101,29.34133],[47.98697,29.33505],[47.99274,29.32097],[48.01223,29.32358],[48.00101,29.34133]]]}},{"type":"Feature","properties":{"id":"KWT:ADM2:36326507B38462583596387","name":"Qibla","countryCode":"KWT","adminLevel":2,"sourceCode":"36326507B38462583596387","parentId":"KWT:ADM1:KWT-1663"},"geometry":{"type":"Polygon","coordinates":[[[47.95818,29.36483],[47.96283,29.35906],[47.97451,29.36157],[47.97398,29.36707],[47.98179,29.3721],[47.97155,29.3792],[47.95818,29.36483]]]}},{"type":"Feature","properties":{"id":"KWT:ADM2:36326507B38695740973583","name":"Messila","countryCode":"KWT","adminLevel":2,"sourceCode":"36326507B38695740973583","parentId":"KWT:ADM1:KWT-1666"},"geometry":{"type":"Polygon","coordinates":[[[48.09594,29.24505],[48.09931,29.23559],[48.08803,29.23213],[48.08803,29.22873],[48.08165,29.23031],[48.07991,29.24647],[48.08897,29.24998],[48.08278,29.2687],[48.08951,29.26922],[48.08986,29.25839],[48.09268,29.25365],[48.096,29.25432],[48.09311,29.25274],[48.09411,29.24779],[48.09771,29.24814],[48.09806,29.24673],[48.09594,29.24505]]]}},{"type":"Feature","properties":{"id":"KWT:ADM2:36326507B40345383267049","name":"Suwaikh_Industrial-2","countryCode":"KWT","adminLevel":2,"sourceCode":"36326507B40345383267049","parentId":"KWT:ADM1:KWT-1663"},"geometry":{"type":"Polygon","coordinates":[[[47.94149,29.31736],[47.94298,29.31457],[47.9616,29.31619],[47.95247,29.33322],[47.93712,29.3233],[47.94149,29.31736]]]}},{"type":"Feature","properties":{"id":"KWT:ADM2:36326507B40790951405287","name":"Shuhada","countryCode":"KWT","adminLevel":2,"sourceCode":"36326507B40790951405287","parentId":"KWT:ADM1:KWT-1666"},"geometry":{"type":"Polygon","coordinates":[[[48.0284,29.27796],[48.01445,29.28059],[48.01274,29.26609],[48.04199,29.26526],[48.03488,29.28042],[48.0284,29.27796]]]}},{"type":"Feature","properties":{"id":"KWT:ADM2:36326507B41253409402047","name":"Angafa","countryCode":"KWT","adminLevel":2,"sourceCode":"36326507B41253409402047","parentId":"KWT:ADM1:KWT-1666"},"geometry":{"type":"Polygon","coordinates":[[[48.08915,29.30936],[48.08301,29.30889],[48.08557,29.30857],[48.08471,29.29474],[48.08847,29.2736],[48.08477,29.26966],[48.09009,29.27096],[48.08915,29.30936]]]}},{"type":"Feature","properties":{"id":"KWT:ADM2:36326507B41657866795403","name":"Ardhiya","countryCode":"KWT","adminLevel":2,"sourceCode":"36326507B41657866795403","parentId":"KWT:ADM1:KWT-1664"},"geometry":{"type":"Polygon","coordinates":[[[47.90606,29.29555],[47.90587,29.29891],[47.8791,29.29721],[47.87931,29.2915],[47.88899,29.27587],[47.90698,29.27895],[47.90606,29.29555]]]}},{"type":"Feature","properties":{"id":"KWT:ADM2:36326507B41851613035915","name":"Nasseem","countryCode":"KWT","adminLevel":2,"sourceCode":"36326507B41851613035915","parentId":"KWT:ADM1:KWT-1667"},"geometry":{"type":"Polygon","coordinates":[[[47.69187,29.32195],[47.66771,29.33065],[47.66309,29.32061],[47.6811,29.31355],[47.69187,29.32195]]]}},{"type":"Feature","properties":{"id":"KWT:ADM2:36326507B42122784272409","name":"UmAl-Hayman-AliSabahAs-Salem","countryCode":"KWT","adminLevel":2,"sourceCode":"36326507B42122784272409","parentId":"KWT:ADM1:KWT-1665"},"geometry":{"type":"Polygon","coordinates":[[[48.14703,28.98821],[48.1396,28.99599],[48.12033,28.95914],[48.1352,28.94647],[48.15748,28.93712],[48.17541,28.93289],[48.18019,28.93435],[48.18395,28.93949],[48.14703,28.98821]]]}},{"type":"Feature","properties":{"id":"KWT:ADM2:36326507B42726526012183","name":"Al_Qurain","countryCode":"KWT","adminLevel":2,"sourceCode":"36326507B42726526012183","parentId":"KWT:ADM1:KWT-1665"},"geometry":{"type":"Polygon","coordinates":[[[48.08982,29.19818],[48.08884,29.21083],[48.05838,29.2073],[48.06265,29.1933],[48.08158,29.20021],[48.08982,29.19818]]]}},{"type":"Feature","properties":{"id":"KWT:ADM2:36326507B42879578137416","name":"Sulaibiya_Agriculture_2","countryCode":"KWT","adminLevel":2,"sourceCode":"36326507B42879578137416","parentId":"KWT:ADM1:KWT-1667"},"geometry":{"type":"Polygon","coordinates":[[[47.61819,29.33657],[47.60399,29.32467],[47.57674,29.13569],[47.70879,29.13569],[47.70879,29.11586],[47.785,29.11532],[47.78515,29.13087],[47.78996,29.13088],[47.79041,29.18784],[47.82044,29.23034],[47.82611,29.24791],[47.84935,29.25075],[47.86465,29.26151],[47.8643,29.26852],[47.8383,29.26783],[47.75336,29.29705],[47.66828,29.30617],[47.6439,29.32261],[47.63046,29.33691],[47.61819,29.33657]]]}},{"type":"Feature","properties":{"id":"KWT:ADM2:36326507B46214811972007","name":"Airport_District","countryCode":"KWT","adminLevel":2,"sourceCode":"36326507B46214811972007","parentId":"KWT:ADM1:KWT-1664"},"geometry":{"type":"Polygon","coordinates":[[[47.99176,29.18022],[48.00556,29.19469],[48.00732,29.20334],[47.99176,29.23353],[47.98743,29.26611],[47.97107,29.26638],[47.97173,29.25938],[47.95249,29.25651],[47.94753,29.25237],[47.94278,29.22927],[47.94257,29.18335],[47.99176,29.18022]]]}},{"type":"Feature","properties":{"id":"KWT:ADM2:36326507B47073202093840","name":"South Doha","countryCode":"KWT","adminLevel":2,"sourceCode":"36326507B47073202093840","parentId":"KWT:ADM1:KWT-1667"},"geometry":{"type":"Polygon","coordinates":[[[47.8096,29.29798],[47.81739,29.29795],[47.80826,29.30765],[47.80798,29.31314],[47.78762,29.31307],[47.78934,29.29805],[47.8096,29.29798]]]}},{"type":"Feature","properties":{"id":"KWT:ADM2:36326507B47545087989895","name":"Jleeb_Al- Shiyoukh","countryCode":"KWT","adminLevel":2,"sourceCode":"36326507B47545087989895","parentId":"KWT:ADM1:KWT-1664"},"geometry":{"type":"Polygon","coordinates":[[[47.95268,29.26692],[47.90802,29.26831],[47.90733,29.27896],[47.90712,29.27895],[47.90606,29.29555],[47.90698,29.27895],[47.90165,29.27895],[47.88899,29.27587],[47.88553,29.28441],[47.87931,29.2915],[47.8791,29.29721],[47.91573,29.2996],[47.91645,29.29134],[47.9159,29.29961],[47.91947,29.29981],[47.86606,29.29725],[47.86502,29.26857],[47.85967,29.2684],[47.86499,29.2677],[47.86537,29.27545],[47.87327,29.27523],[47.86536,29.27555],[47.86605,29.29631],[47.87895,29.29715],[47.8792,29.29171],[47.88026,29.28914],[47.889,29.27569],[47.90729,29.27881],[47.90791,29.2684],[47.88196,29.2679],[47.90807,29.2682],[47.90807,29.26465],[47.9441,29.23709],[47.94753,29.25237],[47.95249,29.25651],[47.96057,29.25724],[47.95257,29.26119],[47.95268,29.26692]]]}},{"type":"Feature","properties":{"id":"KWT:ADM2:36326507B47648313259724","name":"Mina_Doha","countryCode":"KWT","adminLevel":2,"sourceCode":"36326507B47648313259724","parentId":"KWT:ADM1:KWT-1667"},"geometry":{"type":"Polygon","coordinates":[[[47.75485,29.33019],[47.75268,29.3269],[47.76506,29.31642],[47.78905,29.31337],[47.79153,29.32718],[47.80124,29.33451],[47.79576,29.33812],[47.78462,29.33897],[47.78367,29.35712],[47.76163,29.35965],[47.76254,29.341],[47.75485,29.33019]]]}},{"type":"Feature","properties":{"id":"KWT:ADM2:36326507B50245502217038","name":"Sabah_Al-Salem","countryCode":"KWT","adminLevel":2,"sourceCode":"36326507B50245502217038","parentId":"KWT:ADM1:KWT-1666"},"geometry":{"type":"Polygon","coordinates":[[[48.04031,29.2653],[48.04857,29.23955],[48.08897,29.24998],[48.08278,29.2687],[48.05673,29.26453],[48.04031,29.2653]]]}},{"type":"Feature","properties":{"id":"KWT:ADM2:36326507B50347895237140","name":"Rumaithiya","countryCode":"KWT","adminLevel":2,"sourceCode":"36326507B50347895237140","parentId":"KWT:ADM1:KWT-3506"},"geometry":{"type":"Polygon","coordinates":[[[48.08582,29.30966],[48.08916,29.30937],[48.09085,29.32075],[48.09307,29.32098],[48.08034,29.32582],[48.06887,29.32505],[48.05286,29.31466],[48.06096,29.30434],[48.0714,29.30961],[48.08582,29.30966]]]}},{"type":"Feature","properties":{"id":"KWT:ADM2:36326507B50646559812706","name":"The_Green_Belt","countryCode":"KWT","adminLevel":2,"sourceCode":"36326507B50646559812706","parentId":"KWT:ADM1:KWT-1663"},"geometry":{"type":"Polygon","coordinates":[[[47.98611,29.36132],[47.99337,29.36758],[47.99538,29.37467],[47.99294,29.37533],[47.99175,29.36895],[47.98374,29.36263],[47.96398,29.36062],[47.96341,29.3595],[47.98611,29.36132]]]}},{"type":"Feature","properties":{"id":"KWT:ADM2:36326507B53313800011186","name":"Abdali","countryCode":"KWT","adminLevel":2,"sourceCode":"36326507B53313800011186","parentId":"KWT:ADM1:KWT-1667"},"geometry":{"type":"Polygon","coordinates":[[[47.71445,30.10634],[47.65747,30.02086],[47.65672,29.98483],[47.66785,29.97407],[47.66785,29.94733],[47.67705,29.93806],[47.67714,29.91324],[47.70758,29.95253],[47.72726,29.92654],[47.84801,29.8508],[47.84801,29.79809],[47.94724,29.82175],[47.92013,30.02265],[47.71445,30.10634]]]}},{"type":"Feature","properties":{"id":"KWT:ADM2:36326507B53350893337938","name":"Mubarak_Al_Kabeer","countryCode":"KWT","adminLevel":2,"sourceCode":"36326507B53350893337938","parentId":"KWT:ADM1:KWT-1665"},"geometry":{"type":"Polygon","coordinates":[[[48.0626,29.19324],[48.06812,29.17786],[48.10021,29.18356],[48.09462,29.19584],[48.08505,29.19982],[48.0626,29.19324]]]}},{"type":"Feature","properties":{"id":"KWT:ADM2:36326507B5335163348166","name":"North_Shuaiba","countryCode":"KWT","adminLevel":2,"sourceCode":"36326507B5335163348166","parentId":"KWT:ADM1:KWT-1665"},"geometry":{"type":"Polygon","coordinates":[[[48.1492,29.06142],[48.14638,29.04587],[48.11105,29.04603],[48.11397,29.03808],[48.0987,29.03705],[48.09102,29.03594],[48.09466,29.06309],[48.10402,29.06217],[48.10782,29.07193],[48.14473,29.07193],[48.14829,29.06606],[48.14957,29.06643],[48.15039,29.06188],[48.1492,29.06142]]]}},{"type":"Feature","properties":{"id":"KWT:ADM2:36326507B53603358563085","name":"Rai","countryCode":"KWT","adminLevel":2,"sourceCode":"36326507B53603358563085","parentId":"KWT:ADM1:KWT-1664"},"geometry":{"type":"Polygon","coordinates":[[[47.9616,29.3161],[47.92721,29.31339],[47.91213,29.30916],[47.92647,29.31307],[47.92793,29.30059],[47.96435,29.30259],[47.9616,29.3161]]]}},{"type":"Feature","properties":{"id":"KWT:ADM2:36326507B53750879151657","name":"Jaber_Al-Ali","countryCode":"KWT","adminLevel":2,"sourceCode":"36326507B53750879151657","parentId":"KWT:ADM1:KWT-1665"},"geometry":{"type":"Polygon","coordinates":[[[48.06552,29.17635],[48.07496,29.15523],[48.08858,29.15877],[48.08699,29.18024],[48.08051,29.18161],[48.06552,29.17635]]]}},{"type":"Feature","properties":{"id":"KWT:ADM2:36326507B55007443380882","name":"Qadsiya","countryCode":"KWT","adminLevel":2,"sourceCode":"36326507B55007443380882","parentId":"KWT:ADM1:KWT-3506"},"geometry":{"type":"Polygon","coordinates":[[[48.01165,29.34783],[48.01332,29.34949],[48.00234,29.35733],[47.9934,29.35081],[47.99981,29.34082],[48.01165,29.34783]]]}},{"type":"Feature","properties":{"id":"KWT:ADM2:36326507B55550795334924","name":"South_East_Jahra","countryCode":"KWT","adminLevel":2,"sourceCode":"36326507B55550795334924","parentId":"KWT:ADM1:KWT-1667"},"geometry":{"type":"Polygon","coordinates":[[[47.68672,29.31701],[47.68341,29.31696],[47.68177,29.31161],[47.69108,29.31234],[47.70051,29.32451],[47.6965,29.32834],[47.68672,29.31701]]]}},{"type":"Feature","properties":{"id":"KWT:ADM2:36326507B563633990170","name":"Riqqa","countryCode":"KWT","adminLevel":2,"sourceCode":"36326507B563633990170","parentId":"KWT:ADM1:KWT-1665"},"geometry":{"type":"Polygon","coordinates":[[[48.1058,29.16107],[48.08916,29.15855],[48.09672,29.13477],[48.10948,29.13722],[48.1058,29.16107]]]}},{"type":"Feature","properties":{"id":"KWT:ADM2:36326507B56948781005211","name":"Sulaibiya","countryCode":"KWT","adminLevel":2,"sourceCode":"36326507B56948781005211","parentId":"KWT:ADM1:KWT-1667"},"geometry":{"type":"Polygon","coordinates":[[[47.84119,29.27334],[47.84344,29.27865],[47.83536,29.28388],[47.83269,29.29776],[47.80963,29.29795],[47.83985,29.27072],[47.84119,29.27334]]]}},{"type":"Feature","properties":{"id":"KWT:ADM2:36326507B57225521740596","name":"MubarakAlAbdullah_MishriftWest","countryCode":"KWT","adminLevel":2,"sourceCode":"36326507B57225521740596","parentId":"KWT:ADM1:KWT-1666"},"geometry":{"type":"Polygon","coordinates":[[[48.05148,29.28527],[48.03495,29.28042],[48.04199,29.26526],[48.05655,29.2651],[48.05148,29.28527]]]}},{"type":"Feature","properties":{"id":"KWT:ADM2:36326507B57687792647375","name":"Hitteen","countryCode":"KWT","adminLevel":2,"sourceCode":"36326507B57687792647375","parentId":"KWT:ADM1:KWT-1666"},"geometry":{"type":"Polygon","coordinates":[[[48.0284,29.27796],[48.03491,29.28043],[48.0295,29.29119],[48.02047,29.28869],[48.00284,29.29065],[48.00277,29.28597],[48.0199,29.27803],[48.0284,29.27796]]]}},{"type":"Feature","properties":{"id":"KWT:ADM2:36326507B588443832973","name":"Shuwaikh_Health","countryCode":"KWT","adminLevel":2,"sourceCode":"36326507B588443832973","parentId":"KWT:ADM1:KWT-1664"},"geometry":{"type":"Polygon","coordinates":[[[47.88049,29.32461],[47.88804,29.31007],[47.91424,29.32317],[47.90971,29.33131],[47.90472,29.33388],[47.88872,29.32468],[47.88544,29.32695],[47.88049,29.32461]]]}},{"type":"Feature","properties":{"id":"KWT:ADM2:36326507B59239433897503","name":"South_Shuaiba","countryCode":"KWT","adminLevel":2,"sourceCode":"36326507B59239433897503","parentId":"KWT:ADM1:KWT-1665"},"geometry":{"type":"Polygon","coordinates":[[[48.15623,29.02054],[48.08932,29.02046],[48.09001,29.03582],[48.11477,29.03809],[48.11171,29.04562],[48.14655,29.04587],[48.14647,29.05265],[48.15204,29.05275],[48.15267,29.04931],[48.15259,29.04934],[48.15259,29.04264],[48.15392,29.04239],[48.15574,29.03228],[48.15623,29.02054]]]}},{"type":"Feature","properties":{"id":"KWT:ADM2:36326507B60168938726366","name":"Kabad","countryCode":"KWT","adminLevel":2,"sourceCode":"36326507B60168938726366","parentId":"KWT:ADM1:KWT-1667"},"geometry":{"type":"Polygon","coordinates":[[[47.69457,29.10344],[47.69471,29.08879],[47.70918,29.08715],[47.70909,29.07735],[47.78465,29.07658],[47.785,29.11454],[47.70832,29.11482],[47.70851,29.13469],[47.69425,29.13498],[47.69457,29.10344]]]}},{"type":"Feature","properties":{"id":"KWT:ADM2:36326507B6022429723799","name":"Suwaikh_Industrial-3","countryCode":"KWT","adminLevel":2,"sourceCode":"36326507B6022429723799","parentId":"KWT:ADM1:KWT-1664"},"geometry":{"type":"Polygon","coordinates":[[[47.92721,29.31339],[47.94303,29.31449],[47.93136,29.33165],[47.92145,29.32663],[47.92721,29.31339]]]}},{"type":"Feature","properties":{"id":"KWT:ADM2:36326507B6172410953496","name":"Sulaibikhat","countryCode":"KWT","adminLevel":2,"sourceCode":"36326507B6172410953496","parentId":"KWT:ADM1:KWT-1667"},"geometry":{"type":"Polygon","coordinates":[[[47.85428,29.31279],[47.86477,29.31262],[47.86537,29.31975],[47.85814,29.31766],[47.84311,29.32128],[47.83265,29.31985],[47.8324,29.31291],[47.85428,29.31279]]]}},{"type":"Feature","properties":{"id":"KWT:ADM2:36326507B62025152403860","name":"Dasman","countryCode":"KWT","adminLevel":2,"sourceCode":"36326507B62025152403860","parentId":"KWT:ADM1:KWT-1663"},"geometry":{"type":"Polygon","coordinates":[[[47.99614,29.37959],[47.99414,29.38656],[47.99853,29.38119],[47.99614,29.37959]]]}},{"type":"Feature","properties":{"id":"KWT:ADM2:36326507B62523135438934","name":"Jahra","countryCode":"KWT","adminLevel":2,"sourceCode":"36326507B62523135438934","parentId":"KWT:ADM1:KWT-1667"},"geometry":{"type":"Polygon","coordinates":[[[47.66455,29.3507],[47.67307,29.33613],[47.69083,29.35463],[47.67629,29.36108],[47.66455,29.3507]]]}},{"type":"Feature","properties":{"id":"KWT:ADM2:36326507B63426314593937","name":"Dhaher","countryCode":"KWT","adminLevel":2,"sourceCode":"36326507B63426314593937","parentId":"KWT:ADM1:KWT-1665"},"geometry":{"type":"Polygon","coordinates":[[[48.07406,29.15725],[48.06509,29.17649],[48.04981,29.17231],[48.06206,29.15538],[48.06934,29.15307],[48.07503,29.15516],[48.07406,29.15725]]]}},{"type":"Feature","properties":{"id":"KWT:ADM2:36326507B6393972495009","name":"Fylaka","countryCode":"KWT","adminLevel":2,"sourceCode":"36326507B6393972495009","parentId":"KWT:ADM1:KWT-1663"},"geometry":{"type":"Polygon","coordinates":[[[48.27583,29.45372],[48.28801,29.46953],[48.28891,29.46673],[48.29205,29.47026],[48.30091,29.46773],[48.30832,29.47058],[48.31426,29.46903],[48.31592,29.46427],[48.3447,29.45213],[48.35532,29.45061],[48.37586,29.42868],[48.39218,29.41661],[48.39946,29.39764],[48.39855,29.39326],[48.38693,29.39223],[48.36151,29.40208],[48.35144,29.41647],[48.33747,29.42699],[48.32107,29.42955],[48.30995,29.42796],[48.29939,29.42941],[48.29368,29.43204],[48.28438,29.43037],[48.26924,29.42968],[48.26942,29.43573],[48.27583,29.45372]]]}},{"type":"Feature","properties":{"id":"KWT:ADM2:36326507B64117573621977","name":"Ashbelya","countryCode":"KWT","adminLevel":2,"sourceCode":"36326507B64117573621977","parentId":"KWT:ADM1:KWT-1664"},"geometry":{"type":"Polygon","coordinates":[[[47.95237,29.26789],[47.94998,29.28005],[47.92766,29.28032],[47.92528,29.26789],[47.95237,29.26789]]]}},{"type":"Feature","properties":{"id":"KWT:ADM2:36326507B64310566697141","name":"Waha","countryCode":"KWT","adminLevel":2,"sourceCode":"36326507B64310566697141","parentId":"KWT:ADM1:KWT-1667"},"geometry":{"type":"Polygon","coordinates":[[[47.65305,29.33747],[47.66905,29.33729],[47.66443,29.35061],[47.655,29.34861],[47.65305,29.33747]]]}},{"type":"Feature","properties":{"id":"KWT:ADM2:36326507B64398681573089","name":"Abdali","countryCode":"KWT","adminLevel":2,"sourceCode":"36326507B64398681573089","parentId":"KWT:ADM1:KWT-1667"},"geometry":{"type":"MultiPolygon","coordinates":[[[[47.71317,29.37972],[47.70203,29.38065],[47.68672,29.39337],[47.68785,29.41195],[47.89656,29.61186],[47.94482,29.64282],[48.01333,29.65225],[48.04444,29.67152],[48.06185,29.69195],[47.94764,29.81824],[47.93974,29.88788],[47.93022,29.93361],[47.92476,29.99103],[47.9221,30.01904],[47.94838,30.01175],[47.94801,29.99404],[47.95509,29.97728],[47.96551,29.96206],[47.97527,29.94257],[47.97975,29.92145],[47.9795,29.88434],[47.98268,29.86066],[47.99562,29.8277],[48.02174,29.77973],[48.05242,29.74299],[48.07887,29.74396],[48.09604,29.69916],[48.11915,29.65453],[48.15898,29.60455],[48.1619,29.59352],[48.17043,29.58329],[48.18092,29.56222],[48.17676,29.54192],[48.15452,29.53909],[48.12703,29.54952],[48.12383,29.55151],[48.10631,29.55848],[48.09254,29.56582],[48.08595,29.57502],[48.06635,29.57756],[48.04192,29.58209],[48.02386,29.58481],[48.00669,29.5823],[47.98146,29.57862],[47.97572,29.5782],[47.97468,29.57763],[47.96553,29.5763],[47.94806,29.56313],[47.8824,29.52736],[47.82994,29.49068],[47.8258,29.48289],[47.82081,29.47883],[47.81346,29.47768],[47.76749,29.41802],[47.75728,29.41663],[47.75638,29.40985],[47.73416,29.4007],[47.72687,29.40084],[47.72086,29.39522],[47.71839,29.39419],[47.71494,29.38124],[47.71317,29.37972]]],[[[48.10874,29.73188],[48.10877,29.73059],[48.1036,29.73874],[48.10874,29.73188]]],[[[48.01751,29.98584],[48.01268,29.9781],[48.01075,29.98045],[48.00929,29.98688],[48.01117,29.98802],[48.01751,29.98584]]]]}},{"type":"Feature","properties":{"id":"KWT:ADM2:36326507B65099017507843","name":"Daiya","countryCode":"KWT","adminLevel":2,"sourceCode":"36326507B65099017507843","parentId":"KWT:ADM1:KWT-3506"},"geometry":{"type":"Polygon","coordinates":[[[48.01332,29.34949],[48.00238,29.35743],[48.00907,29.36521],[48.01016,29.36696],[48.01051,29.36652],[48.02234,29.35718],[48.01332,29.34949]]]}},{"type":"Feature","properties":{"id":"KWT:ADM2:36326507B65172629586693","name":"Bar_Elahmadi","countryCode":"KWT","adminLevel":2,"sourceCode":"36326507B65172629586693","parentId":"KWT:ADM1:KWT-1665"},"geometry":{"type":"Polygon","coordinates":[[[47.56389,29.03072],[47.57464,29.01339],[47.56717,29.00443],[47.56648,28.98537],[47.55936,28.97595],[47.55293,28.94402],[47.538,28.9175],[47.53548,28.9067],[47.54328,28.89843],[47.56465,28.86168],[47.58693,28.83653],[47.60025,28.75867],[47.59393,28.728],[47.59554,28.68965],[47.60576,28.65496],[47.63883,28.63027],[47.6533,28.59685],[47.70889,28.54299],[47.70453,28.52485],[47.97418,28.52898],[47.98141,28.56125],[47.98187,28.61729],[48.0045,28.61511],[48.00989,28.6003],[48.02597,28.60684],[48.01819,28.61914],[48.16528,28.68298],[48.23223,28.58686],[48.23486,28.57216],[48.23246,28.533],[48.40312,28.53449],[48.33858,28.58192],[48.33513,28.61052],[48.31055,28.65244],[48.27507,28.6475],[48.26956,28.67173],[48.29792,28.67437],[48.29838,28.67897],[48.27639,28.76248],[48.27656,28.77073],[48.26794,28.80398],[48.20542,28.92146],[48.18467,28.93912],[48.17654,28.93267],[48.16701,28.93379],[48.13507,28.94621],[48.12037,28.95918],[48.10923,28.93978],[48.07314,28.94155],[48.07276,28.9696],[48.07854,28.98562],[48.07083,29.01989],[48.08931,29.02025],[48.09074,29.05112],[48.05898,29.06798],[48.05114,29.06833],[48.04807,29.07558],[48.0416,29.07411],[48.04042,29.08757],[48.04401,29.09012],[48.04726,29.10608],[47.98543,29.16487],[47.98555,29.18014],[47.90134,29.18416],[47.88172,29.18908],[47.87691,29.1953],[47.87495,29.13099],[47.78515,29.13087],[47.78423,29.03062],[47.72531,29.04313],[47.71854,29.03854],[47.66892,29.04153],[47.56389,29.03072]],[[48.1534,28.8143],[48.11405,28.72798],[48.01548,28.75908],[48.05666,28.83794],[48.1534,28.8143]]]}},{"type":"Feature","properties":{"id":"KWT:ADM2:36326507B65225547487376","name":"Sabahiya","countryCode":"KWT","adminLevel":2,"sourceCode":"36326507B65225547487376","parentId":"KWT:ADM1:KWT-1665"},"geometry":{"type":"Polygon","coordinates":[[[48.08974,29.12384],[48.09367,29.09304],[48.11353,29.09227],[48.1143,29.11893],[48.08974,29.12384]]]}},{"type":"Feature","properties":{"id":"KWT:ADM2:36326507B65844780574226","name":"Suwaikh","countryCode":"KWT","adminLevel":2,"sourceCode":"36326507B65844780574226","parentId":"KWT:ADM1:KWT-1663"},"geometry":{"type":"Polygon","coordinates":[[[47.94555,29.35165],[47.95214,29.345],[47.96258,29.36057],[47.95817,29.36485],[47.94351,29.35625],[47.94555,29.35165]]]}},{"type":"Feature","properties":{"id":"KWT:ADM2:36326507B66174644630896","name":"Elnahda_Shark_Elsolybekhat","countryCode":"KWT","adminLevel":2,"sourceCode":"36326507B66174644630896","parentId":"KWT:ADM1:KWT-1664"},"geometry":{"type":"Polygon","coordinates":[[[47.86588,29.29795],[47.86605,29.31118],[47.85428,29.31274],[47.85266,29.29748],[47.86588,29.29795]]]}},{"type":"Feature","properties":{"id":"KWT:ADM2:36326507B66663279292596","name":"Suwaikh_Commercial","countryCode":"KWT","adminLevel":2,"sourceCode":"36326507B66663279292596","parentId":"KWT:ADM1:KWT-1663"},"geometry":{"type":"Polygon","coordinates":[[[47.942,29.34942],[47.94615,29.34116],[47.95214,29.345],[47.94668,29.35236],[47.942,29.34942]]]}},{"type":"Feature","properties":{"id":"KWT:ADM2:36326507B66815976665838","name":"Omariya","countryCode":"KWT","adminLevel":2,"sourceCode":"36326507B66815976665838","parentId":"KWT:ADM1:KWT-1664"},"geometry":{"type":"Polygon","coordinates":[[[47.95722,29.28961],[47.96647,29.29009],[47.96417,29.30258],[47.9462,29.30136],[47.94838,29.28915],[47.95722,29.28961]]]}},{"type":"Feature","properties":{"id":"KWT:ADM2:36326507B6766902350009","name":"Egaila","countryCode":"KWT","adminLevel":2,"sourceCode":"36326507B6766902350009","parentId":"KWT:ADM1:KWT-1665"},"geometry":{"type":"Polygon","coordinates":[[[48.10804,29.18557],[48.08714,29.17995],[48.08872,29.15869],[48.10559,29.16129],[48.10926,29.17664],[48.10804,29.18557]]]}},{"type":"Feature","properties":{"id":"KWT:ADM2:36326507B69203739304690","name":"Ardhiya_Herafiya","countryCode":"KWT","adminLevel":2,"sourceCode":"36326507B69203739304690","parentId":"KWT:ADM1:KWT-1664"},"geometry":{"type":"Polygon","coordinates":[[[47.91645,29.29134],[47.91573,29.2996],[47.90584,29.29901],[47.90712,29.27895],[47.91513,29.27954],[47.91645,29.29134]]]}},{"type":"Feature","properties":{"id":"KWT:ADM2:36326507B70117597846307","name":"Mahboula","countryCode":"KWT","adminLevel":2,"sourceCode":"36326507B70117597846307","parentId":"KWT:ADM1:KWT-1665"},"geometry":{"type":"Polygon","coordinates":[[[48.10997,29.13744],[48.1262,29.13765],[48.12901,29.13498],[48.12122,29.16251],[48.11834,29.16258],[48.11834,29.15905],[48.10631,29.15934],[48.10997,29.13744]]]}},{"type":"Feature","properties":{"id":"KWT:ADM2:36326507B70357014789979","name":"Surra","countryCode":"KWT","adminLevel":2,"sourceCode":"36326507B70357014789979","parentId":"KWT:ADM1:KWT-3506"},"geometry":{"type":"Polygon","coordinates":[[[48.00029,29.30588],[48.0014,29.30608],[48.02207,29.308],[48.01246,29.32326],[47.99304,29.32088],[48.00029,29.30588]]]}},{"type":"Feature","properties":{"id":"KWT:ADM2:36326507B70491786687626","name":"Salmiya","countryCode":"KWT","adminLevel":2,"sourceCode":"36326507B70491786687626","parentId":"KWT:ADM1:KWT-3506"},"geometry":{"type":"Polygon","coordinates":[[[48.09154,29.32716],[48.09463,29.32492],[48.09177,29.32367],[48.06884,29.32507],[48.05283,29.31468],[48.03316,29.34377],[48.03825,29.343],[48.04142,29.34739],[48.05396,29.34093],[48.06138,29.34086],[48.07577,29.34559],[48.09769,29.34949],[48.09846,29.34935],[48.09872,29.34968],[48.09993,29.34989],[48.09154,29.32716]]]}},{"type":"Feature","properties":{"id":"KWT:ADM2:36326507B70605660478902","name":"Andalous","countryCode":"KWT","adminLevel":2,"sourceCode":"36326507B70605660478902","parentId":"KWT:ADM1:KWT-1664"},"geometry":{"type":"Polygon","coordinates":[[[47.86606,29.29725],[47.90584,29.29898],[47.90511,29.30735],[47.89747,29.30658],[47.88546,29.31125],[47.86609,29.31105],[47.86606,29.29725]]]}},{"type":"Feature","properties":{"id":"KWT:ADM2:36326507B72933182221430","name":"Riggai","countryCode":"KWT","adminLevel":2,"sourceCode":"36326507B72933182221430","parentId":"KWT:ADM1:KWT-1664"},"geometry":{"type":"Polygon","coordinates":[[[47.91213,29.30916],[47.90512,29.30725],[47.90582,29.29907],[47.92798,29.30026],[47.92647,29.31307],[47.91213,29.30916]]]}},{"type":"Feature","properties":{"id":"KWT:ADM2:36326507B73696883565220","name":"Qasr","countryCode":"KWT","adminLevel":2,"sourceCode":"36326507B73696883565220","parentId":"KWT:ADM1:KWT-1667"},"geometry":{"type":"Polygon","coordinates":[[[47.69083,29.35463],[47.67837,29.34169],[47.6875,29.33618],[47.69416,29.3416],[47.70756,29.3338],[47.71498,29.3434],[47.69083,29.35463]]]}},{"type":"Feature","properties":{"id":"KWT:ADM2:36326507B73881491472371","name":"Shaab","countryCode":"KWT","adminLevel":2,"sourceCode":"36326507B73881491472371","parentId":"KWT:ADM1:KWT-3506"},"geometry":{"type":"Polygon","coordinates":[[[48.03354,29.35143],[48.04149,29.34829],[48.03788,29.34294],[48.01391,29.35012],[48.02237,29.35715],[48.02524,29.35488],[48.03253,29.35267],[48.03354,29.35143]]]}},{"type":"Feature","properties":{"id":"KWT:ADM2:36326507B75420344819789","name":"Mubarakiya_Camps","countryCode":"KWT","adminLevel":2,"sourceCode":"36326507B75420344819789","parentId":"KWT:ADM1:KWT-1664"},"geometry":{"type":"Polygon","coordinates":[[[47.90512,29.30725],[47.92729,29.31342],[47.9214,29.32662],[47.88817,29.31012],[47.90512,29.30725]]]}},{"type":"Feature","properties":{"id":"KWT:ADM2:36326507B76234884557849","name":"Elwafra","countryCode":"KWT","adminLevel":2,"sourceCode":"36326507B76234884557849","parentId":"KWT:ADM1:KWT-1665"},"geometry":{"type":"Polygon","coordinates":[[[48.01899,28.604],[48.00989,28.6003],[48.00387,28.61505],[47.98193,28.61696],[47.98162,28.56133],[47.9759,28.53209],[48.23207,28.53432],[48.23486,28.57216],[48.23223,28.58686],[48.16528,28.68298],[48.01819,28.61914],[48.02611,28.60647],[48.01899,28.604]]]}},{"type":"Feature","properties":{"id":"KWT:ADM2:36326507B76430938745051","name":"Elahmdi","countryCode":"KWT","adminLevel":2,"sourceCode":"36326507B76430938745051","parentId":"KWT:ADM1:KWT-1665"},"geometry":{"type":"Polygon","coordinates":[[[48.093,29.05183],[48.09327,29.09488],[48.08679,29.09491],[48.07309,29.10884],[48.0511,29.11008],[48.045,29.10295],[48.04401,29.09012],[48.04042,29.08757],[48.0416,29.07411],[48.04807,29.07558],[48.05224,29.068],[48.05898,29.06798],[48.093,29.05183]]]}},{"type":"Feature","properties":{"id":"KWT:ADM2:36326507B7731209527342","name":"Ghornata","countryCode":"KWT","adminLevel":2,"sourceCode":"36326507B7731209527342","parentId":"KWT:ADM1:KWT-1663"},"geometry":{"type":"Polygon","coordinates":[[[47.86477,29.31262],[47.88206,29.31011],[47.88638,29.31198],[47.88042,29.32493],[47.86837,29.32294],[47.86477,29.31262]]]}},{"type":"Feature","properties":{"id":"KWT:ADM2:36326507B77408646080805","name":"Mirqab","countryCode":"KWT","adminLevel":2,"sourceCode":"36326507B77408646080805","parentId":"KWT:ADM1:KWT-1663"},"geometry":{"type":"Polygon","coordinates":[[[47.989,29.36621],[47.9929,29.37531],[47.986,29.37539],[47.97398,29.36707],[47.97451,29.36157],[47.989,29.36621]]]}},{"type":"Feature","properties":{"id":"KWT:ADM2:36326507B77828309021298","name":"Saba_Elahmad","countryCode":"KWT","adminLevel":2,"sourceCode":"36326507B77828309021298","parentId":"KWT:ADM1:KWT-1665"},"geometry":{"type":"Polygon","coordinates":[[[48.1534,28.8143],[48.05666,28.83794],[48.01548,28.75908],[48.11405,28.72798],[48.1534,28.8143]]]}},{"type":"Feature","properties":{"id":"KWT:ADM2:36326507B78873406652692","name":"Al_Fantas","countryCode":"KWT","adminLevel":2,"sourceCode":"36326507B78873406652692","parentId":"KWT:ADM1:KWT-1665"},"geometry":{"type":"Polygon","coordinates":[[[48.11892,29.16257],[48.12079,29.16986],[48.11697,29.18665],[48.10825,29.18543],[48.10623,29.15941],[48.1182,29.15913],[48.11892,29.16257]]]}},{"type":"Feature","properties":{"id":"KWT:ADM2:36326507B78895325613219","name":"Mangaf","countryCode":"KWT","adminLevel":2,"sourceCode":"36326507B78895325613219","parentId":"KWT:ADM1:KWT-1665"},"geometry":{"type":"Polygon","coordinates":[[[48.13457,29.09311],[48.13443,29.12082],[48.1143,29.11893],[48.1136,29.09234],[48.13457,29.09311]]]}},{"type":"Feature","properties":{"id":"KWT:ADM2:36326507B79072413715576","name":"Sad_Elabdallah","countryCode":"KWT","adminLevel":2,"sourceCode":"36326507B79072413715576","parentId":"KWT:ADM1:KWT-1667"},"geometry":{"type":"Polygon","coordinates":[[[47.70038,29.3025],[47.7319,29.29928],[47.74892,29.32847],[47.71517,29.3434],[47.6913,29.31231],[47.68179,29.31136],[47.68161,29.30481],[47.70038,29.3025]]]}},{"type":"Feature","properties":{"id":"KWT:ADM2:36326507B79472749769132","name":"El_Zoor","countryCode":"KWT","adminLevel":2,"sourceCode":"36326507B79472749769132","parentId":"KWT:ADM1:KWT-1665"},"geometry":{"type":"Polygon","coordinates":[[[48.37883,28.69848],[48.36584,28.70428],[48.35974,28.70386],[48.35222,28.68064],[48.31743,28.68243],[48.30207,28.67998],[48.29828,28.67937],[48.28368,28.74297],[48.33729,28.74554],[48.33679,28.74929],[48.31997,28.7608],[48.3209,28.76278],[48.35069,28.74623],[48.37221,28.74242],[48.39095,28.74389],[48.39357,28.74339],[48.3838,28.72801],[48.37965,28.71035],[48.37995,28.70511],[48.37883,28.69848]]]}},{"type":"Feature","properties":{"id":"KWT:ADM2:36326507B79706889714566","name":"Dasma","countryCode":"KWT","adminLevel":2,"sourceCode":"36326507B79706889714566","parentId":"KWT:ADM1:KWT-1663"},"geometry":{"type":"Polygon","coordinates":[[[47.99537,29.37411],[47.99164,29.36518],[48.00219,29.35725],[48.00948,29.36591],[47.99537,29.37411]]]}},{"type":"Feature","properties":{"id":"KWT:ADM2:36326507B79918830688436","name":"Fahaheel","countryCode":"KWT","adminLevel":2,"sourceCode":"36326507B79918830688436","parentId":"KWT:ADM1:KWT-1665"},"geometry":{"type":"Polygon","coordinates":[[[48.13177,29.07229],[48.14332,29.07334],[48.14001,29.07681],[48.14001,29.08302],[48.13521,29.08228],[48.13496,29.0908],[48.13869,29.0932],[48.11304,29.09212],[48.10824,29.07218],[48.13177,29.07229]]]}},{"type":"Feature","properties":{"id":"KWT:ADM2:36326507B80008951470230","name":"Kifan","countryCode":"KWT","adminLevel":2,"sourceCode":"36326507B80008951470230","parentId":"KWT:ADM1:KWT-1663"},"geometry":{"type":"Polygon","coordinates":[[[47.95637,29.34891],[47.94625,29.34112],[47.9525,29.33328],[47.9712,29.33214],[47.97216,29.3436],[47.97406,29.34366],[47.97471,29.34382],[47.95637,29.34891]]]}},{"type":"Feature","properties":{"id":"KWT:ADM2:36326507B80315036059235","name":"South_Wista","countryCode":"KWT","adminLevel":2,"sourceCode":"36326507B80315036059235","parentId":"KWT:ADM1:KWT-1665"},"geometry":{"type":"Polygon","coordinates":[[[48.01464,29.18296],[48.02072,29.18348],[48.04893,29.17408],[48.06789,29.17811],[48.05833,29.20728],[48.00728,29.1972],[47.99176,29.18022],[48.01464,29.18296]]]}},{"type":"Feature","properties":{"id":"KWT:ADM2:36326507B81339423568424","name":"Bayan","countryCode":"KWT","adminLevel":2,"sourceCode":"36326507B81339423568424","parentId":"KWT:ADM1:KWT-3506"},"geometry":{"type":"Polygon","coordinates":[[[48.04338,29.31118],[48.0223,29.30789],[48.03493,29.28045],[48.055,29.28603],[48.06906,29.29378],[48.05279,29.31463],[48.04338,29.31118]]]}},{"type":"Feature","properties":{"id":"KWT:ADM2:36326507B82239068726526","name":"Farwaniya","countryCode":"KWT","adminLevel":2,"sourceCode":"36326507B82239068726526","parentId":"KWT:ADM1:KWT-1664"},"geometry":{"type":"Polygon","coordinates":[[[47.95269,29.26684],[47.97062,29.26653],[47.96651,29.29005],[47.94838,29.28919],[47.95269,29.26684]]]}},{"type":"Feature","properties":{"id":"KWT:ADM2:36326507B82441915757932","name":"West_Jleedb","countryCode":"KWT","adminLevel":2,"sourceCode":"36326507B82441915757932","parentId":"KWT:ADM1:KWT-1664"},"geometry":{"type":"Polygon","coordinates":[[[47.86359,29.26077],[47.8612,29.25722],[47.87615,29.24607],[47.88375,29.23408],[47.88291,29.19262],[47.91415,29.18409],[47.94269,29.18367],[47.94447,29.23839],[47.90807,29.26465],[47.90807,29.2682],[47.86434,29.26769],[47.86359,29.26077]]]}},{"type":"Feature","properties":{"id":"KWT:ADM2:36326507B84491447347545","name":"Naeem","countryCode":"KWT","adminLevel":2,"sourceCode":"36326507B84491447347545","parentId":"KWT:ADM1:KWT-1667"},"geometry":{"type":"Polygon","coordinates":[[[47.70576,29.33115],[47.70756,29.3337],[47.69397,29.34145],[47.68826,29.33637],[47.70075,29.32462],[47.70576,29.33115]]]}},{"type":"Feature","properties":{"id":"KWT:ADM2:36326507B87168156958856","name":"Sulaibiya_Agricultural_1","countryCode":"KWT","adminLevel":2,"sourceCode":"36326507B87168156958856","parentId":"KWT:ADM1:KWT-1667"},"geometry":{"type":"Polygon","coordinates":[[[47.80921,29.29833],[47.78924,29.29795],[47.78896,29.28647],[47.83836,29.26783],[47.83973,29.27047],[47.80921,29.29833]]]}},{"type":"Feature","properties":{"id":"KWT:ADM2:36326507B87428492063113","name":"Siddiq","countryCode":"KWT","adminLevel":2,"sourceCode":"36326507B87428492063113","parentId":"KWT:ADM1:KWT-1664"},"geometry":{"type":"Polygon","coordinates":[[[48.00273,29.28608],[48.00029,29.30588],[47.97959,29.30454],[47.98566,29.28475],[48.00273,29.28608]]]}},{"type":"Feature","properties":{"id":"KWT:ADM2:36326507B874700590590","name":"Sabah_Al_Nasser","countryCode":"KWT","adminLevel":2,"sourceCode":"36326507B874700590590","parentId":"KWT:ADM1:KWT-1664"},"geometry":{"type":"Polygon","coordinates":[[[47.88196,29.2679],[47.90791,29.2684],[47.90729,29.27881],[47.86537,29.27545],[47.86499,29.2677],[47.88196,29.2679]]]}},{"type":"Feature","properties":{"id":"KWT:ADM2:36326507B87618637753639","name":"Bnaid_Al-QR","countryCode":"KWT","adminLevel":2,"sourceCode":"36326507B87618637753639","parentId":"KWT:ADM1:KWT-1663"},"geometry":{"type":"Polygon","coordinates":[[[48.00907,29.36521],[47.99537,29.37411],[47.99465,29.37065],[47.99359,29.37541],[47.996,29.37644],[47.99814,29.38168],[48.00839,29.36917],[48.01018,29.36693],[48.00907,29.36521]]]}},{"type":"Feature","properties":{"id":"KWT:ADM2:36326507B88091187440628","name":"Oyoun","countryCode":"KWT","adminLevel":2,"sourceCode":"36326507B88091187440628","parentId":"KWT:ADM1:KWT-1667"},"geometry":{"type":"Polygon","coordinates":[[[47.6594,29.32181],[47.66486,29.32711],[47.66522,29.33692],[47.65051,29.33692],[47.65174,29.32773],[47.6594,29.32181]]]}},{"type":"Feature","properties":{"id":"KWT:ADM2:36326507B88112618561554","name":"Suwaikh_Industrail-1","countryCode":"KWT","adminLevel":2,"sourceCode":"36326507B88112618561554","parentId":"KWT:ADM1:KWT-1663"},"geometry":{"type":"Polygon","coordinates":[[[47.93542,29.34533],[47.92629,29.33956],[47.93703,29.3233],[47.95244,29.3332],[47.94039,29.34842],[47.93542,29.34533]]]}},{"type":"Feature","properties":{"id":"KWT:ADM2:36326507B88130382359516","name":"Sebak_Al_Hegen","countryCode":"KWT","adminLevel":2,"sourceCode":"36326507B88130382359516","parentId":"KWT:ADM1:KWT-1665"},"geometry":{"type":"Polygon","coordinates":[[[47.83006,29.24839],[47.82516,29.24497],[47.82044,29.23034],[47.79041,29.18784],[47.78997,29.13227],[47.87499,29.13227],[47.87691,29.1953],[47.88007,29.19121],[47.88358,29.20731],[47.88265,29.23729],[47.87615,29.24607],[47.8607,29.25697],[47.84935,29.25075],[47.83006,29.24839]]]}},{"type":"Feature","properties":{"id":"KWT:ADM2:36326507B88689680570131","name":"Mina_Abdulla","countryCode":"KWT","adminLevel":2,"sourceCode":"36326507B88689680570131","parentId":"KWT:ADM1:KWT-1665"},"geometry":{"type":"Polygon","coordinates":[[[48.16145,29.00465],[48.15796,29.00426],[48.16373,28.98886],[48.14723,28.98888],[48.13908,28.99573],[48.10896,28.94013],[48.07314,28.94155],[48.07276,28.9696],[48.07857,28.98603],[48.07083,29.01989],[48.15791,29.02029],[48.15846,29.01728],[48.15909,29.01608],[48.16145,29.00465]]]}},{"type":"Feature","properties":{"id":"KWT:ADM2:36326507B89380702788683","name":"Suwaikh_Educational","countryCode":"KWT","adminLevel":2,"sourceCode":"36326507B89380702788683","parentId":"KWT:ADM1:KWT-1663"},"geometry":{"type":"Polygon","coordinates":[[[47.91424,29.32317],[47.93131,29.33169],[47.92356,29.34352],[47.91661,29.34469],[47.90387,29.33572],[47.91424,29.32317]]]}},{"type":"Feature","properties":{"id":"KWT:ADM2:36326507B9010123919461","name":"Rabiya","countryCode":"KWT","adminLevel":2,"sourceCode":"36326507B9010123919461","parentId":"KWT:ADM1:KWT-1664"},"geometry":{"type":"Polygon","coordinates":[[[47.94451,29.28915],[47.9483,29.28918],[47.94609,29.3014],[47.92798,29.30059],[47.92863,29.28902],[47.94451,29.28915]]]}},{"type":"Feature","properties":{"id":"KWT:ADM2:36326507B90885424076864","name":"Hawalli","countryCode":"KWT","adminLevel":2,"sourceCode":"36326507B90885424076864","parentId":"KWT:ADM1:KWT-3506"},"geometry":{"type":"Polygon","coordinates":[[[48.03318,29.34375],[48.01386,29.3501],[48.00101,29.34133],[48.01238,29.32337],[48.03995,29.33119],[48.03318,29.34375]]]}},{"type":"Feature","properties":{"id":"KWT:ADM2:36326507B92697676619958","name":"Amghara","countryCode":"KWT","adminLevel":2,"sourceCode":"36326507B92697676619958","parentId":"KWT:ADM1:KWT-1667"},"geometry":{"type":"Polygon","coordinates":[[[47.75336,29.29705],[47.76319,29.31721],[47.74902,29.32822],[47.73167,29.29919],[47.75336,29.29705]]]}},{"type":"Feature","properties":{"id":"KWT:ADM2:36326507B93570712354614","name":"Mina_Doha","countryCode":"KWT","adminLevel":2,"sourceCode":"36326507B93570712354614","parentId":"KWT:ADM1:KWT-1667"},"geometry":{"type":"Polygon","coordinates":[[[47.80407,29.33896],[47.80116,29.33468],[47.79493,29.33846],[47.78463,29.33917],[47.7849,29.35664],[47.76166,29.36007],[47.76127,29.36725],[47.76415,29.3677],[47.77093,29.36887],[47.77594,29.36841],[47.78451,29.37114],[47.78457,29.37124],[47.78871,29.37196],[47.79017,29.36932],[47.79035,29.37224],[47.79174,29.37248],[47.79756,29.37445],[47.79912,29.36919],[47.8032,29.37052],[47.80107,29.37563],[47.80445,29.37677],[47.80407,29.33896]]]}},{"type":"Feature","properties":{"id":"KWT:ADM2:36326507B94211972616986","name":"Elkeran_Elgededa","countryCode":"KWT","adminLevel":2,"sourceCode":"36326507B94211972616986","parentId":"KWT:ADM1:KWT-1665"},"geometry":{"type":"Polygon","coordinates":[[[48.30931,28.65255],[48.29781,28.67436],[48.26994,28.67177],[48.27522,28.64752],[48.30931,28.65255]]]}},{"type":"Feature","properties":{"id":"KWT:ADM2:36326507B94257104761136","name":"Elwafra_Elgededa","countryCode":"KWT","adminLevel":2,"sourceCode":"36326507B94257104761136","parentId":"KWT:ADM1:KWT-1665"},"geometry":{"type":"MultiPolygon","coordinates":[[[[48.0259,28.60681],[48.02589,28.60681],[48.01899,28.604],[48.02611,28.60647],[48.0259,28.60681]]],[[[48.00971,28.60079],[48.00737,28.60722],[48.00903,28.60215],[48.00971,28.60079]]]]}},{"type":"Feature","properties":{"id":"KWT:ADM2:36326507B94403328075981","name":"Shamiya","countryCode":"KWT","adminLevel":2,"sourceCode":"36326507B94403328075981","parentId":"KWT:ADM1:KWT-1663"},"geometry":{"type":"Polygon","coordinates":[[[47.9723,29.34455],[47.97386,29.35888],[47.96377,29.35974],[47.95381,29.3464],[47.95637,29.34891],[47.9723,29.34455]]]}},{"type":"Feature","properties":{"id":"KWT:ADM2:36326507B95160782372907","name":"Al_Adan","countryCode":"KWT","adminLevel":2,"sourceCode":"36326507B95160782372907","parentId":"KWT:ADM1:KWT-1666"},"geometry":{"type":"Polygon","coordinates":[[[48.07943,29.22698],[48.08325,29.22939],[48.07995,29.2463],[48.04851,29.23945],[48.05433,29.2203],[48.07608,29.22353],[48.07943,29.22698]]]}},{"type":"Feature","properties":{"id":"KWT:ADM2:36326507B95832780364820","name":"Jabriya","countryCode":"KWT","adminLevel":2,"sourceCode":"36326507B95832780364820","parentId":"KWT:ADM1:KWT-3506"},"geometry":{"type":"Polygon","coordinates":[[[48.04338,29.31118],[48.05279,29.31463],[48.03995,29.33114],[48.0124,29.32335],[48.0221,29.30792],[48.04338,29.31118]]]}},{"type":"Feature","properties":{"id":"KWT:ADM2:36326507B96225377310687","name":"Suwaikh_Port","countryCode":"KWT","adminLevel":2,"sourceCode":"36326507B96225377310687","parentId":"KWT:ADM1:KWT-1663"},"geometry":{"type":"Polygon","coordinates":[[[47.9082,29.35876],[47.91218,29.35492],[47.92549,29.3621],[47.93288,29.35831],[47.91952,29.35213],[47.92364,29.34488],[47.93757,29.35372],[47.94327,29.35489],[47.94556,29.35164],[47.92625,29.33962],[47.92359,29.34359],[47.9037,29.35271],[47.90447,29.35571],[47.9082,29.35876]]]}},{"type":"Feature","properties":{"id":"KWT:ADM2:36326507B96932424544514","name":"Mansouriya","countryCode":"KWT","adminLevel":2,"sourceCode":"36326507B96932424544514","parentId":"KWT:ADM1:KWT-3506"},"geometry":{"type":"Polygon","coordinates":[[[47.98617,29.36148],[47.99809,29.33993],[47.99987,29.34085],[47.9934,29.35081],[48.00234,29.35733],[48.01332,29.34949],[47.99167,29.36523],[47.98617,29.36148]]]}},{"type":"Feature","properties":{"id":"KWT:ADM2:36326507B98019200258371","name":"Taima","countryCode":"KWT","adminLevel":2,"sourceCode":"36326507B98019200258371","parentId":"KWT:ADM1:KWT-1667"},"geometry":{"type":"Polygon","coordinates":[[[47.68528,29.33752],[47.67824,29.34136],[47.66796,29.33096],[47.69199,29.32201],[47.69656,29.32852],[47.68528,29.33752]]]}},{"type":"Feature","properties":{"id":"KWT:ADM2:36326507B99223407758894","name":"Faiha","countryCode":"KWT","adminLevel":2,"sourceCode":"36326507B99223407758894","parentId":"KWT:ADM1:KWT-1663"},"geometry":{"type":"Polygon","coordinates":[[[47.97117,29.33214],[47.97116,29.33202],[47.98699,29.33516],[47.98263,29.34577],[47.97216,29.3436],[47.97117,29.33214]]]}}],"admin1":{"type":"FeatureCollection","features":[{"type":"Feature","properties":{"id":"KWT:ADM1:KWT-1663","name":"Capital","countryCode":"KWT"},"geometry":{"type":"MultiPolygon","coordinates":[[[[47.88206,29.31011],[47.86477,29.31262],[47.86837,29.32294],[47.88042,29.32493],[47.88638,29.31198],[47.88206,29.31011]]],[[[47.92629,29.33956],[47.93522,29.3452],[47.92625,29.33962],[47.92359,29.34359],[47.9037,29.35271],[47.90447,29.35571],[47.9082,29.35876],[47.91218,29.35492],[47.92549,29.3621],[47.93288,29.35831],[47.91952,29.35213],[47.92364,29.34488],[47.93757,29.35372],[47.94327,29.35489],[47.94554,29.35166],[47.94351,29.35625],[47.95817,29.36485],[47.95819,29.36484],[47.96083,29.36768],[47.95764,29.36483],[47.96501,29.37407],[47.96531,29.3808],[47.96658,29.38259],[47.97505,29.38488],[47.98015,29.39122],[47.98764,29.39224],[47.99033,29.39008],[47.99033,29.39008],[47.99301,29.38793],[47.99414,29.38656],[47.99414,29.38656],[47.99431,29.38635],[47.99446,29.38617],[47.99446,29.38617],[47.99814,29.38167],[47.99814,29.38168],[48.00839,29.36917],[48.01018,29.36693],[48.00907,29.36521],[48.00895,29.36529],[48.00219,29.35725],[47.99164,29.36518],[47.99223,29.3666],[47.98611,29.36132],[47.99337,29.35069],[47.97358,29.34413],[47.97407,29.344],[47.98263,29.34577],[47.98699,29.33516],[47.97116,29.33202],[47.97117,29.33214],[47.97117,29.33214],[47.9525,29.33328],[47.94625,29.34112],[47.94706,29.34174],[47.94615,29.34116],[47.942,29.34942],[47.9427,29.34986],[47.93797,29.34692],[47.94039,29.34842],[47.95244,29.3332],[47.95247,29.33322],[47.9616,29.31619],[47.94298,29.31457],[47.94149,29.31736],[47.93712,29.3233],[47.95228,29.3331],[47.93703,29.3233],[47.92629,29.33956]],[[47.98152,29.37229],[47.98157,29.37232],[47.97419,29.37961],[47.97278,29.37835],[47.98152,29.37229]],[[47.96536,29.3596],[47.97386,29.35888],[47.97386,29.35892],[47.98574,29.36129],[47.96575,29.35969],[47.96536,29.3596]],[[47.9723,29.34455],[47.95637,29.34891],[47.97235,29.34447],[47.97376,29.35793],[47.9723,29.34455]],[[47.96334,29.35917],[47.96283,29.35906],[47.96214,29.35992],[47.95305,29.34635],[47.95476,29.34767],[47.96334,29.35917]],[[47.98937,29.36707],[47.99175,29.36895],[47.99294,29.37533],[47.99365,29.37514],[47.99359,29.37541],[47.996,29.37644],[47.99232,29.37532],[47.9929,29.37531],[47.98937,29.36707]],[[47.99772,29.38065],[47.99614,29.37959],[47.99472,29.38455],[47.996,29.37644],[47.99772,29.38065]],[[47.98778,29.36582],[47.97506,29.36175],[47.98374,29.36263],[47.98778,29.36582]]],[[[47.93131,29.33169],[47.91424,29.32317],[47.90387,29.33572],[47.91661,29.34469],[47.92356,29.34352],[47.93131,29.33169]]],[[[48.30832,29.47058],[48.31426,29.46903],[48.31592,29.46427],[48.3447,29.45213],[48.35532,29.45061],[48.37586,29.42868],[48.39218,29.41661],[48.39946,29.39764],[48.39855,29.39326],[48.38693,29.39223],[48.36151,29.40208],[48.35144,29.41647],[48.33747,29.42699],[48.32107,29.42955],[48.30995,29.42796],[48.29939,29.42941],[48.29368,29.43204],[48.28438,29.43037],[48.26924,29.42968],[48.26942,29.43573],[48.27583,29.45372],[48.28801,29.46953],[48.28891,29.46673],[48.29205,29.47026],[48.30091,29.46773],[48.30832,29.47058]]]]}},{"type":"Feature","properties":{"id":"KWT:ADM1:KWT-1664","name":"Al Farwaniyah","countryCode":"KWT"},"geometry":{"type":"MultiPolygon","coordinates":[[[[47.88291,29.19262],[47.88375,29.23408],[47.87615,29.24607],[47.8612,29.25722],[47.86359,29.26077],[47.86434,29.26769],[47.90807,29.2682],[47.88196,29.2679],[47.86499,29.2677],[47.85967,29.2684],[47.83836,29.26783],[47.85333,29.297],[47.86606,29.29748],[47.86502,29.26857],[47.86606,29.29725],[47.86609,29.31105],[47.88546,29.31125],[47.88792,29.31029],[47.88049,29.32461],[47.88544,29.32695],[47.88872,29.32468],[47.90472,29.33388],[47.90971,29.33131],[47.91424,29.32317],[47.88824,29.31017],[47.88826,29.31016],[47.9214,29.32662],[47.92357,29.32175],[47.92145,29.32663],[47.93136,29.33165],[47.94294,29.31463],[47.96149,29.31609],[47.96132,29.31687],[47.97468,29.31856],[47.97908,29.30405],[47.9644,29.30263],[47.96343,29.30713],[47.96336,29.30745],[47.96435,29.30259],[47.92794,29.30059],[47.92794,29.30059],[47.96018,29.30236],[47.9462,29.30136],[47.96417,29.30258],[47.96615,29.29182],[47.96425,29.30253],[47.9796,29.30405],[47.98804,29.26658],[47.97062,29.26665],[47.96929,29.27416],[47.97062,29.26653],[47.95269,29.26684],[47.95268,29.26689],[47.95257,29.26119],[47.95358,29.26069],[47.95279,29.26665],[47.97089,29.26638],[47.9717,29.25938],[47.97167,29.25937],[47.97173,29.25938],[47.97107,29.26638],[47.98743,29.26611],[47.99176,29.23353],[48.00732,29.20334],[48.00556,29.19469],[47.99176,29.18022],[47.94257,29.18335],[47.94257,29.18367],[47.91415,29.18409],[47.88291,29.19262]],[[47.90512,29.30725],[47.91213,29.30916],[47.92721,29.31339],[47.92721,29.3134],[47.90512,29.30725]],[[47.90512,29.30725],[47.90519,29.30647],[47.90512,29.30725],[47.90512,29.30725]],[[47.95237,29.26789],[47.92531,29.26789],[47.92529,29.26777],[47.95267,29.26692],[47.94839,29.28915],[47.94838,29.28915],[47.95237,29.26789]],[[47.9444,29.23844],[47.94447,29.23839],[47.94444,29.23732],[47.94753,29.25237],[47.9444,29.23844]],[[47.90585,29.29891],[47.90584,29.29895],[47.8791,29.29721],[47.90585,29.29891]],[[47.90605,29.29566],[47.90606,29.29555],[47.90712,29.27895],[47.90605,29.29566]],[[47.90733,29.27896],[47.90802,29.26831],[47.90733,29.27897],[47.90712,29.27895],[47.90733,29.27896]],[[47.91527,29.2808],[47.9152,29.28017],[47.91523,29.27958],[47.91527,29.2808]],[[47.88797,29.27726],[47.88798,29.27726],[47.88026,29.28914],[47.88797,29.27726]],[[47.88852,29.31006],[47.89747,29.30658],[47.90475,29.30731],[47.88852,29.31006]],[[47.96646,29.29009],[47.95722,29.28961],[47.95707,29.2896],[47.96647,29.29005],[47.96646,29.29009]]],[[[47.85266,29.29748],[47.85428,29.31274],[47.86605,29.31118],[47.86588,29.29795],[47.85266,29.29748]]],[[[47.99723,29.22314],[47.99176,29.23353],[47.99036,29.24472],[48.00855,29.24447],[48.0085,29.23353],[48.01619,29.23308],[48.0159,29.22389],[47.99723,29.22314]]],[[[48.01429,29.28064],[48.01272,29.26604],[47.98804,29.26658],[47.98586,29.28473],[48.00266,29.28601],[48.01429,29.28064]]],[[[47.98566,29.28475],[47.97969,29.30422],[47.97924,29.30418],[47.97484,29.31871],[47.97586,29.31883],[47.97116,29.33199],[47.98675,29.33505],[47.99257,29.32093],[47.97655,29.31891],[47.99297,29.3208],[47.99925,29.30581],[48.00029,29.30588],[48.00273,29.28608],[47.98566,29.28475]]],[[[47.95259,29.33314],[47.97094,29.33203],[47.97458,29.31862],[47.96132,29.31687],[47.95259,29.33314]]]]}},{"type":"Feature","properties":{"id":"KWT:ADM1:KWT-1665","name":"Al Ahmadi","countryCode":"KWT"},"geometry":{"type":"MultiPolygon","coordinates":[[[[48.00737,28.60722],[48.00971,28.60079],[48.0096,28.60101],[48.00989,28.6003],[48.0045,28.61511],[47.98187,28.61729],[47.98141,28.56125],[47.97418,28.52898],[47.70453,28.52485],[47.70889,28.54299],[47.6533,28.59685],[47.63883,28.63027],[47.60576,28.65496],[47.59554,28.68965],[47.59393,28.728],[47.60025,28.75867],[47.58693,28.83653],[47.56465,28.86168],[47.54328,28.89843],[47.53548,28.9067],[47.538,28.9175],[47.55293,28.94402],[47.55936,28.97595],[47.56648,28.98537],[47.56717,29.00443],[47.57464,29.01339],[47.56389,29.03072],[47.66892,29.04153],[47.71854,29.03854],[47.72531,29.04313],[47.78423,29.03062],[47.78515,29.13087],[47.87495,29.13099],[47.87499,29.13227],[47.78997,29.13227],[47.79041,29.18784],[47.82044,29.23034],[47.82516,29.24497],[47.83006,29.24839],[47.84935,29.25075],[47.8607,29.25697],[47.87615,29.24607],[47.88265,29.23729],[47.88358,29.20731],[47.88007,29.19121],[47.88172,29.18908],[47.90134,29.18416],[47.98555,29.18014],[47.98543,29.16487],[47.98555,29.16476],[47.98555,29.1801],[47.99216,29.18065],[48.00728,29.1972],[48.05833,29.20728],[48.05914,29.20481],[48.05838,29.2073],[48.08884,29.21083],[48.08982,29.19818],[48.08779,29.19868],[48.09462,29.19584],[48.10021,29.18356],[48.08449,29.18077],[48.08699,29.18024],[48.08858,29.15877],[48.07499,29.15524],[48.07503,29.15516],[48.07195,29.15403],[48.07576,29.15361],[48.07496,29.15502],[48.08901,29.15862],[48.0967,29.1345],[48.10474,29.13631],[48.09672,29.13477],[48.08916,29.15855],[48.1058,29.16107],[48.10946,29.13737],[48.10976,29.13744],[48.11388,29.11921],[48.09965,29.12186],[48.11404,29.11898],[48.10997,29.13744],[48.12622,29.13745],[48.13401,29.12083],[48.11405,29.11898],[48.1143,29.11893],[48.11353,29.09227],[48.09623,29.09294],[48.11298,29.09229],[48.10792,29.07193],[48.14473,29.07193],[48.14829,29.06606],[48.14957,29.06643],[48.15039,29.06188],[48.1492,29.06142],[48.14761,29.05267],[48.15204,29.05275],[48.15267,29.04931],[48.15259,29.04934],[48.15259,29.04264],[48.15392,29.04239],[48.15574,29.03228],[48.15623,29.02054],[48.08932,29.02046],[48.08933,29.02065],[48.08931,29.02025],[48.07083,29.01989],[48.15791,29.02029],[48.15846,29.01728],[48.15909,29.01608],[48.16145,29.00465],[48.15796,29.00426],[48.16373,28.98887],[48.16429,28.98888],[48.15835,29.00323],[48.16145,29.00413],[48.17283,28.97246],[48.1811,28.95914],[48.2014,28.94091],[48.20619,28.92617],[48.21485,28.91272],[48.25028,28.88841],[48.28182,28.88237],[48.2824,28.87938],[48.27817,28.85969],[48.27806,28.85804],[48.27782,28.85738],[48.27787,28.85516],[48.27687,28.83959],[48.27837,28.83601],[48.27911,28.80786],[48.29579,28.78123],[48.32032,28.76155],[48.3209,28.76278],[48.35069,28.74623],[48.37221,28.74242],[48.39095,28.74389],[48.39357,28.74339],[48.3838,28.72801],[48.37965,28.71035],[48.37995,28.70511],[48.37883,28.69848],[48.37738,28.69913],[48.3807,28.69032],[48.38141,28.6901],[48.38343,28.68441],[48.38252,28.68342],[48.38489,28.68029],[48.38673,28.67512],[48.37159,28.68439],[48.36622,28.68871],[48.365,28.68081],[48.36598,28.67573],[48.37045,28.67194],[48.37989,28.66767],[48.37241,28.65917],[48.36769,28.65672],[48.36378,28.65815],[48.35955,28.66144],[48.35271,28.66144],[48.35182,28.64053],[48.36101,28.63556],[48.37468,28.64167],[48.38673,28.654],[48.38692,28.65329],[48.38692,28.65329],[48.3895,28.64374],[48.39051,28.63179],[48.38591,28.62903],[48.38623,28.6195],[48.39036,28.61537],[48.38972,28.6071],[48.39286,28.60396],[48.39357,28.59565],[48.39715,28.58332],[48.40224,28.57492],[48.40275,28.57182],[48.40712,28.56774],[48.42091,28.55158],[48.42107,28.55143],[48.42977,28.53559],[48.40085,28.53654],[48.33857,28.58197],[48.33858,28.58192],[48.40312,28.53449],[48.23246,28.533],[48.23486,28.57216],[48.23207,28.53432],[47.9759,28.53209],[47.98162,28.56133],[47.98193,28.61696],[48.00387,28.61505],[48.0086,28.60345],[48.00737,28.60722]],[[48.01899,28.604],[48.0211,28.60486],[48.00989,28.6003],[48.01899,28.604]],[[48.0785,28.98582],[48.07857,28.98603],[48.07083,29.01989],[48.0785,28.98582]],[[48.0629,29.19333],[48.08419,29.19957],[48.08158,29.20021],[48.06288,29.19339],[48.0629,29.19333]],[[48.09367,29.09304],[48.09344,29.09487],[48.09327,29.09488],[48.093,29.05183],[48.05898,29.06798],[48.09074,29.05112],[48.09003,29.03582],[48.11477,29.03809],[48.11171,29.04562],[48.14655,29.04587],[48.14654,29.04675],[48.14638,29.04587],[48.11105,29.04603],[48.11397,29.03808],[48.0987,29.03705],[48.09102,29.03594],[48.09466,29.06309],[48.10402,29.06217],[48.09467,29.06342],[48.09419,29.09302],[48.09367,29.09304]],[[48.10923,28.93978],[48.12034,28.95913],[48.12033,28.95914],[48.13935,28.99551],[48.13908,28.99573],[48.10896,28.94013],[48.07314,28.94155],[48.10923,28.93978]],[[48.13507,28.94621],[48.14528,28.94224],[48.1352,28.94647],[48.12282,28.95702],[48.13507,28.94621]],[[48.16701,28.93379],[48.17654,28.93267],[48.1777,28.93359],[48.17541,28.93289],[48.15994,28.93654],[48.16701,28.93379]],[[48.18467,28.93912],[48.20542,28.92146],[48.26794,28.80398],[48.2142,28.90703],[48.20515,28.92203],[48.17599,28.94999],[48.18395,28.93949],[48.18231,28.93725],[48.18467,28.93912]],[[48.27639,28.76248],[48.29838,28.67897],[48.29802,28.67533],[48.2989,28.67947],[48.29828,28.67937],[48.28368,28.74297],[48.33729,28.74554],[48.31517,28.74459],[48.28312,28.74321],[48.27654,28.76957],[48.27639,28.76248]],[[48.26956,28.67173],[48.27507,28.6475],[48.27522,28.64752],[48.26994,28.67177],[48.26956,28.67173]],[[48.31055,28.65244],[48.33513,28.61052],[48.33523,28.60972],[48.3406,28.60245],[48.29892,28.67225],[48.30931,28.65255],[48.27533,28.64754],[48.31055,28.65244]],[[48.34554,28.60106],[48.35004,28.60188],[48.3406,28.60245],[48.34554,28.60106]],[[48.0259,28.60681],[48.0259,28.60681],[48.0259,28.60681],[48.0259,28.60681]],[[48.03421,29.17439],[48.04953,29.17294],[48.04994,29.17234],[48.06509,29.17649],[48.07399,29.1574],[48.06552,29.17635],[48.07157,29.17847],[48.06812,29.17786],[48.06642,29.18261],[48.06789,29.17811],[48.04893,29.17408],[48.02072,29.18348],[48.01464,29.18296],[48.00281,29.18154],[48.02023,29.183],[48.03421,29.17439]],[[48.06335,29.15497],[48.06206,29.15538],[48.05267,29.16835],[48.06172,29.15515],[48.06335,29.15497]],[[48.08976,29.1237],[48.08951,29.12375],[48.08777,29.13249],[48.08771,29.1326],[48.09342,29.09501],[48.08976,29.1237]],[[48.0486,29.10716],[48.04721,29.10613],[48.02907,29.12337],[48.04726,29.10608],[48.04713,29.10544],[48.0486,29.10716]],[[48.04807,29.07558],[48.05114,29.06833],[48.05208,29.06829],[48.04807,29.07558]],[[48.05245,29.11],[48.07054,29.10898],[48.06899,29.1103],[48.05512,29.11198],[48.05245,29.11]],[[48.0852,29.09652],[48.08679,29.09491],[48.09312,29.09488],[48.08689,29.09509],[48.0852,29.09652]],[[48.35221,28.68064],[48.31743,28.68243],[48.30843,28.68099],[48.31821,28.68238],[48.35218,28.68056],[48.35221,28.68064]],[[48.35974,28.70386],[48.37272,28.70121],[48.36584,28.70428],[48.35974,28.70386]],[[48.37415,28.60933],[48.3768,28.61345],[48.36664,28.60492],[48.37415,28.60933]],[[48.37987,28.61823],[48.38097,28.62719],[48.37732,28.61426],[48.37987,28.61823]],[[48.38365,28.64891],[48.38278,28.64775],[48.38252,28.63975],[48.38365,28.64891]],[[48.33679,28.74929],[48.3288,28.75476],[48.33693,28.74824],[48.33679,28.74929]],[[48.14703,28.98821],[48.14703,28.98821],[48.14684,28.98849],[48.16341,28.98886],[48.14723,28.98888],[48.14297,28.99246],[48.14703,28.98821]]],[[[48.10804,29.18557],[48.10818,29.18454],[48.10825,29.18543],[48.11697,29.18665],[48.12079,29.16986],[48.11892,29.16257],[48.11892,29.16257],[48.12122,29.16251],[48.12901,29.13498],[48.1262,29.13765],[48.10997,29.13744],[48.10631,29.15934],[48.11834,29.15905],[48.11834,29.1598],[48.1182,29.15913],[48.10623,29.15941],[48.10675,29.16616],[48.10559,29.16129],[48.08872,29.15869],[48.08714,29.17995],[48.10804,29.18557]]],[[[48.10103,29.18369],[48.09462,29.19584],[48.08982,29.19818],[48.08891,29.21081],[48.10107,29.21416],[48.10128,29.21351],[48.10548,29.2162],[48.10613,29.21353],[48.11332,29.19644],[48.11633,29.1884],[48.10992,29.18639],[48.10716,29.19494],[48.1099,29.1863],[48.10103,29.18369]]],[[[48.13521,29.08228],[48.14001,29.08302],[48.14001,29.07681],[48.14332,29.07334],[48.13177,29.07229],[48.10824,29.07218],[48.11304,29.09212],[48.13869,29.0932],[48.13496,29.0908],[48.13521,29.08228]]],[[[48.1136,29.09234],[48.1143,29.11893],[48.13443,29.12082],[48.13457,29.09311],[48.1136,29.09234]]]]}},{"type":"Feature","properties":{"id":"KWT:ADM1:KWT-1666","name":"Mubarak Al-Kabeer","countryCode":"KWT"},"geometry":{"type":"MultiPolygon","coordinates":[[[[47.99726,29.22319],[48.0159,29.22389],[48.01619,29.23308],[48.0085,29.23353],[48.00855,29.24447],[47.99026,29.24472],[47.98759,29.26491],[48.04028,29.26526],[48.05823,29.20754],[48.008,29.1971],[47.99726,29.22319]]],[[[48.04851,29.23945],[48.07993,29.2463],[48.07991,29.24647],[48.08897,29.24998],[48.04857,29.23955],[48.04031,29.2653],[48.05673,29.26453],[48.08278,29.2687],[48.08951,29.26922],[48.08986,29.25839],[48.09268,29.25365],[48.096,29.25432],[48.09311,29.25274],[48.09411,29.24779],[48.09771,29.24814],[48.09806,29.24673],[48.09594,29.24505],[48.09931,29.23559],[48.08803,29.23213],[48.09946,29.23559],[48.10058,29.22454],[48.10406,29.22206],[48.1048,29.21899],[48.10186,29.21455],[48.08879,29.21093],[48.08455,29.22241],[48.07943,29.22698],[48.07608,29.22353],[48.05433,29.2203],[48.04851,29.23945]],[[48.08317,29.22982],[48.08803,29.22873],[48.08314,29.22994],[48.08317,29.22982]]],[[[48.04199,29.26526],[48.01274,29.26609],[48.01445,29.28056],[48.00277,29.28597],[48.00284,29.29065],[48.02047,29.28869],[48.0295,29.29119],[48.03491,29.28043],[48.03488,29.28042],[48.04199,29.26526]]],[[[48.04199,29.26526],[48.03495,29.28042],[48.05148,29.28527],[48.05655,29.2651],[48.04199,29.26526]]],[[[48.05159,29.28527],[48.06849,29.29345],[48.06099,29.30442],[48.06949,29.30914],[48.08557,29.30857],[48.08301,29.30889],[48.08915,29.30936],[48.09009,29.27096],[48.08477,29.26966],[48.07902,29.27807],[48.08458,29.26932],[48.0566,29.26503],[48.05159,29.28527]]]]}},{"type":"Feature","properties":{"id":"KWT:ADM1:KWT-1667","name":"Al Jahra","countryCode":"KWT"},"geometry":{"type":"MultiPolygon","coordinates":[[[[47.56388,29.03073],[47.56389,29.03072],[47.56378,29.0307],[47.56315,29.02986],[47.56244,29.0302],[47.57464,29.01339],[47.56717,29.00443],[47.56648,28.98537],[47.55901,28.97584],[47.55006,28.94576],[47.53461,28.91324],[47.4655,29.00552],[46.55893,29.1039],[46.61381,29.15919],[46.6321,29.1657],[46.68536,29.21733],[46.71509,29.26536],[46.72526,29.26668],[46.77823,29.32764],[46.78974,29.35474],[46.81239,29.36848],[46.88256,29.45054],[46.90855,29.50289],[46.91301,29.52443],[46.94717,29.57307],[46.95831,29.59831],[46.97947,29.61874],[46.98318,29.63841],[47.00657,29.66403],[47.01474,29.72084],[47.02774,29.73347],[47.0864,29.84263],[47.11054,29.91577],[47.14767,29.98298],[47.177,30.01157],[47.20745,30.02976],[47.25831,30.04721],[47.29582,30.05612],[47.37861,30.09994],[47.70833,30.10142],[47.65672,30.02011],[47.65672,29.98483],[47.65747,30.02086],[47.71445,30.10634],[47.92013,30.02265],[47.92563,29.98192],[47.92476,29.99103],[47.9221,30.01904],[47.94838,30.01175],[47.94801,29.99404],[47.95509,29.97728],[47.96551,29.96206],[47.97527,29.94257],[47.97975,29.92145],[47.9795,29.88434],[47.98268,29.86066],[47.99562,29.8277],[48.02174,29.77973],[48.05242,29.74299],[48.07887,29.74396],[48.09604,29.69916],[48.11915,29.65453],[48.15898,29.60455],[48.1619,29.59352],[48.17043,29.58329],[48.18092,29.56222],[48.17676,29.54192],[48.15452,29.53909],[48.12703,29.54952],[48.12383,29.55151],[48.10631,29.55848],[48.09254,29.56582],[48.08595,29.57502],[48.06635,29.57756],[48.04192,29.58209],[48.02386,29.58481],[48.00669,29.5823],[47.98146,29.57862],[47.97572,29.5782],[47.97468,29.57763],[47.96553,29.5763],[47.94806,29.56313],[47.8824,29.52736],[47.82994,29.49068],[47.8258,29.48289],[47.82081,29.47883],[47.81346,29.47768],[47.76749,29.41802],[47.75728,29.41663],[47.75638,29.40985],[47.73416,29.4007],[47.72687,29.40084],[47.72086,29.39522],[47.71839,29.39419],[47.71494,29.38124],[47.71317,29.37972],[47.70203,29.38065],[47.68672,29.39337],[47.68785,29.41195],[47.68642,29.39365],[47.70163,29.3794],[47.70488,29.36388],[47.70472,29.36363],[47.70493,29.36362],[47.70591,29.35896],[47.72991,29.3592],[47.73445,29.36308],[47.76117,29.36724],[47.76254,29.341],[47.76163,29.35965],[47.77457,29.35816],[47.76166,29.36007],[47.76127,29.36725],[47.76415,29.3677],[47.77093,29.36887],[47.77594,29.36841],[47.78451,29.37114],[47.78457,29.37124],[47.78871,29.37196],[47.79017,29.36932],[47.79035,29.37224],[47.79174,29.37248],[47.79756,29.37445],[47.79912,29.36919],[47.8032,29.37052],[47.80107,29.37563],[47.80445,29.37677],[47.80439,29.37031],[47.8406,29.38473],[47.83825,29.38701],[47.85113,29.38021],[47.85113,29.38019],[47.84978,29.37939],[47.83733,29.37593],[47.819,29.36304],[47.82237,29.36176],[47.81875,29.36162],[47.82066,29.35604],[47.82267,29.35548],[47.8227,29.35143],[47.81643,29.33756],[47.82373,29.3332],[47.82373,29.32785],[47.8283,29.32214],[47.83341,29.32278],[47.8331,29.31991],[47.84311,29.32128],[47.85814,29.31766],[47.86537,29.31975],[47.86477,29.31262],[47.85428,29.31279],[47.85238,29.29852],[47.81887,29.29787],[47.83269,29.29776],[47.83536,29.28388],[47.84344,29.27865],[47.84119,29.27334],[47.83985,29.27072],[47.80963,29.29795],[47.81813,29.29788],[47.80845,29.30775],[47.80816,29.31279],[47.83169,29.31289],[47.78919,29.31335],[47.79163,29.32725],[47.79153,29.32718],[47.78905,29.31337],[47.78678,29.31366],[47.78753,29.31355],[47.78896,29.28647],[47.78924,29.29795],[47.7937,29.29803],[47.78934,29.29805],[47.78762,29.31307],[47.80798,29.31314],[47.80826,29.30765],[47.81739,29.29795],[47.8096,29.29798],[47.80959,29.29798],[47.83973,29.27047],[47.83836,29.26783],[47.8643,29.26852],[47.86465,29.26151],[47.84935,29.25075],[47.82611,29.24791],[47.82044,29.23034],[47.79041,29.18784],[47.78996,29.13088],[47.78515,29.13087],[47.785,29.11532],[47.70879,29.11586],[47.70879,29.13569],[47.57674,29.13569],[47.60399,29.32467],[47.5754,29.13531],[47.69426,29.13384],[47.69425,29.13498],[47.70851,29.13469],[47.70832,29.11482],[47.785,29.11454],[47.78465,29.07658],[47.70909,29.07735],[47.70918,29.08715],[47.69471,29.08879],[47.69457,29.10344],[47.69457,29.10346],[47.69385,29.08889],[47.7087,29.08704],[47.70721,29.07738],[47.78593,29.0759],[47.78407,29.03431],[47.72875,29.04805],[47.71427,29.041],[47.69607,29.04545],[47.56872,29.03728],[47.5638,29.03073],[47.56388,29.03073]],[[47.89656,29.61186],[47.94482,29.64282],[47.94261,29.6425],[47.89806,29.61465],[47.68785,29.41195],[47.89656,29.61186]],[[47.75336,29.29705],[47.75336,29.29705],[47.8383,29.26783],[47.83836,29.26783],[47.78896,29.28647],[47.75336,29.29705]],[[47.61819,29.33657],[47.63046,29.33691],[47.6439,29.32261],[47.63844,29.32914],[47.6371,29.33741],[47.65051,29.3371],[47.65053,29.33692],[47.66522,29.33692],[47.66486,29.32711],[47.6594,29.32181],[47.6816,29.31317],[47.68141,29.30489],[47.67701,29.30528],[47.66828,29.30617],[47.68595,29.30428],[47.68161,29.30481],[47.68179,29.31136],[47.6913,29.31231],[47.71517,29.3434],[47.74892,29.32847],[47.73895,29.31136],[47.74902,29.32822],[47.76319,29.31721],[47.75855,29.30769],[47.76328,29.31706],[47.76452,29.31688],[47.75268,29.3269],[47.75485,29.33018],[47.75251,29.3269],[47.67677,29.36143],[47.66158,29.37625],[47.67647,29.36137],[47.66964,29.3552],[47.67629,29.36108],[47.69083,29.35463],[47.71498,29.3434],[47.70756,29.3338],[47.69416,29.3416],[47.69397,29.34145],[47.70756,29.3337],[47.70576,29.33115],[47.70075,29.32462],[47.68826,29.33637],[47.69391,29.3414],[47.6875,29.33618],[47.68528,29.33752],[47.69656,29.32852],[47.69614,29.32793],[47.6965,29.32834],[47.70051,29.32451],[47.69108,29.31234],[47.68177,29.31161],[47.68276,29.31485],[47.6811,29.31355],[47.66309,29.32061],[47.66771,29.33065],[47.69119,29.32219],[47.69127,29.32228],[47.66796,29.33096],[47.67824,29.34136],[47.68528,29.33752],[47.67839,29.34168],[47.67307,29.33613],[47.66455,29.3507],[47.65488,29.34882],[47.65306,29.33754],[47.655,29.34861],[47.66443,29.35061],[47.66905,29.33729],[47.65305,29.33747],[47.65298,29.33703],[47.63121,29.33855],[47.63518,29.35883],[47.63073,29.33692],[47.61736,29.33655],[47.60399,29.32467],[47.61819,29.33657]],[[47.66157,29.37626],[47.66117,29.37665],[47.63518,29.35883],[47.66157,29.37626]],[[47.55453,29.03073],[47.56243,29.0302],[47.55535,29.03357],[47.59666,29.32564],[47.55453,29.03073]],[[47.53085,29.37148],[47.5301,29.37219],[47.2152,29.33042],[47.53085,29.37148]],[[47.59675,29.32629],[47.59694,29.32764],[47.56463,29.35846],[47.59675,29.32629]],[[47.6594,29.32181],[47.65174,29.32773],[47.65848,29.32217],[47.6594,29.32181]],[[47.68916,29.31984],[47.68551,29.31699],[47.68672,29.31701],[47.68916,29.31984]],[[47.67705,29.93806],[47.66785,29.94733],[47.67706,29.93482],[47.67705,29.93806]],[[47.70758,29.95253],[47.67714,29.91324],[47.67714,29.90946],[47.70758,29.95253]],[[47.84801,29.8508],[47.72726,29.92654],[47.84801,29.84836],[47.84801,29.8508]],[[47.94559,29.82035],[47.96156,29.80285],[47.94764,29.81824],[47.93974,29.88788],[47.93569,29.90732],[47.94724,29.82175],[47.84801,29.79809],[47.88854,29.80734],[47.94559,29.82035]],[[48.06185,29.69195],[48.06139,29.69246],[48.05019,29.67826],[48.06185,29.69195]],[[47.94499,29.64284],[48.01333,29.65225],[48.04444,29.67152],[48.04597,29.67332],[48.01205,29.65252],[47.94499,29.64284]],[[47.8324,29.31291],[47.83243,29.31382],[47.83233,29.31289],[47.8345,29.3129],[47.8324,29.31291]],[[47.78463,29.33917],[47.7849,29.35664],[47.78369,29.35682],[47.78462,29.33897],[47.79545,29.33814],[47.79493,29.33846],[47.78463,29.33917]],[[47.79978,29.33547],[47.79981,29.3355],[47.79891,29.33605],[47.79978,29.33547]],[[47.80426,29.35831],[47.80408,29.33974],[47.80447,29.34013],[47.80426,29.35831]]],[[[47.84344,29.27941],[47.83612,29.28455],[47.83275,29.29748],[47.8519,29.29776],[47.84344,29.27941]]],[[[48.1036,29.73874],[48.10874,29.73188],[48.10877,29.73059],[48.1036,29.73874]]],[[[48.01751,29.98584],[48.01268,29.9781],[48.01075,29.98045],[48.00929,29.98688],[48.01117,29.98802],[48.01751,29.98584]]]]}},{"type":"Feature","properties":{"id":"KWT:ADM1:KWT-3506","name":"Hawally","countryCode":"KWT"},"geometry":{"type":"MultiPolygon","coordinates":[[[[48.01552,29.28909],[48.00282,29.29067],[48.00029,29.30589],[47.99304,29.32088],[48.01246,29.32326],[48.0124,29.32335],[48.03995,29.33114],[48.05279,29.31463],[48.06906,29.29378],[48.055,29.28603],[48.03493,29.28045],[48.0223,29.30789],[48.04338,29.31118],[48.0221,29.30792],[48.02205,29.308],[48.0014,29.30608],[48.00085,29.30598],[48.02224,29.30788],[48.02949,29.29121],[48.01552,29.28909]]],[[[47.99417,29.33827],[47.98694,29.33521],[47.98263,29.34577],[47.99237,29.35027],[47.98617,29.36148],[47.99167,29.36523],[48.00239,29.35744],[48.00907,29.36521],[48.01016,29.36696],[48.01051,29.36652],[48.02234,29.35718],[48.01979,29.35501],[48.02237,29.35715],[48.02524,29.35488],[48.03253,29.35267],[48.03354,29.35143],[48.04149,29.34829],[48.03795,29.34305],[48.03825,29.343],[48.04142,29.34739],[48.05396,29.34093],[48.06138,29.34086],[48.07577,29.34559],[48.09769,29.34949],[48.09846,29.34935],[48.09872,29.34968],[48.09993,29.34989],[48.09154,29.32716],[48.09463,29.32492],[48.09177,29.32367],[48.08489,29.32409],[48.09307,29.32098],[48.09085,29.32075],[48.08916,29.30937],[48.08582,29.30966],[48.0714,29.30961],[48.06096,29.30434],[48.05286,29.31466],[48.06887,29.32505],[48.06901,29.32506],[48.06884,29.32507],[48.05283,29.31468],[48.03321,29.3437],[48.03995,29.33119],[48.01238,29.32337],[48.00101,29.34133],[48.01223,29.32358],[47.99274,29.32097],[47.98697,29.33505],[47.99417,29.33827]],[[48.00323,29.34284],[47.99987,29.34085],[47.99987,29.34085],[47.99944,29.34063],[48.00101,29.34133],[48.00323,29.34284]],[[48.03317,29.34375],[48.03316,29.34377],[48.0371,29.34317],[48.01402,29.35009],[48.01399,29.35006],[48.03317,29.34375]]]]}}]}}
