{"type":"FeatureCollection","features":[{"type":"Feature","properties":{"id":"LBN:ADM2:6925839B15174750350375","name":"Zgharta","countryCode":"LBN","adminLevel":2,"sourceCode":"6925839B15174750350375","parentId":"LBN:ADM1:LBN-3023"},"geometry":{"type":"Polygon","coordinates":[[[35.87042,34.29557],[35.88087,34.29607],[35.89216,34.28761],[35.90257,34.28907],[35.92215,34.28441],[35.93503,34.27712],[35.9412,34.26866],[35.95055,34.26881],[35.95126,34.28047],[35.97541,34.27029],[35.99517,34.26739],[36.0068,34.27029],[36.01639,34.27682],[36.0344,34.27982],[36.02495,34.29616],[36.01641,34.2932],[36.0131,34.29502],[35.99243,34.31733],[35.98579,34.31807],[35.96285,34.33305],[35.95494,34.3351],[35.94244,34.35042],[35.93629,34.35009],[35.92696,34.35795],[35.92982,34.36569],[35.92099,34.37632],[35.92409,34.3767],[35.92145,34.38809],[35.92471,34.38681],[35.92672,34.39372],[35.93649,34.3863],[35.9537,34.39973],[35.94424,34.40702],[35.95153,34.41495],[35.94812,34.42109],[35.96533,34.42288],[35.97572,34.42825],[35.97479,34.43465],[35.97928,34.43541],[35.97479,34.43925],[35.98006,34.44475],[35.97737,34.45153],[35.95524,34.45448],[35.95097,34.44629],[35.95752,34.44048],[35.94919,34.44016],[35.94542,34.43484],[35.94105,34.43688],[35.93926,34.43443],[35.93432,34.45216],[35.94006,34.4551],[35.92471,34.45626],[35.92672,34.4505],[35.91748,34.44725],[35.89544,34.44987],[35.89024,34.45416],[35.87494,34.44373],[35.87153,34.43567],[35.86496,34.43559],[35.85388,34.42552],[35.86394,34.40923],[35.8747,34.40384],[35.85432,34.35085],[35.8599,34.32998],[35.8599,34.31461],[35.87042,34.29557]]]}},{"type":"Feature","properties":{"id":"LBN:ADM2:6925839B22224450252528","name":"Chouf","countryCode":"LBN","adminLevel":2,"sourceCode":"6925839B22224450252528","parentId":"LBN:ADM1:LBN-3025"},"geometry":{"type":"Polygon","coordinates":[[[35.62663,33.49362],[35.63449,33.50252],[35.63758,33.52994],[35.65623,33.56638],[35.65842,33.58687],[35.67204,33.61412],[35.67511,33.62949],[35.69005,33.6474],[35.70153,33.66903],[35.70757,33.65815],[35.71263,33.65978],[35.70533,33.6709],[35.70547,33.68026],[35.7288,33.69511],[35.73526,33.69312],[35.74046,33.69558],[35.74813,33.70417],[35.75898,33.70179],[35.76164,33.7092],[35.75182,33.71243],[35.75008,33.708],[35.73976,33.72315],[35.74136,33.7278],[35.75575,33.72248],[35.77198,33.73812],[35.74749,33.74677],[35.72099,33.74864],[35.70814,33.75812],[35.6994,33.7579],[35.67906,33.73781],[35.6558,33.73994],[35.64361,33.75162],[35.61977,33.73685],[35.60691,33.7341],[35.60493,33.72903],[35.59777,33.72628],[35.57061,33.72826],[35.52516,33.70952],[35.51629,33.71007],[35.51324,33.71856],[35.51046,33.71823],[35.50608,33.71691],[35.50078,33.70721],[35.49389,33.70456],[35.48939,33.71757],[35.47308,33.72155],[35.47325,33.72508],[35.48182,33.72945],[35.46788,33.735],[35.47471,33.74585],[35.48796,33.74361],[35.49293,33.74585],[35.47885,33.75445],[35.47284,33.75463],[35.46995,33.76185],[35.46364,33.76507],[35.44998,33.74607],[35.44385,33.70669],[35.43914,33.70082],[35.42525,33.69729],[35.42148,33.69278],[35.41985,33.6568],[35.41529,33.65318],[35.40246,33.65181],[35.40059,33.6487],[35.4037,33.64095],[35.40328,33.61302],[35.39397,33.60906],[35.39276,33.59096],[35.43013,33.58065],[35.44123,33.57248],[35.44678,33.57671],[35.4583,33.57005],[35.47013,33.56885],[35.51009,33.57774],[35.51859,33.58273],[35.54583,33.58585],[35.55182,33.59272],[35.56756,33.59897],[35.58281,33.58939],[35.5963,33.59397],[35.60355,33.58981],[35.6063,33.5794],[35.60655,33.57357],[35.60105,33.56337],[35.60105,33.55275],[35.61479,33.54442],[35.61779,33.53755],[35.62004,33.52567],[35.61614,33.50847],[35.62142,33.5058],[35.6227,33.49646],[35.62663,33.49362]]]}},{"type":"Feature","properties":{"id":"LBN:ADM2:6925839B23310202718855","name":"Jezzine","countryCode":"LBN","adminLevel":2,"sourceCode":"6925839B23310202718855","parentId":"LBN:ADM1:LBN-3060"},"geometry":{"type":"Polygon","coordinates":[[[35.61034,33.4044],[35.61275,33.41255],[35.6179,33.41651],[35.62863,33.4159],[35.62888,33.42191],[35.63593,33.42847],[35.63373,33.43723],[35.63901,33.44631],[35.63533,33.45138],[35.62814,33.45098],[35.62078,33.43483],[35.61758,33.43349],[35.61502,33.4367],[35.62798,33.48766],[35.62142,33.5058],[35.61614,33.50847],[35.62004,33.52567],[35.61779,33.53755],[35.61479,33.54442],[35.60105,33.55275],[35.60105,33.56337],[35.60655,33.57357],[35.60355,33.58981],[35.5963,33.59397],[35.58281,33.58939],[35.56756,33.59897],[35.55182,33.59272],[35.54583,33.58585],[35.51859,33.58273],[35.51009,33.57774],[35.48117,33.57311],[35.48037,33.57018],[35.4583,33.57005],[35.45174,33.57525],[35.44279,33.57485],[35.43938,33.56962],[35.44862,33.55941],[35.42863,33.55088],[35.42463,33.54005],[35.43138,33.53317],[35.43138,33.52463],[35.42339,33.52672],[35.42488,33.52213],[35.44612,33.51109],[35.45937,33.51859],[35.4764,33.5169],[35.48458,33.52945],[35.50188,33.52962],[35.50239,33.52006],[35.51119,33.51724],[35.50567,33.507],[35.50782,33.49753],[35.52159,33.4998],[35.52439,33.50397],[35.53678,33.50813],[35.53038,33.51347],[35.55569,33.50692],[35.5475,33.49433],[35.54622,33.4859],[35.53305,33.47459],[35.52754,33.46328],[35.54226,33.44872],[35.52727,33.43387],[35.5279,33.42996],[35.53227,33.42422],[35.54664,33.42135],[35.52857,33.38928],[35.52831,33.36888],[35.54213,33.36685],[35.54379,33.35488],[35.5488,33.3522],[35.5532,33.35668],[35.55726,33.37598],[35.57336,33.3842],[35.59355,33.3837],[35.59915,33.39622],[35.61034,33.4044]]]}},{"type":"Feature","properties":{"id":"LBN:ADM2:6925839B28822850251568","name":"Akkar","countryCode":"LBN","adminLevel":2,"sourceCode":"6925839B28822850251568","parentId":"LBN:ADM1:LBN-3023"},"geometry":{"type":"Polygon","coordinates":[[[36.34045,34.6894],[36.35595,34.68333],[36.35501,34.67477],[36.35116,34.67186],[36.35137,34.66039],[36.36552,34.64353],[36.38175,34.6342],[36.3931,34.63136],[36.40318,34.63792],[36.4209,34.62721],[36.4526,34.63832],[36.46512,34.63644],[36.4604,34.6343],[36.46268,34.62855],[36.45829,34.62588],[36.46154,34.60875],[36.4523,34.59267],[36.43315,34.59336],[36.4266,34.60543],[36.41536,34.60646],[36.41526,34.61271],[36.40496,34.60843],[36.40444,34.6044],[36.40797,34.60175],[36.39745,34.57451],[36.41193,34.56615],[36.41447,34.55883],[36.40889,34.5515],[36.38958,34.54711],[36.38272,34.53665],[36.37459,34.5356],[36.36164,34.52305],[36.353,34.51949],[36.34767,34.50923],[36.3375,34.50405],[36.33246,34.5228],[36.32173,34.51477],[36.31148,34.51249],[36.30254,34.49681],[36.29458,34.4948],[36.27994,34.47287],[36.26031,34.45943],[36.24301,34.45806],[36.24069,34.45312],[36.24268,34.43776],[36.24867,34.43145],[36.24501,34.42047],[36.23703,34.41773],[36.23204,34.42514],[36.22339,34.41828],[36.21274,34.42047],[36.18014,34.41279],[36.15851,34.4202],[36.14328,34.42083],[36.13117,34.43881],[36.1176,34.4466],[36.08756,34.44301],[36.05316,34.4464],[36.04492,34.44201],[36.02918,34.44361],[36.01658,34.43981],[35.99163,34.44301],[35.99187,34.45519],[35.98581,34.48196],[35.98945,34.48715],[35.98775,34.49493],[35.98412,34.49933],[35.97297,34.49493],[35.9645,34.49793],[35.96062,34.50851],[35.95626,34.5115],[35.96186,34.51694],[35.97385,34.51649],[35.98339,34.52267],[35.99217,34.55648],[35.98929,34.58239],[35.98959,34.59968],[35.98683,34.6208],[35.98064,34.63849],[35.97609,34.64331],[35.98074,34.64515],[35.98053,34.65005],[35.99121,34.65053],[35.99135,34.64294],[36.0077,34.64584],[36.00658,34.64216],[36.02355,34.63596],[36.02852,34.63041],[36.03432,34.63142],[36.03533,34.62784],[36.04253,34.6305],[36.05153,34.62836],[36.05493,34.63307],[36.06365,34.63644],[36.06515,34.6324],[36.07237,34.63318],[36.07387,34.62904],[36.07919,34.63453],[36.08123,34.63105],[36.09431,34.62926],[36.09895,34.63733],[36.11298,34.63408],[36.12608,34.64215],[36.13795,34.63657],[36.17623,34.6296],[36.17889,34.63458],[36.19754,34.63737],[36.22613,34.627],[36.22831,34.6292],[36.23724,34.62775],[36.23794,34.63265],[36.24498,34.63567],[36.26463,34.62841],[36.27733,34.62873],[36.29229,34.63306],[36.30245,34.64476],[36.30804,34.655],[36.3027,34.66545],[36.3121,34.68383],[36.32099,34.68947],[36.33979,34.69281],[36.34045,34.6894]]]}},{"type":"Feature","properties":{"id":"LBN:ADM2:6925839B31149323573129","name":"Zahle","countryCode":"LBN","adminLevel":2,"sourceCode":"6925839B31149323573129","parentId":"LBN:ADM1:LBN-3022"},"geometry":{"type":"Polygon","coordinates":[[[35.96937,33.68592],[35.96959,33.68393],[35.97571,33.68764],[35.97862,33.69329],[35.97255,33.6974],[35.97767,33.70899],[35.97596,33.72058],[35.9825,33.73051],[35.99473,33.73145],[36.01504,33.76771],[36.01546,33.77442],[36.02229,33.77339],[36.0314,33.76667],[36.04899,33.78319],[36.0639,33.81313],[36.07736,33.8262],[36.08771,33.85217],[36.10034,33.86643],[36.09412,33.87056],[36.08502,33.86747],[36.07777,33.87589],[36.06845,33.87159],[36.04879,33.87159],[36.03802,33.88551],[36.02022,33.87744],[35.99993,33.86231],[35.9962,33.87692],[35.98378,33.88294],[35.98627,33.89256],[35.97467,33.90665],[35.95687,33.91868],[35.9459,33.91283],[35.92271,33.9216],[35.92002,33.92349],[35.91857,33.93637],[35.91505,33.93791],[35.90801,33.93585],[35.8988,33.92231],[35.87707,33.91659],[35.86833,33.92011],[35.85813,33.90648],[35.86303,33.90406],[35.86316,33.89889],[35.84885,33.89328],[35.84739,33.88349],[35.82911,33.87227],[35.82561,33.86282],[35.80098,33.8434],[35.80326,33.82844],[35.79518,33.82276],[35.79208,33.81192],[35.77199,33.81278],[35.76972,33.80866],[35.7834,33.79457],[35.814,33.79182],[35.81374,33.78664],[35.80658,33.77992],[35.79996,33.75878],[35.79413,33.75307],[35.80021,33.74988],[35.8146,33.75227],[35.82868,33.71051],[35.83283,33.73419],[35.85586,33.74908],[35.86306,33.76344],[35.89137,33.77966],[35.8968,33.7782],[35.89504,33.76597],[35.90384,33.76304],[35.90906,33.74426],[35.89465,33.73199],[35.88573,33.73028],[35.8799,33.72485],[35.87852,33.71315],[35.89259,33.70088],[35.90598,33.70744],[35.91627,33.70801],[35.93892,33.69517],[35.94474,33.68863],[35.95363,33.68738],[35.96462,33.69174],[35.96937,33.68592]]]}},{"type":"Feature","properties":{"id":"LBN:ADM2:6925839B37776772134920","name":"Saida","countryCode":"LBN","adminLevel":2,"sourceCode":"6925839B37776772134920","parentId":"LBN:ADM1:LBN-3060"},"geometry":{"type":"Polygon","coordinates":[[[35.34515,33.32739],[35.36247,33.33628],[35.36726,33.34229],[35.36946,33.35298],[35.36726,33.35615],[35.35207,33.35332],[35.3405,33.36396],[35.30135,33.36941],[35.32144,33.37027],[35.32412,33.37817],[35.31722,33.38031],[35.31632,33.3833],[35.32655,33.3864],[35.32016,33.39195],[35.32783,33.3959],[35.33116,33.40178],[35.33487,33.3971],[35.34923,33.40232],[35.36985,33.37911],[35.38422,33.37807],[35.3839,33.38354],[35.3761,33.38876],[35.37859,33.39867],[35.40434,33.40385],[35.40924,33.40857],[35.40524,33.41558],[35.39425,33.42358],[35.39305,33.4406],[35.40065,33.45911],[35.42164,33.45344],[35.43243,33.46478],[35.41584,33.47229],[35.41504,33.47813],[35.43143,33.48179],[35.43783,33.4903],[35.44762,33.48246],[35.45842,33.47879],[35.46382,33.48279],[35.46322,33.4913],[35.47321,33.48863],[35.48301,33.47863],[35.49,33.48396],[35.4916,33.4908],[35.50782,33.49753],[35.50567,33.507],[35.51119,33.51349],[35.51119,33.51724],[35.50239,33.52006],[35.50188,33.52962],[35.48458,33.52945],[35.4764,33.5169],[35.45937,33.51859],[35.44612,33.51109],[35.42488,33.52213],[35.42339,33.52672],[35.43138,33.52463],[35.43138,33.53317],[35.42463,33.54005],[35.42863,33.55088],[35.44862,33.55941],[35.44088,33.56587],[35.44123,33.57248],[35.43013,33.58065],[35.39465,33.59085],[35.39115,33.59106],[35.38066,33.57191],[35.37166,33.5692],[35.37266,33.56025],[35.36866,33.55504],[35.36142,33.52067],[35.32918,33.49005],[35.31944,33.47421],[35.2942,33.46462],[35.27958,33.44722],[35.27171,33.43042],[35.26896,33.41019],[35.25497,33.38203],[35.2518,33.34742],[35.26791,33.32609],[35.2957,33.32242],[35.30389,33.32559],[35.32508,33.32292],[35.33728,33.32893],[35.34515,33.32739]]]}},{"type":"Feature","properties":{"id":"LBN:ADM2:6925839B38007173727278","name":"Koura","countryCode":"LBN","adminLevel":2,"sourceCode":"6925839B38007173727278","parentId":"LBN:ADM1:LBN-3023"},"geometry":{"type":"MultiPolygon","coordinates":[[[[35.83693,34.25003],[35.82615,34.26156],[35.85382,34.25701],[35.85525,34.25066],[35.83693,34.25003]]],[[[35.77133,34.38312],[35.77623,34.37609],[35.78028,34.37591],[35.79837,34.38523],[35.80736,34.39403],[35.8085,34.4009],[35.82743,34.41839],[35.83273,34.41808],[35.84936,34.39154],[35.86657,34.39269],[35.87401,34.4019],[35.85432,34.35085],[35.8599,34.32998],[35.8599,34.31461],[35.87044,34.2926],[35.87887,34.28603],[35.87138,34.28255],[35.87185,34.27945],[35.85967,34.26707],[35.84375,34.27423],[35.83579,34.27404],[35.83064,34.27229],[35.82924,34.2663],[35.8245,34.26285],[35.81597,34.26325],[35.81145,34.24811],[35.78758,34.24913],[35.77132,34.26053],[35.73471,34.26716],[35.72736,34.28474],[35.71987,34.29093],[35.71268,34.29205],[35.70881,34.29922],[35.725,34.30999],[35.73699,34.3077],[35.74046,34.31833],[35.75116,34.31459],[35.76412,34.32054],[35.75322,34.32835],[35.74634,34.34044],[35.73132,34.33815],[35.7276,34.34364],[35.72975,34.35335],[35.73346,34.36112],[35.73362,34.36114],[35.73369,34.36162],[35.73537,34.36512],[35.73754,34.36531],[35.73709,34.36874],[35.73732,34.36921],[35.74253,34.3772],[35.77133,34.38312]]]]}},{"type":"Feature","properties":{"id":"LBN:ADM2:6925839B40760308631941","name":"Bcharre","countryCode":"LBN","adminLevel":2,"sourceCode":"6925839B40760308631941","parentId":"LBN:ADM1:LBN-3023"},"geometry":{"type":"Polygon","coordinates":[[[36.02235,34.18414],[36.02395,34.18178],[36.0287,34.18509],[36.04405,34.20377],[36.06081,34.21223],[36.0818,34.23498],[36.08709,34.24563],[36.09503,34.24957],[36.11108,34.26954],[36.12219,34.27377],[36.13013,34.28455],[36.13807,34.28689],[36.13737,34.29767],[36.14019,34.3016],[36.13013,34.31122],[36.12713,34.30437],[36.1171,34.30732],[36.11383,34.29939],[36.11473,34.29211],[36.1092,34.28726],[36.09712,34.2826],[36.08334,34.28391],[36.06469,34.27304],[36.04881,34.28062],[36.03558,34.28004],[36.01639,34.27682],[36.0068,34.27029],[35.99517,34.26739],[35.98264,34.27001],[35.98399,34.26805],[35.95955,34.27581],[35.95426,34.28076],[35.94967,34.27741],[35.95055,34.26881],[35.9412,34.26866],[35.93503,34.27712],[35.92215,34.28441],[35.90257,34.28907],[35.89216,34.28761],[35.88087,34.29607],[35.87042,34.29557],[35.87887,34.28603],[35.87138,34.28255],[35.87185,34.27945],[35.85967,34.26707],[35.84375,34.27423],[35.83579,34.27404],[35.83064,34.27229],[35.82924,34.2663],[35.8245,34.26285],[35.85382,34.25701],[35.85525,34.25066],[35.87811,34.24539],[35.88511,34.23876],[35.90321,34.23961],[35.91083,34.22957],[35.91371,34.21528],[35.92173,34.21409],[35.93469,34.22005],[35.95198,34.21987],[35.96617,34.21137],[35.98881,34.21256],[35.99333,34.20882],[35.99868,34.19469],[36.01103,34.19282],[36.02235,34.18414]]]}},{"type":"Feature","properties":{"id":"LBN:ADM2:6925839B53479738564512","name":"Nabatiye","countryCode":"LBN","adminLevel":2,"sourceCode":"6925839B53479738564512","parentId":"LBN:ADM1:LBN-3059"},"geometry":{"type":"Polygon","coordinates":[[[35.44121,33.30937],[35.44963,33.31287],[35.46102,33.31383],[35.47394,33.31009],[35.48034,33.31319],[35.49159,33.30614],[35.51232,33.30453],[35.53102,33.29874],[35.53602,33.29952],[35.53977,33.30553],[35.54008,33.32458],[35.54539,33.33371],[35.5488,33.3522],[35.54379,33.35488],[35.54213,33.36685],[35.52831,33.36888],[35.52857,33.38928],[35.54664,33.42135],[35.53227,33.42422],[35.5279,33.42996],[35.52727,33.43387],[35.54226,33.44872],[35.52754,33.46328],[35.53305,33.47459],[35.54622,33.4859],[35.5475,33.49433],[35.55569,33.50692],[35.53038,33.51347],[35.53678,33.50813],[35.52439,33.50397],[35.52159,33.4998],[35.4916,33.4908],[35.49,33.48396],[35.48301,33.47863],[35.46701,33.4913],[35.46162,33.48913],[35.46382,33.48279],[35.45842,33.47879],[35.44762,33.48246],[35.43783,33.4903],[35.43143,33.48179],[35.41684,33.47963],[35.41584,33.47229],[35.43243,33.46478],[35.42164,33.45344],[35.40065,33.45911],[35.39305,33.4406],[35.39425,33.42358],[35.40524,33.41558],[35.40924,33.40857],[35.40434,33.40385],[35.37859,33.39867],[35.3761,33.38876],[35.3839,33.38354],[35.38422,33.37807],[35.36985,33.37911],[35.34923,33.40232],[35.33487,33.3971],[35.33116,33.40178],[35.32783,33.3959],[35.31939,33.39078],[35.32655,33.3864],[35.31632,33.3833],[35.31722,33.38031],[35.32412,33.37817],[35.32144,33.37027],[35.30135,33.36941],[35.3405,33.36396],[35.35207,33.35332],[35.36726,33.35615],[35.36946,33.35298],[35.36726,33.34229],[35.36247,33.33628],[35.34515,33.32739],[35.35367,33.31941],[35.34547,33.31908],[35.36289,33.31105],[35.37607,33.31351],[35.38106,33.30806],[35.39782,33.31202],[35.4092,33.30346],[35.41573,33.30496],[35.42929,33.31768],[35.43338,33.31715],[35.43465,33.31031],[35.44121,33.30937]]]}},{"type":"Feature","properties":{"id":"LBN:ADM2:6925839B57733890920365","name":"Marjaayoun","countryCode":"LBN","adminLevel":2,"sourceCode":"6925839B57733890920365","parentId":"LBN:ADM1:LBN-3059"},"geometry":{"type":"Polygon","coordinates":[[[35.51415,33.11842],[35.52479,33.11789],[35.53578,33.13028],[35.53558,33.13648],[35.53138,33.14183],[35.54898,33.19993],[35.54556,33.2326],[35.55532,33.24321],[35.55191,33.2526],[35.56899,33.26892],[35.57094,33.29055],[35.57582,33.29096],[35.589,33.28198],[35.58949,33.26933],[35.6012,33.25668],[35.62365,33.24444],[35.62814,33.24521],[35.62274,33.27714],[35.62873,33.29101],[35.64293,33.30705],[35.64473,33.3134],[35.63673,33.32225],[35.63513,33.33511],[35.64293,33.37502],[35.63713,33.37669],[35.62514,33.37085],[35.62134,33.39538],[35.61034,33.4044],[35.59915,33.39622],[35.59355,33.3837],[35.57336,33.3842],[35.55445,33.37207],[35.5532,33.35668],[35.54664,33.34859],[35.54539,33.33371],[35.54008,33.32458],[35.53977,33.30553],[35.53602,33.29952],[35.49159,33.30614],[35.48034,33.31319],[35.47394,33.31009],[35.46102,33.31383],[35.44963,33.31287],[35.44121,33.30937],[35.44561,33.30569],[35.4428,33.29174],[35.45159,33.28689],[35.44983,33.26985],[35.43068,33.25502],[35.43201,33.23449],[35.44731,33.21986],[35.45574,33.20627],[35.46668,33.2034],[35.48229,33.20497],[35.4901,33.20183],[35.49135,33.17647],[35.48604,33.12522],[35.50791,33.12208],[35.51415,33.11842]]]}},{"type":"Feature","properties":{"id":"LBN:ADM2:6925839B60872420025543","name":"Beirut","countryCode":"LBN","adminLevel":2,"sourceCode":"6925839B60872420025543","parentId":"LBN:ADM1:LBN-3024"},"geometry":{"type":"Polygon","coordinates":[[[35.54428,33.9059],[35.53077,33.88058],[35.52005,33.87485],[35.5119,33.86552],[35.50066,33.87205],[35.48436,33.87112],[35.48169,33.88321],[35.47992,33.88437],[35.47528,33.89158],[35.47449,33.90321],[35.50867,33.90754],[35.51172,33.9047],[35.50309,33.90247],[35.51064,33.90082],[35.51628,33.90332],[35.51734,33.90253],[35.52418,33.90253],[35.53386,33.90705],[35.54198,33.90656],[35.54428,33.9059]]]}},{"type":"Feature","properties":{"id":"LBN:ADM2:6925839B61839988636559","name":"Rachaya","countryCode":"LBN","adminLevel":2,"sourceCode":"6925839B61839988636559","parentId":"LBN:ADM1:LBN-3022"},"geometry":{"type":"Polygon","coordinates":[[[35.79545,33.34964],[35.79806,33.34809],[35.82228,33.36476],[35.82463,33.38987],[35.83361,33.40193],[35.89764,33.43289],[35.92067,33.45341],[35.94644,33.46742],[35.95659,33.47817],[35.95744,33.49984],[35.96051,33.50351],[35.94761,33.51268],[35.94894,33.52793],[35.97133,33.5362],[36.03114,33.54513],[36.06857,33.57982],[36.06882,33.5844],[36.06207,33.59272],[36.04458,33.60584],[36.03584,33.60875],[36.02109,33.62352],[35.99286,33.62976],[35.97911,33.64017],[35.95113,33.63913],[35.94013,33.64495],[35.93988,33.6541],[35.94738,33.66159],[35.95238,33.67553],[35.96912,33.67989],[35.96937,33.68592],[35.96462,33.69174],[35.95363,33.68738],[35.94063,33.68759],[35.92739,33.67927],[35.92539,33.66326],[35.9069,33.64932],[35.87873,33.64104],[35.86082,33.6445],[35.85282,33.63771],[35.84851,33.62293],[35.82548,33.60615],[35.8266,33.60042],[35.80853,33.61228],[35.79477,33.60921],[35.79339,33.6002],[35.78168,33.59565],[35.78597,33.58427],[35.77192,33.57418],[35.77504,33.56377],[35.75591,33.5615],[35.73873,33.55531],[35.72468,33.54588],[35.69734,33.54295],[35.68954,33.53449],[35.69227,33.53156],[35.71023,33.53091],[35.71257,33.52668],[35.71313,33.50265],[35.70883,33.49574],[35.71661,33.49267],[35.72695,33.49915],[35.76047,33.47162],[35.76307,33.45828],[35.75767,33.45011],[35.75807,33.44544],[35.77166,33.43009],[35.77926,33.41274],[35.79086,33.41024],[35.79365,33.4039],[35.78186,33.39238],[35.76967,33.3645],[35.78146,33.35415],[35.79545,33.34964]]]}},{"type":"Feature","properties":{"id":"LBN:ADM2:6925839B63468798885318","name":"Baabda","countryCode":"LBN","adminLevel":2,"sourceCode":"6925839B63468798885318","parentId":"LBN:ADM1:LBN-3025"},"geometry":{"type":"Polygon","coordinates":[[[35.84143,33.88175],[35.82737,33.88649],[35.80165,33.88903],[35.75273,33.87992],[35.72971,33.88515],[35.68192,33.88512],[35.62684,33.87112],[35.60661,33.84335],[35.58277,33.84348],[35.57539,33.84751],[35.56352,33.84841],[35.55633,33.86081],[35.54158,33.86394],[35.53528,33.86917],[35.53129,33.88069],[35.52005,33.87485],[35.5119,33.86552],[35.50066,33.87205],[35.48436,33.87112],[35.4874,33.86004],[35.48639,33.84036],[35.48329,33.84647],[35.48213,33.84342],[35.48721,33.82569],[35.48932,33.82849],[35.50722,33.82732],[35.51405,33.8324],[35.53054,33.82497],[35.52583,33.81342],[35.54208,33.80266],[35.54844,33.80481],[35.55174,33.81694],[35.56964,33.81734],[35.57506,33.82105],[35.57906,33.83045],[35.58377,33.83084],[35.59343,33.82555],[35.642,33.81169],[35.6622,33.81607],[35.67727,33.80618],[35.71572,33.81019],[35.72823,33.79904],[35.74406,33.79942],[35.76622,33.81307],[35.79208,33.81192],[35.79518,33.82276],[35.80326,33.82844],[35.80098,33.8434],[35.81443,33.85217],[35.82561,33.86282],[35.82911,33.87227],[35.84143,33.88175]]]}},{"type":"Feature","properties":{"id":"LBN:ADM2:6925839B64789983329466","name":"Aley","countryCode":"LBN","adminLevel":2,"sourceCode":"6925839B64789983329466","parentId":"LBN:ADM1:LBN-3025"},"geometry":{"type":"Polygon","coordinates":[[[35.79413,33.75307],[35.79996,33.75878],[35.80658,33.77992],[35.81374,33.78664],[35.814,33.79182],[35.7834,33.79457],[35.76972,33.80866],[35.77199,33.81278],[35.76139,33.81144],[35.74406,33.79942],[35.72823,33.79904],[35.71572,33.81019],[35.67727,33.80618],[35.6622,33.81607],[35.642,33.81169],[35.59343,33.82555],[35.58377,33.83084],[35.57906,33.83045],[35.57506,33.82105],[35.56964,33.81734],[35.55174,33.81694],[35.54844,33.80481],[35.54208,33.80266],[35.52583,33.81342],[35.53054,33.82497],[35.5197,33.83103],[35.51405,33.8324],[35.50133,33.82653],[35.48932,33.82849],[35.48013,33.78954],[35.46364,33.76507],[35.46995,33.76185],[35.47284,33.75463],[35.47885,33.75445],[35.49293,33.74585],[35.48796,33.74361],[35.47471,33.74585],[35.46788,33.735],[35.48182,33.72945],[35.47325,33.72508],[35.47308,33.72155],[35.48939,33.71757],[35.49389,33.70456],[35.49721,33.70434],[35.50608,33.71691],[35.51046,33.71823],[35.51324,33.71856],[35.51629,33.71007],[35.52516,33.70952],[35.57061,33.72826],[35.59777,33.72628],[35.60493,33.72903],[35.60691,33.7341],[35.61977,33.73685],[35.64361,33.75162],[35.6558,33.73994],[35.67906,33.73781],[35.6994,33.7579],[35.70814,33.75812],[35.72099,33.74864],[35.74749,33.74677],[35.77198,33.73812],[35.79413,33.75307]]]}},{"type":"Feature","properties":{"id":"LBN:ADM2:6925839B71215768953802","name":"Kesrouan","countryCode":"LBN","adminLevel":2,"sourceCode":"6925839B71215768953802","parentId":"LBN:ADM1:LBN-3025"},"geometry":{"type":"Polygon","coordinates":[[[35.64392,34.05921],[35.64392,34.07187],[35.64823,34.07068],[35.64931,34.06308],[35.65669,34.06413],[35.65848,34.07187],[35.69553,34.08677],[35.73294,34.07709],[35.79157,34.08305],[35.79517,34.07902],[35.79427,34.0753],[35.78546,34.0686],[35.78348,34.05906],[35.79265,34.05593],[35.79463,34.04341],[35.79481,34.04833],[35.79859,34.04967],[35.81262,34.04997],[35.82485,34.05459],[35.85362,34.05459],[35.86172,34.06144],[35.86783,34.06234],[35.88276,34.05817],[35.90758,34.06368],[35.91154,34.05891],[35.91909,34.05936],[35.94103,34.07485],[35.95002,34.07366],[35.95344,34.06368],[35.95974,34.05861],[35.96423,34.04267],[35.94299,34.0152],[35.92416,34.0103],[35.9132,34.00052],[35.90589,33.98701],[35.90308,33.9686],[35.8805,33.95197],[35.83985,33.9686],[35.83002,33.97862],[35.8081,33.98305],[35.79995,33.98095],[35.80613,33.97442],[35.80304,33.97139],[35.78023,33.9688],[35.77669,33.95909],[35.74216,33.96255],[35.6833,33.9453],[35.61406,33.94873],[35.60759,33.95738],[35.59715,33.95843],[35.60201,33.9635],[35.60417,33.97215],[35.61586,33.98483],[35.63564,33.98632],[35.64284,33.99854],[35.64464,34.01032],[35.63762,34.01539],[35.6304,34.01609],[35.63038,34.0161],[35.62721,34.01984],[35.62701,34.03934],[35.64392,34.05921]]]}},{"type":"Feature","properties":{"id":"LBN:ADM2:6925839B71643877987616","name":"Minieh-Dinnieh","countryCode":"LBN","adminLevel":2,"sourceCode":"6925839B71643877987616","parentId":"LBN:ADM1:LBN-3023"},"geometry":{"type":"Polygon","coordinates":[[[35.86496,34.43559],[35.87153,34.43567],[35.87494,34.44373],[35.89024,34.45416],[35.89544,34.44987],[35.91748,34.44725],[35.92672,34.4505],[35.92471,34.45626],[35.94006,34.4551],[35.93432,34.45216],[35.93926,34.43443],[35.94105,34.43688],[35.94542,34.43484],[35.94919,34.44016],[35.95752,34.44048],[35.95097,34.44629],[35.95524,34.45448],[35.97737,34.45153],[35.98006,34.44475],[35.97479,34.43925],[35.97928,34.43541],[35.97479,34.43465],[35.97572,34.42825],[35.96533,34.42288],[35.94812,34.42109],[35.95153,34.41495],[35.94424,34.40702],[35.9537,34.39973],[35.93649,34.3863],[35.92672,34.39372],[35.92471,34.38681],[35.92145,34.38809],[35.92409,34.3767],[35.92099,34.37632],[35.92982,34.36569],[35.92696,34.35795],[35.93629,34.35009],[35.94244,34.35042],[35.95494,34.3351],[35.96285,34.33305],[35.98579,34.31807],[35.99243,34.31733],[36.0131,34.29502],[36.01641,34.2932],[36.02495,34.29616],[36.0344,34.27982],[36.04881,34.28062],[36.06469,34.27304],[36.08334,34.28391],[36.09712,34.2826],[36.1092,34.28726],[36.11473,34.29211],[36.11383,34.29939],[36.1171,34.30732],[36.12713,34.30437],[36.13013,34.31122],[36.13972,34.30185],[36.16431,34.33998],[36.1821,34.34654],[36.18589,34.36498],[36.18286,34.3881],[36.16944,34.39125],[36.15709,34.39964],[36.13117,34.43881],[36.12148,34.446],[36.08756,34.44301],[36.05316,34.4464],[36.04492,34.44201],[36.02918,34.44361],[36.01658,34.43981],[35.99163,34.44301],[35.99187,34.45519],[35.98581,34.48196],[35.98945,34.48715],[35.98775,34.49493],[35.98412,34.49933],[35.97297,34.49493],[35.9645,34.49793],[35.96062,34.50851],[35.95626,34.5115],[35.94502,34.50738],[35.9399,34.49907],[35.90672,34.46904],[35.86112,34.45564],[35.86496,34.43559]]]}},{"type":"Feature","properties":{"id":"LBN:ADM2:6925839B71735997192739","name":"Jbail","countryCode":"LBN","adminLevel":2,"sourceCode":"6925839B71735997192739","parentId":"LBN:ADM1:LBN-3025"},"geometry":{"type":"Polygon","coordinates":[[[35.63266,34.15104],[35.63506,34.16062],[35.63004,34.17073],[35.63506,34.17994],[35.63455,34.19506],[35.65117,34.20985],[35.68177,34.2117],[35.69225,34.19795],[35.72018,34.19449],[35.73346,34.18501],[35.7586,34.18605],[35.77372,34.19514],[35.78543,34.19507],[35.79428,34.18582],[35.80331,34.1839],[35.81153,34.18457],[35.81359,34.19492],[35.82414,34.19034],[35.83737,34.19241],[35.86141,34.18012],[35.86883,34.17218],[35.87232,34.1617],[35.88171,34.15484],[35.89655,34.15339],[35.93022,34.15727],[35.94786,34.16775],[36.01168,34.14926],[36.0169,34.13507],[36.01665,34.12603],[36.00634,34.10895],[36.00525,34.09485],[35.9867,34.08545],[35.97447,34.05019],[35.96989,34.0444],[35.96423,34.04314],[35.95974,34.05861],[35.95344,34.06368],[35.95002,34.07366],[35.94427,34.0756],[35.91909,34.05936],[35.91154,34.05891],[35.90758,34.06368],[35.88276,34.05817],[35.86783,34.06234],[35.86172,34.06144],[35.85362,34.05459],[35.82485,34.05459],[35.81262,34.04997],[35.79859,34.04967],[35.79481,34.04833],[35.79463,34.04341],[35.79265,34.05593],[35.78348,34.05906],[35.78546,34.0686],[35.79427,34.0753],[35.79517,34.07902],[35.79157,34.08305],[35.73294,34.07709],[35.69553,34.08677],[35.65848,34.07187],[35.65669,34.06413],[35.64931,34.06308],[35.64823,34.07068],[35.64392,34.07187],[35.65143,34.08093],[35.65317,34.10623],[35.64544,34.12753],[35.64454,34.13085],[35.64384,34.13193],[35.64313,34.13388],[35.64215,34.13456],[35.63193,34.15041],[35.63266,34.15104]]]}},{"type":"Feature","properties":{"id":"LBN:ADM2:6925839B74004510975279","name":"West Bekaa","countryCode":"LBN","adminLevel":2,"sourceCode":"6925839B74004510975279","parentId":"LBN:ADM1:LBN-3022"},"geometry":{"type":"Polygon","coordinates":[[[35.74848,33.48246],[35.72695,33.49915],[35.71661,33.49267],[35.70883,33.49574],[35.71313,33.50265],[35.71257,33.52668],[35.70672,33.53188],[35.69227,33.53156],[35.68954,33.53449],[35.69734,33.54295],[35.72468,33.54588],[35.73873,33.55531],[35.75591,33.5615],[35.77504,33.56377],[35.77192,33.57418],[35.78597,33.58427],[35.78168,33.59565],[35.79339,33.6002],[35.79477,33.60921],[35.80853,33.61228],[35.8266,33.60042],[35.82548,33.60615],[35.84851,33.62293],[35.85282,33.63771],[35.86082,33.6445],[35.87873,33.64104],[35.9069,33.64932],[35.92539,33.66326],[35.92739,33.67927],[35.94474,33.68863],[35.93892,33.69517],[35.91627,33.70801],[35.90598,33.70744],[35.89259,33.70088],[35.87852,33.71315],[35.8799,33.72485],[35.88573,33.73028],[35.89465,33.73199],[35.90906,33.74426],[35.90384,33.76304],[35.89504,33.76597],[35.8968,33.7782],[35.88801,33.77886],[35.86706,33.7665],[35.85586,33.74908],[35.83283,33.73419],[35.82868,33.71051],[35.81812,33.74469],[35.8146,33.75227],[35.81077,33.75307],[35.80485,33.74975],[35.79413,33.75307],[35.77494,33.74084],[35.75575,33.72248],[35.74136,33.7278],[35.73976,33.72315],[35.75008,33.708],[35.75182,33.71243],[35.76164,33.7092],[35.75898,33.70179],[35.74813,33.70417],[35.74046,33.69558],[35.73526,33.69312],[35.7288,33.69511],[35.70547,33.68026],[35.70533,33.6709],[35.71263,33.65978],[35.70757,33.65815],[35.70153,33.66903],[35.69005,33.6474],[35.67511,33.62949],[35.67204,33.61412],[35.65842,33.58687],[35.65623,33.56638],[35.63758,33.52994],[35.63575,33.50616],[35.62663,33.49362],[35.6251,33.47272],[35.61918,33.46045],[35.61502,33.4367],[35.61758,33.43349],[35.62078,33.43483],[35.62814,33.45098],[35.63213,33.45218],[35.63901,33.44631],[35.63373,33.43723],[35.63593,33.42847],[35.65272,33.43827],[35.65792,33.42742],[35.66472,33.42692],[35.67211,33.4406],[35.68711,33.45178],[35.68831,33.46245],[35.6933,33.46845],[35.6963,33.46929],[35.7033,33.46295],[35.74848,33.48246]]]}},{"type":"Feature","properties":{"id":"LBN:ADM2:6925839B74640193916916","name":"Bent Jbail","countryCode":"LBN","adminLevel":2,"sourceCode":"6925839B74640193916916","parentId":"LBN:ADM1:LBN-3059"},"geometry":{"type":"Polygon","coordinates":[[[35.30717,33.10983],[35.30674,33.10157],[35.31275,33.10013],[35.31875,33.10444],[35.32819,33.09941],[35.3299,33.09438],[35.32519,33.08468],[35.33419,33.07605],[35.35435,33.0588],[35.36636,33.05592],[35.38224,33.05628],[35.39425,33.06239],[35.43414,33.06419],[35.4513,33.09223],[35.50847,33.09247],[35.50603,33.11005],[35.50853,33.1158],[35.51415,33.11842],[35.50791,33.12208],[35.48604,33.12522],[35.49135,33.17647],[35.4901,33.20183],[35.48229,33.20497],[35.46668,33.2034],[35.45574,33.20627],[35.44731,33.21986],[35.43201,33.23449],[35.43068,33.25502],[35.44983,33.26985],[35.45159,33.28689],[35.4428,33.29174],[35.44561,33.30569],[35.43999,33.31039],[35.43314,33.31009],[35.41684,33.29493],[35.41794,33.28667],[35.43441,33.28529],[35.43249,33.27428],[35.42673,33.26969],[35.42233,33.27244],[35.42206,33.26395],[35.41547,33.25936],[35.41959,33.24903],[35.41767,33.24168],[35.40916,33.24168],[35.39845,33.24857],[35.39323,33.24398],[35.39049,33.23043],[35.38719,33.22767],[35.36825,33.22607],[35.36413,33.22239],[35.36379,33.21648],[35.38095,33.20894],[35.37194,33.20643],[35.36508,33.19889],[35.35435,33.19746],[35.34964,33.20105],[35.34749,33.19782],[35.3535,33.19064],[35.35264,33.18669],[35.3372,33.17376],[35.3209,33.17879],[35.31875,33.177],[35.31832,33.17376],[35.3269,33.1673],[35.32562,33.16407],[35.31661,33.16084],[35.30803,33.14504],[35.30545,33.12492],[35.31103,33.11271],[35.30717,33.10983]]]}},{"type":"Feature","properties":{"id":"LBN:ADM2:6925839B77249045158285","name":"Sour","countryCode":"LBN","adminLevel":2,"sourceCode":"6925839B77249045158285","parentId":"LBN:ADM1:LBN-3060"},"geometry":{"type":"Polygon","coordinates":[[[35.43465,33.31031],[35.43338,33.31715],[35.42929,33.31768],[35.41573,33.30496],[35.4092,33.30346],[35.39782,33.31202],[35.38106,33.30806],[35.37607,33.31351],[35.36289,33.31105],[35.34547,33.31908],[35.35367,33.31941],[35.34287,33.3286],[35.33728,33.32893],[35.32508,33.32292],[35.30389,33.32559],[35.2919,33.32259],[35.26791,33.32609],[35.25072,33.34797],[35.24872,33.33261],[35.22753,33.30855],[35.21674,33.27981],[35.21274,33.27597],[35.1967,33.27694],[35.19657,33.27095],[35.20796,33.2687],[35.21589,33.25854],[35.21627,33.25319],[35.21634,33.22732],[35.20934,33.20291],[35.20314,33.19889],[35.19875,33.18283],[35.18715,33.16761],[35.17456,33.16409],[35.16776,33.15723],[35.15495,33.13228],[35.11591,33.11083],[35.11185,33.09435],[35.15371,33.09356],[35.15839,33.08859],[35.18213,33.09461],[35.19962,33.0878],[35.20837,33.08859],[35.21243,33.09801],[35.21899,33.09958],[35.22961,33.09932],[35.24491,33.09382],[35.30646,33.10804],[35.31103,33.11271],[35.30545,33.12492],[35.30803,33.14504],[35.31661,33.16084],[35.32562,33.16407],[35.3269,33.1673],[35.31832,33.17376],[35.31875,33.177],[35.3209,33.17879],[35.3372,33.17376],[35.35264,33.18669],[35.3535,33.19064],[35.34749,33.19782],[35.34964,33.20105],[35.35435,33.19746],[35.36508,33.19889],[35.37194,33.20643],[35.38095,33.20894],[35.36379,33.21648],[35.36413,33.22239],[35.36825,33.22607],[35.38719,33.22767],[35.39049,33.23043],[35.39323,33.24398],[35.39845,33.24857],[35.40916,33.24168],[35.41767,33.24168],[35.41959,33.24903],[35.41547,33.25936],[35.42206,33.26395],[35.42233,33.27244],[35.42673,33.26969],[35.43249,33.27428],[35.43441,33.28529],[35.41794,33.28667],[35.41684,33.29493],[35.43465,33.31031]]]}},{"type":"Feature","properties":{"id":"LBN:ADM2:6925839B79875972026239","name":"Hermel","countryCode":"LBN","adminLevel":2,"sourceCode":"6925839B79875972026239","parentId":"LBN:ADM1:LBN-3022"},"geometry":{"type":"Polygon","coordinates":[[[36.1381,34.28747],[36.15359,34.28789],[36.16604,34.27005],[36.18052,34.2669],[36.23386,34.26543],[36.26417,34.27101],[36.27507,34.26496],[36.28206,34.2659],[36.29523,34.26013],[36.30839,34.2741],[36.30888,34.27934],[36.30043,34.28162],[36.30888,34.28512],[36.30287,34.28726],[36.32156,34.28847],[36.31978,34.28471],[36.33827,34.27656],[36.34182,34.26984],[36.34817,34.26837],[36.3673,34.30435],[36.36749,34.33124],[36.37248,34.35079],[36.3932,34.35522],[36.41651,34.3653],[36.435,34.39781],[36.45472,34.40864],[36.47662,34.42798],[36.48692,34.44721],[36.49675,34.44858],[36.4945,34.45297],[36.5035,34.45804],[36.50281,34.46253],[36.48698,34.45747],[36.4646,34.46281],[36.44,34.50199],[36.42871,34.49803],[36.40781,34.49894],[36.40522,34.50153],[36.38821,34.49742],[36.38229,34.50291],[36.37581,34.49925],[36.37304,34.50352],[36.36083,34.50352],[36.34767,34.50923],[36.3375,34.50405],[36.33408,34.52012],[36.32969,34.522],[36.32173,34.51477],[36.31148,34.51249],[36.30254,34.49681],[36.29458,34.4948],[36.27994,34.47287],[36.26031,34.45943],[36.24301,34.45806],[36.24069,34.45312],[36.24268,34.43776],[36.24867,34.43145],[36.24501,34.42047],[36.23703,34.41773],[36.23204,34.42514],[36.22339,34.41828],[36.21274,34.42047],[36.18014,34.41279],[36.15851,34.4202],[36.14339,34.42027],[36.15709,34.39964],[36.16944,34.39125],[36.18286,34.3881],[36.18589,34.36498],[36.1821,34.34654],[36.16431,34.33998],[36.14917,34.31372],[36.14311,34.30903],[36.14072,34.29898],[36.13737,34.29767],[36.1381,34.28747]]]}},{"type":"Feature","properties":{"id":"LBN:ADM2:6925839B87816606095601","name":"Hasbaya","countryCode":"LBN","adminLevel":2,"sourceCode":"6925839B87816606095601","parentId":"LBN:ADM1:LBN-3059"},"geometry":{"type":"Polygon","coordinates":[[[35.62814,33.24521],[35.6822,33.25513],[35.70062,33.26819],[35.72592,33.29482],[35.73811,33.31336],[35.76087,33.32025],[35.76807,33.33261],[35.78626,33.33862],[35.79825,33.34797],[35.78146,33.35415],[35.76967,33.3645],[35.78186,33.39238],[35.79365,33.4039],[35.79325,33.4079],[35.77926,33.41274],[35.77166,33.43009],[35.75807,33.44544],[35.75767,33.45011],[35.76307,33.45828],[35.76047,33.47162],[35.74848,33.48246],[35.7033,33.46295],[35.6963,33.46929],[35.6933,33.46845],[35.68831,33.46245],[35.68711,33.45178],[35.67211,33.4406],[35.66472,33.42692],[35.65792,33.42742],[35.65272,33.43827],[35.63322,33.42629],[35.62888,33.42191],[35.62863,33.4159],[35.6179,33.41651],[35.61275,33.41255],[35.61034,33.4044],[35.62134,33.39538],[35.62514,33.37085],[35.63713,33.37669],[35.64293,33.37502],[35.63513,33.33511],[35.63673,33.32225],[35.64473,33.3134],[35.64293,33.30705],[35.62873,33.29101],[35.62274,33.27714],[35.62814,33.24521]]]}},{"type":"Feature","properties":{"id":"LBN:ADM2:6925839B96562179351486","name":"Batroun","countryCode":"LBN","adminLevel":2,"sourceCode":"6925839B96562179351486","parentId":"LBN:ADM1:LBN-3023"},"geometry":{"type":"Polygon","coordinates":[[[36.01684,34.13533],[36.03416,34.16313],[36.00753,34.16895],[36.01864,34.17171],[36.0242,34.18141],[36.01103,34.19282],[35.99868,34.19469],[35.99333,34.20882],[35.98881,34.21256],[35.96617,34.21137],[35.95198,34.21987],[35.93469,34.22005],[35.92173,34.21409],[35.91371,34.21528],[35.91083,34.22957],[35.90321,34.23961],[35.88511,34.23876],[35.87358,34.24709],[35.85181,34.25123],[35.83693,34.25003],[35.8242,34.26308],[35.81597,34.26325],[35.81391,34.251],[35.80445,34.24709],[35.78758,34.24913],[35.77132,34.26053],[35.73471,34.26716],[35.72736,34.28474],[35.71987,34.29093],[35.71268,34.29205],[35.70881,34.29922],[35.725,34.30999],[35.73699,34.3077],[35.74046,34.31833],[35.75116,34.31459],[35.76412,34.32054],[35.75322,34.32835],[35.74634,34.34044],[35.73132,34.33815],[35.7225,34.32674],[35.72039,34.31608],[35.70709,34.30444],[35.69248,34.31292],[35.68418,34.31271],[35.67272,34.3052],[35.67088,34.2941],[35.667,34.28943],[35.65445,34.2811],[35.66001,34.24403],[35.64915,34.20892],[35.68177,34.2117],[35.69225,34.19795],[35.72018,34.19449],[35.73346,34.18501],[35.7586,34.18605],[35.77372,34.19514],[35.78543,34.19507],[35.79428,34.18582],[35.80331,34.1839],[35.81153,34.18457],[35.81359,34.19492],[35.82414,34.19034],[35.83737,34.19241],[35.86141,34.18012],[35.86883,34.17218],[35.87232,34.1617],[35.88171,34.15484],[35.89655,34.15339],[35.93022,34.15727],[35.94786,34.16775],[36.01168,34.14926],[36.01684,34.13533]]]}},{"type":"Feature","properties":{"id":"LBN:ADM2:6925839B96972958912663","name":"Baalbek","countryCode":"LBN","adminLevel":2,"sourceCode":"6925839B96972958912663","parentId":"LBN:ADM1:LBN-3022"},"geometry":{"type":"Polygon","coordinates":[[[36.07339,33.82258],[36.08905,33.81363],[36.09772,33.81483],[36.11043,33.8194],[36.11737,33.82972],[36.11419,33.83356],[36.13818,33.83236],[36.14714,33.84412],[36.16332,33.84653],[36.1665,33.84532],[36.16795,33.83524],[36.1746,33.83164],[36.19252,33.82876],[36.19974,33.8326],[36.22662,33.83188],[36.23847,33.83452],[36.24136,33.84605],[36.25205,33.85805],[36.26651,33.85253],[36.28009,33.85253],[36.28327,33.84268],[36.30148,33.83212],[36.31997,33.83116],[36.32836,33.835],[36.34808,33.82934],[36.39491,33.83165],[36.39333,33.84814],[36.38737,33.85736],[36.35324,33.8722],[36.33181,33.8745],[36.32307,33.88208],[36.27783,33.90317],[36.31712,33.95816],[36.34332,33.97594],[36.35641,33.97923],[36.36951,33.99009],[36.37388,34.00293],[36.38618,34.01214],[36.39095,34.0276],[36.40762,34.0276],[36.40523,34.04207],[36.41754,34.04273],[36.42786,34.05391],[36.45723,34.04174],[36.48223,34.03911],[36.48858,34.04865],[36.50168,34.04996],[36.50208,34.06213],[36.51319,34.07265],[36.51438,34.07824],[36.50962,34.08679],[36.51096,34.09941],[36.51746,34.1021],[36.5238,34.11152],[36.54218,34.127],[36.56665,34.1342],[36.5731,34.14591],[36.56873,34.15168],[36.57258,34.15702],[36.58205,34.16038],[36.589,34.16958],[36.59138,34.17878],[36.60051,34.18338],[36.60686,34.1929],[36.62155,34.19552],[36.61837,34.2057],[36.60607,34.21653],[36.58746,34.22344],[36.5834,34.23499],[36.58365,34.25116],[36.57476,34.27425],[36.59991,34.28873],[36.57951,34.29517],[36.57142,34.30258],[36.55842,34.30783],[36.55668,34.31022],[36.56159,34.32931],[36.54859,34.33695],[36.52989,34.36911],[36.54044,34.37965],[36.55098,34.38514],[36.56091,34.39702],[36.55523,34.4186],[36.55014,34.42378],[36.54221,34.42173],[36.53629,34.42583],[36.53179,34.42495],[36.53392,34.42983],[36.52966,34.43306],[36.52421,34.42681],[36.52066,34.4354],[36.51723,34.43667],[36.51522,34.43325],[36.51249,34.44116],[36.5093,34.43921],[36.51273,34.44409],[36.5087,34.44819],[36.48692,34.44721],[36.47662,34.42798],[36.45472,34.40864],[36.435,34.39781],[36.41651,34.3653],[36.3932,34.35522],[36.37248,34.35079],[36.36749,34.33124],[36.3673,34.30435],[36.34817,34.26837],[36.34182,34.26984],[36.33827,34.27656],[36.31978,34.28471],[36.32156,34.28847],[36.30287,34.28726],[36.30888,34.28512],[36.30043,34.28162],[36.30888,34.27934],[36.30839,34.2741],[36.29523,34.26013],[36.28206,34.2659],[36.27507,34.26496],[36.26417,34.27101],[36.23386,34.26543],[36.18052,34.2669],[36.16604,34.27005],[36.15359,34.28789],[36.1381,34.28747],[36.13013,34.28455],[36.12219,34.27377],[36.11108,34.26954],[36.09503,34.24957],[36.08709,34.24563],[36.0818,34.23498],[36.06081,34.21223],[36.04405,34.20377],[36.01864,34.17171],[36.00753,34.16895],[36.03416,34.16313],[36.01684,34.13533],[36.01665,34.12603],[36.00634,34.10895],[36.00525,34.09485],[35.98954,34.0887],[35.96989,34.0444],[35.96423,34.04314],[35.94299,34.0152],[35.92416,34.0103],[35.9132,34.00052],[35.90589,33.98701],[35.90308,33.9686],[35.8805,33.95197],[35.89157,33.94145],[35.90875,33.93607],[35.91857,33.93637],[35.92002,33.92349],[35.92271,33.9216],[35.9459,33.91283],[35.95687,33.91868],[35.96536,33.91438],[35.98627,33.89256],[35.98378,33.88294],[35.9962,33.87692],[35.99993,33.86231],[36.02022,33.87744],[36.03802,33.88551],[36.04879,33.87159],[36.06845,33.87159],[36.07777,33.87589],[36.08502,33.86747],[36.09599,33.86953],[36.10034,33.86643],[36.09971,33.863],[36.08771,33.85217],[36.08253,33.836],[36.07339,33.82258]]]}},{"type":"Feature","properties":{"id":"LBN:ADM2:6925839B978992545808","name":"El Metn","countryCode":"LBN","adminLevel":2,"sourceCode":"6925839B978992545808","parentId":"LBN:ADM1:LBN-3025"},"geometry":{"type":"Polygon","coordinates":[[[35.59715,33.95843],[35.60759,33.95738],[35.61406,33.94873],[35.6833,33.9453],[35.74216,33.96255],[35.77669,33.95909],[35.78023,33.9688],[35.80304,33.97139],[35.80613,33.97442],[35.79995,33.98095],[35.8081,33.98305],[35.83002,33.97862],[35.83985,33.9686],[35.88328,33.95109],[35.89157,33.94145],[35.90875,33.93607],[35.8988,33.92231],[35.87707,33.91659],[35.86833,33.92011],[35.85813,33.90648],[35.86303,33.90406],[35.86316,33.89889],[35.84885,33.89328],[35.84739,33.88349],[35.84143,33.88175],[35.82737,33.88649],[35.80165,33.88903],[35.75273,33.87992],[35.72971,33.88515],[35.68192,33.88512],[35.62684,33.87112],[35.60661,33.84335],[35.58277,33.84348],[35.57539,33.84751],[35.56352,33.84841],[35.55633,33.86081],[35.54158,33.86394],[35.53528,33.86917],[35.53077,33.88058],[35.54067,33.90122],[35.55153,33.90495],[35.55068,33.89958],[35.55546,33.89888],[35.57963,33.91008],[35.58722,33.92267],[35.58835,33.93729],[35.59311,33.94477],[35.59343,33.94892],[35.59284,33.94954],[35.59715,33.95843]]]}},{"type":"Feature","properties":{"id":"LBN:ADM2:6925839B99718329093557","name":"Tripoli","countryCode":"LBN","adminLevel":2,"sourceCode":"6925839B99718329093557","parentId":"LBN:ADM1:LBN-3023"},"geometry":{"type":"MultiPolygon","coordinates":[[[[35.80736,34.39403],[35.79837,34.38523],[35.78028,34.37591],[35.77623,34.37609],[35.77136,34.38309],[35.79408,34.39249],[35.80573,34.40239],[35.8085,34.40078],[35.80736,34.39403]]],[[[35.8119,34.45593],[35.82513,34.45157],[35.82513,34.45738],[35.82936,34.45855],[35.8373,34.45477],[35.84224,34.45811],[35.86112,34.45564],[35.86482,34.4328],[35.85388,34.42552],[35.86394,34.40923],[35.87347,34.40573],[35.87357,34.4018],[35.86657,34.39269],[35.84936,34.39154],[35.83273,34.41808],[35.82743,34.41839],[35.81715,34.42731],[35.82358,34.43452],[35.80891,34.45405],[35.8119,34.45593]]]]}}],"admin1":{"type":"FeatureCollection","features":[{"type":"Feature","properties":{"id":"LBN:ADM1:LBN-3022","name":"Beqaa","countryCode":"LBN"},"geometry":{"type":"Polygon","coordinates":[[[35.96912,33.67989],[35.95238,33.67553],[35.94738,33.66159],[35.93988,33.6541],[35.94013,33.64495],[35.95113,33.63913],[35.97911,33.64017],[35.99286,33.62976],[36.02109,33.62352],[36.03584,33.60875],[36.04458,33.60584],[36.06207,33.59272],[36.06882,33.5844],[36.06857,33.57982],[36.03114,33.54513],[35.97133,33.5362],[35.94894,33.52793],[35.94761,33.51268],[35.96051,33.50351],[35.95744,33.49984],[35.95659,33.47817],[35.94644,33.46742],[35.92067,33.45341],[35.89764,33.43289],[35.83361,33.40193],[35.82463,33.38987],[35.82228,33.36476],[35.79806,33.34809],[35.79545,33.34964],[35.78146,33.35415],[35.76967,33.3645],[35.78186,33.39238],[35.79365,33.4039],[35.79086,33.41024],[35.77926,33.41274],[35.77166,33.43009],[35.75807,33.44544],[35.75767,33.45011],[35.76307,33.45828],[35.76047,33.47162],[35.74769,33.48212],[35.7033,33.46295],[35.6963,33.46929],[35.6933,33.46845],[35.68831,33.46245],[35.68711,33.45178],[35.67211,33.4406],[35.66472,33.42692],[35.65792,33.42742],[35.65272,33.43827],[35.63593,33.42847],[35.63373,33.43723],[35.63901,33.44631],[35.63213,33.45218],[35.62814,33.45098],[35.62078,33.43483],[35.61758,33.43349],[35.61502,33.4367],[35.61918,33.46045],[35.6251,33.47272],[35.62663,33.49362],[35.63575,33.50616],[35.63758,33.52994],[35.65623,33.56638],[35.65842,33.58687],[35.67204,33.61412],[35.67511,33.62949],[35.69005,33.6474],[35.70153,33.66903],[35.70757,33.65815],[35.71263,33.65978],[35.70533,33.6709],[35.70547,33.68026],[35.7288,33.69511],[35.73526,33.69312],[35.74046,33.69558],[35.74813,33.70417],[35.75898,33.70179],[35.76164,33.7092],[35.75182,33.71243],[35.75008,33.708],[35.73976,33.72315],[35.74136,33.7278],[35.75575,33.72248],[35.77494,33.74084],[35.79413,33.75307],[35.79996,33.75878],[35.80658,33.77992],[35.81374,33.78664],[35.814,33.79182],[35.7834,33.79457],[35.76972,33.80866],[35.77199,33.81278],[35.79208,33.81192],[35.79518,33.82276],[35.80326,33.82844],[35.80098,33.8434],[35.82561,33.86282],[35.82911,33.87227],[35.84739,33.88349],[35.84885,33.89328],[35.86316,33.89889],[35.86303,33.90406],[35.85813,33.90648],[35.86833,33.92011],[35.87707,33.91659],[35.8988,33.92231],[35.90801,33.93585],[35.90876,33.93607],[35.90875,33.93607],[35.89157,33.94145],[35.8805,33.95197],[35.90308,33.9686],[35.90589,33.98701],[35.9132,34.00052],[35.92416,34.0103],[35.94299,34.0152],[35.96423,34.04314],[35.96989,34.0444],[35.98954,34.0887],[36.00525,34.09485],[36.00634,34.10895],[36.01665,34.12603],[36.01684,34.13533],[36.03416,34.16313],[36.00753,34.16895],[36.01864,34.17171],[36.04405,34.20377],[36.06081,34.21223],[36.0818,34.23498],[36.08709,34.24563],[36.09503,34.24957],[36.11108,34.26954],[36.12219,34.27377],[36.13013,34.28455],[36.1381,34.28747],[36.13737,34.29767],[36.14072,34.29898],[36.14311,34.30903],[36.14917,34.31372],[36.16431,34.33998],[36.1821,34.34654],[36.18589,34.36498],[36.18286,34.3881],[36.16944,34.39125],[36.15709,34.39964],[36.14339,34.42027],[36.15851,34.4202],[36.18014,34.41279],[36.21274,34.42047],[36.22339,34.41828],[36.23204,34.42514],[36.23703,34.41773],[36.24501,34.42047],[36.24867,34.43145],[36.24268,34.43776],[36.24069,34.45312],[36.24301,34.45806],[36.26031,34.45943],[36.27994,34.47287],[36.29458,34.4948],[36.30254,34.49681],[36.31148,34.51249],[36.32173,34.51477],[36.32969,34.522],[36.33408,34.52012],[36.3375,34.50405],[36.34767,34.50923],[36.36083,34.50352],[36.37304,34.50352],[36.37581,34.49925],[36.38229,34.50291],[36.38821,34.49742],[36.40522,34.50153],[36.40781,34.49894],[36.42871,34.49803],[36.44,34.50199],[36.4646,34.46281],[36.48698,34.45747],[36.50281,34.46253],[36.5035,34.45804],[36.4945,34.45297],[36.49675,34.44858],[36.48692,34.44721],[36.5087,34.44819],[36.51273,34.44409],[36.5093,34.43921],[36.51249,34.44116],[36.51522,34.43325],[36.51723,34.43667],[36.52066,34.4354],[36.52421,34.42681],[36.52966,34.43306],[36.53392,34.42983],[36.53179,34.42495],[36.53629,34.42583],[36.54221,34.42173],[36.55014,34.42378],[36.55523,34.4186],[36.56091,34.39702],[36.55098,34.38514],[36.54044,34.37965],[36.52989,34.36911],[36.54859,34.33695],[36.56159,34.32931],[36.55668,34.31022],[36.55842,34.30783],[36.57142,34.30258],[36.57951,34.29517],[36.59991,34.28873],[36.57476,34.27425],[36.58365,34.25116],[36.5834,34.23499],[36.58746,34.22344],[36.60607,34.21653],[36.61837,34.2057],[36.62155,34.19552],[36.60686,34.1929],[36.60051,34.18338],[36.59138,34.17878],[36.589,34.16958],[36.58205,34.16038],[36.57258,34.15702],[36.56873,34.15168],[36.5731,34.14591],[36.56665,34.1342],[36.54218,34.127],[36.5238,34.11152],[36.51746,34.1021],[36.51096,34.09941],[36.50962,34.08679],[36.51438,34.07824],[36.51319,34.07265],[36.50208,34.06213],[36.50168,34.04996],[36.48858,34.04865],[36.48223,34.03911],[36.45723,34.04174],[36.42786,34.05391],[36.41754,34.04273],[36.40523,34.04207],[36.40762,34.0276],[36.39095,34.0276],[36.38618,34.01214],[36.37388,34.00293],[36.36951,33.99009],[36.35641,33.97923],[36.34332,33.97594],[36.31712,33.95816],[36.27783,33.90317],[36.32307,33.88208],[36.33181,33.8745],[36.35324,33.8722],[36.38737,33.85736],[36.39333,33.84814],[36.39491,33.83165],[36.34808,33.82934],[36.32836,33.835],[36.31997,33.83116],[36.30148,33.83212],[36.28327,33.84268],[36.28009,33.85253],[36.26651,33.85253],[36.25205,33.85805],[36.24136,33.84605],[36.23847,33.83452],[36.22662,33.83188],[36.19974,33.8326],[36.19252,33.82876],[36.1746,33.83164],[36.16795,33.83524],[36.1665,33.84532],[36.16332,33.84653],[36.14714,33.84412],[36.13818,33.83236],[36.11419,33.83356],[36.11737,33.82972],[36.11043,33.8194],[36.09772,33.81483],[36.08905,33.81363],[36.07354,33.82249],[36.0639,33.81313],[36.04899,33.78319],[36.0314,33.76667],[36.02229,33.77339],[36.01546,33.77442],[36.01504,33.76771],[35.99473,33.73145],[35.9825,33.73051],[35.97596,33.72058],[35.97767,33.70899],[35.97255,33.6974],[35.97862,33.69329],[35.97571,33.68764],[35.96959,33.68393],[35.96937,33.68592],[35.96912,33.67989]],[[35.80485,33.74975],[35.80713,33.75103],[35.80296,33.75034],[35.80485,33.74975]],[[35.86628,33.76528],[35.86306,33.76344],[35.85586,33.74908],[35.86628,33.76528]],[[35.8968,33.7782],[35.89137,33.77966],[35.88975,33.77873],[35.8968,33.7782]],[[35.94275,33.68756],[35.95363,33.68738],[35.94474,33.68863],[35.94275,33.68756]],[[35.70771,33.531],[35.71257,33.52668],[35.71023,33.53091],[35.70771,33.531]],[[36.08253,33.836],[36.08771,33.85217],[36.07948,33.83153],[36.08253,33.836]],[[36.09971,33.863],[36.10034,33.86643],[36.08771,33.85217],[36.09971,33.863]],[[36.09599,33.86953],[36.09574,33.86948],[36.10034,33.86643],[36.09599,33.86953]],[[35.96536,33.91438],[35.95687,33.91868],[35.96927,33.9103],[35.96536,33.91438]]]}},{"type":"Feature","properties":{"id":"LBN:ADM1:LBN-3023","name":"North","countryCode":"LBN"},"geometry":{"type":"Polygon","coordinates":[[[36.00753,34.16895],[36.03416,34.16313],[36.01684,34.13533],[36.01168,34.14926],[35.94786,34.16775],[35.93022,34.15727],[35.89655,34.15339],[35.88171,34.15484],[35.87232,34.1617],[35.86883,34.17218],[35.86141,34.18012],[35.83737,34.19241],[35.82414,34.19034],[35.81359,34.19492],[35.81153,34.18457],[35.80331,34.1839],[35.79428,34.18582],[35.78543,34.19507],[35.77372,34.19514],[35.7586,34.18605],[35.73346,34.18501],[35.72018,34.19449],[35.69225,34.19795],[35.68177,34.2117],[35.64915,34.20892],[35.66001,34.24403],[35.65445,34.2811],[35.667,34.28943],[35.67088,34.2941],[35.67272,34.3052],[35.68418,34.31271],[35.69248,34.31292],[35.70709,34.30444],[35.72039,34.31608],[35.7225,34.32674],[35.73132,34.33815],[35.7276,34.34364],[35.72975,34.35335],[35.73346,34.36112],[35.73362,34.36114],[35.73369,34.36162],[35.73537,34.36512],[35.73754,34.36531],[35.73709,34.36874],[35.73732,34.36921],[35.74253,34.3772],[35.77133,34.38312],[35.77623,34.37609],[35.77136,34.38309],[35.79408,34.39249],[35.80573,34.40239],[35.80848,34.40079],[35.8085,34.4009],[35.82743,34.41839],[35.81715,34.42731],[35.82358,34.43452],[35.80891,34.45405],[35.8119,34.45593],[35.82513,34.45157],[35.82513,34.45738],[35.82936,34.45855],[35.8373,34.45477],[35.84224,34.45811],[35.86112,34.45564],[35.90672,34.46904],[35.9399,34.49907],[35.94502,34.50738],[35.95626,34.5115],[35.96186,34.51694],[35.97385,34.51649],[35.98339,34.52267],[35.99217,34.55648],[35.98929,34.58239],[35.98959,34.59968],[35.98683,34.6208],[35.98064,34.63849],[35.97609,34.64331],[35.98074,34.64515],[35.98053,34.65005],[35.99121,34.65053],[35.99135,34.64294],[36.0077,34.64584],[36.00658,34.64216],[36.02355,34.63596],[36.02852,34.63041],[36.03432,34.63142],[36.03533,34.62784],[36.04253,34.6305],[36.05153,34.62836],[36.05493,34.63307],[36.06365,34.63644],[36.06515,34.6324],[36.07237,34.63318],[36.07387,34.62904],[36.07919,34.63453],[36.08123,34.63105],[36.09431,34.62926],[36.09895,34.63733],[36.11298,34.63408],[36.12608,34.64215],[36.13795,34.63657],[36.17623,34.6296],[36.17889,34.63458],[36.19754,34.63737],[36.22613,34.627],[36.22831,34.6292],[36.23724,34.62775],[36.23794,34.63265],[36.24498,34.63567],[36.26463,34.62841],[36.27733,34.62873],[36.29229,34.63306],[36.30245,34.64476],[36.30804,34.655],[36.3027,34.66545],[36.3121,34.68383],[36.32099,34.68947],[36.33979,34.69281],[36.34045,34.6894],[36.35595,34.68333],[36.35501,34.67477],[36.35116,34.67186],[36.35137,34.66039],[36.36552,34.64353],[36.38175,34.6342],[36.3931,34.63136],[36.40318,34.63792],[36.4209,34.62721],[36.4526,34.63832],[36.46512,34.63644],[36.4604,34.6343],[36.46268,34.62855],[36.45829,34.62588],[36.46154,34.60875],[36.4523,34.59267],[36.43315,34.59336],[36.4266,34.60543],[36.41536,34.60646],[36.41526,34.61271],[36.40496,34.60843],[36.40444,34.6044],[36.40797,34.60175],[36.39745,34.57451],[36.41193,34.56615],[36.41447,34.55883],[36.40889,34.5515],[36.38958,34.54711],[36.38272,34.53665],[36.37459,34.5356],[36.36164,34.52305],[36.353,34.51949],[36.34767,34.50923],[36.3375,34.50405],[36.33246,34.5228],[36.32173,34.51477],[36.31148,34.51249],[36.30254,34.49681],[36.29458,34.4948],[36.27994,34.47287],[36.26031,34.45943],[36.24301,34.45806],[36.24069,34.45312],[36.24268,34.43776],[36.24867,34.43145],[36.24501,34.42047],[36.23703,34.41773],[36.23204,34.42514],[36.22339,34.41828],[36.21274,34.42047],[36.18014,34.41279],[36.15851,34.4202],[36.14328,34.42083],[36.13117,34.43881],[36.15709,34.39964],[36.16944,34.39125],[36.18286,34.3881],[36.18589,34.36498],[36.1821,34.34654],[36.16431,34.33998],[36.1398,34.30197],[36.14019,34.3016],[36.13737,34.29767],[36.13807,34.28689],[36.13013,34.28455],[36.12219,34.27377],[36.11108,34.26954],[36.09503,34.24957],[36.08709,34.24563],[36.0818,34.23498],[36.06081,34.21223],[36.04405,34.20377],[36.0287,34.18509],[36.02395,34.18178],[36.02235,34.18414],[36.01103,34.19282],[36.0242,34.18141],[36.01864,34.17171],[36.00753,34.16895]],[[35.86444,34.43512],[35.86496,34.43559],[35.86112,34.45564],[35.86444,34.43512]],[[35.8739,34.40177],[35.8747,34.40384],[35.8735,34.40444],[35.87357,34.4018],[35.86657,34.39269],[35.8739,34.40177]],[[35.87044,34.2926],[35.87887,34.28603],[35.87042,34.29557],[35.8599,34.31461],[35.87044,34.2926]],[[35.95291,34.27977],[35.95126,34.28047],[35.95114,34.27848],[35.95291,34.27977]],[[35.95955,34.27581],[35.97075,34.27225],[35.95728,34.27793],[35.95955,34.27581]],[[35.98399,34.26805],[35.98324,34.26914],[35.97825,34.26987],[35.98399,34.26805]],[[35.80734,34.24829],[35.78758,34.24913],[35.80445,34.24709],[35.80734,34.24829]],[[35.81597,34.26325],[35.81209,34.25025],[35.81391,34.251],[35.81597,34.26325]],[[35.82615,34.26156],[35.85382,34.25701],[35.8245,34.26285],[35.82442,34.26285],[35.83693,34.25003],[35.82615,34.26156]],[[35.85525,34.25066],[35.85488,34.25065],[35.85734,34.25018],[35.85525,34.25066]],[[35.87491,34.24613],[35.88511,34.23876],[35.87811,34.24539],[35.87491,34.24613]],[[36.08756,34.44301],[36.11902,34.44578],[36.1176,34.4466],[36.08756,34.44301]]]}},{"type":"Feature","properties":{"id":"LBN:ADM1:LBN-3024","name":"Beirut","countryCode":"LBN"},"geometry":{"type":"Polygon","coordinates":[[[35.54428,33.9059],[35.53077,33.88058],[35.52005,33.87485],[35.5119,33.86552],[35.50066,33.87205],[35.48436,33.87112],[35.48169,33.88321],[35.47992,33.88437],[35.47528,33.89158],[35.47449,33.90321],[35.50867,33.90754],[35.51172,33.9047],[35.50309,33.90247],[35.51064,33.90082],[35.51628,33.90332],[35.51734,33.90253],[35.52418,33.90253],[35.53386,33.90705],[35.54198,33.90656],[35.54428,33.9059]]]}},{"type":"Feature","properties":{"id":"LBN:ADM1:LBN-3025","name":"Mount Lebanon","countryCode":"LBN"},"geometry":{"type":"Polygon","coordinates":[[[35.74136,33.7278],[35.73976,33.72315],[35.75008,33.708],[35.75182,33.71243],[35.76164,33.7092],[35.75898,33.70179],[35.74813,33.70417],[35.74046,33.69558],[35.73526,33.69312],[35.7288,33.69511],[35.70547,33.68026],[35.70533,33.6709],[35.71263,33.65978],[35.70757,33.65815],[35.70153,33.66903],[35.69005,33.6474],[35.67511,33.62949],[35.67204,33.61412],[35.65842,33.58687],[35.65623,33.56638],[35.63758,33.52994],[35.63449,33.50252],[35.62663,33.49362],[35.6227,33.49646],[35.62142,33.5058],[35.61614,33.50847],[35.62004,33.52567],[35.61779,33.53755],[35.61479,33.54442],[35.60105,33.55275],[35.60105,33.56337],[35.60655,33.57357],[35.6063,33.5794],[35.60355,33.58981],[35.5963,33.59397],[35.58281,33.58939],[35.56756,33.59897],[35.55182,33.59272],[35.54583,33.58585],[35.51859,33.58273],[35.51009,33.57774],[35.47013,33.56885],[35.4583,33.57005],[35.44678,33.57671],[35.44123,33.57248],[35.43013,33.58065],[35.39276,33.59096],[35.39397,33.60906],[35.40328,33.61302],[35.4037,33.64095],[35.40059,33.6487],[35.40246,33.65181],[35.41529,33.65318],[35.41985,33.6568],[35.42148,33.69278],[35.42525,33.69729],[35.43914,33.70082],[35.44385,33.70669],[35.44998,33.74607],[35.46364,33.76507],[35.48013,33.78954],[35.48932,33.82849],[35.48721,33.82569],[35.48213,33.84342],[35.48329,33.84647],[35.48639,33.84036],[35.4874,33.86004],[35.48436,33.87112],[35.50066,33.87205],[35.5119,33.86552],[35.52005,33.87485],[35.53082,33.88045],[35.53077,33.88058],[35.54067,33.90122],[35.55153,33.90495],[35.55068,33.89958],[35.55546,33.89888],[35.57963,33.91008],[35.58722,33.92267],[35.58835,33.93729],[35.59311,33.94477],[35.59343,33.94892],[35.59284,33.94954],[35.59715,33.95843],[35.60201,33.9635],[35.60417,33.97215],[35.61586,33.98483],[35.63564,33.98632],[35.64284,33.99854],[35.64464,34.01032],[35.63762,34.01539],[35.6304,34.01609],[35.63038,34.0161],[35.62721,34.01984],[35.62701,34.03934],[35.64392,34.05921],[35.64392,34.07187],[35.65143,34.08093],[35.65317,34.10623],[35.64544,34.12753],[35.64454,34.13085],[35.64384,34.13193],[35.64313,34.13388],[35.64215,34.13456],[35.63193,34.15041],[35.63266,34.15104],[35.63506,34.16062],[35.63004,34.17073],[35.63506,34.17994],[35.63455,34.19506],[35.65117,34.20985],[35.68177,34.2117],[35.69225,34.19795],[35.72018,34.19449],[35.73346,34.18501],[35.7586,34.18605],[35.77372,34.19514],[35.78543,34.19507],[35.79428,34.18582],[35.80331,34.1839],[35.81153,34.18457],[35.81359,34.19492],[35.82414,34.19034],[35.83737,34.19241],[35.86141,34.18012],[35.86883,34.17218],[35.87232,34.1617],[35.88171,34.15484],[35.89655,34.15339],[35.93022,34.15727],[35.94786,34.16775],[36.01168,34.14926],[36.0169,34.13507],[36.01665,34.12603],[36.00634,34.10895],[36.00525,34.09485],[35.9867,34.08545],[35.97447,34.05019],[35.96989,34.0444],[35.96423,34.04314],[35.95974,34.05861],[35.96423,34.04267],[35.94299,34.0152],[35.92416,34.0103],[35.9132,34.00052],[35.90589,33.98701],[35.90308,33.9686],[35.88071,33.95213],[35.88328,33.95109],[35.89157,33.94145],[35.90875,33.93607],[35.8988,33.92231],[35.87707,33.91659],[35.86833,33.92011],[35.85813,33.90648],[35.86303,33.90406],[35.86316,33.89889],[35.84885,33.89328],[35.84739,33.88349],[35.84143,33.88175],[35.82911,33.87227],[35.82561,33.86282],[35.81443,33.85217],[35.80098,33.8434],[35.80326,33.82844],[35.79518,33.82276],[35.79208,33.81192],[35.76622,33.81307],[35.76414,33.81179],[35.77199,33.81278],[35.76972,33.80866],[35.7834,33.79457],[35.814,33.79182],[35.81374,33.78664],[35.80658,33.77992],[35.79996,33.75878],[35.79413,33.75307],[35.77198,33.73812],[35.75575,33.72248],[35.74136,33.7278]],[[35.50133,33.82653],[35.50356,33.82756],[35.48932,33.82849],[35.50133,33.82653]],[[35.50608,33.71691],[35.49866,33.70639],[35.50078,33.70721],[35.50608,33.71691]],[[35.94275,34.07462],[35.95002,34.07366],[35.94427,34.0756],[35.94275,34.07462]]]}},{"type":"Feature","properties":{"id":"LBN:ADM1:LBN-3059","name":"Nabatieh","countryCode":"LBN"},"geometry":{"type":"Polygon","coordinates":[[[35.50603,33.11005],[35.50847,33.09247],[35.4513,33.09223],[35.43414,33.06419],[35.39425,33.06239],[35.38224,33.05628],[35.36636,33.05592],[35.35435,33.0588],[35.33419,33.07605],[35.32519,33.08468],[35.3299,33.09438],[35.32819,33.09941],[35.31875,33.10444],[35.31275,33.10013],[35.30674,33.10157],[35.30717,33.10983],[35.31103,33.11271],[35.30545,33.12492],[35.30803,33.14504],[35.31661,33.16084],[35.32562,33.16407],[35.3269,33.1673],[35.31832,33.17376],[35.31875,33.177],[35.3209,33.17879],[35.3372,33.17376],[35.35264,33.18669],[35.3535,33.19064],[35.34749,33.19782],[35.34964,33.20105],[35.35435,33.19746],[35.36508,33.19889],[35.37194,33.20643],[35.38095,33.20894],[35.36379,33.21648],[35.36413,33.22239],[35.36825,33.22607],[35.38719,33.22767],[35.39049,33.23043],[35.39323,33.24398],[35.39845,33.24857],[35.40916,33.24168],[35.41767,33.24168],[35.41959,33.24903],[35.41547,33.25936],[35.42206,33.26395],[35.42233,33.27244],[35.42673,33.26969],[35.43249,33.27428],[35.43441,33.28529],[35.41794,33.28667],[35.41684,33.29493],[35.43314,33.31009],[35.43547,33.31019],[35.43465,33.31031],[35.43338,33.31715],[35.42929,33.31768],[35.41573,33.30496],[35.4092,33.30346],[35.39782,33.31202],[35.38106,33.30806],[35.37607,33.31351],[35.36289,33.31105],[35.34547,33.31908],[35.35367,33.31941],[35.34515,33.32739],[35.36247,33.33628],[35.36726,33.34229],[35.36946,33.35298],[35.36726,33.35615],[35.35207,33.35332],[35.3405,33.36396],[35.30135,33.36941],[35.32144,33.37027],[35.32412,33.37817],[35.31722,33.38031],[35.31632,33.3833],[35.32655,33.3864],[35.31939,33.39078],[35.32783,33.3959],[35.33116,33.40178],[35.33487,33.3971],[35.34923,33.40232],[35.36985,33.37911],[35.38422,33.37807],[35.3839,33.38354],[35.3761,33.38876],[35.37859,33.39867],[35.40434,33.40385],[35.40924,33.40857],[35.40524,33.41558],[35.39425,33.42358],[35.39305,33.4406],[35.40065,33.45911],[35.42164,33.45344],[35.43243,33.46478],[35.41584,33.47229],[35.41684,33.47963],[35.43143,33.48179],[35.43783,33.4903],[35.44762,33.48246],[35.45842,33.47879],[35.46382,33.48279],[35.46162,33.48913],[35.46701,33.4913],[35.48301,33.47863],[35.49,33.48396],[35.4916,33.4908],[35.52159,33.4998],[35.52439,33.50397],[35.53678,33.50813],[35.53038,33.51347],[35.55569,33.50692],[35.5475,33.49433],[35.54622,33.4859],[35.53305,33.47459],[35.52754,33.46328],[35.54226,33.44872],[35.52727,33.43387],[35.5279,33.42996],[35.53227,33.42422],[35.54664,33.42135],[35.52857,33.38928],[35.52831,33.36888],[35.54213,33.36685],[35.54379,33.35488],[35.5488,33.3522],[35.54857,33.35098],[35.5532,33.35668],[35.55445,33.37207],[35.57336,33.3842],[35.59355,33.3837],[35.59915,33.39622],[35.61034,33.4044],[35.61275,33.41255],[35.6179,33.41651],[35.62863,33.4159],[35.62888,33.42191],[35.63322,33.42629],[35.65272,33.43827],[35.65792,33.42742],[35.66472,33.42692],[35.67211,33.4406],[35.68711,33.45178],[35.68831,33.46245],[35.6933,33.46845],[35.6963,33.46929],[35.7033,33.46295],[35.74848,33.48246],[35.76047,33.47162],[35.76307,33.45828],[35.75767,33.45011],[35.75807,33.44544],[35.77166,33.43009],[35.77926,33.41274],[35.79325,33.4079],[35.79365,33.4039],[35.78186,33.39238],[35.76967,33.3645],[35.78146,33.35415],[35.79825,33.34797],[35.78626,33.33862],[35.76807,33.33261],[35.76087,33.32025],[35.73811,33.31336],[35.72592,33.29482],[35.70062,33.26819],[35.6822,33.25513],[35.62814,33.24521],[35.62365,33.24444],[35.6012,33.25668],[35.58949,33.26933],[35.589,33.28198],[35.57582,33.29096],[35.57094,33.29055],[35.56899,33.26892],[35.55191,33.2526],[35.55532,33.24321],[35.54556,33.2326],[35.54898,33.19993],[35.53138,33.14183],[35.53558,33.13648],[35.53578,33.13028],[35.52479,33.11789],[35.51415,33.11842],[35.50853,33.1158],[35.50603,33.11005]],[[35.44561,33.30569],[35.44121,33.30937],[35.44121,33.30937],[35.44561,33.30569]],[[35.52153,33.30168],[35.51232,33.30453],[35.49159,33.30614],[35.52153,33.30168]]]}},{"type":"Feature","properties":{"id":"LBN:ADM1:LBN-3060","name":"South","countryCode":"LBN"},"geometry":{"type":"Polygon","coordinates":[[[35.35367,33.31941],[35.34547,33.31908],[35.36289,33.31105],[35.37607,33.31351],[35.38106,33.30806],[35.39782,33.31202],[35.4092,33.30346],[35.41573,33.30496],[35.42929,33.31768],[35.43338,33.31715],[35.43465,33.31031],[35.41684,33.29493],[35.41794,33.28667],[35.43441,33.28529],[35.43249,33.27428],[35.42673,33.26969],[35.42233,33.27244],[35.42206,33.26395],[35.41547,33.25936],[35.41959,33.24903],[35.41767,33.24168],[35.40916,33.24168],[35.39845,33.24857],[35.39323,33.24398],[35.39049,33.23043],[35.38719,33.22767],[35.36825,33.22607],[35.36413,33.22239],[35.36379,33.21648],[35.38095,33.20894],[35.37194,33.20643],[35.36508,33.19889],[35.35435,33.19746],[35.34964,33.20105],[35.34749,33.19782],[35.3535,33.19064],[35.35264,33.18669],[35.3372,33.17376],[35.3209,33.17879],[35.31875,33.177],[35.31832,33.17376],[35.3269,33.1673],[35.32562,33.16407],[35.31661,33.16084],[35.30803,33.14504],[35.30545,33.12492],[35.31103,33.11271],[35.30646,33.10804],[35.24491,33.09382],[35.22961,33.09932],[35.21899,33.09958],[35.21243,33.09801],[35.20837,33.08859],[35.19962,33.0878],[35.18213,33.09461],[35.15839,33.08859],[35.15371,33.09356],[35.11185,33.09435],[35.11591,33.11083],[35.15495,33.13228],[35.16776,33.15723],[35.17456,33.16409],[35.18715,33.16761],[35.19875,33.18283],[35.20314,33.19889],[35.20934,33.20291],[35.21634,33.22732],[35.21627,33.25319],[35.21589,33.25854],[35.20796,33.2687],[35.19657,33.27095],[35.1967,33.27694],[35.21274,33.27597],[35.21674,33.27981],[35.22753,33.30855],[35.24872,33.33261],[35.25072,33.34797],[35.26791,33.32609],[35.2518,33.34742],[35.25497,33.38203],[35.26896,33.41019],[35.27171,33.43042],[35.27958,33.44722],[35.2942,33.46462],[35.31944,33.47421],[35.32918,33.49005],[35.36142,33.52067],[35.36866,33.55504],[35.37266,33.56025],[35.37166,33.5692],[35.38066,33.57191],[35.39115,33.59106],[35.39465,33.59085],[35.43013,33.58065],[35.44123,33.57248],[35.44123,33.57246],[35.44279,33.57485],[35.45174,33.57525],[35.4583,33.57005],[35.48037,33.57018],[35.48117,33.57311],[35.51009,33.57774],[35.51859,33.58273],[35.54583,33.58585],[35.55182,33.59272],[35.56756,33.59897],[35.58281,33.58939],[35.5963,33.59397],[35.60355,33.58981],[35.60655,33.57357],[35.60105,33.56337],[35.60105,33.55275],[35.61479,33.54442],[35.61779,33.53755],[35.62004,33.52567],[35.61614,33.50847],[35.62142,33.5058],[35.62798,33.48766],[35.61502,33.4367],[35.61758,33.43349],[35.62078,33.43483],[35.62814,33.45098],[35.63533,33.45138],[35.63901,33.44631],[35.63373,33.43723],[35.63593,33.42847],[35.62888,33.42191],[35.62863,33.4159],[35.6179,33.41651],[35.61275,33.41255],[35.61034,33.4044],[35.59915,33.39622],[35.59355,33.3837],[35.57336,33.3842],[35.55726,33.37598],[35.5532,33.35668],[35.5488,33.3522],[35.54379,33.35488],[35.54213,33.36685],[35.52831,33.36888],[35.52857,33.38928],[35.54664,33.42135],[35.53227,33.42422],[35.5279,33.42996],[35.52727,33.43387],[35.54226,33.44872],[35.52754,33.46328],[35.53305,33.47459],[35.54622,33.4859],[35.5475,33.49433],[35.55569,33.50692],[35.53038,33.51347],[35.53678,33.50813],[35.52439,33.50397],[35.52159,33.4998],[35.50782,33.49753],[35.4916,33.4908],[35.49,33.48396],[35.48301,33.47863],[35.47321,33.48863],[35.46322,33.4913],[35.46382,33.48279],[35.45842,33.47879],[35.44762,33.48246],[35.43783,33.4903],[35.43143,33.48179],[35.41504,33.47813],[35.41584,33.47229],[35.43243,33.46478],[35.42164,33.45344],[35.40065,33.45911],[35.39305,33.4406],[35.39425,33.42358],[35.40524,33.41558],[35.40924,33.40857],[35.40434,33.40385],[35.37859,33.39867],[35.3761,33.38876],[35.3839,33.38354],[35.38422,33.37807],[35.36985,33.37911],[35.34923,33.40232],[35.33487,33.3971],[35.33116,33.40178],[35.32783,33.3959],[35.32016,33.39195],[35.32655,33.3864],[35.31632,33.3833],[35.31722,33.38031],[35.32412,33.37817],[35.32144,33.37027],[35.30135,33.36941],[35.3405,33.36396],[35.35207,33.35332],[35.36726,33.35615],[35.36946,33.35298],[35.36726,33.34229],[35.36247,33.33628],[35.34515,33.32739],[35.34404,33.32761],[35.35367,33.31941]],[[35.2919,33.32259],[35.29277,33.32281],[35.26791,33.32609],[35.2919,33.32259]],[[35.44862,33.55941],[35.44098,33.56785],[35.44088,33.56587],[35.44862,33.55941]]]}}]}}
