{"type":"FeatureCollection","features":[{"type":"Feature","properties":{"id":"LBY:ADM1:10800210B15874653580067","name":"Az Zawiyah","countryCode":"LBY","adminLevel":1,"sourceCode":"10800210B15874653580067","parentId":"LBY:ADM1:10800210B15874653580067"},"geometry":{"type":"Polygon","coordinates":[[[13.07447,32.86636],[13.1032,32.87742],[13.11096,32.78296],[13.07324,32.7157],[12.96927,32.66896],[12.89775,32.56021],[12.82333,32.40699],[12.82974,32.33694],[12.81961,32.2602],[12.736,32.25007],[12.64898,32.23261],[12.49012,32.27281],[12.40155,32.30371],[12.2923,32.29705],[11.86267,32.30756],[12.09759,32.35441],[12.12208,32.40683],[12.28641,32.47419],[12.33716,32.53099],[12.46211,32.6008],[12.50139,32.65708],[12.55492,32.79932],[12.57322,32.81257],[12.72983,32.79857],[12.82439,32.80435],[12.86036,32.81327],[13.07447,32.86636]]]}},{"type":"Feature","properties":{"id":"LBY:ADM1:10800210B20515568933500","name":"Ash Shati'","countryCode":"LBY","adminLevel":1,"sourceCode":"10800210B20515568933500","parentId":"LBY:ADM1:10800210B20515568933500"},"geometry":{"type":"Polygon","coordinates":[[[9.82728,28.61865],[9.77695,28.26758],[9.78987,28.20944],[9.93591,27.86672],[9.93426,27.8274],[9.93127,27.81864],[10.07859,27.74347],[10.27258,27.66705],[10.65757,27.56961],[10.89177,27.5315],[11.02024,27.48933],[11.10685,27.43623],[11.164,27.32588],[11.19418,27.09277],[11.26012,26.74826],[11.32265,26.48782],[11.35892,26.35767],[11.37474,26.21747],[11.74412,26.43616],[12.30987,26.79105],[12.77372,27.1131],[13.01236,27.25035],[13.19054,27.29218],[13.3494,27.26784],[13.62525,27.18981],[13.98316,27.12891],[14.42117,27.17271],[14.48359,27.22061],[14.52483,27.27746],[14.61878,27.33518],[14.84905,27.46047],[14.92129,27.5738],[15.06847,27.63201],[15.35351,27.66384],[15.41656,27.69268],[15.56415,27.74115],[15.79586,27.7212],[15.79659,27.74335],[15.87069,27.91535],[15.89405,27.99628],[15.87886,28.07919],[15.79214,28.15637],[15.72011,28.17502],[15.58967,28.21484],[15.50689,28.21859],[15.38028,28.20696],[15.24933,28.14138],[15.12273,28.12952],[15.01762,28.14485],[14.99384,28.21774],[14.99188,28.2959],[14.9587,28.40772],[14.83975,28.5204],[14.65991,28.622],[14.527,28.71949],[14.46923,28.79889],[14.42251,28.8785],[14.40814,28.9881],[14.4222,29.26436],[14.37032,29.32188],[14.28701,29.40061],[14.1818,29.46657],[14.05168,29.52213],[13.99205,29.55246],[13.9105,29.56755],[13.82472,29.54587],[13.65904,29.42195],[13.51704,29.26674],[13.47022,29.17995],[13.42019,29.10771],[13.35901,29.03513],[13.30103,28.95529],[13.20842,28.84263],[13.10445,28.73931],[12.99293,28.68701],[12.84948,28.60916],[12.79047,28.56324],[12.7576,28.49371],[12.68846,28.43031],[12.58903,28.42697],[12.50159,28.46555],[12.4924,28.54345],[12.431,28.55355],[12.27825,28.56523],[12.15691,28.60973],[12.10958,28.61531],[11.98328,28.64724],[11.95186,28.59505],[11.89791,28.52901],[11.78877,28.55169],[11.72479,28.6103],[11.6233,28.59154],[11.58733,28.59009],[11.49235,28.60332],[11.38755,28.54513],[11.32389,28.5449],[11.19098,28.59298],[11.14488,28.62278],[11.01631,28.64156],[10.95378,28.71458],[10.93828,28.78724],[10.90986,28.84465],[10.8526,28.82739],[10.78025,28.78494],[10.70584,28.73013],[10.44074,28.62458],[10.3749,28.61404],[10.23155,28.68525],[10.13791,28.71727],[9.92284,28.6573],[9.87013,28.63298],[9.82728,28.61865]]]}},{"type":"Feature","properties":{"id":"LBY:ADM1:10800210B23470577588067","name":"Al Jabal al Akhdar","countryCode":"LBY","adminLevel":1,"sourceCode":"10800210B23470577588067","parentId":"LBY:ADM1:10800210B23470577588067"},"geometry":{"type":"Polygon","coordinates":[[[21.98618,32.91309],[21.97998,32.90114],[21.97771,32.83893],[21.96934,32.7564],[21.99404,32.68227],[22.02494,32.62641],[22.03321,32.55261],[22.02029,32.49768],[21.99042,32.42469],[21.97688,32.35131],[21.95931,32.31947],[21.97812,32.23152],[21.9804,32.14393],[22.00437,32.05122],[21.99869,31.88991],[22.00055,31.78834],[21.99125,31.67776],[21.96758,31.62288],[21.96737,31.46121],[21.91776,31.28202],[22.11248,31.11988],[21.79281,31.09301],[21.71716,31.06562],[21.71178,31.28179],[21.68005,31.30556],[21.65442,31.35232],[21.61494,31.4733],[21.61876,31.58872],[21.65959,31.67561],[21.66827,31.77238],[21.66176,31.90632],[21.6321,31.99916],[21.52544,32.07045],[21.46198,32.13163],[21.42684,32.22904],[21.36441,32.32697],[21.33485,32.42882],[21.33186,32.51171],[21.38839,32.57047],[21.46156,32.63346],[21.45805,32.6979],[21.39459,32.76808],[21.38736,32.78056],[21.36772,32.77513],[21.35924,32.77578],[21.35704,32.78034],[21.41481,32.7934],[21.4546,32.81257],[21.4755,32.8286],[21.60865,32.93073],[21.62322,32.93675],[21.67172,32.93989],[21.71632,32.95038],[21.74366,32.93085],[21.78745,32.91596],[21.83611,32.90656],[21.87709,32.90325],[21.87745,32.90322],[21.87783,32.90326],[21.98618,32.91309]]]}},{"type":"Feature","properties":{"id":"LBY:ADM1:10800210B26344076542723","name":"Ghat","countryCode":"LBY","adminLevel":1,"sourceCode":"10800210B26344076542723","parentId":"LBY:ADM1:10800210B26344076542723"},"geometry":{"type":"Polygon","coordinates":[[[11.39954,25.55144],[11.33464,25.6377],[11.30367,25.74922],[11.31606,25.94127],[11.35323,26.08996],[11.37474,26.21747],[11.35892,26.35767],[11.32265,26.48782],[11.26012,26.74826],[11.19418,27.09277],[11.164,27.32588],[11.10685,27.43623],[11.02024,27.48933],[10.89177,27.5315],[10.65757,27.56961],[10.27258,27.66705],[10.07859,27.74347],[9.93127,27.81864],[9.86336,27.61925],[9.84661,27.5993],[9.7939,27.56974],[9.79711,27.54891],[9.8216,27.50569],[9.81364,27.48649],[9.77055,27.44422],[9.75628,27.42303],[9.74305,27.36412],[9.72187,27.30846],[9.72135,27.29188],[9.8061,27.02512],[9.82553,26.92058],[9.83514,26.90099],[9.8461,26.89195],[9.89085,26.86958],[9.90666,26.85748],[9.91059,26.84312],[9.88547,26.73661],[9.88258,26.70178],[9.89405,26.67398],[9.89633,26.65279],[9.85457,26.52438],[9.83576,26.50422],[9.4826,26.35255],[9.47764,26.31555],[9.46886,26.30103],[9.43475,26.27199],[9.41646,26.23225],[9.40251,26.21618],[9.3778,26.16895],[9.40116,26.11339],[9.9695,25.3954],[10.00795,25.33143],[10.02138,25.26802],[10.03203,24.85634],[10.04453,24.82962],[10.19336,24.74994],[10.21217,24.72286],[10.22974,24.62994],[10.24225,24.59511],[10.26033,24.57664],[10.3918,24.47998],[10.41051,24.47329],[10.45019,24.47693],[10.67736,24.55385],[10.69907,24.55612],[10.72067,24.5523],[11.46724,24.32634],[11.48098,24.463],[11.45546,24.5939],[11.33402,24.79678],[11.34001,25.19211],[11.33257,25.38933],[11.39954,25.55144]]]}},{"type":"Feature","properties":{"id":"LBY:ADM1:10800210B2800497533490","name":"Wadi al Hayaa","countryCode":"LBY","adminLevel":1,"sourceCode":"10800210B2800497533490","parentId":"LBY:ADM1:10800210B2800497533490"},"geometry":{"type":"Polygon","coordinates":[[[13.93437,26.24687],[13.93231,26.34816],[13.972,26.46151],[14.08548,26.55753],[14.14625,26.67119],[14.13467,26.72721],[14.08114,26.7824],[14.03762,26.8565],[14.04548,26.98781],[14.02243,27.09039],[13.98316,27.12891],[13.62525,27.18981],[13.3494,27.26784],[13.19054,27.29218],[13.01236,27.25035],[12.77372,27.1131],[12.30987,26.79105],[11.74412,26.43616],[11.37474,26.21747],[11.35323,26.08996],[11.31606,25.94127],[11.30367,25.74922],[11.33464,25.6377],[11.39954,25.55144],[11.59405,25.65197],[11.7742,25.57327],[11.85843,25.54779],[12.0456,25.56304],[12.15991,25.57591],[12.36362,25.73225],[12.50004,25.70797],[12.62489,25.72086],[12.70675,25.77943],[12.96554,25.86139],[13.20543,25.87677],[13.30826,25.94498],[13.41007,26.06001],[13.4819,26.11799],[13.66927,26.1597],[13.93437,26.24687]]]}},{"type":"Feature","properties":{"id":"LBY:ADM1:10800210B28216506156245","name":"Al Butnan","countryCode":"LBY","adminLevel":1,"sourceCode":"10800210B28216506156245","parentId":"LBY:ADM1:10800210B28216506156245"},"geometry":{"type":"Polygon","coordinates":[[[25.15089,31.65648],[25.08842,31.61352],[25.06041,31.57937],[25.02372,31.49441],[24.86125,31.38036],[24.84895,31.34863],[24.84864,31.31204],[24.85856,31.22791],[24.8595,31.14596],[24.88265,31.03909],[24.88957,31.01883],[24.92461,30.95677],[24.93763,30.90576],[24.98124,30.82541],[24.99489,30.7851],[24.98858,30.75058],[24.9736,30.71627],[24.96119,30.67627],[24.95065,30.62123],[24.92037,30.55235],[24.90766,30.49866],[24.88812,30.46434],[24.82973,30.38755],[24.79945,30.36084],[24.77237,30.33102],[24.74612,30.28275],[24.70467,30.2179],[24.68865,30.18276],[24.68834,30.14416],[24.69733,30.12261],[24.72555,30.07837],[24.81164,29.89089],[24.81619,29.86841],[24.81495,29.84857],[24.79821,29.79643],[24.80492,29.7548],[24.85619,29.67948],[24.87066,29.63835],[24.87055,29.61401],[24.86156,29.54156],[24.86384,29.5029],[24.87376,29.46833],[24.95665,29.29268],[24.97432,29.23894],[24.98124,29.18137],[24.98124,28.0967],[24.96089,28.10048],[23.06209,28.13926],[23.05702,30.76996],[22.96886,30.79936],[22.96876,31.00625],[22.95563,31.08066],[22.95656,31.23334],[22.9854,31.40364],[23.07139,31.51219],[23.10529,31.6683],[23.11841,31.848],[23.16875,32.00347],[23.21763,32.12199],[23.25136,32.21673],[23.25136,32.21673],[23.25734,32.21377],[23.26279,32.21237],[23.28541,32.20376],[23.28541,32.20376],[23.28541,32.20376],[23.3025,32.17072],[23.30641,32.1675],[23.31218,32.16275],[23.31218,32.16275],[23.31219,32.16275],[23.31218,32.16275],[23.31039,32.17927],[23.29908,32.22419],[23.31837,32.21784],[23.32695,32.2177],[23.36199,32.21711],[23.36199,32.21711],[23.39396,32.19758],[23.39894,32.19404],[23.40528,32.19066],[23.40528,32.19066],[23.5311,32.18138],[23.61441,32.18251],[23.66969,32.18325],[23.84034,32.14912],[23.89546,32.1299],[23.99871,32.0939],[23.98646,32.08361],[23.97527,32.0742],[23.97287,32.07019],[23.97071,32.0666],[23.97072,32.06659],[23.97877,32.06224],[24.00489,32.05292],[24.02617,32.03882],[24.06788,32.01118],[24.08337,32.0075],[24.09067,32.00576],[24.28093,32.00755],[24.54607,31.99144],[24.5772,31.99953],[24.63624,32.01488],[24.65854,32.02863],[24.66666,32.03125],[24.67026,32.03242],[24.71062,32.02558],[24.7186,32.02753],[24.72266,32.02952],[24.73373,32.03315],[24.74347,32.02788],[24.74586,32.02619],[24.75807,32.01996],[24.75807,32.01996],[24.75807,32.01996],[24.79176,32.00776],[24.80878,32.00527],[24.82439,32.003],[24.86541,31.98933],[24.9817,31.96792],[25.01791,31.94904],[25.03338,31.91633],[25.02443,31.87661],[25.02223,31.85468],[25.02573,31.84617],[25.02955,31.8369],[25.04712,31.82004],[25.06373,31.8041],[25.11375,31.74186],[25.11687,31.73798],[25.12208,31.72085],[25.12435,31.71647],[25.13673,31.69257],[25.14853,31.67475],[25.15626,31.66307],[25.15626,31.66307],[25.15252,31.65982],[25.15089,31.65648],[25.15089,31.65648]]]}},{"type":"Feature","properties":{"id":"LBY:ADM1:10800210B39461050964926","name":"Mizdah","countryCode":"LBY","adminLevel":1,"sourceCode":"10800210B39461050964926","parentId":"LBY:ADM1:10800210B39461050964926"},"geometry":{"type":"Polygon","coordinates":[[[11.95186,28.59505],[11.98328,28.64724],[12.10958,28.61531],[12.15691,28.60973],[12.27825,28.56523],[12.431,28.55355],[12.4924,28.54345],[12.50159,28.46555],[12.58903,28.42697],[12.68846,28.43031],[12.7576,28.49371],[12.79047,28.56324],[12.84948,28.60916],[12.99293,28.68701],[13.10445,28.73931],[13.20842,28.84263],[13.30103,28.95529],[13.35901,29.03513],[13.42019,29.10771],[13.47022,29.17995],[13.51704,29.26674],[13.65904,29.42195],[13.82472,29.54587],[13.9105,29.56755],[13.99205,29.55246],[14.05168,29.52213],[14.1818,29.46657],[14.28701,29.40061],[14.37032,29.32188],[14.4222,29.26436],[14.41982,29.2091],[14.50664,29.23196],[14.63242,29.31268],[14.712,29.35573],[14.75241,29.40534],[14.75944,29.45673],[14.75727,29.53724],[14.73856,29.60768],[14.7366,29.6833],[14.76306,29.73749],[14.82269,29.80937],[14.86558,29.88092],[14.93121,29.94065],[14.97969,30.01711],[14.98237,30.1318],[14.9708,30.25841],[14.95013,30.4092],[14.85866,30.46607],[14.78176,30.49878],[14.56069,30.55054],[14.45166,30.61901],[14.3576,30.65358],[14.21167,30.72105],[14.06594,31.03201],[13.93417,31.24321],[13.9166,31.25982],[13.79816,31.32264],[13.68891,31.43917],[13.63238,31.50828],[13.59992,31.61453],[13.55373,31.70577],[13.48985,31.81356],[13.45265,31.96092],[13.39766,32.05078],[13.39177,32.10982],[13.36325,32.20163],[13.3002,32.27043],[13.2508,32.31738],[13.18961,32.31229],[13.15509,32.29302],[13.0504,32.27948],[12.96286,32.27738],[12.736,32.25007],[12.64898,32.23261],[12.49012,32.27281],[12.40155,32.30371],[12.2923,32.29705],[11.86267,32.30756],[11.86267,32.1886],[11.84003,32.08807],[11.82277,31.96177],[11.83972,31.8549],[11.85554,31.78132],[11.83735,31.68075],[11.8329,31.56205],[11.8452,31.46232],[11.83672,31.33594],[11.85295,31.24737],[11.89502,31.16699],[11.94566,31.08681],[11.96302,31.08089],[11.86732,30.93103],[11.73296,30.76016],[11.65079,30.64635],[11.5986,30.59834],[11.58992,30.54243],[11.61627,30.41334],[11.61214,30.23686],[11.61968,30.03274],[11.64945,29.81061],[11.72986,29.36648],[11.72934,29.08701],[11.8083,28.96831],[11.89739,28.85919],[11.92158,28.776],[11.95186,28.59505]]]}},{"type":"Feature","properties":{"id":"LBY:ADM1:10800210B39782956615971","name":"Ajdabiya","countryCode":"LBY","adminLevel":1,"sourceCode":"10800210B39782956615971","parentId":"LBY:ADM1:10800210B39782956615971"},"geometry":{"type":"Polygon","coordinates":[[[20.15343,31.22843],[20.14764,31.24171],[20.13575,31.25174],[20.13286,31.2607],[20.18919,31.26282],[20.29905,31.23169],[20.34308,31.17489],[20.41749,31.08831],[20.52353,31.02539],[20.59371,31.007],[20.73809,31.01379],[20.93405,31.04614],[21.39748,31.03278],[21.65525,31.04314],[21.79281,31.09301],[22.11248,31.11988],[22.25893,31.14515],[22.45654,30.99276],[22.51184,30.89349],[22.61922,30.82902],[22.68929,30.81693],[22.78985,30.79156],[22.88876,30.793],[22.97372,30.79977],[23.05702,30.76996],[23.06209,28.13926],[24.96089,28.10048],[24.98124,28.0967],[24.98124,27.04924],[24.26181,27.03305],[23.09185,27.01468],[21.92283,27.00763],[20.72311,27.02181],[19.16982,27.01287],[19.17219,28.34742],[19.00425,28.35824],[18.71858,28.43664],[18.49926,28.50208],[18.49988,28.87599],[18.51363,29.16471],[18.57988,29.36916],[18.69925,29.51742],[18.73315,29.66602],[18.71372,29.83342],[18.72643,30.00057],[18.76106,30.19534],[18.78053,30.37592],[18.79416,30.36818],[18.92595,30.29336],[18.96803,30.27774],[19.05681,30.26618],[19.14601,30.26472],[19.16885,30.26698],[19.23976,30.27399],[19.24032,30.27414],[19.33834,30.29876],[19.33855,30.29881],[19.41896,30.33324],[19.45393,30.35316],[19.53053,30.3968],[19.55104,30.40493],[19.56782,30.40757],[19.59604,30.41201],[19.59604,30.41201],[19.59604,30.41201],[19.61638,30.42137],[19.74887,30.51093],[19.91432,30.68293],[19.95818,30.7497],[19.95882,30.75047],[19.98219,30.77863],[19.98219,30.77864],[20.01873,30.80378],[20.03647,30.81908],[20.03647,30.81908],[20.09986,30.935],[20.11686,30.97517],[20.14666,31.04556],[20.14909,31.0638],[20.15235,31.0882],[20.14897,31.16465],[20.14666,31.21678],[20.14165,31.22386],[20.15343,31.22843]]]}},{"type":"Feature","properties":{"id":"LBY:ADM1:10800210B41812565387288","name":"Surt","countryCode":"LBY","adminLevel":1,"sourceCode":"10800210B41812565387288","parentId":"LBY:ADM1:10800210B41812565387288"},"geometry":{"type":"Polygon","coordinates":[[[18.761,30.38422],[18.77911,30.37653],[18.78053,30.37592],[18.78053,30.37592],[18.76106,30.19534],[18.72643,30.00057],[18.71372,29.83342],[18.73315,29.66602],[18.69925,29.51742],[18.57988,29.36916],[18.51363,29.16471],[18.49988,28.87599],[18.49926,28.48462],[18.38465,28.51748],[18.22548,28.55534],[18.08782,28.63962],[17.98209,28.73305],[17.94033,28.87294],[17.89847,28.98479],[17.81362,29.07802],[17.72866,29.16189],[17.68639,29.25498],[17.66541,29.32942],[17.58015,29.39456],[17.50522,29.39449],[17.43029,29.35717],[17.33386,29.28261],[17.23774,29.3103],[17.08808,29.34715],[16.98122,29.4305],[16.85285,29.43929],[16.74588,29.40159],[16.55334,29.39123],[16.43562,29.41841],[16.41856,29.4088],[16.51013,29.53052],[16.53122,29.63295],[16.49866,29.76289],[16.4659,29.92065],[16.30302,30.30944],[16.26984,30.4947],[16.22571,30.68901],[16.11564,31.04927],[16.1146,31.21577],[16.13738,31.26124],[16.35865,31.22712],[16.72804,31.22382],[16.9419,31.1833],[17.16033,31.1188],[17.33058,31.08649],[17.3659,31.08661],[17.3659,31.08661],[17.37951,31.0803],[17.38201,31.07876],[17.4186,31.06217],[17.41863,31.06216],[17.42803,31.05447],[17.44728,31.03872],[17.45777,31.03335],[17.46681,31.02998],[17.46681,31.02997],[17.57677,31.00197],[17.61394,30.9925],[17.69174,30.95966],[17.77605,30.93521],[17.84864,30.92365],[17.85974,30.91512],[17.86166,30.91364],[17.86191,30.91332],[17.88917,30.87792],[17.89603,30.87252],[17.90748,30.86351],[17.92677,30.85517],[17.94696,30.85129],[18.01686,30.83788],[18.14104,30.79728],[18.1753,30.78608],[18.17673,30.78535],[18.20834,30.76923],[18.23525,30.74717],[18.23569,30.74681],[18.24652,30.73581],[18.32423,30.65689],[18.56837,30.50007],[18.60578,30.46307],[18.6233,30.44575],[18.65317,30.42231],[18.69042,30.40494],[18.71925,30.39151],[18.73795,30.38824],[18.761,30.38422]]]}},{"type":"Feature","properties":{"id":"LBY:ADM1:10800210B44488917334986","name":"Al Qubbah","countryCode":"LBY","adminLevel":1,"sourceCode":"10800210B44488917334986","parentId":"LBY:ADM1:10800210B44488917334986"},"geometry":{"type":"Polygon","coordinates":[[[23.2435,32.22061],[23.25136,32.21673],[23.21763,32.12199],[23.16875,32.00347],[23.11841,31.848],[23.10529,31.6683],[23.07139,31.51219],[22.9854,31.40364],[22.95656,31.23334],[22.95563,31.08066],[22.96876,31.00625],[22.96886,30.79936],[22.88876,30.793],[22.78985,30.79156],[22.68929,30.81693],[22.61922,30.82902],[22.51184,30.89349],[22.45654,30.99276],[22.25893,31.14515],[22.11248,31.11988],[21.91776,31.28202],[21.96737,31.46121],[21.96758,31.62288],[21.99125,31.67776],[22.00055,31.78834],[21.99869,31.88991],[22.00437,32.05122],[21.9804,32.14393],[21.97812,32.23152],[21.95931,32.31947],[21.97688,32.35131],[21.99042,32.42469],[22.02029,32.49768],[22.03321,32.55261],[22.02494,32.62641],[21.99404,32.68227],[21.96934,32.7564],[21.97771,32.83893],[21.97998,32.90114],[21.98618,32.91309],[22.0962,32.92308],[22.0962,32.92308],[22.10133,32.92642],[22.10682,32.93399],[22.11671,32.94416],[22.11671,32.94416],[22.11672,32.94416],[22.14958,32.94794],[22.14959,32.94794],[22.14959,32.94794],[22.16944,32.93822],[22.16944,32.93822],[22.16945,32.93821],[22.17107,32.93185],[22.17107,32.92626],[22.17506,32.91625],[22.18943,32.90351],[22.2068,32.88813],[22.21262,32.88708],[22.24733,32.88085],[22.29192,32.88147],[22.33961,32.88215],[22.35954,32.8762],[22.37916,32.87035],[22.47409,32.80915],[22.47731,32.80707],[22.47731,32.80707],[22.47731,32.80707],[22.49676,32.79731],[22.51384,32.79096],[22.53224,32.78754],[22.57887,32.78461],[22.79204,32.72978],[22.81251,32.72451],[22.83946,32.70942],[22.86671,32.69416],[22.88453,32.68977],[22.89584,32.68818],[22.89584,32.68818],[22.91641,32.6811],[22.92921,32.6767],[22.94264,32.67504],[22.9769,32.6767],[22.99968,32.67056],[23.04135,32.65253],[23.08644,32.64647],[23.10613,32.63984],[23.11495,32.63245],[23.11866,32.62934],[23.12094,32.61522],[23.11582,32.60596],[23.11525,32.60493],[23.09791,32.58666],[23.0978,32.58636],[23.09441,32.57738],[23.10385,32.51634],[23.10385,32.51634],[23.10385,32.51634],[23.10586,32.51304],[23.11329,32.5008],[23.12867,32.48847],[23.14894,32.47809],[23.14096,32.45856],[23.13641,32.43567],[23.12843,32.39549],[23.10865,32.40233],[23.11015,32.40643],[23.11215,32.41193],[23.10987,32.42032],[23.10336,32.42817],[23.09441,32.43647],[23.09441,32.43647],[23.09441,32.43647],[23.08602,32.39146],[23.07911,32.35444],[23.08058,32.33405],[23.08058,32.33405],[23.08058,32.33405],[23.09555,32.32355],[23.13092,32.31194],[23.1565,32.30353],[23.16282,32.30253],[23.17897,32.29995],[23.19508,32.29165],[23.20761,32.27925],[23.21453,32.27241],[23.22601,32.25705],[23.2308,32.25064],[23.23549,32.23955],[23.2435,32.22061],[23.2435,32.22061],[23.2435,32.22061]]]}},{"type":"Feature","properties":{"id":"LBY:ADM1:10800210B53073192190863","name":"Murzuq","countryCode":"LBY","adminLevel":1,"sourceCode":"10800210B53073192190863","parentId":"LBY:ADM1:10800210B53073192190863"},"geometry":{"type":"Polygon","coordinates":[[[19.16806,26.00376],[19.126,26.02229],[19.02078,26.05515],[18.8856,26.0858],[18.72881,26.11401],[18.61512,26.13931],[18.51497,26.14977],[18.41245,26.23354],[18.32057,26.32943],[18.20409,26.37645],[18.0628,26.34516],[17.95418,26.29411],[17.90809,26.24284],[17.77796,26.15747],[17.69663,26.13554],[17.56661,26.1258],[17.49364,26.08417],[17.40982,26.05229],[17.26337,26.10094],[16.9405,26.16342],[16.88303,26.23408],[16.80397,26.28504],[16.72759,26.3262],[16.62072,26.42578],[16.56801,26.52815],[16.57514,26.63093],[16.51995,26.70147],[16.37195,26.77366],[16.32265,26.79281],[16.27842,26.84622],[16.26912,26.92926],[16.27087,27.00267],[16.27966,27.07517],[15.76103,26.94792],[15.4671,26.89779],[15.27796,26.87671],[14.974,26.80694],[14.82755,26.7579],[14.6412,26.58623],[14.53796,26.48138],[14.42437,26.37627],[14.24743,26.30739],[14.13302,26.2677],[13.93437,26.24687],[13.66927,26.1597],[13.4819,26.11799],[13.41007,26.06001],[13.30826,25.94498],[13.20543,25.87677],[12.96554,25.86139],[12.70675,25.77943],[12.62489,25.72086],[12.50004,25.70797],[12.36362,25.73225],[12.15991,25.57591],[12.0456,25.56304],[11.85843,25.54779],[11.7742,25.57327],[11.59405,25.65197],[11.39954,25.55144],[11.33257,25.38933],[11.34001,25.19211],[11.33402,24.79678],[11.45546,24.5939],[11.48098,24.463],[11.46724,24.32634],[11.50863,24.31381],[11.54139,24.29751],[11.56713,24.26684],[11.96886,23.51735],[13.48226,23.17967],[13.59956,23.11903],[14.20164,22.62322],[14.21622,22.6163],[14.23172,22.61795],[14.97927,22.99537],[15.96464,23.44221],[15.9851,23.44472],[19.18584,21.86418],[19.16806,26.00376]]]}},{"type":"Feature","properties":{"id":"LBY:ADM1:10800210B53685260454781","name":"Tajura' wa an Nawahi al Arba","countryCode":"LBY","adminLevel":1,"sourceCode":"10800210B53685260454781","parentId":"LBY:ADM1:10800210B53685260454781"},"geometry":{"type":"Polygon","coordinates":[[[13.91529,32.77277],[13.95444,32.75824],[13.89024,32.711],[13.81283,32.6394],[13.8089,32.62085],[13.70379,32.61139],[13.57336,32.56075],[13.4513,32.52861],[13.40107,32.43523],[13.38485,32.38317],[13.35033,32.36392],[13.23643,32.33374],[13.18755,32.38981],[13.19003,32.46003],[13.16316,32.64922],[13.07634,32.72121],[13.11096,32.78296],[13.1032,32.87742],[13.11549,32.88215],[13.16472,32.91274],[13.16472,32.91275],[13.18276,32.91549],[13.18775,32.91625],[13.25709,32.91865],[13.3212,32.90889],[13.35174,32.90424],[13.35174,32.90424],[13.36535,32.89796],[13.37355,32.89203],[13.57146,32.8028],[13.57146,32.8028],[13.57146,32.8028],[13.57931,32.80118],[13.61695,32.7934],[13.78624,32.7996],[13.78712,32.79963],[13.78845,32.79946],[13.83033,32.79409],[13.84555,32.79028],[13.91529,32.77277]]]}},{"type":"Feature","properties":{"id":"LBY:ADM1:10800210B54463644997685","name":"Al Marj","countryCode":"LBY","adminLevel":1,"sourceCode":"10800210B54463644997685","parentId":"LBY:ADM1:10800210B54463644997685"},"geometry":{"type":"Polygon","coordinates":[[[21.35924,32.77578],[21.36772,32.77513],[21.38736,32.78056],[21.39459,32.76808],[21.45805,32.6979],[21.46156,32.63346],[21.38839,32.57047],[21.33186,32.51171],[21.33485,32.42882],[21.36441,32.32697],[21.42684,32.22904],[21.46198,32.13163],[21.52544,32.07045],[21.6321,31.99916],[21.66176,31.90632],[21.66827,31.77238],[21.65959,31.67561],[21.61876,31.58872],[21.61494,31.4733],[21.65442,31.35232],[21.68005,31.30556],[21.71178,31.28179],[21.71716,31.06562],[21.65525,31.04314],[21.39748,31.03278],[21.31904,31.03506],[21.28886,31.27626],[21.24235,31.35571],[21.22375,31.45774],[21.21538,31.54105],[21.14644,31.59771],[21.09177,31.58484],[20.97208,31.57766],[20.84217,31.59368],[20.766,31.59027],[20.68373,31.55924],[20.54854,31.57973],[20.50627,31.63117],[20.46545,31.73793],[20.41305,31.81713],[20.35042,31.9287],[20.30928,32.03531],[20.31104,32.10905],[20.35724,32.21899],[20.43031,32.3055],[20.5193,32.37327],[20.56467,32.43706],[20.57841,32.54729],[20.57603,32.56271],[20.68308,32.60169],[20.79656,32.64301],[20.93409,32.7226],[20.97489,32.73994],[21.05095,32.77228],[21.09669,32.78107],[21.26077,32.7725],[21.28679,32.77114],[21.30018,32.77218],[21.33188,32.77464],[21.35704,32.78034],[21.35924,32.77578]]]}},{"type":"Feature","properties":{"id":"LBY:ADM1:10800210B58781405840719","name":"Misratah","countryCode":"LBY","adminLevel":1,"sourceCode":"10800210B58781405840719","parentId":"LBY:ADM1:10800210B58781405840719"},"geometry":{"type":"Polygon","coordinates":[[[15.68751,31.43781],[15.75008,31.39579],[15.76149,31.38813],[16.04461,31.27554],[16.13738,31.26124],[16.1146,31.21577],[16.11564,31.04927],[16.22571,30.68901],[16.26984,30.4947],[16.30302,30.30944],[16.4659,29.92065],[16.49866,29.76289],[16.53122,29.63295],[16.51013,29.53052],[16.41856,29.4088],[16.37133,29.4366],[16.13558,29.49996],[16.03947,29.47122],[15.94355,29.42386],[15.87968,29.37676],[15.74057,29.39399],[15.66502,29.46763],[15.59991,29.55995],[15.56745,29.5875],[15.50296,29.61468],[15.38514,29.61328],[15.29915,29.64013],[15.20251,29.65747],[15.05193,29.70196],[14.97586,29.77526],[14.8999,29.83921],[14.85422,29.86195],[14.86558,29.88092],[14.93121,29.94065],[14.97969,30.01711],[14.98237,30.1318],[14.9708,30.25841],[14.95013,30.4092],[14.85866,30.46607],[14.78176,30.49878],[14.56069,30.55054],[14.45166,30.61901],[14.3576,30.65358],[14.21167,30.72105],[14.06594,31.03201],[13.93417,31.24321],[13.9166,31.25982],[13.79816,31.32264],[13.68891,31.43917],[13.63238,31.50828],[13.59992,31.61453],[13.55373,31.70577],[13.48985,31.81356],[13.45265,31.96092],[13.39766,32.05078],[13.45885,32.0521],[13.61636,32.04807],[13.67734,32.0567],[13.77728,32.08094],[13.83371,32.10055],[13.89923,32.10181],[13.96104,32.07711],[13.99163,32.07401],[14.06574,32.08647],[14.12206,32.14256],[14.28505,32.04605],[14.36505,31.97714],[14.47047,31.9456],[14.66673,31.96776],[14.68265,32.05623],[14.71624,32.13809],[14.755,32.17935],[14.75841,32.23852],[14.73133,32.29353],[14.72172,32.34511],[14.74249,32.41559],[14.7552,32.43898],[14.75583,32.44968],[14.91114,32.44391],[15.11476,32.41279],[15.12603,32.40927],[15.16,32.39867],[15.18198,32.39549],[15.1875,32.39324],[15.19597,32.3898],[15.23325,32.34711],[15.26971,32.32884],[15.27294,32.32605],[15.28305,32.31729],[15.29217,32.28091],[15.30079,32.26081],[15.3226,32.22419],[15.36451,32.17471],[15.3668,32.16869],[15.37045,32.15908],[15.36886,32.14028],[15.36866,32.13801],[15.35963,32.10212],[15.35525,32.03872],[15.35524,32.03852],[15.35714,32.01478],[15.36109,31.96532],[15.36669,31.94383],[15.37045,31.92939],[15.4555,31.74184],[15.49041,31.66486],[15.49158,31.66307],[15.51441,31.62836],[15.62281,31.49726],[15.63357,31.48738],[15.68751,31.43781]]]}},{"type":"Feature","properties":{"id":"LBY:ADM1:10800210B63841479422356","name":"An Nuqat al Khams","countryCode":"LBY","adminLevel":1,"sourceCode":"10800210B63841479422356","parentId":"LBY:ADM1:10800210B63841479422356"},"geometry":{"type":"Polygon","coordinates":[[[12.55492,32.79932],[12.50139,32.65708],[12.46211,32.6008],[12.33716,32.53099],[12.28641,32.47419],[12.12208,32.40683],[12.09759,32.35441],[11.86267,32.30756],[11.70071,32.30573],[11.64314,32.32245],[11.59312,32.36893],[11.52609,32.41786],[11.54635,32.43427],[11.56413,32.46549],[11.56062,32.50758],[11.53736,32.54352],[11.47039,32.59928],[11.44993,32.63796],[11.4492,32.69302],[11.46378,32.79846],[11.45654,32.9021],[11.47442,32.96987],[11.47742,33.04121],[11.50605,33.13638],[11.50511,33.18123],[11.56022,33.16592],[11.56023,33.16592],[11.57239,33.15934],[11.57496,33.15795],[11.58056,33.14665],[11.58766,33.13231],[11.59589,33.12651],[11.60304,33.12149],[11.63575,33.10871],[11.63575,33.10871],[11.63575,33.10871],[11.7566,33.09251],[11.78341,33.08396],[11.79347,33.08076],[11.79347,33.08076],[11.79347,33.08076],[11.77865,33.09419],[11.77296,33.09935],[11.74536,33.1069],[11.70777,33.11717],[11.70574,33.11947],[11.69109,33.13597],[11.73927,33.11298],[11.84702,33.08283],[12.08074,32.95783],[12.08601,32.95322],[12.12241,32.92133],[12.13519,32.91811],[12.16066,32.91169],[12.22264,32.87716],[12.22486,32.87592],[12.22486,32.87592],[12.22486,32.87592],[12.22716,32.87497],[12.30388,32.84309],[12.34832,32.83267],[12.57322,32.81257],[12.55492,32.79932]]]}},{"type":"Feature","properties":{"id":"LBY:ADM1:10800210B65194490964920","name":"Ghadamis","countryCode":"LBY","adminLevel":1,"sourceCode":"10800210B65194490964920","parentId":"LBY:ADM1:10800210B65194490964920"},"geometry":{"type":"Polygon","coordinates":[[[11.52609,32.41786],[11.5139,32.408],[11.44403,32.36849],[10.87322,32.1367],[10.84593,32.11179],[10.80562,32.03236],[10.77286,32.00451],[10.73658,31.98539],[10.7031,31.96218],[10.68356,31.95702],[10.64729,31.97195],[10.62848,31.97412],[10.60595,31.95361],[10.59757,31.87351],[10.58455,31.84028],[10.54238,31.80664],[10.52554,31.77207],[10.49887,31.74432],[10.48254,31.7331],[10.42777,31.7146],[10.31542,31.71584],[10.26395,31.6805],[10.19646,31.57859],[10.13259,31.51756],[10.11688,31.49441],[10.10624,31.42919],[10.1081,31.41183],[10.18272,31.24078],[10.21321,31.13536],[10.24483,31.07816],[10.24618,31.05955],[10.24059,31.02116],[10.24504,30.98571],[10.27015,30.91563],[10.26974,30.88215],[10.25393,30.84179],[10.19222,30.73125],[10.10117,30.6417],[9.99565,30.49452],[9.87131,30.35515],[9.84579,30.34228],[9.77292,30.3381],[9.74347,30.33133],[9.51971,30.22891],[9.28654,30.11713],[9.31,30.08437],[9.42173,29.96871],[9.54968,29.80232],[9.66771,29.60832],[9.82615,29.12853],[9.84827,28.97573],[9.85126,28.786],[9.82728,28.61865],[9.87013,28.63298],[9.92284,28.6573],[10.13791,28.71727],[10.23155,28.68525],[10.3749,28.61404],[10.44074,28.62458],[10.70584,28.73013],[10.78025,28.78494],[10.8526,28.82739],[10.90986,28.84465],[10.93828,28.78724],[10.95378,28.71458],[11.01631,28.64156],[11.14488,28.62278],[11.19098,28.59298],[11.32389,28.5449],[11.38755,28.54513],[11.49235,28.60332],[11.58733,28.59009],[11.6233,28.59154],[11.72479,28.6103],[11.78877,28.55169],[11.89791,28.52901],[11.95186,28.59505],[11.92158,28.776],[11.89739,28.85919],[11.8083,28.96831],[11.72934,29.08701],[11.72986,29.36648],[11.64945,29.81061],[11.61968,30.03274],[11.61214,30.23686],[11.61627,30.41334],[11.58992,30.54243],[11.5986,30.59834],[11.65079,30.64635],[11.73296,30.76016],[11.86732,30.93103],[11.96302,31.08089],[11.94566,31.08681],[11.89502,31.16699],[11.85295,31.24737],[11.83672,31.33594],[11.8452,31.46232],[11.8329,31.56205],[11.83735,31.68075],[11.85554,31.78132],[11.83972,31.8549],[11.82277,31.96177],[11.84003,32.08807],[11.86267,32.1886],[11.86267,32.30756],[11.70071,32.30573],[11.64314,32.32245],[11.59312,32.36893],[11.52609,32.41786]]]}},{"type":"Feature","properties":{"id":"LBY:ADM1:10800210B66581866957995","name":"Al Marqab","countryCode":"LBY","adminLevel":1,"sourceCode":"10800210B66581866957995","parentId":"LBY:ADM1:10800210B66581866957995"},"geometry":{"type":"Polygon","coordinates":[[[14.70672,32.45628],[14.70807,32.45591],[14.72682,32.45075],[14.75583,32.44968],[14.7552,32.43898],[14.74249,32.41559],[14.72172,32.34511],[14.73133,32.29353],[14.75841,32.23852],[14.755,32.17935],[14.71624,32.13809],[14.68265,32.05623],[14.66673,31.96776],[14.47047,31.9456],[14.36505,31.97714],[14.28505,32.04605],[14.12206,32.14256],[14.06574,32.08647],[13.99163,32.07401],[13.96104,32.07711],[13.89923,32.10181],[13.83371,32.10055],[13.77728,32.08094],[13.67734,32.0567],[13.61636,32.04807],[13.45885,32.0521],[13.39766,32.05078],[13.39177,32.10982],[13.36325,32.20163],[13.3002,32.27043],[13.23643,32.33374],[13.35033,32.36392],[13.38485,32.38317],[13.40107,32.43523],[13.4513,32.52861],[13.57336,32.56075],[13.70379,32.61139],[13.8089,32.62085],[13.81283,32.6394],[13.89024,32.711],[13.95444,32.75824],[13.97753,32.74966],[13.99122,32.74457],[13.99125,32.74457],[14.18531,32.7145],[14.18531,32.7145],[14.20194,32.70147],[14.20338,32.70034],[14.20338,32.70034],[14.20338,32.70034],[14.20932,32.69721],[14.22633,32.6909],[14.2309,32.68704],[14.26246,32.66031],[14.31715,32.63044],[14.36935,32.59224],[14.40406,32.56684],[14.42868,32.54433],[14.44939,32.52538],[14.4663,32.52004],[14.46949,32.51903],[14.57806,32.50339],[14.6316,32.49567],[14.6316,32.49567],[14.66293,32.47675],[14.68822,32.46493],[14.70672,32.45629],[14.70672,32.45628],[14.70672,32.45628]]]}},{"type":"Feature","properties":{"id":"LBY:ADM1:10800210B74925506200485","name":"Benghazi","countryCode":"LBY","adminLevel":1,"sourceCode":"10800210B74925506200485","parentId":"LBY:ADM1:10800210B74925506200485"},"geometry":{"type":"Polygon","coordinates":[[[20.57841,32.54729],[20.56467,32.43706],[20.5193,32.37327],[20.43031,32.3055],[20.35724,32.21899],[20.31104,32.10905],[20.30928,32.03531],[20.35042,31.9287],[20.41305,31.81713],[20.46545,31.73793],[20.50627,31.63117],[20.54854,31.57973],[20.68373,31.55924],[20.766,31.59027],[20.84217,31.59368],[20.97208,31.57766],[21.09177,31.58484],[21.14644,31.59771],[21.21538,31.54105],[21.22375,31.45774],[21.24235,31.35571],[21.28886,31.27626],[21.31904,31.03506],[20.93405,31.04614],[20.73809,31.01379],[20.59371,31.007],[20.52353,31.02539],[20.41749,31.08831],[20.34308,31.17489],[20.29905,31.23169],[20.18919,31.26282],[20.13286,31.2607],[20.13575,31.25174],[20.14764,31.24171],[20.15343,31.22843],[20.14165,31.22386],[20.13788,31.22919],[20.1281,31.24299],[20.1091,31.29332],[20.10328,31.30874],[20.0822,31.33661],[20.03834,31.37588],[20.03464,31.38069],[20.02223,31.3968],[19.98881,31.47746],[19.95484,31.55947],[19.9489,31.60102],[19.94801,31.64509],[19.94435,31.66144],[19.94434,31.66145],[19.92067,31.71772],[19.92066,31.71772],[19.91725,31.75922],[19.91751,31.76408],[19.91969,31.80467],[19.92994,31.86327],[19.93434,31.88841],[19.94801,31.92597],[19.94581,31.93598],[19.94494,31.93832],[19.94012,31.95775],[19.94011,31.95775],[19.94459,31.96751],[19.9572,31.98273],[20.02713,32.10849],[20.04802,32.14606],[20.05707,32.15774],[20.07154,32.17642],[20.1889,32.27708],[20.26173,32.33954],[20.26985,32.35072],[20.27719,32.36083],[20.3034,32.38743],[20.32545,32.40982],[20.38551,32.43464],[20.38551,32.43464],[20.38551,32.43464],[20.40333,32.44733],[20.41676,32.45946],[20.45114,32.48264],[20.56267,32.55785],[20.57603,32.56271],[20.57841,32.54729]]]}},{"type":"Feature","properties":{"id":"LBY:ADM1:10800210B80153830865201","name":"Sabha","countryCode":"LBY","adminLevel":1,"sourceCode":"10800210B80153830865201","parentId":"LBY:ADM1:10800210B80153830865201"},"geometry":{"type":"Polygon","coordinates":[[[16.27966,27.07517],[16.28069,27.08346],[16.25795,27.15173],[16.19191,27.18532],[16.12825,27.23849],[16.0621,27.27206],[16.02324,27.30588],[15.99192,27.38378],[15.96319,27.46659],[15.79483,27.69198],[15.79586,27.7212],[15.56415,27.74115],[15.41656,27.69268],[15.35351,27.66384],[15.06847,27.63201],[14.92129,27.5738],[14.84905,27.46047],[14.61878,27.33518],[14.52483,27.27746],[14.48359,27.22061],[14.42117,27.17271],[13.98316,27.12891],[14.02243,27.09039],[14.04548,26.98781],[14.03762,26.8565],[14.08114,26.7824],[14.13467,26.72721],[14.14625,26.67119],[14.08548,26.55753],[13.972,26.46151],[13.93231,26.34816],[13.93448,26.24501],[14.13302,26.2677],[14.24743,26.30739],[14.42437,26.37627],[14.53796,26.48138],[14.6412,26.58623],[14.82755,26.7579],[14.974,26.80694],[15.27796,26.87671],[15.4671,26.89779],[15.76103,26.94792],[16.27966,27.07517]]]}},{"type":"Feature","properties":{"id":"LBY:ADM1:10800210B86029592505559","name":"Al Jifarah","countryCode":"LBY","adminLevel":1,"sourceCode":"10800210B86029592505559","parentId":"LBY:ADM1:10800210B86029592505559"},"geometry":{"type":"Polygon","coordinates":[[[13.23643,32.33374],[13.18755,32.38981],[13.19003,32.46003],[13.16316,32.64922],[13.07634,32.72121],[13.07324,32.7157],[12.96927,32.66896],[12.89775,32.56021],[12.82333,32.40699],[12.82974,32.33694],[12.81961,32.2602],[12.96286,32.27738],[13.0504,32.27948],[13.15509,32.29302],[13.18961,32.31229],[13.2508,32.31738],[13.23643,32.33374]]]}},{"type":"Feature","properties":{"id":"LBY:ADM1:10800210B89898169718474","name":"Al Kufrah","countryCode":"LBY","adminLevel":1,"sourceCode":"10800210B89898169718474","parentId":"LBY:ADM1:10800210B89898169718474"},"geometry":{"type":"Polygon","coordinates":[[[19.18584,21.86418],[23.98131,19.49612],[23.98131,19.99542],[24.9768,19.99596],[24.98052,20.00206],[24.98124,27.04924],[24.26181,27.03305],[23.09185,27.01468],[21.92283,27.00763],[20.72311,27.02181],[19.16982,27.01287],[19.16806,26.00376],[19.18584,21.86418]]]}},{"type":"Feature","properties":{"id":"LBY:ADM1:10800210B94224648391824","name":"Al Jufrah","countryCode":"LBY","adminLevel":1,"sourceCode":"10800210B94224648391824","parentId":"LBY:ADM1:10800210B94224648391824"},"geometry":{"type":"Polygon","coordinates":[[[19.16982,27.01287],[19.17219,28.34742],[19.00425,28.35824],[18.71858,28.43664],[18.49926,28.50208],[18.49926,28.48462],[18.38465,28.51748],[18.22548,28.55534],[18.08782,28.63962],[17.98209,28.73305],[17.94033,28.87294],[17.89847,28.98479],[17.81362,29.07802],[17.72866,29.16189],[17.68639,29.25498],[17.66541,29.32942],[17.58015,29.39456],[17.50522,29.39449],[17.43029,29.35717],[17.33386,29.28261],[17.23774,29.3103],[17.08808,29.34715],[16.98122,29.4305],[16.85285,29.43929],[16.74588,29.40159],[16.55334,29.39123],[16.43562,29.41841],[16.41856,29.4088],[16.37133,29.4366],[16.13558,29.49996],[16.03947,29.47122],[15.94355,29.42386],[15.87968,29.37676],[15.74057,29.39399],[15.66502,29.46763],[15.59991,29.55995],[15.56745,29.5875],[15.50296,29.61468],[15.38514,29.61328],[15.29915,29.64013],[15.20251,29.65747],[15.05193,29.70196],[14.97586,29.77526],[14.8999,29.83921],[14.85422,29.86195],[14.82269,29.80937],[14.76306,29.73749],[14.7366,29.6833],[14.73856,29.60768],[14.75727,29.53724],[14.75944,29.45673],[14.75241,29.40534],[14.712,29.35573],[14.63242,29.31268],[14.50664,29.23196],[14.41982,29.2091],[14.40814,28.9881],[14.42251,28.8785],[14.46923,28.79889],[14.527,28.71949],[14.65991,28.622],[14.83975,28.5204],[14.9587,28.40772],[14.99188,28.2959],[14.99384,28.21774],[15.01762,28.14485],[15.12273,28.12952],[15.24933,28.14138],[15.38028,28.20696],[15.50689,28.21859],[15.58967,28.21484],[15.72011,28.17502],[15.79214,28.15637],[15.87886,28.07919],[15.89405,27.99628],[15.87069,27.91535],[15.79659,27.74335],[15.79483,27.69198],[15.96319,27.46659],[15.99192,27.38378],[16.02324,27.30588],[16.0621,27.27206],[16.12825,27.23849],[16.19191,27.18532],[16.25795,27.15173],[16.28069,27.08346],[16.27087,27.00267],[16.26912,26.92926],[16.27842,26.84622],[16.32265,26.79281],[16.37195,26.77366],[16.51995,26.70147],[16.57514,26.63093],[16.56801,26.52815],[16.62072,26.42578],[16.72759,26.3262],[16.80397,26.28504],[16.88303,26.23408],[16.9405,26.16342],[17.26337,26.10094],[17.40982,26.05229],[17.49364,26.08417],[17.56661,26.1258],[17.69663,26.13554],[17.77796,26.15747],[17.90809,26.24284],[17.95418,26.29411],[18.0628,26.34516],[18.20409,26.37645],[18.32057,26.32943],[18.41245,26.23354],[18.51497,26.14977],[18.61512,26.13931],[18.72881,26.11401],[18.8856,26.0858],[19.02078,26.05515],[19.126,26.02229],[19.16806,26.00376],[19.16982,27.01287]]]}}],"admin1":{"type":"FeatureCollection","features":[{"type":"Feature","properties":{"id":"LBY:ADM1:10800210B15874653580067","name":"Az Zawiyah","countryCode":"LBY"},"geometry":{"type":"Polygon","coordinates":[[[13.07447,32.86636],[13.1032,32.87742],[13.11096,32.78296],[13.07324,32.7157],[12.96927,32.66896],[12.89775,32.56021],[12.82333,32.40699],[12.82974,32.33694],[12.81961,32.2602],[12.736,32.25007],[12.64898,32.23261],[12.49012,32.27281],[12.40155,32.30371],[12.2923,32.29705],[11.86267,32.30756],[12.09759,32.35441],[12.12208,32.40683],[12.28641,32.47419],[12.33716,32.53099],[12.46211,32.6008],[12.50139,32.65708],[12.55492,32.79932],[12.57322,32.81257],[12.72983,32.79857],[12.82439,32.80435],[12.86036,32.81327],[13.07447,32.86636]]]}},{"type":"Feature","properties":{"id":"LBY:ADM1:10800210B20515568933500","name":"Ash Shati'","countryCode":"LBY"},"geometry":{"type":"Polygon","coordinates":[[[9.82728,28.61865],[9.77695,28.26758],[9.78987,28.20944],[9.93591,27.86672],[9.93426,27.8274],[9.93127,27.81864],[10.07859,27.74347],[10.27258,27.66705],[10.65757,27.56961],[10.89177,27.5315],[11.02024,27.48933],[11.10685,27.43623],[11.164,27.32588],[11.19418,27.09277],[11.26012,26.74826],[11.32265,26.48782],[11.35892,26.35767],[11.37474,26.21747],[11.74412,26.43616],[12.30987,26.79105],[12.77372,27.1131],[13.01236,27.25035],[13.19054,27.29218],[13.3494,27.26784],[13.62525,27.18981],[13.98316,27.12891],[14.42117,27.17271],[14.48359,27.22061],[14.52483,27.27746],[14.61878,27.33518],[14.84905,27.46047],[14.92129,27.5738],[15.06847,27.63201],[15.35351,27.66384],[15.41656,27.69268],[15.56415,27.74115],[15.79586,27.7212],[15.79659,27.74335],[15.87069,27.91535],[15.89405,27.99628],[15.87886,28.07919],[15.79214,28.15637],[15.72011,28.17502],[15.58967,28.21484],[15.50689,28.21859],[15.38028,28.20696],[15.24933,28.14138],[15.12273,28.12952],[15.01762,28.14485],[14.99384,28.21774],[14.99188,28.2959],[14.9587,28.40772],[14.83975,28.5204],[14.65991,28.622],[14.527,28.71949],[14.46923,28.79889],[14.42251,28.8785],[14.40814,28.9881],[14.4222,29.26436],[14.37032,29.32188],[14.28701,29.40061],[14.1818,29.46657],[14.05168,29.52213],[13.99205,29.55246],[13.9105,29.56755],[13.82472,29.54587],[13.65904,29.42195],[13.51704,29.26674],[13.47022,29.17995],[13.42019,29.10771],[13.35901,29.03513],[13.30103,28.95529],[13.20842,28.84263],[13.10445,28.73931],[12.99293,28.68701],[12.84948,28.60916],[12.79047,28.56324],[12.7576,28.49371],[12.68846,28.43031],[12.58903,28.42697],[12.50159,28.46555],[12.4924,28.54345],[12.431,28.55355],[12.27825,28.56523],[12.15691,28.60973],[12.10958,28.61531],[11.98328,28.64724],[11.95186,28.59505],[11.89791,28.52901],[11.78877,28.55169],[11.72479,28.6103],[11.6233,28.59154],[11.58733,28.59009],[11.49235,28.60332],[11.38755,28.54513],[11.32389,28.5449],[11.19098,28.59298],[11.14488,28.62278],[11.01631,28.64156],[10.95378,28.71458],[10.93828,28.78724],[10.90986,28.84465],[10.8526,28.82739],[10.78025,28.78494],[10.70584,28.73013],[10.44074,28.62458],[10.3749,28.61404],[10.23155,28.68525],[10.13791,28.71727],[9.92284,28.6573],[9.87013,28.63298],[9.82728,28.61865]]]}},{"type":"Feature","properties":{"id":"LBY:ADM1:10800210B23470577588067","name":"Al Jabal al Akhdar","countryCode":"LBY"},"geometry":{"type":"Polygon","coordinates":[[[21.98618,32.91309],[21.97998,32.90114],[21.97771,32.83893],[21.96934,32.7564],[21.99404,32.68227],[22.02494,32.62641],[22.03321,32.55261],[22.02029,32.49768],[21.99042,32.42469],[21.97688,32.35131],[21.95931,32.31947],[21.97812,32.23152],[21.9804,32.14393],[22.00437,32.05122],[21.99869,31.88991],[22.00055,31.78834],[21.99125,31.67776],[21.96758,31.62288],[21.96737,31.46121],[21.91776,31.28202],[22.11248,31.11988],[21.79281,31.09301],[21.71716,31.06562],[21.71178,31.28179],[21.68005,31.30556],[21.65442,31.35232],[21.61494,31.4733],[21.61876,31.58872],[21.65959,31.67561],[21.66827,31.77238],[21.66176,31.90632],[21.6321,31.99916],[21.52544,32.07045],[21.46198,32.13163],[21.42684,32.22904],[21.36441,32.32697],[21.33485,32.42882],[21.33186,32.51171],[21.38839,32.57047],[21.46156,32.63346],[21.45805,32.6979],[21.39459,32.76808],[21.38736,32.78056],[21.36772,32.77513],[21.35924,32.77578],[21.35704,32.78034],[21.41481,32.7934],[21.4546,32.81257],[21.4755,32.8286],[21.60865,32.93073],[21.62322,32.93675],[21.67172,32.93989],[21.71632,32.95038],[21.74366,32.93085],[21.78745,32.91596],[21.83611,32.90656],[21.87709,32.90325],[21.87745,32.90322],[21.87783,32.90326],[21.98618,32.91309]]]}},{"type":"Feature","properties":{"id":"LBY:ADM1:10800210B26344076542723","name":"Ghat","countryCode":"LBY"},"geometry":{"type":"Polygon","coordinates":[[[11.39954,25.55144],[11.33464,25.6377],[11.30367,25.74922],[11.31606,25.94127],[11.35323,26.08996],[11.37474,26.21747],[11.35892,26.35767],[11.32265,26.48782],[11.26012,26.74826],[11.19418,27.09277],[11.164,27.32588],[11.10685,27.43623],[11.02024,27.48933],[10.89177,27.5315],[10.65757,27.56961],[10.27258,27.66705],[10.07859,27.74347],[9.93127,27.81864],[9.86336,27.61925],[9.84661,27.5993],[9.7939,27.56974],[9.79711,27.54891],[9.8216,27.50569],[9.81364,27.48649],[9.77055,27.44422],[9.75628,27.42303],[9.74305,27.36412],[9.72187,27.30846],[9.72135,27.29188],[9.8061,27.02512],[9.82553,26.92058],[9.83514,26.90099],[9.8461,26.89195],[9.89085,26.86958],[9.90666,26.85748],[9.91059,26.84312],[9.88547,26.73661],[9.88258,26.70178],[9.89405,26.67398],[9.89633,26.65279],[9.85457,26.52438],[9.83576,26.50422],[9.4826,26.35255],[9.47764,26.31555],[9.46886,26.30103],[9.43475,26.27199],[9.41646,26.23225],[9.40251,26.21618],[9.3778,26.16895],[9.40116,26.11339],[9.9695,25.3954],[10.00795,25.33143],[10.02138,25.26802],[10.03203,24.85634],[10.04453,24.82962],[10.19336,24.74994],[10.21217,24.72286],[10.22974,24.62994],[10.24225,24.59511],[10.26033,24.57664],[10.3918,24.47998],[10.41051,24.47329],[10.45019,24.47693],[10.67736,24.55385],[10.69907,24.55612],[10.72067,24.5523],[11.46724,24.32634],[11.48098,24.463],[11.45546,24.5939],[11.33402,24.79678],[11.34001,25.19211],[11.33257,25.38933],[11.39954,25.55144]]]}},{"type":"Feature","properties":{"id":"LBY:ADM1:10800210B2800497533490","name":"Wadi al Hayaa","countryCode":"LBY"},"geometry":{"type":"Polygon","coordinates":[[[13.93437,26.24687],[13.93231,26.34816],[13.972,26.46151],[14.08548,26.55753],[14.14625,26.67119],[14.13467,26.72721],[14.08114,26.7824],[14.03762,26.8565],[14.04548,26.98781],[14.02243,27.09039],[13.98316,27.12891],[13.62525,27.18981],[13.3494,27.26784],[13.19054,27.29218],[13.01236,27.25035],[12.77372,27.1131],[12.30987,26.79105],[11.74412,26.43616],[11.37474,26.21747],[11.35323,26.08996],[11.31606,25.94127],[11.30367,25.74922],[11.33464,25.6377],[11.39954,25.55144],[11.59405,25.65197],[11.7742,25.57327],[11.85843,25.54779],[12.0456,25.56304],[12.15991,25.57591],[12.36362,25.73225],[12.50004,25.70797],[12.62489,25.72086],[12.70675,25.77943],[12.96554,25.86139],[13.20543,25.87677],[13.30826,25.94498],[13.41007,26.06001],[13.4819,26.11799],[13.66927,26.1597],[13.93437,26.24687]]]}},{"type":"Feature","properties":{"id":"LBY:ADM1:10800210B28216506156245","name":"Al Butnan","countryCode":"LBY"},"geometry":{"type":"Polygon","coordinates":[[[25.08842,31.61352],[25.06041,31.57937],[25.02372,31.49441],[24.86125,31.38036],[24.84895,31.34863],[24.84864,31.31204],[24.85856,31.22791],[24.8595,31.14596],[24.88265,31.03909],[24.88957,31.01883],[24.92461,30.95677],[24.93763,30.90576],[24.98124,30.82541],[24.99489,30.7851],[24.98858,30.75058],[24.9736,30.71627],[24.96119,30.67627],[24.95065,30.62123],[24.92037,30.55235],[24.90766,30.49866],[24.88812,30.46434],[24.82973,30.38755],[24.79945,30.36084],[24.77237,30.33102],[24.74612,30.28275],[24.70467,30.2179],[24.68865,30.18276],[24.68834,30.14416],[24.69733,30.12261],[24.72555,30.07837],[24.81164,29.89089],[24.81619,29.86841],[24.81495,29.84857],[24.79821,29.79643],[24.80492,29.7548],[24.85619,29.67948],[24.87066,29.63835],[24.87055,29.61401],[24.86156,29.54156],[24.86384,29.5029],[24.87376,29.46833],[24.95665,29.29268],[24.97432,29.23894],[24.98124,29.18137],[24.98124,28.0967],[24.96089,28.10048],[23.06209,28.13926],[23.05702,30.76996],[22.96886,30.79936],[22.96876,31.00625],[22.95563,31.08066],[22.95656,31.23334],[22.9854,31.40364],[23.07139,31.51219],[23.10529,31.6683],[23.11841,31.848],[23.16875,32.00347],[23.21763,32.12199],[23.25136,32.21673],[23.25734,32.21377],[23.26279,32.21237],[23.28541,32.20376],[23.3025,32.17072],[23.30641,32.1675],[23.31218,32.16275],[23.31039,32.17927],[23.29908,32.22419],[23.31837,32.21784],[23.32695,32.2177],[23.36199,32.21711],[23.39396,32.19758],[23.39894,32.19404],[23.40528,32.19066],[23.5311,32.18138],[23.61441,32.18251],[23.66969,32.18325],[23.84034,32.14912],[23.89546,32.1299],[23.99871,32.0939],[23.98646,32.08361],[23.97527,32.0742],[23.97287,32.07019],[23.97071,32.0666],[23.97072,32.06659],[23.97877,32.06224],[24.00489,32.05292],[24.02617,32.03882],[24.06788,32.01118],[24.08337,32.0075],[24.09067,32.00576],[24.28093,32.00755],[24.54607,31.99144],[24.5772,31.99953],[24.63624,32.01488],[24.65854,32.02863],[24.66666,32.03125],[24.67026,32.03242],[24.71062,32.02558],[24.7186,32.02753],[24.72266,32.02952],[24.73373,32.03315],[24.74347,32.02788],[24.74586,32.02619],[24.75807,32.01996],[24.79176,32.00776],[24.80878,32.00527],[24.82439,32.003],[24.86541,31.98933],[24.9817,31.96792],[25.01791,31.94904],[25.03338,31.91633],[25.02443,31.87661],[25.02223,31.85468],[25.02573,31.84617],[25.02955,31.8369],[25.04712,31.82004],[25.06373,31.8041],[25.11375,31.74186],[25.11687,31.73798],[25.12208,31.72085],[25.12435,31.71647],[25.13673,31.69257],[25.14853,31.67475],[25.15626,31.66307],[25.15252,31.65982],[25.15089,31.65648],[25.08842,31.61352]]]}},{"type":"Feature","properties":{"id":"LBY:ADM1:10800210B39461050964926","name":"Mizdah","countryCode":"LBY"},"geometry":{"type":"Polygon","coordinates":[[[11.95186,28.59505],[11.98328,28.64724],[12.10958,28.61531],[12.15691,28.60973],[12.27825,28.56523],[12.431,28.55355],[12.4924,28.54345],[12.50159,28.46555],[12.58903,28.42697],[12.68846,28.43031],[12.7576,28.49371],[12.79047,28.56324],[12.84948,28.60916],[12.99293,28.68701],[13.10445,28.73931],[13.20842,28.84263],[13.30103,28.95529],[13.35901,29.03513],[13.42019,29.10771],[13.47022,29.17995],[13.51704,29.26674],[13.65904,29.42195],[13.82472,29.54587],[13.9105,29.56755],[13.99205,29.55246],[14.05168,29.52213],[14.1818,29.46657],[14.28701,29.40061],[14.37032,29.32188],[14.4222,29.26436],[14.41982,29.2091],[14.50664,29.23196],[14.63242,29.31268],[14.712,29.35573],[14.75241,29.40534],[14.75944,29.45673],[14.75727,29.53724],[14.73856,29.60768],[14.7366,29.6833],[14.76306,29.73749],[14.82269,29.80937],[14.86558,29.88092],[14.93121,29.94065],[14.97969,30.01711],[14.98237,30.1318],[14.9708,30.25841],[14.95013,30.4092],[14.85866,30.46607],[14.78176,30.49878],[14.56069,30.55054],[14.45166,30.61901],[14.3576,30.65358],[14.21167,30.72105],[14.06594,31.03201],[13.93417,31.24321],[13.9166,31.25982],[13.79816,31.32264],[13.68891,31.43917],[13.63238,31.50828],[13.59992,31.61453],[13.55373,31.70577],[13.48985,31.81356],[13.45265,31.96092],[13.39766,32.05078],[13.39177,32.10982],[13.36325,32.20163],[13.3002,32.27043],[13.2508,32.31738],[13.18961,32.31229],[13.15509,32.29302],[13.0504,32.27948],[12.96286,32.27738],[12.736,32.25007],[12.64898,32.23261],[12.49012,32.27281],[12.40155,32.30371],[12.2923,32.29705],[11.86267,32.30756],[11.86267,32.1886],[11.84003,32.08807],[11.82277,31.96177],[11.83972,31.8549],[11.85554,31.78132],[11.83735,31.68075],[11.8329,31.56205],[11.8452,31.46232],[11.83672,31.33594],[11.85295,31.24737],[11.89502,31.16699],[11.94566,31.08681],[11.96302,31.08089],[11.86732,30.93103],[11.73296,30.76016],[11.65079,30.64635],[11.5986,30.59834],[11.58992,30.54243],[11.61627,30.41334],[11.61214,30.23686],[11.61968,30.03274],[11.64945,29.81061],[11.72986,29.36648],[11.72934,29.08701],[11.8083,28.96831],[11.89739,28.85919],[11.92158,28.776],[11.95186,28.59505]]]}},{"type":"Feature","properties":{"id":"LBY:ADM1:10800210B39782956615971","name":"Ajdabiya","countryCode":"LBY"},"geometry":{"type":"Polygon","coordinates":[[[20.15343,31.22843],[20.14764,31.24171],[20.13575,31.25174],[20.13286,31.2607],[20.18919,31.26282],[20.29905,31.23169],[20.34308,31.17489],[20.41749,31.08831],[20.52353,31.02539],[20.59371,31.007],[20.73809,31.01379],[20.93405,31.04614],[21.39748,31.03278],[21.65525,31.04314],[21.79281,31.09301],[22.11248,31.11988],[22.25893,31.14515],[22.45654,30.99276],[22.51184,30.89349],[22.61922,30.82902],[22.68929,30.81693],[22.78985,30.79156],[22.88876,30.793],[22.97372,30.79977],[23.05702,30.76996],[23.06209,28.13926],[24.96089,28.10048],[24.98124,28.0967],[24.98124,27.04924],[24.26181,27.03305],[23.09185,27.01468],[21.92283,27.00763],[20.72311,27.02181],[19.16982,27.01287],[19.17219,28.34742],[19.00425,28.35824],[18.71858,28.43664],[18.49926,28.50208],[18.49988,28.87599],[18.51363,29.16471],[18.57988,29.36916],[18.69925,29.51742],[18.73315,29.66602],[18.71372,29.83342],[18.72643,30.00057],[18.76106,30.19534],[18.78053,30.37592],[18.79416,30.36818],[18.92595,30.29336],[18.96803,30.27774],[19.05681,30.26618],[19.14601,30.26472],[19.16885,30.26698],[19.23976,30.27399],[19.24032,30.27414],[19.33834,30.29876],[19.33855,30.29881],[19.41896,30.33324],[19.45393,30.35316],[19.53053,30.3968],[19.55104,30.40493],[19.56782,30.40757],[19.59604,30.41201],[19.59604,30.41201],[19.59604,30.41201],[19.61638,30.42137],[19.74887,30.51093],[19.91432,30.68293],[19.95818,30.7497],[19.95882,30.75047],[19.98219,30.77863],[19.98219,30.77864],[20.01873,30.80378],[20.03647,30.81908],[20.03647,30.81908],[20.09986,30.935],[20.11686,30.97517],[20.14666,31.04556],[20.14909,31.0638],[20.15235,31.0882],[20.14897,31.16465],[20.14666,31.21678],[20.14165,31.22386],[20.15343,31.22843]]]}},{"type":"Feature","properties":{"id":"LBY:ADM1:10800210B41812565387288","name":"Surt","countryCode":"LBY"},"geometry":{"type":"Polygon","coordinates":[[[18.761,30.38422],[18.77911,30.37653],[18.78053,30.37592],[18.78053,30.37592],[18.76106,30.19534],[18.72643,30.00057],[18.71372,29.83342],[18.73315,29.66602],[18.69925,29.51742],[18.57988,29.36916],[18.51363,29.16471],[18.49988,28.87599],[18.49926,28.48462],[18.38465,28.51748],[18.22548,28.55534],[18.08782,28.63962],[17.98209,28.73305],[17.94033,28.87294],[17.89847,28.98479],[17.81362,29.07802],[17.72866,29.16189],[17.68639,29.25498],[17.66541,29.32942],[17.58015,29.39456],[17.50522,29.39449],[17.43029,29.35717],[17.33386,29.28261],[17.23774,29.3103],[17.08808,29.34715],[16.98122,29.4305],[16.85285,29.43929],[16.74588,29.40159],[16.55334,29.39123],[16.43562,29.41841],[16.41856,29.4088],[16.51013,29.53052],[16.53122,29.63295],[16.49866,29.76289],[16.4659,29.92065],[16.30302,30.30944],[16.26984,30.4947],[16.22571,30.68901],[16.11564,31.04927],[16.1146,31.21577],[16.13738,31.26124],[16.35865,31.22712],[16.72804,31.22382],[16.9419,31.1833],[17.16033,31.1188],[17.33058,31.08649],[17.3659,31.08661],[17.3659,31.08661],[17.37951,31.0803],[17.38201,31.07876],[17.4186,31.06217],[17.41863,31.06216],[17.42803,31.05447],[17.44728,31.03872],[17.45777,31.03335],[17.46681,31.02998],[17.46681,31.02997],[17.57677,31.00197],[17.61394,30.9925],[17.69174,30.95966],[17.77605,30.93521],[17.84864,30.92365],[17.85974,30.91512],[17.86166,30.91364],[17.86191,30.91332],[17.88917,30.87792],[17.89603,30.87252],[17.90748,30.86351],[17.92677,30.85517],[17.94696,30.85129],[18.01686,30.83788],[18.14104,30.79728],[18.1753,30.78608],[18.17673,30.78535],[18.20834,30.76923],[18.23525,30.74717],[18.23569,30.74681],[18.24652,30.73581],[18.32423,30.65689],[18.56837,30.50007],[18.60578,30.46307],[18.6233,30.44575],[18.65317,30.42231],[18.69042,30.40494],[18.71925,30.39151],[18.73795,30.38824],[18.761,30.38422]]]}},{"type":"Feature","properties":{"id":"LBY:ADM1:10800210B44488917334986","name":"Al Qubbah","countryCode":"LBY"},"geometry":{"type":"Polygon","coordinates":[[[23.2435,32.22061],[23.25136,32.21673],[23.21763,32.12199],[23.16875,32.00347],[23.11841,31.848],[23.10529,31.6683],[23.07139,31.51219],[22.9854,31.40364],[22.95656,31.23334],[22.95563,31.08066],[22.96876,31.00625],[22.96886,30.79936],[22.88876,30.793],[22.78985,30.79156],[22.68929,30.81693],[22.61922,30.82902],[22.51184,30.89349],[22.45654,30.99276],[22.25893,31.14515],[22.11248,31.11988],[21.91776,31.28202],[21.96737,31.46121],[21.96758,31.62288],[21.99125,31.67776],[22.00055,31.78834],[21.99869,31.88991],[22.00437,32.05122],[21.9804,32.14393],[21.97812,32.23152],[21.95931,32.31947],[21.97688,32.35131],[21.99042,32.42469],[22.02029,32.49768],[22.03321,32.55261],[22.02494,32.62641],[21.99404,32.68227],[21.96934,32.7564],[21.97771,32.83893],[21.97998,32.90114],[21.98618,32.91309],[22.0962,32.92308],[22.0962,32.92308],[22.10133,32.92642],[22.10682,32.93399],[22.11671,32.94416],[22.11671,32.94416],[22.11672,32.94416],[22.14958,32.94794],[22.14959,32.94794],[22.14959,32.94794],[22.16944,32.93822],[22.16944,32.93822],[22.16945,32.93821],[22.17107,32.93185],[22.17107,32.92626],[22.17506,32.91625],[22.18943,32.90351],[22.2068,32.88813],[22.21262,32.88708],[22.24733,32.88085],[22.29192,32.88147],[22.33961,32.88215],[22.35954,32.8762],[22.37916,32.87035],[22.47409,32.80915],[22.47731,32.80707],[22.47731,32.80707],[22.47731,32.80707],[22.49676,32.79731],[22.51384,32.79096],[22.53224,32.78754],[22.57887,32.78461],[22.79204,32.72978],[22.81251,32.72451],[22.83946,32.70942],[22.86671,32.69416],[22.88453,32.68977],[22.89584,32.68818],[22.89584,32.68818],[22.91641,32.6811],[22.92921,32.6767],[22.94264,32.67504],[22.9769,32.6767],[22.99968,32.67056],[23.04135,32.65253],[23.08644,32.64647],[23.10613,32.63984],[23.11495,32.63245],[23.11866,32.62934],[23.12094,32.61522],[23.11582,32.60596],[23.11525,32.60493],[23.09791,32.58666],[23.0978,32.58636],[23.09441,32.57738],[23.10385,32.51634],[23.10385,32.51634],[23.10385,32.51634],[23.10586,32.51304],[23.11329,32.5008],[23.12867,32.48847],[23.14894,32.47809],[23.14096,32.45856],[23.13641,32.43567],[23.12843,32.39549],[23.10865,32.40233],[23.11015,32.40643],[23.11215,32.41193],[23.10987,32.42032],[23.10336,32.42817],[23.09441,32.43647],[23.09441,32.43647],[23.09441,32.43647],[23.08602,32.39146],[23.07911,32.35444],[23.08058,32.33405],[23.08058,32.33405],[23.08058,32.33405],[23.09555,32.32355],[23.13092,32.31194],[23.1565,32.30353],[23.16282,32.30253],[23.17897,32.29995],[23.19508,32.29165],[23.20761,32.27925],[23.21453,32.27241],[23.22601,32.25705],[23.2308,32.25064],[23.23549,32.23955],[23.2435,32.22061],[23.2435,32.22061],[23.2435,32.22061]]]}},{"type":"Feature","properties":{"id":"LBY:ADM1:10800210B53073192190863","name":"Murzuq","countryCode":"LBY"},"geometry":{"type":"Polygon","coordinates":[[[19.16806,26.00376],[19.126,26.02229],[19.02078,26.05515],[18.8856,26.0858],[18.72881,26.11401],[18.61512,26.13931],[18.51497,26.14977],[18.41245,26.23354],[18.32057,26.32943],[18.20409,26.37645],[18.0628,26.34516],[17.95418,26.29411],[17.90809,26.24284],[17.77796,26.15747],[17.69663,26.13554],[17.56661,26.1258],[17.49364,26.08417],[17.40982,26.05229],[17.26337,26.10094],[16.9405,26.16342],[16.88303,26.23408],[16.80397,26.28504],[16.72759,26.3262],[16.62072,26.42578],[16.56801,26.52815],[16.57514,26.63093],[16.51995,26.70147],[16.37195,26.77366],[16.32265,26.79281],[16.27842,26.84622],[16.26912,26.92926],[16.27087,27.00267],[16.27966,27.07517],[15.76103,26.94792],[15.4671,26.89779],[15.27796,26.87671],[14.974,26.80694],[14.82755,26.7579],[14.6412,26.58623],[14.53796,26.48138],[14.42437,26.37627],[14.24743,26.30739],[14.13302,26.2677],[13.93437,26.24687],[13.66927,26.1597],[13.4819,26.11799],[13.41007,26.06001],[13.30826,25.94498],[13.20543,25.87677],[12.96554,25.86139],[12.70675,25.77943],[12.62489,25.72086],[12.50004,25.70797],[12.36362,25.73225],[12.15991,25.57591],[12.0456,25.56304],[11.85843,25.54779],[11.7742,25.57327],[11.59405,25.65197],[11.39954,25.55144],[11.33257,25.38933],[11.34001,25.19211],[11.33402,24.79678],[11.45546,24.5939],[11.48098,24.463],[11.46724,24.32634],[11.50863,24.31381],[11.54139,24.29751],[11.56713,24.26684],[11.96886,23.51735],[13.48226,23.17967],[13.59956,23.11903],[14.20164,22.62322],[14.21622,22.6163],[14.23172,22.61795],[14.97927,22.99537],[15.96464,23.44221],[15.9851,23.44472],[19.18584,21.86418],[19.16806,26.00376]]]}},{"type":"Feature","properties":{"id":"LBY:ADM1:10800210B53685260454781","name":"Tajura' wa an Nawahi al Arba","countryCode":"LBY"},"geometry":{"type":"Polygon","coordinates":[[[13.91529,32.77277],[13.95444,32.75824],[13.89024,32.711],[13.81283,32.6394],[13.8089,32.62085],[13.70379,32.61139],[13.57336,32.56075],[13.4513,32.52861],[13.40107,32.43523],[13.38485,32.38317],[13.35033,32.36392],[13.23643,32.33374],[13.18755,32.38981],[13.19003,32.46003],[13.16316,32.64922],[13.07634,32.72121],[13.11096,32.78296],[13.1032,32.87742],[13.11549,32.88215],[13.16472,32.91274],[13.16472,32.91275],[13.18276,32.91549],[13.18775,32.91625],[13.25709,32.91865],[13.3212,32.90889],[13.35174,32.90424],[13.35174,32.90424],[13.36535,32.89796],[13.37355,32.89203],[13.57146,32.8028],[13.57146,32.8028],[13.57146,32.8028],[13.57931,32.80118],[13.61695,32.7934],[13.78624,32.7996],[13.78712,32.79963],[13.78845,32.79946],[13.83033,32.79409],[13.84555,32.79028],[13.91529,32.77277]]]}},{"type":"Feature","properties":{"id":"LBY:ADM1:10800210B54463644997685","name":"Al Marj","countryCode":"LBY"},"geometry":{"type":"Polygon","coordinates":[[[21.35924,32.77578],[21.36772,32.77513],[21.38736,32.78056],[21.39459,32.76808],[21.45805,32.6979],[21.46156,32.63346],[21.38839,32.57047],[21.33186,32.51171],[21.33485,32.42882],[21.36441,32.32697],[21.42684,32.22904],[21.46198,32.13163],[21.52544,32.07045],[21.6321,31.99916],[21.66176,31.90632],[21.66827,31.77238],[21.65959,31.67561],[21.61876,31.58872],[21.61494,31.4733],[21.65442,31.35232],[21.68005,31.30556],[21.71178,31.28179],[21.71716,31.06562],[21.65525,31.04314],[21.39748,31.03278],[21.31904,31.03506],[21.28886,31.27626],[21.24235,31.35571],[21.22375,31.45774],[21.21538,31.54105],[21.14644,31.59771],[21.09177,31.58484],[20.97208,31.57766],[20.84217,31.59368],[20.766,31.59027],[20.68373,31.55924],[20.54854,31.57973],[20.50627,31.63117],[20.46545,31.73793],[20.41305,31.81713],[20.35042,31.9287],[20.30928,32.03531],[20.31104,32.10905],[20.35724,32.21899],[20.43031,32.3055],[20.5193,32.37327],[20.56467,32.43706],[20.57841,32.54729],[20.57603,32.56271],[20.68308,32.60169],[20.79656,32.64301],[20.93409,32.7226],[20.97489,32.73994],[21.05095,32.77228],[21.09669,32.78107],[21.26077,32.7725],[21.28679,32.77114],[21.30018,32.77218],[21.33188,32.77464],[21.35704,32.78034],[21.35924,32.77578]]]}},{"type":"Feature","properties":{"id":"LBY:ADM1:10800210B58781405840719","name":"Misratah","countryCode":"LBY"},"geometry":{"type":"Polygon","coordinates":[[[15.68751,31.43781],[15.75008,31.39579],[15.76149,31.38813],[16.04461,31.27554],[16.13738,31.26124],[16.1146,31.21577],[16.11564,31.04927],[16.22571,30.68901],[16.26984,30.4947],[16.30302,30.30944],[16.4659,29.92065],[16.49866,29.76289],[16.53122,29.63295],[16.51013,29.53052],[16.41856,29.4088],[16.37133,29.4366],[16.13558,29.49996],[16.03947,29.47122],[15.94355,29.42386],[15.87968,29.37676],[15.74057,29.39399],[15.66502,29.46763],[15.59991,29.55995],[15.56745,29.5875],[15.50296,29.61468],[15.38514,29.61328],[15.29915,29.64013],[15.20251,29.65747],[15.05193,29.70196],[14.97586,29.77526],[14.8999,29.83921],[14.85422,29.86195],[14.86558,29.88092],[14.93121,29.94065],[14.97969,30.01711],[14.98237,30.1318],[14.9708,30.25841],[14.95013,30.4092],[14.85866,30.46607],[14.78176,30.49878],[14.56069,30.55054],[14.45166,30.61901],[14.3576,30.65358],[14.21167,30.72105],[14.06594,31.03201],[13.93417,31.24321],[13.9166,31.25982],[13.79816,31.32264],[13.68891,31.43917],[13.63238,31.50828],[13.59992,31.61453],[13.55373,31.70577],[13.48985,31.81356],[13.45265,31.96092],[13.39766,32.05078],[13.45885,32.0521],[13.61636,32.04807],[13.67734,32.0567],[13.77728,32.08094],[13.83371,32.10055],[13.89923,32.10181],[13.96104,32.07711],[13.99163,32.07401],[14.06574,32.08647],[14.12206,32.14256],[14.28505,32.04605],[14.36505,31.97714],[14.47047,31.9456],[14.66673,31.96776],[14.68265,32.05623],[14.71624,32.13809],[14.755,32.17935],[14.75841,32.23852],[14.73133,32.29353],[14.72172,32.34511],[14.74249,32.41559],[14.7552,32.43898],[14.75583,32.44968],[14.91114,32.44391],[15.11476,32.41279],[15.12603,32.40927],[15.16,32.39867],[15.18198,32.39549],[15.1875,32.39324],[15.19597,32.3898],[15.23325,32.34711],[15.26971,32.32884],[15.27294,32.32605],[15.28305,32.31729],[15.29217,32.28091],[15.30079,32.26081],[15.3226,32.22419],[15.36451,32.17471],[15.3668,32.16869],[15.37045,32.15908],[15.36886,32.14028],[15.36866,32.13801],[15.35963,32.10212],[15.35525,32.03872],[15.35524,32.03852],[15.35714,32.01478],[15.36109,31.96532],[15.36669,31.94383],[15.37045,31.92939],[15.4555,31.74184],[15.49041,31.66486],[15.49158,31.66307],[15.51441,31.62836],[15.62281,31.49726],[15.63357,31.48738],[15.68751,31.43781]]]}},{"type":"Feature","properties":{"id":"LBY:ADM1:10800210B63841479422356","name":"An Nuqat al Khams","countryCode":"LBY"},"geometry":{"type":"Polygon","coordinates":[[[12.55492,32.79932],[12.50139,32.65708],[12.46211,32.6008],[12.33716,32.53099],[12.28641,32.47419],[12.12208,32.40683],[12.09759,32.35441],[11.86267,32.30756],[11.70071,32.30573],[11.64314,32.32245],[11.59312,32.36893],[11.52609,32.41786],[11.54635,32.43427],[11.56413,32.46549],[11.56062,32.50758],[11.53736,32.54352],[11.47039,32.59928],[11.44993,32.63796],[11.4492,32.69302],[11.46378,32.79846],[11.45654,32.9021],[11.47442,32.96987],[11.47742,33.04121],[11.50605,33.13638],[11.50511,33.18123],[11.56022,33.16592],[11.56023,33.16592],[11.57239,33.15934],[11.57496,33.15795],[11.58056,33.14665],[11.58766,33.13231],[11.59589,33.12651],[11.60304,33.12149],[11.63575,33.10871],[11.63575,33.10871],[11.63575,33.10871],[11.7566,33.09251],[11.78341,33.08396],[11.79347,33.08076],[11.79347,33.08076],[11.79347,33.08076],[11.77865,33.09419],[11.77296,33.09935],[11.74536,33.1069],[11.70777,33.11717],[11.70574,33.11947],[11.69109,33.13597],[11.73927,33.11298],[11.84702,33.08283],[12.08074,32.95783],[12.08601,32.95322],[12.12241,32.92133],[12.13519,32.91811],[12.16066,32.91169],[12.22264,32.87716],[12.22486,32.87592],[12.22486,32.87592],[12.22486,32.87592],[12.22716,32.87497],[12.30388,32.84309],[12.34832,32.83267],[12.57322,32.81257],[12.55492,32.79932]]]}},{"type":"Feature","properties":{"id":"LBY:ADM1:10800210B65194490964920","name":"Ghadamis","countryCode":"LBY"},"geometry":{"type":"Polygon","coordinates":[[[11.52609,32.41786],[11.5139,32.408],[11.44403,32.36849],[10.87322,32.1367],[10.84593,32.11179],[10.80562,32.03236],[10.77286,32.00451],[10.73658,31.98539],[10.7031,31.96218],[10.68356,31.95702],[10.64729,31.97195],[10.62848,31.97412],[10.60595,31.95361],[10.59757,31.87351],[10.58455,31.84028],[10.54238,31.80664],[10.52554,31.77207],[10.49887,31.74432],[10.48254,31.7331],[10.42777,31.7146],[10.31542,31.71584],[10.26395,31.6805],[10.19646,31.57859],[10.13259,31.51756],[10.11688,31.49441],[10.10624,31.42919],[10.1081,31.41183],[10.18272,31.24078],[10.21321,31.13536],[10.24483,31.07816],[10.24618,31.05955],[10.24059,31.02116],[10.24504,30.98571],[10.27015,30.91563],[10.26974,30.88215],[10.25393,30.84179],[10.19222,30.73125],[10.10117,30.6417],[9.99565,30.49452],[9.87131,30.35515],[9.84579,30.34228],[9.77292,30.3381],[9.74347,30.33133],[9.51971,30.22891],[9.28654,30.11713],[9.31,30.08437],[9.42173,29.96871],[9.54968,29.80232],[9.66771,29.60832],[9.82615,29.12853],[9.84827,28.97573],[9.85126,28.786],[9.82728,28.61865],[9.87013,28.63298],[9.92284,28.6573],[10.13791,28.71727],[10.23155,28.68525],[10.3749,28.61404],[10.44074,28.62458],[10.70584,28.73013],[10.78025,28.78494],[10.8526,28.82739],[10.90986,28.84465],[10.93828,28.78724],[10.95378,28.71458],[11.01631,28.64156],[11.14488,28.62278],[11.19098,28.59298],[11.32389,28.5449],[11.38755,28.54513],[11.49235,28.60332],[11.58733,28.59009],[11.6233,28.59154],[11.72479,28.6103],[11.78877,28.55169],[11.89791,28.52901],[11.95186,28.59505],[11.92158,28.776],[11.89739,28.85919],[11.8083,28.96831],[11.72934,29.08701],[11.72986,29.36648],[11.64945,29.81061],[11.61968,30.03274],[11.61214,30.23686],[11.61627,30.41334],[11.58992,30.54243],[11.5986,30.59834],[11.65079,30.64635],[11.73296,30.76016],[11.86732,30.93103],[11.96302,31.08089],[11.94566,31.08681],[11.89502,31.16699],[11.85295,31.24737],[11.83672,31.33594],[11.8452,31.46232],[11.8329,31.56205],[11.83735,31.68075],[11.85554,31.78132],[11.83972,31.8549],[11.82277,31.96177],[11.84003,32.08807],[11.86267,32.1886],[11.86267,32.30756],[11.70071,32.30573],[11.64314,32.32245],[11.59312,32.36893],[11.52609,32.41786]]]}},{"type":"Feature","properties":{"id":"LBY:ADM1:10800210B66581866957995","name":"Al Marqab","countryCode":"LBY"},"geometry":{"type":"Polygon","coordinates":[[[14.70672,32.45628],[14.70807,32.45591],[14.72682,32.45075],[14.75583,32.44968],[14.7552,32.43898],[14.74249,32.41559],[14.72172,32.34511],[14.73133,32.29353],[14.75841,32.23852],[14.755,32.17935],[14.71624,32.13809],[14.68265,32.05623],[14.66673,31.96776],[14.47047,31.9456],[14.36505,31.97714],[14.28505,32.04605],[14.12206,32.14256],[14.06574,32.08647],[13.99163,32.07401],[13.96104,32.07711],[13.89923,32.10181],[13.83371,32.10055],[13.77728,32.08094],[13.67734,32.0567],[13.61636,32.04807],[13.45885,32.0521],[13.39766,32.05078],[13.39177,32.10982],[13.36325,32.20163],[13.3002,32.27043],[13.23643,32.33374],[13.35033,32.36392],[13.38485,32.38317],[13.40107,32.43523],[13.4513,32.52861],[13.57336,32.56075],[13.70379,32.61139],[13.8089,32.62085],[13.81283,32.6394],[13.89024,32.711],[13.95444,32.75824],[13.97753,32.74966],[13.99122,32.74457],[13.99125,32.74457],[14.18531,32.7145],[14.18531,32.7145],[14.20194,32.70147],[14.20338,32.70034],[14.20338,32.70034],[14.20338,32.70034],[14.20932,32.69721],[14.22633,32.6909],[14.2309,32.68704],[14.26246,32.66031],[14.31715,32.63044],[14.36935,32.59224],[14.40406,32.56684],[14.42868,32.54433],[14.44939,32.52538],[14.4663,32.52004],[14.46949,32.51903],[14.57806,32.50339],[14.6316,32.49567],[14.6316,32.49567],[14.66293,32.47675],[14.68822,32.46493],[14.70672,32.45629],[14.70672,32.45628],[14.70672,32.45628]]]}},{"type":"Feature","properties":{"id":"LBY:ADM1:10800210B74925506200485","name":"Benghazi","countryCode":"LBY"},"geometry":{"type":"Polygon","coordinates":[[[20.57841,32.54729],[20.56467,32.43706],[20.5193,32.37327],[20.43031,32.3055],[20.35724,32.21899],[20.31104,32.10905],[20.30928,32.03531],[20.35042,31.9287],[20.41305,31.81713],[20.46545,31.73793],[20.50627,31.63117],[20.54854,31.57973],[20.68373,31.55924],[20.766,31.59027],[20.84217,31.59368],[20.97208,31.57766],[21.09177,31.58484],[21.14644,31.59771],[21.21538,31.54105],[21.22375,31.45774],[21.24235,31.35571],[21.28886,31.27626],[21.31904,31.03506],[20.93405,31.04614],[20.73809,31.01379],[20.59371,31.007],[20.52353,31.02539],[20.41749,31.08831],[20.34308,31.17489],[20.29905,31.23169],[20.18919,31.26282],[20.13286,31.2607],[20.13575,31.25174],[20.14764,31.24171],[20.15343,31.22843],[20.14165,31.22386],[20.13788,31.22919],[20.1281,31.24299],[20.1091,31.29332],[20.10328,31.30874],[20.0822,31.33661],[20.03834,31.37588],[20.03464,31.38069],[20.02223,31.3968],[19.98881,31.47746],[19.95484,31.55947],[19.9489,31.60102],[19.94801,31.64509],[19.94435,31.66144],[19.94434,31.66145],[19.92067,31.71772],[19.92066,31.71772],[19.91725,31.75922],[19.91751,31.76408],[19.91969,31.80467],[19.92994,31.86327],[19.93434,31.88841],[19.94801,31.92597],[19.94581,31.93598],[19.94494,31.93832],[19.94012,31.95775],[19.94011,31.95775],[19.94459,31.96751],[19.9572,31.98273],[20.02713,32.10849],[20.04802,32.14606],[20.05707,32.15774],[20.07154,32.17642],[20.1889,32.27708],[20.26173,32.33954],[20.26985,32.35072],[20.27719,32.36083],[20.3034,32.38743],[20.32545,32.40982],[20.38551,32.43464],[20.38551,32.43464],[20.38551,32.43464],[20.40333,32.44733],[20.41676,32.45946],[20.45114,32.48264],[20.56267,32.55785],[20.57603,32.56271],[20.57841,32.54729]]]}},{"type":"Feature","properties":{"id":"LBY:ADM1:10800210B80153830865201","name":"Sabha","countryCode":"LBY"},"geometry":{"type":"Polygon","coordinates":[[[16.27966,27.07517],[16.28069,27.08346],[16.25795,27.15173],[16.19191,27.18532],[16.12825,27.23849],[16.0621,27.27206],[16.02324,27.30588],[15.99192,27.38378],[15.96319,27.46659],[15.79483,27.69198],[15.79586,27.7212],[15.56415,27.74115],[15.41656,27.69268],[15.35351,27.66384],[15.06847,27.63201],[14.92129,27.5738],[14.84905,27.46047],[14.61878,27.33518],[14.52483,27.27746],[14.48359,27.22061],[14.42117,27.17271],[13.98316,27.12891],[14.02243,27.09039],[14.04548,26.98781],[14.03762,26.8565],[14.08114,26.7824],[14.13467,26.72721],[14.14625,26.67119],[14.08548,26.55753],[13.972,26.46151],[13.93231,26.34816],[13.93448,26.24501],[14.13302,26.2677],[14.24743,26.30739],[14.42437,26.37627],[14.53796,26.48138],[14.6412,26.58623],[14.82755,26.7579],[14.974,26.80694],[15.27796,26.87671],[15.4671,26.89779],[15.76103,26.94792],[16.27966,27.07517]]]}},{"type":"Feature","properties":{"id":"LBY:ADM1:10800210B86029592505559","name":"Al Jifarah","countryCode":"LBY"},"geometry":{"type":"Polygon","coordinates":[[[13.23643,32.33374],[13.18755,32.38981],[13.19003,32.46003],[13.16316,32.64922],[13.07634,32.72121],[13.07324,32.7157],[12.96927,32.66896],[12.89775,32.56021],[12.82333,32.40699],[12.82974,32.33694],[12.81961,32.2602],[12.96286,32.27738],[13.0504,32.27948],[13.15509,32.29302],[13.18961,32.31229],[13.2508,32.31738],[13.23643,32.33374]]]}},{"type":"Feature","properties":{"id":"LBY:ADM1:10800210B89898169718474","name":"Al Kufrah","countryCode":"LBY"},"geometry":{"type":"Polygon","coordinates":[[[19.18584,21.86418],[23.98131,19.49612],[23.98131,19.99542],[24.9768,19.99596],[24.98052,20.00206],[24.98124,27.04924],[24.26181,27.03305],[23.09185,27.01468],[21.92283,27.00763],[20.72311,27.02181],[19.16982,27.01287],[19.16806,26.00376],[19.18584,21.86418]]]}},{"type":"Feature","properties":{"id":"LBY:ADM1:10800210B94224648391824","name":"Al Jufrah","countryCode":"LBY"},"geometry":{"type":"Polygon","coordinates":[[[19.16982,27.01287],[19.17219,28.34742],[19.00425,28.35824],[18.71858,28.43664],[18.49926,28.50208],[18.49926,28.48462],[18.38465,28.51748],[18.22548,28.55534],[18.08782,28.63962],[17.98209,28.73305],[17.94033,28.87294],[17.89847,28.98479],[17.81362,29.07802],[17.72866,29.16189],[17.68639,29.25498],[17.66541,29.32942],[17.58015,29.39456],[17.50522,29.39449],[17.43029,29.35717],[17.33386,29.28261],[17.23774,29.3103],[17.08808,29.34715],[16.98122,29.4305],[16.85285,29.43929],[16.74588,29.40159],[16.55334,29.39123],[16.43562,29.41841],[16.41856,29.4088],[16.37133,29.4366],[16.13558,29.49996],[16.03947,29.47122],[15.94355,29.42386],[15.87968,29.37676],[15.74057,29.39399],[15.66502,29.46763],[15.59991,29.55995],[15.56745,29.5875],[15.50296,29.61468],[15.38514,29.61328],[15.29915,29.64013],[15.20251,29.65747],[15.05193,29.70196],[14.97586,29.77526],[14.8999,29.83921],[14.85422,29.86195],[14.82269,29.80937],[14.76306,29.73749],[14.7366,29.6833],[14.73856,29.60768],[14.75727,29.53724],[14.75944,29.45673],[14.75241,29.40534],[14.712,29.35573],[14.63242,29.31268],[14.50664,29.23196],[14.41982,29.2091],[14.40814,28.9881],[14.42251,28.8785],[14.46923,28.79889],[14.527,28.71949],[14.65991,28.622],[14.83975,28.5204],[14.9587,28.40772],[14.99188,28.2959],[14.99384,28.21774],[15.01762,28.14485],[15.12273,28.12952],[15.24933,28.14138],[15.38028,28.20696],[15.50689,28.21859],[15.58967,28.21484],[15.72011,28.17502],[15.79214,28.15637],[15.87886,28.07919],[15.89405,27.99628],[15.87069,27.91535],[15.79659,27.74335],[15.79483,27.69198],[15.96319,27.46659],[15.99192,27.38378],[16.02324,27.30588],[16.0621,27.27206],[16.12825,27.23849],[16.19191,27.18532],[16.25795,27.15173],[16.28069,27.08346],[16.27087,27.00267],[16.26912,26.92926],[16.27842,26.84622],[16.32265,26.79281],[16.37195,26.77366],[16.51995,26.70147],[16.57514,26.63093],[16.56801,26.52815],[16.62072,26.42578],[16.72759,26.3262],[16.80397,26.28504],[16.88303,26.23408],[16.9405,26.16342],[17.26337,26.10094],[17.40982,26.05229],[17.49364,26.08417],[17.56661,26.1258],[17.69663,26.13554],[17.77796,26.15747],[17.90809,26.24284],[17.95418,26.29411],[18.0628,26.34516],[18.20409,26.37645],[18.32057,26.32943],[18.41245,26.23354],[18.51497,26.14977],[18.61512,26.13931],[18.72881,26.11401],[18.8856,26.0858],[19.02078,26.05515],[19.126,26.02229],[19.16806,26.00376],[19.16982,27.01287]]]}}]}}
