{"type":"FeatureCollection","features":[{"type":"Feature","properties":{"id":"LCA:ADM0:98054014B58335543413383","name":"Saint Lucia","countryCode":"LCA","adminLevel":0,"sourceCode":"98054014B58335543413383","parentId":"LCA:ADM1:LCA-5077"},"geometry":{"type":"Polygon","coordinates":[[[-60.96671,14.06517],[-60.9637,14.07148],[-60.95802,14.07145],[-60.95511,14.07794],[-60.95148,14.07512],[-60.95461,14.0706],[-60.94882,14.07406],[-60.94932,14.079],[-60.95558,14.07997],[-60.95689,14.08817],[-60.95755,14.0884],[-60.94762,14.10228],[-60.93899,14.10814],[-60.93135,14.10888],[-60.9303,14.10441],[-60.92532,14.10664],[-60.9182,14.10191],[-60.91834,14.09254],[-60.92756,14.08995],[-60.92906,14.08686],[-60.92207,14.08568],[-60.91821,14.07759],[-60.91193,14.07949],[-60.91106,14.079],[-60.91222,14.07657],[-60.909,14.0752],[-60.912,14.07324],[-60.91301,14.06101],[-60.90636,14.06672],[-60.89925,14.06705],[-60.89189,14.0598],[-60.89021,14.05223],[-60.88923,14.04017],[-60.89505,14.03883],[-60.89139,14.0347],[-60.89439,14.03147],[-60.88828,14.0285],[-60.88818,14.02725],[-60.88976,14.0193],[-60.88727,14.01603],[-60.88679,14.01008],[-60.88645,14.00745],[-60.887,14.00619],[-60.88579,14.0024],[-60.88296,13.98062],[-60.88305,13.95441],[-60.88748,13.92602],[-60.88994,13.91814],[-60.88883,13.91743],[-60.89509,13.87735],[-60.89498,13.87566],[-60.89696,13.87215],[-60.89458,13.86958],[-60.8922,13.8332],[-60.8938,13.82688],[-60.89803,13.82661],[-60.89496,13.82232],[-60.90461,13.78425],[-60.9073,13.77733],[-60.91031,13.77611],[-60.92284,13.77269],[-60.92711,13.76992],[-60.93175,13.76032],[-60.93565,13.74382],[-60.93771,13.74085],[-60.93831,13.73258],[-60.93864,13.73118],[-60.94626,13.72262],[-60.94409,13.71903],[-60.94701,13.7163],[-60.9501,13.71467],[-60.95507,13.71467],[-60.95544,13.71516],[-60.95123,13.72104],[-60.95771,13.72869],[-60.96603,13.72923],[-60.97338,13.739],[-60.99478,13.74711],[-60.99678,13.75072],[-61.00797,13.7521],[-61.04573,13.7664],[-61.05819,13.78221],[-61.06464,13.7866],[-61.06493,13.78693],[-61.06773,13.79157],[-61.0683,13.79784],[-61.07752,13.80764],[-61.07563,13.81189],[-61.06355,13.82409],[-61.06896,13.83414],[-61.06165,13.85322],[-61.06345,13.85659],[-61.06898,13.8563],[-61.07308,13.85882],[-61.07559,13.86327],[-61.07811,13.86961],[-61.07852,13.87979],[-61.07592,13.89037],[-61.07391,13.89451],[-61.06645,13.90846],[-61.06681,13.9093],[-61.06529,13.91577],[-61.06023,13.91948],[-61.05869,13.93232],[-61.05686,13.9349],[-61.04548,13.93926],[-61.03986,13.95375],[-61.03204,13.96294],[-61.02255,13.96502],[-61.03004,13.97003],[-61.0241,13.98697],[-61.01848,13.98322],[-61.01122,13.98371],[-61.01516,13.9889],[-61.01599,14.00247],[-61.01538,14.00387],[-61.01113,14.01011],[-61.0052,14.01425],[-61.00083,14.01],[-60.99133,14.00922],[-60.99115,14.0141],[-60.99565,14.01232],[-60.99623,14.01724],[-60.99951,14.01541],[-61.00382,14.02086],[-61.00253,14.02275],[-60.99805,14.02325],[-60.9915,14.02004],[-60.97459,14.03365],[-60.97288,14.04951],[-60.97662,14.05868],[-60.97606,14.06118],[-60.97326,14.06605],[-60.96671,14.06517]]]}}],"admin1":{"type":"FeatureCollection","features":[{"type":"Feature","properties":{"id":"LCA:ADM1:LCA-5077","name":"Castries Quarter","countryCode":"LCA"},"geometry":{"type":"Polygon","coordinates":[[[-60.96671,14.06517],[-60.9637,14.07148],[-60.95802,14.07145],[-60.95511,14.07794],[-60.95148,14.07512],[-60.95461,14.0706],[-60.94882,14.07406],[-60.94932,14.079],[-60.95558,14.07997],[-60.95689,14.08817],[-60.95755,14.0884],[-60.94762,14.10228],[-60.93899,14.10814],[-60.93135,14.10888],[-60.9303,14.10441],[-60.92532,14.10664],[-60.9182,14.10191],[-60.91834,14.09254],[-60.92756,14.08995],[-60.92906,14.08686],[-60.92207,14.08568],[-60.91821,14.07759],[-60.91193,14.07949],[-60.91106,14.079],[-60.91222,14.07657],[-60.909,14.0752],[-60.912,14.07324],[-60.91301,14.06101],[-60.90636,14.06672],[-60.89925,14.06705],[-60.89189,14.0598],[-60.89021,14.05223],[-60.88923,14.04017],[-60.89505,14.03883],[-60.89139,14.0347],[-60.89439,14.03147],[-60.88828,14.0285],[-60.88818,14.02725],[-60.88976,14.0193],[-60.88727,14.01603],[-60.88679,14.01008],[-60.88645,14.00745],[-60.887,14.00619],[-60.88579,14.0024],[-60.88296,13.98062],[-60.88305,13.95441],[-60.88748,13.92602],[-60.88994,13.91814],[-60.88883,13.91743],[-60.89509,13.87735],[-60.89498,13.87566],[-60.89696,13.87215],[-60.89458,13.86958],[-60.8922,13.8332],[-60.8938,13.82688],[-60.89803,13.82661],[-60.89496,13.82232],[-60.90461,13.78425],[-60.9073,13.77733],[-60.91031,13.77611],[-60.92284,13.77269],[-60.92711,13.76992],[-60.93175,13.76032],[-60.93565,13.74382],[-60.93771,13.74085],[-60.93831,13.73258],[-60.93864,13.73118],[-60.94626,13.72262],[-60.94409,13.71903],[-60.94701,13.7163],[-60.9501,13.71467],[-60.95507,13.71467],[-60.95544,13.71516],[-60.95123,13.72104],[-60.95771,13.72869],[-60.96603,13.72923],[-60.97338,13.739],[-60.99478,13.74711],[-60.99678,13.75072],[-61.00797,13.7521],[-61.04573,13.7664],[-61.05819,13.78221],[-61.06464,13.7866],[-61.06493,13.78693],[-61.06773,13.79157],[-61.0683,13.79784],[-61.07752,13.80764],[-61.07563,13.81189],[-61.06355,13.82409],[-61.06896,13.83414],[-61.06165,13.85322],[-61.06345,13.85659],[-61.06898,13.8563],[-61.07308,13.85882],[-61.07559,13.86327],[-61.07811,13.86961],[-61.07852,13.87979],[-61.07592,13.89037],[-61.07391,13.89451],[-61.06645,13.90846],[-61.06681,13.9093],[-61.06529,13.91577],[-61.06023,13.91948],[-61.05869,13.93232],[-61.05686,13.9349],[-61.04548,13.93926],[-61.03986,13.95375],[-61.03204,13.96294],[-61.02255,13.96502],[-61.03004,13.97003],[-61.0241,13.98697],[-61.01848,13.98322],[-61.01122,13.98371],[-61.01516,13.9889],[-61.01599,14.00247],[-61.01538,14.00387],[-61.01113,14.01011],[-61.0052,14.01425],[-61.00083,14.01],[-60.99133,14.00922],[-60.99115,14.0141],[-60.99565,14.01232],[-60.99623,14.01724],[-60.99951,14.01541],[-61.00382,14.02086],[-61.00253,14.02275],[-60.99805,14.02325],[-60.9915,14.02004],[-60.97459,14.03365],[-60.97288,14.04951],[-60.97662,14.05868],[-60.97606,14.06118],[-60.97326,14.06605],[-60.96671,14.06517]]]}}]}}
