{"type":"FeatureCollection","features":[{"type":"Feature","properties":{"id":"LIE:ADM0:60073359B37148090091257","name":"Liechtenstein","countryCode":"LIE","adminLevel":0,"sourceCode":"60073359B37148090091257","parentId":"LIE:ADM1:LIE-4892"},"geometry":{"type":"Polygon","coordinates":[[[9.53654,47.26591],[9.53075,47.27058],[9.52983,47.26185],[9.52045,47.24396],[9.50164,47.22018],[9.48593,47.18236],[9.4913,47.16297],[9.51167,47.13246],[9.51961,47.10013],[9.51353,47.08564],[9.47238,47.06503],[9.47579,47.05175],[9.48227,47.05612],[9.48575,47.04909],[9.49131,47.05625],[9.49953,47.05415],[9.5,47.05713],[9.51207,47.05682],[9.53975,47.06515],[9.55162,47.05884],[9.55692,47.04852],[9.58216,47.0527],[9.6088,47.06186],[9.61345,47.06948],[9.61153,47.0794],[9.61868,47.07814],[9.62354,47.08253],[9.63353,47.08342],[9.63537,47.09063],[9.63438,47.10117],[9.62083,47.11054],[9.62519,47.11913],[9.635,47.12809],[9.62473,47.13262],[9.62261,47.14117],[9.62585,47.14589],[9.62172,47.15129],[9.60871,47.14777],[9.60284,47.15161],[9.59677,47.16289],[9.57946,47.17114],[9.56463,47.17025],[9.57313,47.17559],[9.57259,47.19079],[9.58032,47.19578],[9.5849,47.20535],[9.56856,47.21979],[9.55177,47.22375],[9.56723,47.24188],[9.53654,47.26591]]]}}],"admin1":{"type":"FeatureCollection","features":[{"type":"Feature","properties":{"id":"LIE:ADM1:LIE-4892","name":"Triesenberg","countryCode":"LIE"},"geometry":{"type":"Polygon","coordinates":[[[9.53654,47.26591],[9.53075,47.27058],[9.52983,47.26185],[9.52045,47.24396],[9.50164,47.22018],[9.48593,47.18236],[9.4913,47.16297],[9.51167,47.13246],[9.51961,47.10013],[9.51353,47.08564],[9.47238,47.06503],[9.47579,47.05175],[9.48227,47.05612],[9.48575,47.04909],[9.49131,47.05625],[9.49953,47.05415],[9.5,47.05713],[9.51207,47.05682],[9.53975,47.06515],[9.55162,47.05884],[9.55692,47.04852],[9.58216,47.0527],[9.6088,47.06186],[9.61345,47.06948],[9.61153,47.0794],[9.61868,47.07814],[9.62354,47.08253],[9.63353,47.08342],[9.63537,47.09063],[9.63438,47.10117],[9.62083,47.11054],[9.62519,47.11913],[9.635,47.12809],[9.62473,47.13262],[9.62261,47.14117],[9.62585,47.14589],[9.62172,47.15129],[9.60871,47.14777],[9.60284,47.15161],[9.59677,47.16289],[9.57946,47.17114],[9.56463,47.17025],[9.57313,47.17559],[9.57259,47.19079],[9.58032,47.19578],[9.5849,47.20535],[9.56856,47.21979],[9.55177,47.22375],[9.56723,47.24188],[9.53654,47.26591]]]}}]}}
