{"type":"FeatureCollection","features":[{"type":"Feature","properties":{"id":"LUX:ADM0:64508393B93504459110629","name":"Luxembourg","countryCode":"LUX","adminLevel":0,"sourceCode":"64508393B93504459110629","parentId":"LUX:ADM1:LUX-908"},"geometry":{"type":"Polygon","coordinates":[[[6.02812,50.17522],[6.02473,50.18277],[6.0017,50.1761],[5.96368,50.17263],[5.96177,50.16076],[5.96715,50.15516],[5.95814,50.1514],[5.96121,50.14981],[5.95854,50.13887],[5.96133,50.13136],[5.91409,50.1219],[5.89532,50.11216],[5.89456,50.10115],[5.88647,50.09051],[5.88693,50.0789],[5.86066,50.06921],[5.8542,50.05889],[5.86991,50.04594],[5.85607,50.03628],[5.85988,50.02888],[5.85326,50.02757],[5.85246,50.0229],[5.84381,50.01938],[5.81899,50.01281],[5.82225,50.00592],[5.82081,50.00024],[5.83243,49.99052],[5.84014,49.98944],[5.83856,49.98229],[5.83126,49.9762],[5.81248,49.97219],[5.81055,49.96407],[5.80704,49.9624],[5.79578,49.96569],[5.79119,49.9618],[5.77502,49.9608],[5.77723,49.95774],[5.77037,49.94959],[5.77516,49.93771],[5.77043,49.93668],[5.77097,49.93165],[5.76395,49.93146],[5.76449,49.92412],[5.76047,49.9173],[5.76401,49.91577],[5.7481,49.90944],[5.73622,49.89904],[5.73976,49.895],[5.77061,49.88735],[5.78356,49.87784],[5.77804,49.87589],[5.78374,49.87241],[5.77753,49.8721],[5.77453,49.8673],[5.7702,49.87246],[5.7651,49.86932],[5.75393,49.87192],[5.75298,49.86819],[5.75701,49.86491],[5.75448,49.86205],[5.76074,49.85637],[5.74574,49.8537],[5.75854,49.84874],[5.75448,49.84484],[5.74866,49.84674],[5.75027,49.83969],[5.74094,49.8389],[5.73919,49.83362],[5.74822,49.82446],[5.74346,49.8207],[5.74635,49.81565],[5.75118,49.81487],[5.75309,49.7934],[5.75516,49.79146],[5.77658,49.79463],[5.78135,49.79227],[5.78531,49.79623],[5.79037,49.79576],[5.79193,49.78713],[5.80724,49.77246],[5.80945,49.76533],[5.81597,49.76221],[5.81785,49.75397],[5.83243,49.74692],[5.83038,49.74338],[5.83263,49.74145],[5.82739,49.73911],[5.82829,49.73332],[5.82542,49.732],[5.82633,49.72352],[5.83531,49.72447],[5.84409,49.7213],[5.8651,49.72695],[5.87072,49.72162],[5.87541,49.7216],[5.87482,49.71576],[5.88693,49.70928],[5.86573,49.693],[5.86181,49.68106],[5.86539,49.67609],[5.88218,49.67181],[5.8865,49.66789],[5.89015,49.67047],[5.89276,49.66624],[5.90227,49.66818],[5.90175,49.66431],[5.90839,49.66567],[5.91064,49.66249],[5.90488,49.66108],[5.90295,49.65758],[5.90541,49.65476],[5.90174,49.65144],[5.90772,49.63907],[5.89897,49.63438],[5.89228,49.63623],[5.88386,49.63298],[5.88678,49.62732],[5.87607,49.61995],[5.8766,49.60841],[5.84778,49.59594],[5.85007,49.58695],[5.87081,49.58852],[5.87326,49.58361],[5.86601,49.58056],[5.87192,49.57963],[5.86975,49.57678],[5.8728,49.57429],[5.84242,49.56102],[5.8463,49.5577],[5.84181,49.55311],[5.82797,49.55001],[5.82538,49.55206],[5.80855,49.54091],[5.81264,49.54189],[5.81716,49.53702],[5.83708,49.54258],[5.84581,49.5299],[5.83451,49.5268],[5.83606,49.51996],[5.84783,49.51495],[5.85048,49.50829],[5.86626,49.49991],[5.89574,49.49653],[5.90768,49.50213],[5.92754,49.49838],[5.94012,49.50096],[5.94315,49.50023],[5.94197,49.498],[5.94382,49.49518],[5.94621,49.4976],[5.9552,49.49309],[5.97211,49.49141],[5.9738,49.48911],[5.96817,49.48645],[5.97514,49.48156],[5.97429,49.47695],[5.96965,49.47551],[5.974,49.46549],[5.97931,49.46091],[5.98258,49.46352],[5.98807,49.46129],[5.98572,49.45574],[5.9793,49.45524],[5.98197,49.45106],[5.99793,49.4565],[6.00785,49.45164],[6.02807,49.45575],[6.02725,49.44826],[6.04177,49.44785],[6.05309,49.4639],[6.05811,49.46644],[6.07921,49.46392],[6.08071,49.45847],[6.08623,49.45536],[6.10077,49.45289],[6.09981,49.46746],[6.10406,49.47116],[6.12345,49.47346],[6.12804,49.49392],[6.1328,49.48999],[6.14176,49.49168],[6.14224,49.4869],[6.15281,49.49274],[6.16183,49.49267],[6.15389,49.50163],[6.17497,49.51031],[6.17831,49.50696],[6.21378,49.50629],[6.2181,49.50996],[6.23616,49.50815],[6.24065,49.51494],[6.24657,49.50904],[6.25701,49.5098],[6.2633,49.50395],[6.27986,49.50328],[6.27958,49.49459],[6.28956,49.49383],[6.28439,49.49147],[6.2888,49.48485],[6.29947,49.48801],[6.29622,49.4802],[6.30544,49.47714],[6.31296,49.4804],[6.33402,49.46694],[6.35285,49.46732],[6.36445,49.45951],[6.36885,49.45987],[6.36731,49.50388],[6.35583,49.53074],[6.37826,49.5498],[6.38175,49.5567],[6.35837,49.56979],[6.35695,49.57327],[6.36838,49.57923],[6.38128,49.57729],[6.38183,49.58082],[6.37417,49.58752],[6.37528,49.59255],[6.38434,49.59973],[6.39856,49.60233],[6.42113,49.62084],[6.43987,49.65614],[6.43693,49.6598],[6.426,49.66073],[6.42748,49.66711],[6.44635,49.67818],[6.45795,49.69086],[6.47968,49.69725],[6.49812,49.71158],[6.50627,49.7135],[6.49548,49.72608],[6.50281,49.72692],[6.51095,49.72127],[6.51715,49.72347],[6.50183,49.73229],[6.50012,49.75178],[6.51815,49.76211],[6.51744,49.76853],[6.50957,49.7738],[6.5169,49.78258],[6.50583,49.79025],[6.52124,49.79715],[6.53064,49.80515],[6.5295,49.80909],[6.52023,49.81291],[6.51666,49.80521],[6.51093,49.80142],[6.50542,49.80914],[6.4885,49.81167],[6.47099,49.82232],[6.45433,49.81136],[6.4434,49.81141],[6.44135,49.81419],[6.43027,49.81038],[6.4252,49.81592],[6.39829,49.82158],[6.36394,49.85072],[6.34154,49.84868],[6.33669,49.83881],[6.32644,49.83611],[6.31977,49.8404],[6.32255,49.85151],[6.31388,49.86029],[6.31174,49.86913],[6.29628,49.86645],[6.29128,49.87461],[6.28254,49.87861],[6.2758,49.87669],[6.26193,49.88085],[6.24662,49.89525],[6.23357,49.90009],[6.23211,49.90639],[6.2269,49.9108],[6.23384,49.91265],[6.23157,49.91849],[6.21789,49.92352],[6.22619,49.92931],[6.22352,49.934],[6.22733,49.93662],[6.21654,49.94451],[6.22391,49.95009],[6.21174,49.95023],[6.20543,49.95519],[6.19766,49.94817],[6.19043,49.96886],[6.18109,49.96425],[6.18324,49.95846],[6.1888,49.95656],[6.17881,49.95252],[6.17572,49.96156],[6.17022,49.96275],[6.16484,49.97027],[6.16895,49.98376],[6.17246,49.98464],[6.15705,49.98712],[6.15077,49.99412],[6.14196,49.99481],[6.13768,49.99847],[6.14507,49.99824],[6.14967,50.00884],[6.13853,50.01097],[6.12955,50.01858],[6.13722,50.01576],[6.14594,50.02255],[6.12982,50.02977],[6.13443,50.03985],[6.1214,50.05271],[6.12394,50.05981],[6.11776,50.05633],[6.11225,50.0597],[6.1136,50.06557],[6.12026,50.06482],[6.12119,50.06901],[6.12914,50.07337],[6.12493,50.07699],[6.12076,50.07244],[6.11577,50.07465],[6.12187,50.08141],[6.11999,50.09201],[6.13299,50.09336],[6.12537,50.10081],[6.13556,50.10348],[6.13067,50.10802],[6.13487,50.11339],[6.12784,50.11626],[6.12919,50.12132],[6.13606,50.12375],[6.13796,50.12844],[6.12069,50.13631],[6.11206,50.13617],[6.11744,50.14697],[6.12568,50.15012],[6.11523,50.15506],[6.11978,50.16335],[6.10245,50.17055],[6.08348,50.17188],[6.07921,50.17079],[6.07879,50.1565],[6.07201,50.15739],[6.06344,50.15334],[6.03359,50.16227],[6.02929,50.16619],[6.02812,50.17522]]]}}],"admin1":{"type":"FeatureCollection","features":[{"type":"Feature","properties":{"id":"LUX:ADM1:LUX-908","name":"Luxembourg","countryCode":"LUX"},"geometry":{"type":"Polygon","coordinates":[[[6.02812,50.17522],[6.02473,50.18277],[6.0017,50.1761],[5.96368,50.17263],[5.96177,50.16076],[5.96715,50.15516],[5.95814,50.1514],[5.96121,50.14981],[5.95854,50.13887],[5.96133,50.13136],[5.91409,50.1219],[5.89532,50.11216],[5.89456,50.10115],[5.88647,50.09051],[5.88693,50.0789],[5.86066,50.06921],[5.8542,50.05889],[5.86991,50.04594],[5.85607,50.03628],[5.85988,50.02888],[5.85326,50.02757],[5.85246,50.0229],[5.84381,50.01938],[5.81899,50.01281],[5.82225,50.00592],[5.82081,50.00024],[5.83243,49.99052],[5.84014,49.98944],[5.83856,49.98229],[5.83126,49.9762],[5.81248,49.97219],[5.81055,49.96407],[5.80704,49.9624],[5.79578,49.96569],[5.79119,49.9618],[5.77502,49.9608],[5.77723,49.95774],[5.77037,49.94959],[5.77516,49.93771],[5.77043,49.93668],[5.77097,49.93165],[5.76395,49.93146],[5.76449,49.92412],[5.76047,49.9173],[5.76401,49.91577],[5.7481,49.90944],[5.73622,49.89904],[5.73976,49.895],[5.77061,49.88735],[5.78356,49.87784],[5.77804,49.87589],[5.78374,49.87241],[5.77753,49.8721],[5.77453,49.8673],[5.7702,49.87246],[5.7651,49.86932],[5.75393,49.87192],[5.75298,49.86819],[5.75701,49.86491],[5.75448,49.86205],[5.76074,49.85637],[5.74574,49.8537],[5.75854,49.84874],[5.75448,49.84484],[5.74866,49.84674],[5.75027,49.83969],[5.74094,49.8389],[5.73919,49.83362],[5.74822,49.82446],[5.74346,49.8207],[5.74635,49.81565],[5.75118,49.81487],[5.75309,49.7934],[5.75516,49.79146],[5.77658,49.79463],[5.78135,49.79227],[5.78531,49.79623],[5.79037,49.79576],[5.79193,49.78713],[5.80724,49.77246],[5.80945,49.76533],[5.81597,49.76221],[5.81785,49.75397],[5.83243,49.74692],[5.83038,49.74338],[5.83263,49.74145],[5.82739,49.73911],[5.82829,49.73332],[5.82542,49.732],[5.82633,49.72352],[5.83531,49.72447],[5.84409,49.7213],[5.8651,49.72695],[5.87072,49.72162],[5.87541,49.7216],[5.87482,49.71576],[5.88693,49.70928],[5.86573,49.693],[5.86181,49.68106],[5.86539,49.67609],[5.88218,49.67181],[5.8865,49.66789],[5.89015,49.67047],[5.89276,49.66624],[5.90227,49.66818],[5.90175,49.66431],[5.90839,49.66567],[5.91064,49.66249],[5.90488,49.66108],[5.90295,49.65758],[5.90541,49.65476],[5.90174,49.65144],[5.90772,49.63907],[5.89897,49.63438],[5.89228,49.63623],[5.88386,49.63298],[5.88678,49.62732],[5.87607,49.61995],[5.8766,49.60841],[5.84778,49.59594],[5.85007,49.58695],[5.87081,49.58852],[5.87326,49.58361],[5.86601,49.58056],[5.87192,49.57963],[5.86975,49.57678],[5.8728,49.57429],[5.84242,49.56102],[5.8463,49.5577],[5.84181,49.55311],[5.82797,49.55001],[5.82538,49.55206],[5.80855,49.54091],[5.81264,49.54189],[5.81716,49.53702],[5.83708,49.54258],[5.84581,49.5299],[5.83451,49.5268],[5.83606,49.51996],[5.84783,49.51495],[5.85048,49.50829],[5.86626,49.49991],[5.89574,49.49653],[5.90768,49.50213],[5.92754,49.49838],[5.94012,49.50096],[5.94315,49.50023],[5.94197,49.498],[5.94382,49.49518],[5.94621,49.4976],[5.9552,49.49309],[5.97211,49.49141],[5.9738,49.48911],[5.96817,49.48645],[5.97514,49.48156],[5.97429,49.47695],[5.96965,49.47551],[5.974,49.46549],[5.97931,49.46091],[5.98258,49.46352],[5.98807,49.46129],[5.98572,49.45574],[5.9793,49.45524],[5.98197,49.45106],[5.99793,49.4565],[6.00785,49.45164],[6.02807,49.45575],[6.02725,49.44826],[6.04177,49.44785],[6.05309,49.4639],[6.05811,49.46644],[6.07921,49.46392],[6.08071,49.45847],[6.08623,49.45536],[6.10077,49.45289],[6.09981,49.46746],[6.10406,49.47116],[6.12345,49.47346],[6.12804,49.49392],[6.1328,49.48999],[6.14176,49.49168],[6.14224,49.4869],[6.15281,49.49274],[6.16183,49.49267],[6.15389,49.50163],[6.17497,49.51031],[6.17831,49.50696],[6.21378,49.50629],[6.2181,49.50996],[6.23616,49.50815],[6.24065,49.51494],[6.24657,49.50904],[6.25701,49.5098],[6.2633,49.50395],[6.27986,49.50328],[6.27958,49.49459],[6.28956,49.49383],[6.28439,49.49147],[6.2888,49.48485],[6.29947,49.48801],[6.29622,49.4802],[6.30544,49.47714],[6.31296,49.4804],[6.33402,49.46694],[6.35285,49.46732],[6.36445,49.45951],[6.36885,49.45987],[6.36731,49.50388],[6.35583,49.53074],[6.37826,49.5498],[6.38175,49.5567],[6.35837,49.56979],[6.35695,49.57327],[6.36838,49.57923],[6.38128,49.57729],[6.38183,49.58082],[6.37417,49.58752],[6.37528,49.59255],[6.38434,49.59973],[6.39856,49.60233],[6.42113,49.62084],[6.43987,49.65614],[6.43693,49.6598],[6.426,49.66073],[6.42748,49.66711],[6.44635,49.67818],[6.45795,49.69086],[6.47968,49.69725],[6.49812,49.71158],[6.50627,49.7135],[6.49548,49.72608],[6.50281,49.72692],[6.51095,49.72127],[6.51715,49.72347],[6.50183,49.73229],[6.50012,49.75178],[6.51815,49.76211],[6.51744,49.76853],[6.50957,49.7738],[6.5169,49.78258],[6.50583,49.79025],[6.52124,49.79715],[6.53064,49.80515],[6.5295,49.80909],[6.52023,49.81291],[6.51666,49.80521],[6.51093,49.80142],[6.50542,49.80914],[6.4885,49.81167],[6.47099,49.82232],[6.45433,49.81136],[6.4434,49.81141],[6.44135,49.81419],[6.43027,49.81038],[6.4252,49.81592],[6.39829,49.82158],[6.36394,49.85072],[6.34154,49.84868],[6.33669,49.83881],[6.32644,49.83611],[6.31977,49.8404],[6.32255,49.85151],[6.31388,49.86029],[6.31174,49.86913],[6.29628,49.86645],[6.29128,49.87461],[6.28254,49.87861],[6.2758,49.87669],[6.26193,49.88085],[6.24662,49.89525],[6.23357,49.90009],[6.23211,49.90639],[6.2269,49.9108],[6.23384,49.91265],[6.23157,49.91849],[6.21789,49.92352],[6.22619,49.92931],[6.22352,49.934],[6.22733,49.93662],[6.21654,49.94451],[6.22391,49.95009],[6.21174,49.95023],[6.20543,49.95519],[6.19766,49.94817],[6.19043,49.96886],[6.18109,49.96425],[6.18324,49.95846],[6.1888,49.95656],[6.17881,49.95252],[6.17572,49.96156],[6.17022,49.96275],[6.16484,49.97027],[6.16895,49.98376],[6.17246,49.98464],[6.15705,49.98712],[6.15077,49.99412],[6.14196,49.99481],[6.13768,49.99847],[6.14507,49.99824],[6.14967,50.00884],[6.13853,50.01097],[6.12955,50.01858],[6.13722,50.01576],[6.14594,50.02255],[6.12982,50.02977],[6.13443,50.03985],[6.1214,50.05271],[6.12394,50.05981],[6.11776,50.05633],[6.11225,50.0597],[6.1136,50.06557],[6.12026,50.06482],[6.12119,50.06901],[6.12914,50.07337],[6.12493,50.07699],[6.12076,50.07244],[6.11577,50.07465],[6.12187,50.08141],[6.11999,50.09201],[6.13299,50.09336],[6.12537,50.10081],[6.13556,50.10348],[6.13067,50.10802],[6.13487,50.11339],[6.12784,50.11626],[6.12919,50.12132],[6.13606,50.12375],[6.13796,50.12844],[6.12069,50.13631],[6.11206,50.13617],[6.11744,50.14697],[6.12568,50.15012],[6.11523,50.15506],[6.11978,50.16335],[6.10245,50.17055],[6.08348,50.17188],[6.07921,50.17079],[6.07879,50.1565],[6.07201,50.15739],[6.06344,50.15334],[6.03359,50.16227],[6.02929,50.16619],[6.02812,50.17522]]]}}]}}
