{"type":"FeatureCollection","features":[{"type":"Feature","properties":{"id":"MAF:ADM0:MAF","name":"Saint Martin","countryCode":"MAF","adminLevel":0,"sourceCode":"MAF","parentId":"MAF:ADM1:MAF-5145"},"geometry":{"type":"Polygon","coordinates":[[[-63.01757,18.03339],[-63.08589,18.05851],[-63.107,18.06212],[-63.107,18.06696],[-63.1153,18.06537],[-63.13052,18.06025],[-63.13435,18.05947],[-63.14387,18.06468],[-63.14684,18.0703],[-63.14363,18.07416],[-63.11376,18.07465],[-63.0961,18.0788],[-63.08381,18.08796],[-63.07909,18.10419],[-63.07087,18.11001],[-63.05211,18.11685],[-63.0314,18.12189],[-63.01765,18.12214],[-63.01793,18.10053],[-63.0111,18.07075],[-63.01073,18.04084],[-63.01757,18.03339]]]}}],"admin1":{"type":"FeatureCollection","features":[{"type":"Feature","properties":{"id":"MAF:ADM1:MAF-5145","name":"Saint Martin","countryCode":"MAF"},"geometry":{"type":"Polygon","coordinates":[[[-63.01757,18.03339],[-63.08589,18.05851],[-63.107,18.06212],[-63.107,18.06696],[-63.1153,18.06537],[-63.13052,18.06025],[-63.13435,18.05947],[-63.14387,18.06468],[-63.14684,18.0703],[-63.14363,18.07416],[-63.11376,18.07465],[-63.0961,18.0788],[-63.08381,18.08796],[-63.07909,18.10419],[-63.07087,18.11001],[-63.05211,18.11685],[-63.0314,18.12189],[-63.01765,18.12214],[-63.01793,18.10053],[-63.0111,18.07075],[-63.01073,18.04084],[-63.01757,18.03339]]]}}]}}
