{"type":"FeatureCollection","features":[{"type":"Feature","properties":{"id":"MCO:ADM0:9783051B96397749018979","name":"Monaco","countryCode":"MCO","adminLevel":0,"sourceCode":"9783051B96397749018979","parentId":"MCO:ADM1:MCO+00?"},"geometry":{"type":"Polygon","coordinates":[[[7.40903,43.72958],[7.42588,43.74188],[7.43064,43.74902],[7.43857,43.75134],[7.43982,43.74658],[7.43302,43.74574],[7.43076,43.7386],[7.42713,43.73642],[7.42204,43.73639],[7.42317,43.73403],[7.41796,43.7309],[7.41393,43.72709],[7.40903,43.72958]]]}}],"admin1":{"type":"FeatureCollection","features":[{"type":"Feature","properties":{"id":"MCO:ADM1:MCO+00?","name":"Monaco","countryCode":"MCO"},"geometry":{"type":"Polygon","coordinates":[[[7.40903,43.72958],[7.42588,43.74188],[7.43064,43.74902],[7.43857,43.75134],[7.43982,43.74658],[7.43302,43.74574],[7.43076,43.7386],[7.42713,43.73642],[7.42204,43.73639],[7.42317,43.73403],[7.41796,43.7309],[7.41393,43.72709],[7.40903,43.72958]]]}}]}}
