{"type":"FeatureCollection","features":[{"type":"Feature","properties":{"id":"MDV:ADM0:21348113B13449953594448","name":"Maldives","countryCode":"MDV","adminLevel":0,"sourceCode":"21348113B13449953594448","parentId":"MDV:ADM1:MDV-5234"},"geometry":{"type":"MultiPolygon","coordinates":[[[[73.19382,-0.67853],[73.19314,-0.67635],[73.19516,-0.67449],[73.19692,-0.67384],[73.19715,-0.67383],[73.19693,-0.67795],[73.1934,-0.68222],[73.19163,-0.68273],[73.19382,-0.67853]]],[[[73.37092,1.78622],[73.37331,1.78574],[73.37045,1.78254],[73.36817,1.78295],[73.36735,1.78548],[73.37092,1.78622]]],[[[73.39671,1.7982],[73.3946,1.79683],[73.39479,1.79865],[73.39479,1.79877],[73.39498,1.79904],[73.39671,1.7982]]],[[[73.45986,1.82604],[73.45397,1.82117],[73.45338,1.82371],[73.45986,1.82604]]],[[[73.50572,1.83505],[73.49884,1.82807],[73.49879,1.82811],[73.49855,1.82844],[73.49806,1.8288],[73.49781,1.82925],[73.50009,1.83206],[73.50229,1.83491],[73.50685,1.83803],[73.50572,1.83505]]],[[[73.54799,1.91836],[73.54981,1.92499],[73.55184,1.92963],[73.5522,1.92808],[73.55186,1.92639],[73.54799,1.91836]]],[[[73.11827,2.19278],[73.11756,2.1918],[73.115,2.1918],[73.11394,2.19347],[73.11448,2.19509],[73.11827,2.19278]]],[[[73.34377,2.34588],[73.34367,2.34487],[73.34305,2.34515],[73.34357,2.34673],[73.34377,2.34588]]],[[[73.36087,2.40085],[73.35784,2.42288],[73.36428,2.39754],[73.36224,2.38655],[73.3611,2.39229],[73.36087,2.40085]]],[[[73.4878,4.17529],[73.48757,4.16986],[73.48233,4.17256],[73.48587,4.17623],[73.4878,4.17529]]],[[[73.51859,4.17756],[73.51788,4.17066],[73.50134,4.16829],[73.50269,4.17791],[73.50931,4.18073],[73.51859,4.17756]]],[[[73.51819,4.18257],[73.51673,4.18412],[73.51898,4.18464],[73.51819,4.18257]]],[[[73.45538,4.18153],[73.46028,4.17648],[73.45742,4.17583],[73.45483,4.1812],[73.45964,4.18477],[73.45538,4.18153]]],[[[73.43995,4.1833],[73.44872,4.18049],[73.44602,4.18451],[73.43767,4.18592],[73.43917,4.18746],[73.45034,4.18452],[73.45232,4.1789],[73.44457,4.17993],[73.43617,4.1829],[73.43995,4.1833]]],[[[73.43543,4.18621],[73.43598,4.1875],[73.43695,4.18756],[73.43668,4.1859],[73.43543,4.18621]]],[[[73.53599,4.1843],[73.52873,4.17575],[73.52533,4.19398],[73.53176,4.21877],[73.53282,4.18931],[73.53522,4.19157],[73.5368,4.18897],[73.54004,4.196],[73.53599,4.1843]]],[[[73.5359,4.22807],[73.5389,4.23476],[73.53667,4.22937],[73.5359,4.22807]]],[[[73.5515,4.23566],[73.54659,4.2216],[73.53999,4.19945],[73.53464,4.20835],[73.53904,4.22344],[73.54333,4.22247],[73.53963,4.22374],[73.54349,4.23197],[73.53938,4.23669],[73.53944,4.23674],[73.54896,4.24046],[73.55052,4.239],[73.5515,4.23566]]],[[[72.97231,4.26065],[72.9723,4.26066],[72.97356,4.2604],[72.97328,4.2604],[72.97231,4.26065]]],[[[72.95415,4.43688],[72.95704,4.4383],[72.95682,4.43461],[72.95415,4.43688]]],[[[72.96956,4.88175],[72.96957,4.88177],[72.97024,4.88161],[72.97022,4.88159],[72.96956,4.88175]]],[[[72.88358,5.49354],[72.88334,5.49321],[72.88007,5.49247],[72.87951,5.49318],[72.8812,5.49323],[72.88349,5.49394],[72.88358,5.49354]]],[[[73.38608,5.96348],[73.38772,5.96176],[73.38757,5.96157],[73.38673,5.96198],[73.38584,5.9631],[73.38608,5.96348]]],[[[73.24143,6.2301],[73.24158,6.22993],[73.24123,6.22967],[73.24143,6.2301]]],[[[72.90718,6.43616],[72.90748,6.43586],[72.90741,6.4357],[72.90718,6.43616]]],[[[73.10579,6.89377],[73.10629,6.89191],[73.10654,6.89053],[73.10662,6.89045],[73.10435,6.88956],[73.10579,6.89377]]],[[[72.92604,6.95615],[72.92628,6.9538],[72.92458,6.9517],[72.92559,6.95589],[72.92604,6.95615]]],[[[72.89141,6.98688],[72.89047,6.98542],[72.89088,6.98698],[72.89141,6.98688]]]]}}],"admin1":{"type":"FeatureCollection","features":[{"type":"Feature","properties":{"id":"MDV:ADM1:MDV-5234","name":"Malé","countryCode":"MDV"},"geometry":{"type":"MultiPolygon","coordinates":[[[[73.19715,-0.67383],[73.19693,-0.67795],[73.1934,-0.68222],[73.19163,-0.68273],[73.19382,-0.67853],[73.19314,-0.67635],[73.19516,-0.67449],[73.19692,-0.67384],[73.19715,-0.67383]]],[[[73.37092,1.78622],[73.37331,1.78574],[73.37045,1.78254],[73.36817,1.78295],[73.36735,1.78548],[73.37092,1.78622]]],[[[73.11827,2.19278],[73.11756,2.1918],[73.115,2.1918],[73.11394,2.19347],[73.11448,2.19509],[73.11827,2.19278]]],[[[73.34367,2.34487],[73.34305,2.34515],[73.34357,2.34673],[73.34377,2.34588],[73.34367,2.34487]]],[[[73.36087,2.40085],[73.35784,2.42288],[73.36428,2.39754],[73.36224,2.38655],[73.3611,2.39229],[73.36087,2.40085]]],[[[72.9723,4.26066],[72.97356,4.2604],[72.97328,4.2604],[72.97231,4.26065],[72.9723,4.26066]]],[[[72.95682,4.43461],[72.95415,4.43688],[72.95704,4.4383],[72.95682,4.43461]]],[[[72.96956,4.88175],[72.96957,4.88177],[72.97024,4.88161],[72.97022,4.88159],[72.96956,4.88175]]],[[[72.88349,5.49394],[72.88358,5.49354],[72.88334,5.49321],[72.88007,5.49247],[72.87951,5.49318],[72.8812,5.49323],[72.88349,5.49394]]],[[[73.24123,6.22967],[73.24143,6.2301],[73.24158,6.22993],[73.24123,6.22967]]],[[[72.90741,6.4357],[72.90718,6.43616],[72.90748,6.43586],[72.90741,6.4357]]],[[[73.10579,6.89377],[73.10629,6.89191],[73.10654,6.89053],[73.10662,6.89045],[73.10435,6.88956],[73.10579,6.89377]]],[[[72.92628,6.9538],[72.92458,6.9517],[72.92559,6.95589],[72.92604,6.95615],[72.92628,6.9538]]],[[[72.89088,6.98698],[72.89141,6.98688],[72.89047,6.98542],[72.89088,6.98698]]],[[[73.39498,1.79904],[73.39671,1.7982],[73.3946,1.79683],[73.39479,1.79865],[73.39479,1.79877],[73.39498,1.79904]]],[[[73.45338,1.82371],[73.45986,1.82604],[73.45397,1.82117],[73.45338,1.82371]]],[[[73.49781,1.82925],[73.50009,1.83206],[73.50229,1.83491],[73.50685,1.83803],[73.50572,1.83505],[73.49884,1.82807],[73.49879,1.82811],[73.49855,1.82844],[73.49806,1.8288],[73.49781,1.82925]]],[[[73.54799,1.91836],[73.54981,1.92499],[73.55184,1.92963],[73.5522,1.92808],[73.55186,1.92639],[73.54799,1.91836]]],[[[73.48757,4.16986],[73.48233,4.17256],[73.48587,4.17623],[73.4878,4.17529],[73.48757,4.16986]]],[[[73.51859,4.17756],[73.51788,4.17066],[73.50134,4.16829],[73.50269,4.17791],[73.50931,4.18073],[73.51859,4.17756]]],[[[73.45538,4.18153],[73.46028,4.17648],[73.45742,4.17583],[73.45483,4.1812],[73.45964,4.18477],[73.45538,4.18153]]],[[[73.43917,4.18746],[73.45034,4.18452],[73.45232,4.1789],[73.44457,4.17993],[73.43617,4.1829],[73.43995,4.1833],[73.44872,4.18049],[73.44602,4.18451],[73.43767,4.18592],[73.43917,4.18746]]],[[[73.51898,4.18464],[73.51819,4.18257],[73.51673,4.18412],[73.51898,4.18464]]],[[[73.43598,4.1875],[73.43695,4.18756],[73.43668,4.1859],[73.43543,4.18621],[73.43598,4.1875]]],[[[73.53522,4.19157],[73.5368,4.18897],[73.54004,4.196],[73.53599,4.1843],[73.52873,4.17575],[73.52533,4.19398],[73.53176,4.21877],[73.53282,4.18931],[73.53522,4.19157]]],[[[73.54333,4.22247],[73.53963,4.22374],[73.54349,4.23197],[73.53938,4.23669],[73.53944,4.23674],[73.54896,4.24046],[73.55052,4.239],[73.5515,4.23566],[73.54659,4.2216],[73.53999,4.19945],[73.53464,4.20835],[73.53904,4.22344],[73.54333,4.22247]]],[[[73.53667,4.22937],[73.5359,4.22807],[73.5389,4.23476],[73.53667,4.22937]]],[[[73.38608,5.96348],[73.38772,5.96176],[73.38757,5.96157],[73.38673,5.96198],[73.38584,5.9631],[73.38608,5.96348]]]]}}]}}
