{"type":"FeatureCollection","features":[{"type":"Feature","properties":{"id":"MHL:ADM0:89087692B69181680995107","name":"Marshall Islands","countryCode":"MHL","adminLevel":0,"sourceCode":"89087692B69181680995107","parentId":"MHL:ADM1:MHL-4968"},"geometry":{"type":"MultiPolygon","coordinates":[[[[168.71353,4.57589],[168.73507,4.58421],[168.7501,4.59699],[168.75683,4.60321],[168.75733,4.60339],[168.75303,4.59865],[168.75248,4.59843],[168.73968,4.58602],[168.73238,4.58179],[168.72165,4.57695],[168.71228,4.57463],[168.70169,4.5743],[168.69394,4.57668],[168.70131,4.57916],[168.71353,4.57589]]],[[[168.12922,5.62321],[168.13161,5.61921],[168.12525,5.59927],[168.12149,5.59599],[168.12272,5.60031],[168.12566,5.6057],[168.12761,5.61424],[168.1275,5.61717],[168.12922,5.62321]]],[[[168.1059,5.59686],[168.11528,5.59207],[168.11756,5.59255],[168.11628,5.59143],[168.11613,5.59143],[168.10109,5.59931],[168.10133,5.59959],[168.10561,5.59789],[168.1059,5.59686]]],[[[168.12459,5.63086],[168.12452,5.63105],[168.12464,5.63086],[168.12459,5.63086]]],[[[169.61299,5.80446],[169.6143,5.8155],[169.61717,5.81796],[169.61617,5.80537],[169.61332,5.79894],[169.61056,5.79918],[169.61299,5.80446]]],[[[171.73948,6.0841],[171.74413,6.07913],[171.73845,6.07917],[171.7282,6.07929],[171.7257,6.08122],[171.72933,6.0965],[171.73243,6.09211],[171.73823,6.0873],[171.73948,6.0841]]],[[[169.43527,5.94961],[169.4387,5.94848],[169.44278,5.94319],[169.43669,5.94546],[169.43539,5.94627],[169.43165,5.95376],[169.43316,5.95381],[169.43527,5.94961]]],[[[169.65411,5.93704],[169.68262,5.96405],[169.71357,5.97646],[169.71835,5.98669],[169.71758,5.99217],[169.7186,5.99311],[169.71989,5.99472],[169.72182,5.98824],[169.71349,5.9734],[169.68545,5.96418],[169.67633,5.95746],[169.67197,5.94946],[169.65514,5.93614],[169.65232,5.93488],[169.65311,5.93685],[169.65411,5.93704]]],[[[171.92517,7.10806],[171.92384,7.1044],[171.91808,7.09971],[171.92517,7.10806]]],[[[171.89531,7.09135],[171.89742,7.09127],[171.89481,7.09104],[171.89531,7.09135]]],[[[171.77385,7.03125],[171.78189,7.03744],[171.79088,7.05338],[171.79225,7.055],[171.7944,7.05772],[171.7834,7.03704],[171.76601,7.02238],[171.76974,7.02818],[171.77385,7.03125]]],[[[171.79504,7.05877],[171.79591,7.06021],[171.79786,7.06192],[171.80095,7.06269],[171.8009,7.06258],[171.79504,7.05877]]],[[[171.37812,7.10439],[171.37933,7.10168],[171.37761,7.10069],[171.3775,7.10116],[171.37392,7.10603],[171.37632,7.1065],[171.37812,7.10439]]],[[[171.03815,7.15315],[171.03565,7.1551],[171.03823,7.15785],[171.03815,7.15315]]],[[[168.5581,7.45432],[168.5538,7.44879],[168.55372,7.44986],[168.55726,7.45568],[168.5581,7.45432]]],[[[168.96709,7.57294],[168.96632,7.57382],[168.96898,7.5785],[168.96929,7.58388],[168.96708,7.58573],[168.96209,7.5917],[168.95818,7.59315],[168.95556,7.59534],[168.94315,7.59764],[168.94015,7.59629],[168.93849,7.59638],[168.9441,7.59809],[168.95183,7.59919],[168.95404,7.59902],[168.95421,7.599],[168.96633,7.59362],[168.96925,7.58674],[168.96974,7.58389],[168.96925,7.57868],[168.96901,7.57594],[168.96709,7.57294]]],[[[171.16555,8.31203],[171.16672,8.30815],[171.16355,8.30444],[171.15969,8.31301],[171.16555,8.31203]]],[[[171.23237,8.71214],[171.23607,8.70518],[171.23467,8.70321],[171.23312,8.70199],[171.22967,8.70856],[171.23096,8.71168],[171.23237,8.71214]]],[[[167.73658,8.73027],[167.73377,8.73126],[167.7366,8.73288],[167.73554,8.74111],[167.73843,8.74279],[167.74062,8.73501],[167.74,8.73322],[167.73492,8.72799],[167.73658,8.73027]]],[[[170.84981,8.89845],[170.84298,8.88702],[170.83912,8.88817],[170.83855,8.88837],[170.8379,8.88866],[170.83741,8.88907],[170.83717,8.88959],[170.84132,8.89859],[170.84457,8.90078],[170.85011,8.90143],[170.85123,8.89892],[170.84981,8.89845]]],[[[167.472,9.39498],[167.46555,9.39205],[167.46565,9.40026],[167.47063,9.3979],[167.47314,9.39438],[167.472,9.39498]]],[[[170.24147,9.46517],[170.24445,9.45929],[170.24213,9.45197],[170.24024,9.44977],[170.23884,9.46596],[170.24147,9.46517]]],[[[160.98452,9.76641],[160.96421,9.76971],[160.96477,9.77009],[160.97625,9.7685],[160.98599,9.76744],[160.98452,9.76641]]],[[[169.2931,9.81747],[169.29132,9.81822],[169.29607,9.81965],[169.29777,9.82171],[169.29969,9.82257],[169.30372,9.82302],[169.30004,9.81976],[169.2931,9.81747]]],[[[166.00539,10.17317],[166.00563,10.17297],[166.00619,10.1664],[165.99794,10.17074],[166.00165,10.17736],[166.00522,10.17774],[166.00555,10.17386],[166.00539,10.17317]]],[[[169.00837,10.03529],[169.01062,10.03742],[169.01368,10.03441],[169.01661,10.03164],[169.01108,10.02762],[169.0062,10.03376],[169.0088,10.03921],[169.00923,10.03879],[169.00837,10.03529]]],[[[166.85637,11.15508],[166.88874,11.16072],[166.89388,11.16493],[166.89468,11.16981],[166.89748,11.17073],[166.89321,11.15543],[166.86433,11.15569],[166.84752,11.15001],[166.84273,11.15378],[166.85637,11.15508]]],[[[169.86048,11.22832],[169.85759,11.22471],[169.85255,11.22419],[169.84336,11.22381],[169.84424,11.22598],[169.84636,11.22655],[169.8513,11.23067],[169.86048,11.22832]]],[[[165.55148,11.61126],[165.5479,11.62325],[165.53931,11.62895],[165.53989,11.6293],[165.55161,11.62096],[165.55161,11.61143],[165.55148,11.61126]]],[[[165.54164,11.63335],[165.54282,11.633],[165.54689,11.63101],[165.55063,11.62694],[165.55372,11.61982],[165.5403,11.63368],[165.54164,11.63335]]]]}}],"admin1":{"type":"FeatureCollection","features":[{"type":"Feature","properties":{"id":"MHL:ADM1:MHL-4968","name":"Ralik Chain","countryCode":"MHL"},"geometry":{"type":"MultiPolygon","coordinates":[[[[168.75733,4.60339],[168.75303,4.59865],[168.75248,4.59843],[168.73968,4.58602],[168.73238,4.58179],[168.72165,4.57695],[168.71228,4.57463],[168.70169,4.5743],[168.69394,4.57668],[168.70131,4.57916],[168.71353,4.57589],[168.73507,4.58421],[168.7501,4.59699],[168.75683,4.60321],[168.75733,4.60339]]],[[[168.10109,5.59931],[168.10133,5.59959],[168.10561,5.59789],[168.1059,5.59686],[168.11528,5.59207],[168.11756,5.59255],[168.11628,5.59143],[168.11613,5.59143],[168.10109,5.59931]]],[[[168.12566,5.6057],[168.12761,5.61424],[168.1275,5.61717],[168.12922,5.62321],[168.13161,5.61921],[168.12525,5.59927],[168.12149,5.59599],[168.12272,5.60031],[168.12566,5.6057]]],[[[168.12464,5.63086],[168.12459,5.63086],[168.12452,5.63105],[168.12464,5.63086]]],[[[168.5538,7.44879],[168.55372,7.44986],[168.55726,7.45568],[168.5581,7.45432],[168.5538,7.44879]]],[[[168.96209,7.5917],[168.95818,7.59315],[168.95556,7.59534],[168.94315,7.59764],[168.94015,7.59629],[168.93849,7.59638],[168.9441,7.59809],[168.95183,7.59919],[168.95404,7.59902],[168.95421,7.599],[168.96633,7.59362],[168.96925,7.58674],[168.96974,7.58389],[168.96925,7.57868],[168.96901,7.57594],[168.96709,7.57294],[168.96632,7.57382],[168.96898,7.5785],[168.96929,7.58388],[168.96708,7.58573],[168.96209,7.5917]]],[[[167.74062,8.73501],[167.74,8.73322],[167.73492,8.72799],[167.73658,8.73027],[167.73377,8.73126],[167.7366,8.73288],[167.73554,8.74111],[167.73843,8.74279],[167.74062,8.73501]]],[[[167.472,9.39498],[167.46555,9.39205],[167.46565,9.40026],[167.47063,9.3979],[167.47314,9.39438],[167.472,9.39498]]],[[[160.98452,9.76641],[160.96421,9.76971],[160.96477,9.77009],[160.97625,9.7685],[160.98599,9.76744],[160.98452,9.76641]]],[[[169.30372,9.82302],[169.30004,9.81976],[169.2931,9.81747],[169.29132,9.81822],[169.29607,9.81965],[169.29777,9.82171],[169.29969,9.82257],[169.30372,9.82302]]],[[[169.0062,10.03376],[169.0088,10.03921],[169.00923,10.03879],[169.00837,10.03529],[169.01062,10.03742],[169.01368,10.03441],[169.01661,10.03164],[169.01108,10.02762],[169.0062,10.03376]]],[[[166.00522,10.17774],[166.00555,10.17386],[166.00539,10.17317],[166.00563,10.17297],[166.00619,10.1664],[165.99794,10.17074],[166.00165,10.17736],[166.00522,10.17774]]],[[[166.89321,11.15543],[166.86433,11.15569],[166.84752,11.15001],[166.84273,11.15378],[166.85637,11.15508],[166.88874,11.16072],[166.89388,11.16493],[166.89468,11.16981],[166.89748,11.17073],[166.89321,11.15543]]],[[[165.55161,11.61143],[165.55148,11.61126],[165.5479,11.62325],[165.53931,11.62895],[165.53989,11.6293],[165.55161,11.62096],[165.55161,11.61143]]],[[[165.5403,11.63368],[165.54164,11.63335],[165.54282,11.633],[165.54689,11.63101],[165.55063,11.62694],[165.55372,11.61982],[165.5403,11.63368]]],[[[169.61332,5.79894],[169.61056,5.79918],[169.61299,5.80446],[169.6143,5.8155],[169.61717,5.81796],[169.61617,5.80537],[169.61332,5.79894]]],[[[169.43165,5.95376],[169.43316,5.95381],[169.43527,5.94961],[169.4387,5.94848],[169.44278,5.94319],[169.43669,5.94546],[169.43539,5.94627],[169.43165,5.95376]]],[[[169.7186,5.99311],[169.71989,5.99472],[169.72182,5.98824],[169.71349,5.9734],[169.68545,5.96418],[169.67633,5.95746],[169.67197,5.94946],[169.65514,5.93614],[169.65232,5.93488],[169.65311,5.93685],[169.65411,5.93704],[169.68262,5.96405],[169.71357,5.97646],[169.71835,5.98669],[169.71758,5.99217],[169.7186,5.99311]]],[[[171.72933,6.0965],[171.73243,6.09211],[171.73823,6.0873],[171.73948,6.0841],[171.74413,6.07913],[171.73845,6.07917],[171.7282,6.07929],[171.7257,6.08122],[171.72933,6.0965]]],[[[171.7834,7.03704],[171.76601,7.02238],[171.76974,7.02818],[171.77385,7.03125],[171.78189,7.03744],[171.79088,7.05338],[171.79225,7.055],[171.7944,7.05772],[171.7834,7.03704]]],[[[171.79504,7.05877],[171.79591,7.06021],[171.79786,7.06192],[171.80095,7.06269],[171.8009,7.06258],[171.79504,7.05877]]],[[[171.89481,7.09104],[171.89531,7.09135],[171.89742,7.09127],[171.89481,7.09104]]],[[[171.37632,7.1065],[171.37812,7.10439],[171.37933,7.10168],[171.37761,7.10069],[171.3775,7.10116],[171.37392,7.10603],[171.37632,7.1065]]],[[[171.91808,7.09971],[171.92517,7.10806],[171.92384,7.1044],[171.91808,7.09971]]],[[[171.03823,7.15785],[171.03815,7.15315],[171.03565,7.1551],[171.03823,7.15785]]],[[[171.16672,8.30815],[171.16355,8.30444],[171.15969,8.31301],[171.16555,8.31203],[171.16672,8.30815]]],[[[171.23096,8.71168],[171.23237,8.71214],[171.23607,8.70518],[171.23467,8.70321],[171.23312,8.70199],[171.22967,8.70856],[171.23096,8.71168]]],[[[170.83741,8.88907],[170.83717,8.88959],[170.84132,8.89859],[170.84457,8.90078],[170.85011,8.90143],[170.85123,8.89892],[170.84981,8.89845],[170.84298,8.88702],[170.83912,8.88817],[170.83855,8.88837],[170.8379,8.88866],[170.83741,8.88907]]],[[[170.24147,9.46517],[170.24445,9.45929],[170.24213,9.45197],[170.24024,9.44977],[170.23884,9.46596],[170.24147,9.46517]]],[[[169.84636,11.22655],[169.8513,11.23067],[169.86048,11.22832],[169.85759,11.22471],[169.85255,11.22419],[169.84336,11.22381],[169.84424,11.22598],[169.84636,11.22655]]]]}}]}}
