{"type":"FeatureCollection","features":[{"type":"Feature","properties":{"id":"MLT:ADM0:38034468B21247411087911","name":"Malta","countryCode":"MLT","adminLevel":0,"sourceCode":"38034468B21247411087911","parentId":"MLT:ADM1:MLT-5920"},"geometry":{"type":"MultiPolygon","coordinates":[[[[14.50767,35.90354],[14.50344,35.9014],[14.49757,35.90347],[14.49883,35.90644],[14.50315,35.906],[14.50767,35.90354]]],[[[14.42781,35.95928],[14.42835,35.96088],[14.4294,35.95898],[14.42781,35.95928]]],[[[14.36304,35.9915],[14.36289,35.99253],[14.37194,35.99322],[14.37658,35.98706],[14.36452,35.98439],[14.36176,35.98201],[14.34938,35.97313],[14.35127,35.97295],[14.34938,35.97133],[14.35478,35.96637],[14.37358,35.97086],[14.38044,35.97022],[14.38259,35.96809],[14.3951,35.96818],[14.39738,35.9588],[14.38985,35.9602],[14.39113,35.95549],[14.38356,35.94557],[14.3978,35.95155],[14.40501,35.94896],[14.40818,35.95262],[14.41388,35.95189],[14.41584,35.95707],[14.42535,35.95961],[14.42351,35.9489],[14.43354,35.95467],[14.44495,35.95035],[14.44901,35.9425],[14.45084,35.94706],[14.45406,35.94734],[14.45509,35.93943],[14.45729,35.94099],[14.46671,35.93624],[14.47866,35.93697],[14.47869,35.93696],[14.47983,35.93663],[14.48117,35.93327],[14.4926,35.92947],[14.4884,35.92588],[14.49584,35.92693],[14.49221,35.92437],[14.49602,35.92206],[14.49254,35.91873],[14.49395,35.91601],[14.50339,35.91784],[14.51399,35.90871],[14.51398,35.90769],[14.49678,35.90799],[14.4944,35.90176],[14.49926,35.89834],[14.49069,35.89465],[14.50179,35.89692],[14.51191,35.90395],[14.51395,35.90374],[14.51393,35.90082],[14.51794,35.90019],[14.50825,35.88905],[14.4982,35.88546],[14.5011,35.88194],[14.49871,35.88018],[14.50421,35.88023],[14.50336,35.88412],[14.50985,35.88698],[14.51748,35.88375],[14.51265,35.89077],[14.51564,35.89233],[14.52016,35.88791],[14.51798,35.89369],[14.52663,35.88842],[14.52241,35.89394],[14.52722,35.89441],[14.52369,35.8982],[14.52387,35.89839],[14.54756,35.8902],[14.54759,35.89018],[14.54812,35.88991],[14.56316,35.87002],[14.56372,35.86661],[14.56261,35.86636],[14.56373,35.86653],[14.56539,35.85638],[14.56429,35.85567],[14.5657,35.85268],[14.56599,35.85269],[14.56715,35.84561],[14.56677,35.84451],[14.56562,35.84519],[14.56275,35.84287],[14.56448,35.84045],[14.56055,35.83989],[14.56426,35.83712],[14.56178,35.82982],[14.55541,35.83268],[14.54661,35.84274],[14.54409,35.84151],[14.54696,35.83505],[14.54327,35.83171],[14.53895,35.83404],[14.53153,35.83369],[14.53019,35.83094],[14.53507,35.82757],[14.52851,35.82634],[14.53095,35.82141],[14.53211,35.82134],[14.52752,35.81354],[14.52752,35.80703],[14.51573,35.80674],[14.49724,35.81332],[14.4748,35.81413],[14.45754,35.82208],[14.45539,35.81912],[14.44671,35.82015],[14.42967,35.82783],[14.41726,35.82855],[14.41665,35.83398],[14.40235,35.83556],[14.39581,35.83893],[14.39601,35.84294],[14.38004,35.84848],[14.37448,35.852],[14.36305,35.86668],[14.35987,35.8697],[14.34571,35.87592],[14.34262,35.88068],[14.34262,35.91169],[14.34147,35.92093],[14.34231,35.91971],[14.3432,35.92727],[14.34063,35.92764],[14.34055,35.9283],[14.345,35.92906],[14.3422,35.93208],[14.34459,35.93415],[14.33958,35.93609],[14.33823,35.94697],[14.3376,35.94872],[14.33801,35.95246],[14.34142,35.95457],[14.33771,35.95596],[14.33969,35.9608],[14.33608,35.97074],[14.32696,35.96854],[14.32656,35.96869],[14.32203,35.97313],[14.33473,35.98237],[14.34354,35.98675],[14.34615,35.98658],[14.34778,35.98879],[14.34783,35.9888],[14.35157,35.98621],[14.3525,35.99004],[14.35913,35.99179],[14.36304,35.9915]]],[[[14.3228,36.01488],[14.3224,36.01464],[14.32234,36.01488],[14.3228,36.01488]]],[[[14.33688,36.01722],[14.33707,36.01751],[14.3426,36.01587],[14.34852,36.01131],[14.35001,36.01001],[14.34962,36.00912],[14.34046,36.00547],[14.32518,36.00476],[14.32535,36.00515],[14.33021,36.00848],[14.32363,36.01097],[14.32291,36.01764],[14.32369,36.01809],[14.33688,36.01722]]],[[[14.18617,36.065],[14.18603,36.06544],[14.19549,36.0681],[14.2566,36.07559],[14.25813,36.07513],[14.2588,36.07108],[14.26182,36.07403],[14.26455,36.07322],[14.28169,36.06203],[14.28871,36.06466],[14.29219,36.06285],[14.29968,36.05662],[14.30365,36.05689],[14.31291,36.05207],[14.31357,36.05019],[14.31669,36.04946],[14.33424,36.03437],[14.32203,36.02717],[14.30608,36.02665],[14.30474,36.02672],[14.30457,36.0266],[14.30445,36.0266],[14.28028,36.01766],[14.27127,36.01712],[14.26735,36.01482],[14.26002,36.01349],[14.258,36.01362],[14.25176,36.01817],[14.23709,36.01721],[14.23122,36.02097],[14.22342,36.01863],[14.22088,36.01919],[14.21601,36.02089],[14.21188,36.0238],[14.21404,36.02811],[14.20737,36.03068],[14.19341,36.03015],[14.18745,36.03328],[14.1884,36.04259],[14.19382,36.04474],[14.18857,36.04543],[14.18702,36.05088],[14.19259,36.05426],[14.19267,36.06017],[14.18382,36.06232],[14.18378,36.06275],[14.18617,36.065]]]]}}],"admin1":{"type":"FeatureCollection","features":[{"type":"Feature","properties":{"id":"MLT:ADM1:MLT-5920","name":"Attard","countryCode":"MLT"},"geometry":{"type":"MultiPolygon","coordinates":[[[[14.37194,35.99322],[14.37658,35.98706],[14.36452,35.98439],[14.36176,35.98201],[14.34938,35.97313],[14.35127,35.97295],[14.34938,35.97133],[14.35478,35.96637],[14.37358,35.97086],[14.38044,35.97022],[14.38259,35.96809],[14.3951,35.96818],[14.39738,35.9588],[14.38985,35.9602],[14.39113,35.95549],[14.38356,35.94557],[14.3978,35.95155],[14.40501,35.94896],[14.40818,35.95262],[14.41388,35.95189],[14.41584,35.95707],[14.42535,35.95961],[14.42351,35.9489],[14.43354,35.95467],[14.44495,35.95035],[14.44901,35.9425],[14.45084,35.94706],[14.45406,35.94734],[14.45509,35.93943],[14.45729,35.94099],[14.46671,35.93624],[14.47866,35.93697],[14.47869,35.93696],[14.47983,35.93663],[14.48117,35.93327],[14.4926,35.92947],[14.4884,35.92588],[14.49584,35.92693],[14.49221,35.92437],[14.49602,35.92206],[14.49254,35.91873],[14.49395,35.91601],[14.50339,35.91784],[14.51399,35.90871],[14.51398,35.90769],[14.49678,35.90799],[14.4944,35.90176],[14.49926,35.89834],[14.49069,35.89465],[14.50179,35.89692],[14.51191,35.90395],[14.51395,35.90374],[14.51393,35.90082],[14.51794,35.90019],[14.50825,35.88905],[14.4982,35.88546],[14.5011,35.88194],[14.49871,35.88018],[14.50421,35.88023],[14.50336,35.88412],[14.50985,35.88698],[14.51748,35.88375],[14.51265,35.89077],[14.51564,35.89233],[14.52016,35.88791],[14.51798,35.89369],[14.52663,35.88842],[14.52241,35.89394],[14.52722,35.89441],[14.52369,35.8982],[14.52387,35.89839],[14.54756,35.8902],[14.54759,35.89018],[14.54812,35.88991],[14.56316,35.87002],[14.56372,35.86661],[14.56261,35.86636],[14.56373,35.86653],[14.56539,35.85638],[14.56429,35.85567],[14.5657,35.85268],[14.56599,35.85269],[14.56715,35.84561],[14.56677,35.84451],[14.56562,35.84519],[14.56275,35.84287],[14.56448,35.84045],[14.56055,35.83989],[14.56426,35.83712],[14.56178,35.82982],[14.55541,35.83268],[14.54661,35.84274],[14.54409,35.84151],[14.54696,35.83505],[14.54327,35.83171],[14.53895,35.83404],[14.53153,35.83369],[14.53019,35.83094],[14.53507,35.82757],[14.52851,35.82634],[14.53095,35.82141],[14.53211,35.82134],[14.52752,35.81354],[14.52752,35.80703],[14.51573,35.80674],[14.49724,35.81332],[14.4748,35.81413],[14.45754,35.82208],[14.45539,35.81912],[14.44671,35.82015],[14.42967,35.82783],[14.41726,35.82855],[14.41665,35.83398],[14.40235,35.83556],[14.39581,35.83893],[14.39601,35.84294],[14.38004,35.84848],[14.37448,35.852],[14.36305,35.86668],[14.35987,35.8697],[14.34571,35.87592],[14.34262,35.88068],[14.34262,35.91169],[14.34147,35.92093],[14.34231,35.91971],[14.3432,35.92727],[14.34063,35.92764],[14.34055,35.9283],[14.345,35.92906],[14.3422,35.93208],[14.34459,35.93415],[14.33958,35.93609],[14.33823,35.94697],[14.3376,35.94872],[14.33801,35.95246],[14.34142,35.95457],[14.33771,35.95596],[14.33969,35.9608],[14.33608,35.97074],[14.32696,35.96854],[14.32656,35.96869],[14.32203,35.97313],[14.33473,35.98237],[14.34354,35.98675],[14.34615,35.98658],[14.34778,35.98879],[14.34783,35.9888],[14.35157,35.98621],[14.3525,35.99004],[14.35913,35.99179],[14.36304,35.9915],[14.36289,35.99253],[14.37194,35.99322]]],[[[14.49883,35.90644],[14.50315,35.906],[14.50767,35.90354],[14.50344,35.9014],[14.49757,35.90347],[14.49883,35.90644]]],[[[14.42781,35.95928],[14.42835,35.96088],[14.4294,35.95898],[14.42781,35.95928]]],[[[14.3426,36.01587],[14.34852,36.01131],[14.35001,36.01001],[14.34962,36.00912],[14.34046,36.00547],[14.32518,36.00476],[14.32535,36.00515],[14.33021,36.00848],[14.32363,36.01097],[14.32291,36.01764],[14.32369,36.01809],[14.33688,36.01722],[14.33707,36.01751],[14.3426,36.01587]]],[[[14.3228,36.01488],[14.3224,36.01464],[14.32234,36.01488],[14.3228,36.01488]]],[[[14.2566,36.07559],[14.25813,36.07513],[14.2588,36.07108],[14.26182,36.07403],[14.26455,36.07322],[14.28169,36.06203],[14.28871,36.06466],[14.29219,36.06285],[14.29968,36.05662],[14.30365,36.05689],[14.31291,36.05207],[14.31357,36.05019],[14.31669,36.04946],[14.33424,36.03437],[14.32203,36.02717],[14.30608,36.02665],[14.30474,36.02672],[14.30457,36.0266],[14.30445,36.0266],[14.28028,36.01766],[14.27127,36.01712],[14.26735,36.01482],[14.26002,36.01349],[14.258,36.01362],[14.25176,36.01817],[14.23709,36.01721],[14.23122,36.02097],[14.22342,36.01863],[14.22088,36.01919],[14.21601,36.02089],[14.21188,36.0238],[14.21404,36.02811],[14.20737,36.03068],[14.19341,36.03015],[14.18745,36.03328],[14.1884,36.04259],[14.19382,36.04474],[14.18857,36.04543],[14.18702,36.05088],[14.19259,36.05426],[14.19267,36.06017],[14.18382,36.06232],[14.18378,36.06275],[14.18617,36.065],[14.18603,36.06544],[14.19549,36.0681],[14.2566,36.07559]]]]}}]}}
