{"type":"FeatureCollection","features":[{"type":"Feature","properties":{"id":"MNE:ADM1:59799669B12564288388297","name":"Danilovgrad Municipality","countryCode":"MNE","adminLevel":1,"sourceCode":"59799669B12564288388297","parentId":"MNE:ADM1:59799669B12564288388297"},"geometry":{"type":"Polygon","coordinates":[[[19.28606,42.65554],[19.28305,42.66413],[19.26949,42.67188],[19.25933,42.69844],[19.23072,42.73302],[19.22356,42.75044],[19.21039,42.76039],[19.20474,42.7427],[19.19608,42.73219],[19.19759,42.72334],[19.20286,42.7167],[19.19533,42.70868],[19.2006,42.70481],[19.22055,42.70093],[19.22131,42.69568],[19.20775,42.69125],[19.18931,42.69263],[19.17161,42.70232],[19.1622,42.70259],[19.14488,42.6918],[19.13058,42.69042],[19.08691,42.69706],[19.05152,42.69374],[19.03383,42.699],[18.99731,42.668],[18.99806,42.65416],[19.01914,42.63395],[19.01914,42.62342],[19.00747,42.61843],[18.98263,42.6237],[18.94874,42.61566],[18.93707,42.60846],[18.94121,42.59433],[18.97811,42.56966],[19.01877,42.54969],[19.01048,42.54387],[19.00973,42.53388],[18.99957,42.52778],[18.99919,42.51779],[18.98714,42.51113],[19.00597,42.4867],[19.01839,42.47893],[19.02366,42.46699],[19.10686,42.46671],[19.16559,42.48115],[19.19533,42.4681],[19.20888,42.47921],[19.22695,42.51363],[19.21227,42.51557],[19.20888,42.52195],[19.21942,42.5533],[19.23486,42.56799],[19.25029,42.59072],[19.27439,42.65139],[19.28606,42.65554]]]}},{"type":"Feature","properties":{"id":"MNE:ADM1:59799669B20110685483927","name":"Budva Municipality","countryCode":"MNE","adminLevel":1,"sourceCode":"59799669B20110685483927","parentId":"MNE:ADM1:59799669B20110685483927"},"geometry":{"type":"Polygon","coordinates":[[[18.79103,42.27933],[18.79181,42.29323],[18.80801,42.32131],[18.79671,42.34743],[18.80487,42.35478],[18.82497,42.33461],[18.85784,42.33255],[18.87634,42.32015],[18.89804,42.31739],[18.92612,42.29869],[18.9382,42.2865],[18.9397,42.26994],[18.94689,42.25467],[18.99367,42.20618],[19.00658,42.19853],[19.01766,42.18207],[18.9857,42.16494],[18.98162,42.16706],[18.971,42.18397],[18.97115,42.18429],[18.96594,42.19263],[18.9615,42.19371],[18.95346,42.19986],[18.91334,42.22223],[18.9017,42.23749],[18.8947,42.27049],[18.886,42.28437],[18.87159,42.29047],[18.85402,42.29047],[18.83888,42.28571],[18.83139,42.27753],[18.82651,42.28221],[18.82049,42.28669],[18.81764,42.29116],[18.80152,42.28437],[18.79396,42.28034],[18.79209,42.2788],[18.79103,42.27933]]]}},{"type":"Feature","properties":{"id":"MNE:ADM1:59799669B20319020653405","name":"Podgorica Municipality","countryCode":"MNE","adminLevel":1,"sourceCode":"59799669B20319020653405","parentId":"MNE:ADM1:59799669B20319020653405"},"geometry":{"type":"Polygon","coordinates":[[[19.64452,42.68],[19.61178,42.67794],[19.61132,42.68738],[19.5782,42.70315],[19.56728,42.699],[19.55523,42.70481],[19.49123,42.70481],[19.47053,42.70896],[19.46224,42.70425],[19.44267,42.70342],[19.44493,42.68738],[19.42535,42.67382],[19.40088,42.67907],[19.40239,42.67105],[19.41067,42.66274],[19.40653,42.65804],[19.39749,42.65776],[19.39034,42.64945],[19.3813,42.64585],[19.3685,42.65167],[19.36173,42.65997],[19.34554,42.66108],[19.28606,42.65554],[19.27439,42.65139],[19.25029,42.59072],[19.23486,42.56799],[19.21942,42.5533],[19.20888,42.52195],[19.21227,42.51557],[19.22695,42.51363],[19.20888,42.47921],[19.19533,42.4681],[19.16559,42.48115],[19.10686,42.46671],[19.02366,42.46699],[19.01839,42.47893],[19.00597,42.4867],[18.9894,42.4756],[19.01575,42.46171],[19.02404,42.45227],[19.03571,42.44782],[19.04437,42.4206],[19.06244,42.42615],[19.07335,42.41921],[19.08578,42.39085],[19.16107,42.3533],[19.16747,42.30989],[19.11138,42.28566],[19.11006,42.28148],[19.11962,42.26722],[19.13935,42.25418],[19.284,42.17896],[19.35172,42.23924],[19.37678,42.26982],[19.38783,42.29147],[19.42555,42.32725],[19.41738,42.33283],[19.41371,42.35036],[19.42325,42.35641],[19.42243,42.36688],[19.42528,42.37176],[19.43831,42.38148],[19.47236,42.39201],[19.49338,42.42268],[19.4983,42.42273],[19.49926,42.43257],[19.50365,42.43441],[19.50373,42.43754],[19.51959,42.44274],[19.51851,42.44845],[19.53218,42.45967],[19.54802,42.48661],[19.5527,42.48707],[19.55754,42.49322],[19.56274,42.50111],[19.5615,42.51346],[19.60156,42.53028],[19.60544,42.53783],[19.61694,42.54265],[19.60993,42.56227],[19.60966,42.57515],[19.65505,42.62004],[19.64811,42.64535],[19.64452,42.68]]]}},{"type":"Feature","properties":{"id":"MNE:ADM1:59799669B20349667855259","name":"Bijelo Polje Municipality","countryCode":"MNE","adminLevel":1,"sourceCode":"59799669B20349667855259","parentId":"MNE:ADM1:59799669B20349667855259"},"geometry":{"type":"Polygon","coordinates":[[[19.87398,42.92474],[19.91897,42.96166],[19.94439,42.96079],[19.97474,42.97958],[19.98579,42.97306],[19.99364,42.97462],[20.05981,43.0077],[20.05446,43.00967],[20.0563,43.0174],[20.04718,43.02681],[19.9922,43.0518],[19.96761,43.0867],[19.9737,43.10319],[19.97024,43.11127],[19.96056,43.10954],[19.95034,43.10209],[19.92313,43.09591],[19.91627,43.08533],[19.90685,43.09109],[19.90245,43.09898],[19.88817,43.09726],[19.87989,43.10842],[19.87046,43.11297],[19.83842,43.09451],[19.83447,43.09616],[19.83699,43.1002],[19.83386,43.10715],[19.84007,43.10992],[19.83794,43.11536],[19.82622,43.11814],[19.81186,43.11546],[19.80548,43.12223],[19.79148,43.12379],[19.78681,43.13141],[19.77697,43.13782],[19.78172,43.14388],[19.77923,43.15677],[19.76992,43.1662],[19.74674,43.15889],[19.73708,43.16215],[19.73474,43.17126],[19.68593,43.16815],[19.68001,43.17877],[19.67267,43.1835],[19.64189,43.18867],[19.63772,43.20044],[19.6407,43.20668],[19.63468,43.20981],[19.62615,43.22234],[19.6198,43.22514],[19.61894,43.22962],[19.59115,43.23834],[19.55042,43.24456],[19.53598,43.22034],[19.51548,43.21995],[19.50058,43.1893],[19.50723,43.17513],[19.50404,43.16969],[19.4886,43.16192],[19.46091,43.13318],[19.46038,43.12346],[19.44148,43.10831],[19.41566,43.10578],[19.42471,43.09606],[19.4106,43.07993],[19.43669,43.06048],[19.45186,43.05328],[19.48567,43.05776],[19.49924,43.05523],[19.53758,43.02935],[19.56926,43.02994],[19.58177,43.01943],[19.60812,43.01845],[19.61584,43.0132],[19.61964,43.00531],[19.62039,42.98989],[19.60412,42.96223],[19.63217,42.94308],[19.6493,42.94156],[19.65024,42.91431],[19.70521,42.91938],[19.71799,42.91509],[19.72664,42.91567],[19.74567,42.92795],[19.77788,42.93263],[19.79,42.94004],[19.7904,42.95504],[19.80464,42.96634],[19.81808,42.96585],[19.81781,42.94842],[19.84723,42.93224],[19.87398,42.92474]]]}},{"type":"Feature","properties":{"id":"MNE:ADM1:59799669B22511566400758","name":"Bar Municipality","countryCode":"MNE","adminLevel":1,"sourceCode":"59799669B22511566400758","parentId":"MNE:ADM1:59799669B22511566400758"},"geometry":{"type":"MultiPolygon","coordinates":[[[[19.01766,42.18207],[19.00658,42.19853],[18.99367,42.20618],[18.94689,42.25467],[18.9397,42.26994],[18.9382,42.2865],[18.96794,42.28817],[18.97397,42.27396],[19.01312,42.25223],[19.03797,42.27452],[19.03684,42.29207],[19.0647,42.29764],[19.0918,42.29875],[19.11138,42.28566],[19.11006,42.28148],[19.11962,42.26722],[19.13935,42.25418],[19.284,42.17896],[19.40631,42.10178],[19.38948,42.07939],[19.37845,42.07228],[19.37777,42.05602],[19.33067,42.05432],[19.30298,42.04324],[19.29457,42.0431],[19.23713,42.06662],[19.23819,42.03877],[19.21809,42.03331],[19.25137,42.01226],[19.2658,41.98704],[19.26446,41.97969],[19.24616,41.9628],[19.17872,41.98461],[19.14349,41.99153],[19.14814,41.9931],[19.14511,41.9977],[19.1492,41.9995],[19.14469,42.00428],[19.1511,42.01334],[19.1422,42.0171],[19.14781,42.01951],[19.14909,42.02566],[19.14022,42.03062],[19.14017,42.03119],[19.14284,42.03311],[19.14158,42.04372],[19.12057,42.05516],[19.08253,42.0812],[19.07949,42.08683],[19.08491,42.08552],[19.08301,42.09141],[19.08839,42.08847],[19.086,42.09174],[19.08954,42.09179],[19.09122,42.09658],[19.08207,42.09687],[19.08665,42.09993],[19.0853,42.09723],[19.09074,42.09731],[19.08738,42.09913],[19.09002,42.10146],[19.08356,42.11275],[19.06773,42.1219],[19.06252,42.12209],[19.06157,42.12333],[19.06358,42.12689],[19.06166,42.13295],[19.05051,42.1378],[19.04868,42.1402],[19.02273,42.13976],[19.02156,42.14127],[19.01922,42.1397],[19.01059,42.13955],[19.00213,42.15021],[19.00212,42.15023],[19.0035,42.1573],[19.00043,42.15831],[18.99985,42.16108],[18.9948,42.16364],[18.98805,42.16372],[18.98637,42.16459],[19.01766,42.18207]]],[[[19.07883,42.09929],[19.07889,42.09381],[19.07728,42.09092],[19.07647,42.09241],[19.07883,42.09929]]]]}},{"type":"Feature","properties":{"id":"MNE:ADM1:59799669B28207041867492","name":"Plužine Municipality","countryCode":"MNE","adminLevel":1,"sourceCode":"59799669B28207041867492","parentId":"MNE:ADM1:59799669B28207041867492"},"geometry":{"type":"Polygon","coordinates":[[[18.9894,42.93345],[19.00145,42.94199],[19.0022,42.95219],[19.01048,42.95798],[19.01839,42.97092],[18.99354,42.98662],[18.97434,42.98993],[18.93369,43.00645],[18.93143,43.01553],[18.93519,43.02517],[18.95928,43.05598],[18.9702,43.07799],[18.97547,43.09586],[18.97397,43.10987],[18.99166,43.11977],[19.01161,43.10768],[19.02345,43.11558],[19.02062,43.12616],[18.99484,43.14635],[18.98467,43.16269],[18.97187,43.22061],[18.97206,43.24872],[18.98503,43.26254],[18.98711,43.27296],[18.98204,43.28058],[18.96756,43.28656],[18.95544,43.28772],[18.949,43.30125],[18.95211,43.31134],[18.95986,43.3174],[18.96132,43.32407],[18.95855,43.33048],[18.9474,43.33059],[18.91446,43.35985],[18.90836,43.36017],[18.89694,43.3543],[18.87845,43.35645],[18.8394,43.34855],[18.83913,43.34398],[18.84949,43.33644],[18.85347,43.32407],[18.83734,43.3201],[18.8291,43.31411],[18.81968,43.31482],[18.80627,43.30736],[18.78858,43.30394],[18.73315,43.28103],[18.68812,43.25471],[18.70544,43.23611],[18.71714,43.23197],[18.68749,43.22139],[18.68244,43.21062],[18.66773,43.20391],[18.6484,43.14713],[18.65396,43.10391],[18.67468,43.09943],[18.68898,43.08843],[18.69614,43.08678],[18.71646,43.09393],[18.73115,43.08348],[18.78272,42.99736],[18.79289,42.99296],[18.79853,42.98415],[18.85011,42.95384],[18.87119,42.94475],[18.92879,42.94503],[18.95778,42.94199],[18.9894,42.93345]]]}},{"type":"Feature","properties":{"id":"MNE:ADM1:59799669B41052051546873","name":"Žabljak Municipality","countryCode":"MNE","adminLevel":1,"sourceCode":"59799669B41052051546873","parentId":"MNE:ADM1:59799669B41052051546873"},"geometry":{"type":"Polygon","coordinates":[[[19.36614,43.07332],[19.36543,43.08235],[19.35478,43.08799],[19.35345,43.09791],[19.34759,43.10354],[19.31698,43.12142],[19.29462,43.12181],[19.2893,43.1257],[19.28637,43.14221],[19.26001,43.15483],[19.24644,43.16842],[19.22115,43.17697],[19.20624,43.18842],[19.17643,43.202],[19.15806,43.21655],[19.12576,43.21554],[19.10581,43.20669],[19.08859,43.21149],[19.06186,43.20594],[19.04915,43.20662],[19.03353,43.21307],[19.03099,43.22514],[18.99965,43.23755],[18.9972,43.24592],[18.99946,43.25366],[18.99103,43.26005],[18.98503,43.26254],[18.97206,43.24872],[18.97187,43.22061],[18.98467,43.16269],[18.99484,43.14635],[19.01479,43.13248],[19.02062,43.12616],[19.02345,43.11558],[19.03248,43.10802],[19.03568,43.10239],[19.02759,43.09098],[19.03004,43.08672],[19.03888,43.08397],[19.04905,43.07545],[19.07389,43.07462],[19.08782,43.07916],[19.12528,43.08026],[19.12152,43.06279],[19.12359,43.05826],[19.15239,43.04409],[19.1618,43.04491],[19.18796,43.06004],[19.19869,43.06101],[19.23935,43.03748],[19.23803,43.03418],[19.22636,43.03005],[19.22373,43.02524],[19.22919,43.02084],[19.23954,43.01698],[19.2785,43.01437],[19.31112,42.99675],[19.32044,43.02886],[19.34679,43.03431],[19.35239,43.04229],[19.37102,43.04793],[19.37208,43.05805],[19.36614,43.07332]]]}},{"type":"Feature","properties":{"id":"MNE:ADM1:59799669B48420505719641","name":"Kolašin Municipality","countryCode":"MNE","adminLevel":1,"sourceCode":"59799669B48420505719641","parentId":"MNE:ADM1:59799669B48420505719641"},"geometry":{"type":"Polygon","coordinates":[[[19.63852,42.85366],[19.64967,42.86145],[19.6493,42.86545],[19.62012,42.87566],[19.6173,42.88021],[19.61749,42.88766],[19.63217,42.89731],[19.60821,42.90985],[19.57546,42.91297],[19.56029,42.92116],[19.54565,42.90829],[19.53926,42.90653],[19.52781,42.91316],[19.4791,42.90185],[19.39285,42.9155],[19.38007,42.92603],[19.35478,42.93714],[19.35194,42.91994],[19.34742,42.91498],[19.34027,42.91719],[19.33575,42.9227],[19.30036,42.91002],[19.24051,42.91443],[19.20963,42.90781],[19.21302,42.89595],[19.19684,42.88106],[19.19909,42.86009],[19.22846,42.84519],[19.23599,42.8358],[19.23147,42.82835],[19.21076,42.81371],[19.20248,42.80128],[19.19608,42.76896],[19.22356,42.75044],[19.23072,42.73302],[19.25933,42.69844],[19.26949,42.67188],[19.28305,42.66413],[19.28606,42.65554],[19.34554,42.66108],[19.36173,42.65997],[19.3685,42.65167],[19.3813,42.64585],[19.39034,42.64945],[19.39749,42.65776],[19.40653,42.65804],[19.41067,42.66274],[19.40239,42.67105],[19.40088,42.67907],[19.42535,42.67382],[19.44493,42.68738],[19.44267,42.70342],[19.46224,42.70425],[19.47053,42.70896],[19.49123,42.70481],[19.55523,42.70481],[19.56728,42.699],[19.5782,42.70315],[19.61132,42.68738],[19.61178,42.67794],[19.64452,42.68],[19.64598,42.69409],[19.65836,42.71003],[19.66422,42.73321],[19.65077,42.76546],[19.65005,42.79159],[19.61899,42.80458],[19.63123,42.84834],[19.63852,42.85366]]]}},{"type":"Feature","properties":{"id":"MNE:ADM1:59799669B58100018961631","name":"Pljevlja Municipality","countryCode":"MNE","adminLevel":1,"sourceCode":"59799669B58100018961631","parentId":"MNE:ADM1:59799669B58100018961631"},"geometry":{"type":"Polygon","coordinates":[[[19.55042,43.24456],[19.54508,43.24639],[19.54307,43.2596],[19.52973,43.27138],[19.52736,43.27781],[19.52732,43.28341],[19.53799,43.30242],[19.53556,43.30785],[19.52155,43.31975],[19.48605,43.3263],[19.4817,43.33276],[19.4608,43.34458],[19.46136,43.35848],[19.45672,43.36502],[19.45059,43.36671],[19.44925,43.38734],[19.43991,43.39117],[19.41259,43.39186],[19.39396,43.40085],[19.38321,43.41203],[19.36079,43.41064],[19.35001,43.41547],[19.3342,43.43613],[19.32246,43.44064],[19.30814,43.43979],[19.29206,43.44388],[19.27744,43.45359],[19.25419,43.46112],[19.24788,43.46839],[19.2231,43.48194],[19.22715,43.48502],[19.22364,43.49133],[19.22685,43.49493],[19.22379,43.50357],[19.22814,43.51196],[19.22384,43.52436],[19.22594,43.52833],[19.19954,43.53276],[19.19762,43.53575],[19.17105,43.53276],[19.15265,43.53678],[19.12476,43.5203],[19.10318,43.52204],[19.09706,43.51334],[19.09168,43.51281],[19.0919,43.51525],[19.08683,43.5167],[19.0752,43.51147],[19.06385,43.51067],[19.06156,43.50507],[19.0479,43.50235],[19.04218,43.5033],[19.04386,43.51329],[19.04001,43.52118],[19.04356,43.52442],[19.03606,43.53289],[19.02548,43.5389],[19.0222,43.54533],[19.01148,43.54275],[19.00508,43.55851],[18.99667,43.55801],[18.98827,43.55531],[18.98157,43.54397],[18.97986,43.53588],[18.98566,43.5312],[18.97888,43.52655],[18.9533,43.52267],[18.94234,43.51506],[18.92743,43.51137],[18.92385,43.50482],[18.91244,43.50328],[18.92149,43.49027],[18.93571,43.49163],[18.93632,43.50253],[18.94991,43.50367],[18.95054,43.4933],[18.95541,43.49238],[18.95946,43.48532],[18.95633,43.47609],[18.96175,43.47006],[18.96108,43.46056],[18.95591,43.45717],[18.95635,43.45227],[18.96306,43.451],[18.97788,43.45602],[18.98771,43.45244],[18.9858,43.4511],[18.98864,43.44567],[18.99243,43.44831],[18.99801,43.44462],[18.99978,43.43895],[19.00493,43.44674],[19.00664,43.44375],[19.01095,43.44558],[19.00697,43.44181],[19.01846,43.43079],[19.02056,43.40857],[19.03103,43.40017],[19.04271,43.3965],[19.04125,43.38734],[19.04339,43.38537],[19.0412,43.38052],[19.03526,43.37861],[19.04016,43.37475],[19.03992,43.36545],[19.06157,43.35214],[19.06126,43.34464],[19.07522,43.33574],[19.07502,43.32782],[19.08339,43.31916],[19.07707,43.30413],[19.08025,43.29978],[19.04242,43.28935],[19.0363,43.29012],[19.01974,43.25961],[19.00878,43.25061],[18.99946,43.25366],[18.9972,43.24592],[18.99965,43.23755],[19.03099,43.22514],[19.03353,43.21307],[19.04915,43.20662],[19.06186,43.20594],[19.08859,43.21149],[19.10581,43.20669],[19.12576,43.21554],[19.15806,43.21655],[19.17643,43.202],[19.20624,43.18842],[19.22115,43.17697],[19.24644,43.16842],[19.26001,43.15483],[19.28637,43.14221],[19.2893,43.1257],[19.29462,43.12181],[19.31698,43.12142],[19.34759,43.10354],[19.35345,43.09791],[19.35478,43.08799],[19.36543,43.08235],[19.36614,43.07332],[19.38691,43.06651],[19.40953,43.06612],[19.41992,43.07157],[19.4106,43.07993],[19.42471,43.09606],[19.41566,43.10578],[19.44148,43.10831],[19.46038,43.12346],[19.46091,43.13318],[19.4886,43.16192],[19.50404,43.16969],[19.50723,43.17513],[19.50058,43.1893],[19.51548,43.21995],[19.53598,43.22034],[19.55042,43.24456]]]}},{"type":"Feature","properties":{"id":"MNE:ADM1:59799669B59523358081802","name":"Plav Municipality","countryCode":"MNE","adminLevel":1,"sourceCode":"59799669B59523358081802","parentId":"MNE:ADM1:59799669B59523358081802"},"geometry":{"type":"Polygon","coordinates":[[[19.82603,42.62992],[19.85727,42.60857],[19.88802,42.60306],[19.90538,42.59232],[19.9186,42.59014],[19.90965,42.57786],[19.89558,42.57898],[19.89023,42.57459],[19.90036,42.56301],[19.90311,42.54979],[19.89658,42.54094],[19.90276,42.53209],[19.89796,42.52475],[19.90979,42.50657],[19.94015,42.51788],[19.95327,42.51065],[19.96694,42.5093],[19.98253,42.51235],[20.00337,42.50886],[20.00818,42.51289],[20.01635,42.53063],[20.01385,42.53644],[20.01678,42.54315],[20.04968,42.54989],[20.05698,42.55907],[20.0792,42.55549],[20.08518,42.57093],[20.08935,42.57439],[20.08685,42.58742],[20.07262,42.6071],[20.07542,42.62072],[20.09141,42.63142],[20.09507,42.64085],[20.11021,42.64824],[20.11208,42.6562],[20.08844,42.66885],[20.08236,42.67964],[20.06715,42.68015],[20.06273,42.6847],[20.05358,42.68476],[20.04368,42.6954],[20.03213,42.69767],[20.03192,42.71078],[20.01518,42.70993],[19.99116,42.70287],[19.96888,42.70729],[19.9443,42.69921],[19.9352,42.70249],[19.91426,42.69493],[19.90001,42.6934],[19.86949,42.67714],[19.85078,42.65038],[19.83564,42.64381],[19.82603,42.62992]]]}},{"type":"Feature","properties":{"id":"MNE:ADM1:59799669B66678983232609","name":"Nikšić Municipality","countryCode":"MNE","adminLevel":1,"sourceCode":"59799669B66678983232609","parentId":"MNE:ADM1:59799669B66678983232609"},"geometry":{"type":"Polygon","coordinates":[[[18.93707,42.60846],[18.94874,42.61566],[18.98263,42.6237],[19.00747,42.61843],[19.01914,42.62342],[19.01914,42.63395],[18.99806,42.65416],[18.99731,42.668],[19.03383,42.699],[19.05152,42.69374],[19.08691,42.69706],[19.13058,42.69042],[19.14488,42.6918],[19.1622,42.70259],[19.17161,42.70232],[19.18931,42.69263],[19.20775,42.69125],[19.22131,42.69568],[19.22055,42.70093],[19.2006,42.70481],[19.19533,42.70868],[19.20286,42.7167],[19.19759,42.72334],[19.19608,42.73219],[19.20474,42.7427],[19.21039,42.76039],[19.19608,42.76896],[19.20248,42.80128],[19.21076,42.81371],[19.23147,42.82835],[19.23599,42.8358],[19.22846,42.84519],[19.19909,42.86009],[19.18554,42.8565],[19.16107,42.83994],[19.13171,42.86754],[19.11891,42.86864],[19.0854,42.88382],[19.03797,42.91305],[19.015,42.91664],[18.9894,42.93345],[18.95778,42.94199],[18.92879,42.94503],[18.87119,42.94475],[18.85011,42.95384],[18.79853,42.98415],[18.79289,42.99296],[18.78272,42.99736],[18.73115,43.08348],[18.71646,43.09393],[18.69614,43.08678],[18.68898,43.08843],[18.67468,43.09943],[18.65615,43.102],[18.66069,43.03733],[18.61368,43.02909],[18.59211,43.03283],[18.53584,43.0336],[18.53523,43.02813],[18.5187,43.01995],[18.51044,42.99929],[18.49822,42.99566],[18.49412,42.98646],[18.48595,42.96342],[18.48609,42.93858],[18.48255,42.92835],[18.4947,42.91538],[18.50924,42.88664],[18.48894,42.88006],[18.49137,42.86484],[18.48219,42.861],[18.47808,42.86272],[18.46866,42.85347],[18.4654,42.84489],[18.46552,42.83856],[18.477,42.83175],[18.45809,42.82559],[18.44833,42.81536],[18.4578,42.81064],[18.45547,42.80514],[18.4635,42.79503],[18.45995,42.79212],[18.46038,42.7876],[18.46782,42.78046],[18.46824,42.76377],[18.47352,42.75409],[18.49278,42.74747],[18.4985,42.74203],[18.49619,42.73675],[18.51386,42.73472],[18.52798,42.72388],[18.56992,42.71972],[18.56102,42.70992],[18.5614,42.70263],[18.55477,42.69809],[18.55199,42.69037],[18.54545,42.69215],[18.55043,42.67739],[18.54881,42.67197],[18.56428,42.66186],[18.56466,42.65673],[18.56906,42.65611],[18.5749,42.64275],[18.55874,42.64272],[18.53762,42.63682],[18.52847,42.6309],[18.52029,42.6184],[18.53113,42.61079],[18.53435,42.60262],[18.54981,42.59323],[18.55481,42.58025],[18.54377,42.57337],[18.59866,42.59085],[18.59904,42.60346],[18.6284,42.61322],[18.64487,42.61412],[18.66898,42.62916],[18.68611,42.62542],[18.69345,42.6178],[18.72615,42.63353],[18.72766,42.64267],[18.71223,42.66343],[18.72277,42.67174],[18.72465,42.68502],[18.74385,42.68281],[18.75025,42.69609],[18.75891,42.6972],[18.78827,42.68475],[18.85076,42.68862],[18.86921,42.68059],[18.87712,42.66371],[18.90385,42.64405],[18.91853,42.63048],[18.92305,42.61996],[18.93707,42.60846]]]}},{"type":"Feature","properties":{"id":"MNE:ADM1:59799669B74362705567987","name":"Mojkovac Municipality","countryCode":"MNE","adminLevel":1,"sourceCode":"59799669B74362705567987","parentId":"MNE:ADM1:59799669B74362705567987"},"geometry":{"type":"Polygon","coordinates":[[[19.65024,42.91431],[19.6493,42.94156],[19.63217,42.94308],[19.60412,42.96223],[19.62039,42.98989],[19.61964,43.00531],[19.61584,43.0132],[19.60812,43.01845],[19.58177,43.01943],[19.56926,43.02994],[19.53758,43.02935],[19.49924,43.05523],[19.48567,43.05776],[19.45186,43.05328],[19.41992,43.07157],[19.40953,43.06612],[19.38691,43.06651],[19.36614,43.07332],[19.37208,43.05805],[19.37102,43.04793],[19.35239,43.04229],[19.34679,43.03431],[19.32044,43.02886],[19.31112,42.99675],[19.32736,42.98721],[19.32949,42.96831],[19.346,42.95059],[19.34626,42.94084],[19.36969,42.93188],[19.39285,42.9155],[19.4791,42.90185],[19.52781,42.91316],[19.53926,42.90653],[19.54565,42.90829],[19.56029,42.92116],[19.57546,42.91297],[19.60821,42.90985],[19.63217,42.89731],[19.64798,42.90696],[19.65024,42.91431]]]}},{"type":"Feature","properties":{"id":"MNE:ADM1:59799669B75560777931070","name":"Gusinje Municipality","countryCode":"MNE","adminLevel":1,"sourceCode":"59799669B75560777931070","parentId":"MNE:ADM1:59799669B75560777931070"},"geometry":{"type":"Polygon","coordinates":[[[19.82603,42.62992],[19.83067,42.62587],[19.83224,42.61502],[19.83655,42.61272],[19.84955,42.59239],[19.83979,42.59392],[19.83152,42.58848],[19.81642,42.59467],[19.77917,42.59625],[19.77426,42.59197],[19.77429,42.58164],[19.75186,42.58133],[19.75363,42.57659],[19.74812,42.5736],[19.75399,42.56427],[19.74835,42.55583],[19.74938,42.55087],[19.7434,42.54494],[19.7593,42.51979],[19.76575,42.50107],[19.77844,42.49441],[19.79545,42.47885],[19.8311,42.46571],[19.83844,42.47399],[19.83615,42.47889],[19.84137,42.4801],[19.84814,42.47695],[19.85485,42.48403],[19.86812,42.48121],[19.87798,42.49583],[19.88565,42.4938],[19.89533,42.48517],[19.8987,42.48493],[19.90285,42.49039],[19.90632,42.50729],[19.90979,42.50657],[19.89796,42.52475],[19.90276,42.53209],[19.89658,42.54094],[19.90311,42.54979],[19.90036,42.56301],[19.89023,42.57459],[19.89558,42.57898],[19.90965,42.57786],[19.9186,42.59014],[19.90538,42.59232],[19.88802,42.60306],[19.85727,42.60857],[19.82603,42.62992]]]}},{"type":"Feature","properties":{"id":"MNE:ADM1:59799669B7591395216485","name":"Tivat Municipality","countryCode":"MNE","adminLevel":1,"sourceCode":"59799669B7591395216485","parentId":"MNE:ADM1:59799669B7591395216485"},"geometry":{"type":"Polygon","coordinates":[[[18.65248,42.36841],[18.65294,42.36628],[18.6482,42.36628],[18.64843,42.37396],[18.6402,42.37816],[18.64212,42.39856],[18.62817,42.40611],[18.61767,42.40776],[18.62843,42.4175],[18.6642,42.40536],[18.68693,42.40298],[18.70045,42.39297],[18.70126,42.3946],[18.70259,42.39334],[18.70983,42.39165],[18.70528,42.39358],[18.70997,42.39929],[18.71298,42.3983],[18.70639,42.40215],[18.71076,42.40294],[18.7066,42.40534],[18.70682,42.40579],[18.71284,42.4067],[18.71308,42.41608],[18.70668,42.4201],[18.70655,42.42105],[18.68385,42.45881],[18.68363,42.46244],[18.68638,42.46599],[18.68646,42.47338],[18.69329,42.47678],[18.69116,42.47568],[18.69359,42.47007],[18.71466,42.45801],[18.73805,42.42933],[18.73072,42.4167],[18.73656,42.40691],[18.73724,42.38913],[18.69524,42.37006],[18.69581,42.37376],[18.68356,42.38239],[18.68483,42.38532],[18.68194,42.38354],[18.67848,42.38597],[18.66493,42.38641],[18.66366,42.38672],[18.66272,42.38649],[18.65854,42.38662],[18.65821,42.38537],[18.65691,42.38505],[18.65226,42.38197],[18.6519,42.37585],[18.65521,42.37402],[18.65396,42.36927],[18.65248,42.36841]]]}},{"type":"Feature","properties":{"id":"MNE:ADM1:59799669B78864851615199","name":"Petnjica Municipality","countryCode":"MNE","adminLevel":1,"sourceCode":"59799669B78864851615199","parentId":"MNE:ADM1:59799669B78864851615199"},"geometry":{"type":"Polygon","coordinates":[[[20.09682,42.97143],[20.09035,42.97565],[20.08351,42.98913],[20.06342,42.99256],[20.05382,43.00473],[19.99364,42.97462],[19.98579,42.97306],[19.97474,42.97958],[19.94439,42.96079],[19.91897,42.96166],[19.87398,42.92474],[19.92587,42.91275],[19.96688,42.89122],[20.03341,42.8638],[20.0571,42.88544],[20.09682,42.97143]]]}},{"type":"Feature","properties":{"id":"MNE:ADM1:59799669B79583520985931","name":"Šavnik Municipality","countryCode":"MNE","adminLevel":1,"sourceCode":"59799669B79583520985931","parentId":"MNE:ADM1:59799669B79583520985931"},"geometry":{"type":"Polygon","coordinates":[[[19.35478,42.93714],[19.34626,42.94084],[19.346,42.95059],[19.32949,42.96831],[19.32736,42.98721],[19.2785,43.01437],[19.23954,43.01698],[19.22919,43.02084],[19.22373,43.02524],[19.22636,43.03005],[19.23803,43.03418],[19.23935,43.03748],[19.19869,43.06101],[19.18796,43.06004],[19.1618,43.04491],[19.15239,43.04409],[19.12359,43.05826],[19.12152,43.06279],[19.12528,43.08026],[19.08782,43.07916],[19.07389,43.07462],[19.04905,43.07545],[19.03888,43.08397],[19.03004,43.08672],[19.02759,43.09098],[19.03568,43.10239],[19.02345,43.11558],[19.01161,43.10768],[18.99166,43.11977],[18.97397,43.10987],[18.97547,43.09586],[18.9702,43.07799],[18.95928,43.05598],[18.93519,43.02517],[18.93143,43.01553],[18.93369,43.00645],[18.97434,42.98993],[18.99354,42.98662],[19.01839,42.97092],[19.01048,42.95798],[19.0022,42.95219],[19.00145,42.94199],[18.9894,42.93345],[19.015,42.91664],[19.03797,42.91305],[19.0854,42.88382],[19.11891,42.86864],[19.13171,42.86754],[19.16107,42.83994],[19.18554,42.8565],[19.19909,42.86009],[19.19684,42.88106],[19.21302,42.89595],[19.20963,42.90781],[19.24051,42.91443],[19.30036,42.91002],[19.33575,42.9227],[19.34027,42.91719],[19.34742,42.91498],[19.35194,42.91994],[19.35478,42.93714]]]}},{"type":"Feature","properties":{"id":"MNE:ADM1:59799669B80293643035426","name":"Kotor Municipality","countryCode":"MNE","adminLevel":1,"sourceCode":"59799669B80293643035426","parentId":"MNE:ADM1:59799669B80293643035426"},"geometry":{"type":"Polygon","coordinates":[[[18.72159,42.38359],[18.72526,42.38179],[18.73569,42.38723],[18.73862,42.3959],[18.73072,42.4167],[18.73805,42.42933],[18.71466,42.45801],[18.69359,42.47007],[18.69116,42.47568],[18.73414,42.46579],[18.75431,42.44896],[18.75228,42.44413],[18.76212,42.42219],[18.77181,42.42214],[18.76641,42.42617],[18.77479,42.42672],[18.76757,42.42748],[18.76186,42.44171],[18.76567,42.44859],[18.76273,42.46734],[18.76606,42.48555],[18.76355,42.48975],[18.75355,42.49005],[18.73338,42.4833],[18.6997,42.48525],[18.69254,42.49035],[18.69088,42.49544],[18.69296,42.50617],[18.69621,42.50868],[18.69515,42.51305],[18.68766,42.51712],[18.67648,42.50518],[18.66783,42.50452],[18.64925,42.48962],[18.67459,42.48439],[18.68328,42.47909],[18.68123,42.47717],[18.65588,42.47399],[18.63888,42.47779],[18.62114,42.47298],[18.60393,42.47387],[18.59415,42.48127],[18.58365,42.48083],[18.58038,42.49232],[18.61776,42.49836],[18.63426,42.49679],[18.64591,42.50489],[18.65093,42.50389],[18.65461,42.50987],[18.66655,42.51198],[18.65809,42.52519],[18.63253,42.52601],[18.6084,42.52215],[18.60473,42.52806],[18.60512,42.53783],[18.56575,42.54398],[18.55029,42.5551],[18.55174,42.56003],[18.54397,42.56507],[18.54222,42.57305],[18.59866,42.59085],[18.59904,42.60346],[18.6284,42.61322],[18.64487,42.61412],[18.66898,42.62916],[18.68611,42.62542],[18.69345,42.6178],[18.71261,42.57767],[18.72955,42.57212],[18.73388,42.56727],[18.72579,42.54841],[18.74499,42.54023],[18.7576,42.52567],[18.7864,42.48251],[18.79732,42.45738],[18.79845,42.44627],[18.78565,42.42779],[18.78376,42.41362],[18.77172,42.3993],[18.77398,42.39207],[18.79468,42.38317],[18.80487,42.35478],[18.79671,42.34743],[18.80801,42.32131],[18.79181,42.29323],[18.79103,42.27933],[18.7851,42.28199],[18.78646,42.27418],[18.78639,42.27412],[18.77858,42.27147],[18.77198,42.27692],[18.76246,42.29116],[18.7295,42.31159],[18.71453,42.32526],[18.71445,42.32795],[18.71453,42.32802],[18.71444,42.3281],[18.71412,42.33893],[18.70834,42.34248],[18.69972,42.34984],[18.69361,42.35322],[18.69361,42.35713],[18.70648,42.35434],[18.70024,42.35989],[18.70139,42.36331],[18.69482,42.36731],[18.69527,42.37023],[18.72159,42.38359]]]}},{"type":"Feature","properties":{"id":"MNE:ADM1:59799669B84579627936880","name":"Ulcinj Municipality","countryCode":"MNE","adminLevel":1,"sourceCode":"59799669B84579627936880","parentId":"MNE:ADM1:59799669B84579627936880"},"geometry":{"type":"Polygon","coordinates":[[[19.15225,41.98254],[19.15027,41.98766],[19.14349,41.99153],[19.17872,41.98461],[19.24616,41.9628],[19.26446,41.97969],[19.2658,41.98704],[19.25137,42.01226],[19.21809,42.03331],[19.23819,42.03877],[19.23713,42.06662],[19.29457,42.0431],[19.30298,42.04324],[19.33067,42.05432],[19.37777,42.05602],[19.37959,42.05201],[19.37053,42.03703],[19.36947,42.02457],[19.37322,42.02271],[19.37118,42.01409],[19.37401,42.00475],[19.37999,42.00201],[19.37904,41.99752],[19.38254,41.99586],[19.38183,41.98557],[19.37637,41.9745],[19.38864,41.96636],[19.38256,41.96146],[19.3524,41.95785],[19.35187,41.93945],[19.36839,41.92941],[19.37174,41.92344],[19.36481,41.91749],[19.34609,41.91329],[19.34259,41.90691],[19.34729,41.90266],[19.36516,41.89846],[19.36911,41.88857],[19.38154,41.8855],[19.375,41.87559],[19.37341,41.85435],[19.36508,41.85236],[19.34693,41.86396],[19.31023,41.89452],[19.29322,41.90078],[19.22022,41.91885],[19.20297,41.92707],[19.18208,41.9329],[19.18065,41.93411],[19.17241,41.93691],[19.17026,41.93797],[19.16228,41.94794],[19.16212,41.95061],[19.16416,41.95027],[19.16555,41.95292],[19.16243,41.95545],[19.16326,41.95897],[19.16033,41.96898],[19.15561,41.97065],[19.14527,41.97761],[19.14235,41.98068],[19.15225,41.98254]]]}},{"type":"Feature","properties":{"id":"MNE:ADM1:59799669B88193558767116","name":"Rožaje Municipality","countryCode":"MNE","adminLevel":1,"sourceCode":"59799669B88193558767116","parentId":"MNE:ADM1:59799669B88193558767116"},"geometry":{"type":"Polygon","coordinates":[[[20.03341,42.8638],[20.0091,42.85371],[20.02416,42.84778],[20.00853,42.8297],[20.02416,42.82542],[20.02792,42.821],[20.01757,42.80926],[20.0187,42.80498],[20.05616,42.77801],[20.06982,42.77446],[20.09671,42.77631],[20.11409,42.76328],[20.12602,42.76261],[20.14575,42.75539],[20.14906,42.7638],[20.15509,42.76884],[20.19268,42.74712],[20.19612,42.75152],[20.19907,42.74804],[20.20043,42.75132],[20.23367,42.75314],[20.23665,42.75722],[20.25044,42.75897],[20.25531,42.77033],[20.26616,42.7789],[20.26273,42.80399],[20.25231,42.81071],[20.25477,42.81429],[20.27406,42.82],[20.27507,42.82536],[20.28075,42.83041],[20.28531,42.82593],[20.29379,42.82532],[20.29792,42.836],[20.31549,42.83582],[20.32004,42.82605],[20.3349,42.83555],[20.35404,42.83263],[20.3489,42.84631],[20.34939,42.85604],[20.3431,42.86847],[20.34678,42.87616],[20.34584,42.88809],[20.35106,42.896],[20.34641,42.91128],[20.33724,42.90768],[20.33028,42.91355],[20.31122,42.91753],[20.3123,42.92347],[20.29941,42.92191],[20.28498,42.92742],[20.28448,42.93167],[20.27912,42.93262],[20.27835,42.93551],[20.27006,42.93265],[20.25259,42.94046],[20.23032,42.94462],[20.20972,42.95941],[20.19626,42.95848],[20.17198,42.97226],[20.15346,42.97492],[20.15288,42.98564],[20.1473,42.98967],[20.13359,42.9715],[20.12178,42.9635],[20.1085,42.9722],[20.09682,42.97143],[20.0571,42.88544],[20.03341,42.8638]]]}},{"type":"Feature","properties":{"id":"MNE:ADM1:59799669B91583747266461","name":"Cetinje Municipality","countryCode":"MNE","adminLevel":1,"sourceCode":"59799669B91583747266461","parentId":"MNE:ADM1:59799669B91583747266461"},"geometry":{"type":"Polygon","coordinates":[[[19.00597,42.4867],[18.98714,42.51113],[18.99919,42.51779],[18.99957,42.52778],[19.00973,42.53388],[19.01048,42.54387],[19.01877,42.54969],[18.97811,42.56966],[18.94121,42.59433],[18.93707,42.60846],[18.92305,42.61996],[18.91853,42.63048],[18.90385,42.64405],[18.87712,42.66371],[18.86921,42.68059],[18.85076,42.68862],[18.78827,42.68475],[18.75891,42.6972],[18.75025,42.69609],[18.74385,42.68281],[18.72465,42.68502],[18.72277,42.67174],[18.71223,42.66343],[18.72766,42.64267],[18.72615,42.63353],[18.69345,42.6178],[18.71261,42.57767],[18.72955,42.57212],[18.73388,42.56727],[18.72579,42.54841],[18.74499,42.54023],[18.7864,42.48251],[18.79732,42.45738],[18.79845,42.44627],[18.78565,42.42779],[18.78376,42.41362],[18.77172,42.3993],[18.77398,42.39207],[18.79468,42.38317],[18.80487,42.35478],[18.82497,42.33461],[18.85784,42.33255],[18.87634,42.32015],[18.89804,42.31739],[18.92612,42.29869],[18.9382,42.2865],[18.96794,42.28817],[18.97397,42.27396],[19.01312,42.25223],[19.03797,42.27452],[19.03684,42.29207],[19.0647,42.29764],[19.0918,42.29875],[19.11138,42.28566],[19.16747,42.30989],[19.16107,42.3533],[19.08578,42.39085],[19.07335,42.41921],[19.06244,42.42615],[19.04437,42.4206],[19.03571,42.44782],[19.02404,42.45227],[19.01575,42.46171],[18.9894,42.4756],[19.00597,42.4867]]]}},{"type":"Feature","properties":{"id":"MNE:ADM1:59799669B93063361678836","name":"Andrijevica Municipality","countryCode":"MNE","adminLevel":1,"sourceCode":"59799669B93063361678836","parentId":"MNE:ADM1:59799669B93063361678836"},"geometry":{"type":"Polygon","coordinates":[[[19.90001,42.6934],[19.88417,42.70707],[19.86158,42.71841],[19.85123,42.7198],[19.82883,42.73404],[19.82902,42.74524],[19.82149,42.75629],[19.842,42.78283],[19.82544,42.79374],[19.80586,42.78379],[19.79306,42.79429],[19.73716,42.80755],[19.71382,42.80783],[19.69161,42.82647],[19.66055,42.82398],[19.64906,42.84496],[19.63852,42.85366],[19.63123,42.84834],[19.61899,42.80458],[19.65005,42.79159],[19.65077,42.76546],[19.66422,42.73321],[19.65836,42.71003],[19.64598,42.69409],[19.64452,42.68],[19.64811,42.64535],[19.65505,42.62004],[19.66715,42.63132],[19.67528,42.62782],[19.68231,42.62987],[19.68626,42.63855],[19.68977,42.63771],[19.70017,42.64513],[19.699,42.65022],[19.70431,42.65567],[19.72711,42.6611],[19.73427,42.65463],[19.73789,42.64276],[19.75704,42.63571],[19.74975,42.6283],[19.75116,42.61382],[19.75993,42.61051],[19.75922,42.60673],[19.77426,42.59197],[19.77917,42.59625],[19.79719,42.59714],[19.81642,42.59467],[19.83152,42.58848],[19.83979,42.59392],[19.84955,42.59239],[19.83655,42.61272],[19.83224,42.61502],[19.83067,42.62587],[19.82603,42.62992],[19.83564,42.64381],[19.85078,42.65038],[19.86949,42.67714],[19.90001,42.6934]]]}},{"type":"Feature","properties":{"id":"MNE:ADM1:59799669B93779420845023","name":"Berane Municipality","countryCode":"MNE","adminLevel":1,"sourceCode":"59799669B93779420845023","parentId":"MNE:ADM1:59799669B93779420845023"},"geometry":{"type":"Polygon","coordinates":[[[20.01518,42.70993],[20.01608,42.71299],[20.02139,42.71314],[20.03019,42.71973],[20.0168,42.72398],[20.0129,42.72847],[20.01205,42.73978],[20.02247,42.75189],[20.02385,42.76435],[20.03226,42.76491],[20.03292,42.76856],[20.0399,42.77295],[20.05616,42.77801],[20.0187,42.80498],[20.01757,42.80926],[20.02792,42.821],[20.02416,42.82542],[20.00853,42.8297],[20.02416,42.84778],[20.0091,42.85371],[20.03341,42.8638],[19.96688,42.89122],[19.92587,42.91275],[19.84723,42.93224],[19.81781,42.94842],[19.81808,42.96585],[19.80464,42.96634],[19.7904,42.95504],[19.79,42.94004],[19.77788,42.93263],[19.74567,42.92795],[19.72664,42.91567],[19.71799,42.91509],[19.70521,42.91938],[19.65024,42.91431],[19.64798,42.90696],[19.61749,42.88766],[19.62012,42.87566],[19.6493,42.86545],[19.64967,42.86145],[19.63852,42.85366],[19.64906,42.84496],[19.66055,42.82398],[19.69161,42.82647],[19.71382,42.80783],[19.73716,42.80755],[19.79306,42.79429],[19.80586,42.78379],[19.82544,42.79374],[19.842,42.78283],[19.82149,42.75629],[19.82902,42.74524],[19.82883,42.73404],[19.85123,42.7198],[19.86158,42.71841],[19.88417,42.70707],[19.90001,42.6934],[19.91426,42.69493],[19.9352,42.70249],[19.9443,42.69921],[19.96888,42.70729],[19.99116,42.70287],[20.01518,42.70993]]]}},{"type":"Feature","properties":{"id":"MNE:ADM1:59799669B9703090978387","name":"Herceg Novi Municipality","countryCode":"MNE","adminLevel":1,"sourceCode":"59799669B9703090978387","parentId":"MNE:ADM1:59799669B9703090978387"},"geometry":{"type":"MultiPolygon","coordinates":[[[[18.56127,42.43097],[18.57531,42.43201],[18.62843,42.4175],[18.61767,42.40776],[18.62817,42.40611],[18.64212,42.39856],[18.6402,42.37816],[18.64843,42.37396],[18.6482,42.36628],[18.6465,42.36628],[18.63911,42.36997],[18.63841,42.37052],[18.6359,42.37005],[18.6171,42.36811],[18.61682,42.36823],[18.61677,42.36808],[18.61671,42.36807],[18.61231,42.36994],[18.60711,42.37641],[18.5949,42.38373],[18.5809,42.38984],[18.57296,42.39227],[18.57923,42.39462],[18.57658,42.397],[18.58018,42.39772],[18.57988,42.4006],[18.57653,42.40122],[18.55776,42.41112],[18.5589,42.41237],[18.55511,42.41252],[18.55299,42.41364],[18.54675,42.42158],[18.56127,42.43097]]],[[[18.43903,42.54343],[18.43593,42.55237],[18.44267,42.55598],[18.44386,42.56214],[18.4591,42.56516],[18.47366,42.56367],[18.47487,42.56944],[18.48593,42.57405],[18.49992,42.58813],[18.52778,42.58353],[18.53622,42.57527],[18.54377,42.57337],[18.54397,42.56507],[18.55174,42.56003],[18.55029,42.5551],[18.56575,42.54398],[18.60512,42.53783],[18.60473,42.52806],[18.6084,42.52215],[18.63253,42.52601],[18.65809,42.52519],[18.66655,42.51198],[18.65461,42.50987],[18.65093,42.50389],[18.64591,42.50489],[18.63426,42.49679],[18.61776,42.49836],[18.58038,42.49232],[18.58365,42.48083],[18.59415,42.48127],[18.60393,42.47387],[18.62114,42.47298],[18.63888,42.47779],[18.65588,42.47399],[18.68123,42.47717],[18.65414,42.45181],[18.60865,42.44538],[18.57247,42.44887],[18.56437,42.45398],[18.55522,42.45054],[18.52884,42.45309],[18.51632,42.45888],[18.50964,42.45494],[18.50245,42.45563],[18.50245,42.44819],[18.50541,42.44658],[18.51117,42.43839],[18.51977,42.43281],[18.51741,42.42456],[18.5057,42.43158],[18.47275,42.46538],[18.43376,42.48415],[18.43816,42.48811],[18.44498,42.50988],[18.43342,42.52111],[18.43903,42.54343]]]]}}],"admin1":{"type":"FeatureCollection","features":[{"type":"Feature","properties":{"id":"MNE:ADM1:59799669B12564288388297","name":"Danilovgrad Municipality","countryCode":"MNE"},"geometry":{"type":"Polygon","coordinates":[[[19.28606,42.65554],[19.28305,42.66413],[19.26949,42.67188],[19.25933,42.69844],[19.23072,42.73302],[19.22356,42.75044],[19.21039,42.76039],[19.20474,42.7427],[19.19608,42.73219],[19.19759,42.72334],[19.20286,42.7167],[19.19533,42.70868],[19.2006,42.70481],[19.22055,42.70093],[19.22131,42.69568],[19.20775,42.69125],[19.18931,42.69263],[19.17161,42.70232],[19.1622,42.70259],[19.14488,42.6918],[19.13058,42.69042],[19.08691,42.69706],[19.05152,42.69374],[19.03383,42.699],[18.99731,42.668],[18.99806,42.65416],[19.01914,42.63395],[19.01914,42.62342],[19.00747,42.61843],[18.98263,42.6237],[18.94874,42.61566],[18.93707,42.60846],[18.94121,42.59433],[18.97811,42.56966],[19.01877,42.54969],[19.01048,42.54387],[19.00973,42.53388],[18.99957,42.52778],[18.99919,42.51779],[18.98714,42.51113],[19.00597,42.4867],[19.01839,42.47893],[19.02366,42.46699],[19.10686,42.46671],[19.16559,42.48115],[19.19533,42.4681],[19.20888,42.47921],[19.22695,42.51363],[19.21227,42.51557],[19.20888,42.52195],[19.21942,42.5533],[19.23486,42.56799],[19.25029,42.59072],[19.27439,42.65139],[19.28606,42.65554]]]}},{"type":"Feature","properties":{"id":"MNE:ADM1:59799669B20110685483927","name":"Budva Municipality","countryCode":"MNE"},"geometry":{"type":"Polygon","coordinates":[[[18.79103,42.27933],[18.79181,42.29323],[18.80801,42.32131],[18.79671,42.34743],[18.80487,42.35478],[18.82497,42.33461],[18.85784,42.33255],[18.87634,42.32015],[18.89804,42.31739],[18.92612,42.29869],[18.9382,42.2865],[18.9397,42.26994],[18.94689,42.25467],[18.99367,42.20618],[19.00658,42.19853],[19.01766,42.18207],[18.9857,42.16494],[18.98162,42.16706],[18.971,42.18397],[18.97115,42.18429],[18.96594,42.19263],[18.9615,42.19371],[18.95346,42.19986],[18.91334,42.22223],[18.9017,42.23749],[18.8947,42.27049],[18.886,42.28437],[18.87159,42.29047],[18.85402,42.29047],[18.83888,42.28571],[18.83139,42.27753],[18.82651,42.28221],[18.82049,42.28669],[18.81764,42.29116],[18.80152,42.28437],[18.79396,42.28034],[18.79209,42.2788],[18.79103,42.27933]]]}},{"type":"Feature","properties":{"id":"MNE:ADM1:59799669B20319020653405","name":"Podgorica Municipality","countryCode":"MNE"},"geometry":{"type":"Polygon","coordinates":[[[19.64452,42.68],[19.61178,42.67794],[19.61132,42.68738],[19.5782,42.70315],[19.56728,42.699],[19.55523,42.70481],[19.49123,42.70481],[19.47053,42.70896],[19.46224,42.70425],[19.44267,42.70342],[19.44493,42.68738],[19.42535,42.67382],[19.40088,42.67907],[19.40239,42.67105],[19.41067,42.66274],[19.40653,42.65804],[19.39749,42.65776],[19.39034,42.64945],[19.3813,42.64585],[19.3685,42.65167],[19.36173,42.65997],[19.34554,42.66108],[19.28606,42.65554],[19.27439,42.65139],[19.25029,42.59072],[19.23486,42.56799],[19.21942,42.5533],[19.20888,42.52195],[19.21227,42.51557],[19.22695,42.51363],[19.20888,42.47921],[19.19533,42.4681],[19.16559,42.48115],[19.10686,42.46671],[19.02366,42.46699],[19.01839,42.47893],[19.00597,42.4867],[18.9894,42.4756],[19.01575,42.46171],[19.02404,42.45227],[19.03571,42.44782],[19.04437,42.4206],[19.06244,42.42615],[19.07335,42.41921],[19.08578,42.39085],[19.16107,42.3533],[19.16747,42.30989],[19.11138,42.28566],[19.11006,42.28148],[19.11962,42.26722],[19.13935,42.25418],[19.284,42.17896],[19.35172,42.23924],[19.37678,42.26982],[19.38783,42.29147],[19.42555,42.32725],[19.41738,42.33283],[19.41371,42.35036],[19.42325,42.35641],[19.42243,42.36688],[19.42528,42.37176],[19.43831,42.38148],[19.47236,42.39201],[19.49338,42.42268],[19.4983,42.42273],[19.49926,42.43257],[19.50365,42.43441],[19.50373,42.43754],[19.51959,42.44274],[19.51851,42.44845],[19.53218,42.45967],[19.54802,42.48661],[19.5527,42.48707],[19.55754,42.49322],[19.56274,42.50111],[19.5615,42.51346],[19.60156,42.53028],[19.60544,42.53783],[19.61694,42.54265],[19.60993,42.56227],[19.60966,42.57515],[19.65505,42.62004],[19.64811,42.64535],[19.64452,42.68]]]}},{"type":"Feature","properties":{"id":"MNE:ADM1:59799669B20349667855259","name":"Bijelo Polje Municipality","countryCode":"MNE"},"geometry":{"type":"Polygon","coordinates":[[[19.87398,42.92474],[19.91897,42.96166],[19.94439,42.96079],[19.97474,42.97958],[19.98579,42.97306],[19.99364,42.97462],[20.05981,43.0077],[20.05446,43.00967],[20.0563,43.0174],[20.04718,43.02681],[19.9922,43.0518],[19.96761,43.0867],[19.9737,43.10319],[19.97024,43.11127],[19.96056,43.10954],[19.95034,43.10209],[19.92313,43.09591],[19.91627,43.08533],[19.90685,43.09109],[19.90245,43.09898],[19.88817,43.09726],[19.87989,43.10842],[19.87046,43.11297],[19.83842,43.09451],[19.83447,43.09616],[19.83699,43.1002],[19.83386,43.10715],[19.84007,43.10992],[19.83794,43.11536],[19.82622,43.11814],[19.81186,43.11546],[19.80548,43.12223],[19.79148,43.12379],[19.78681,43.13141],[19.77697,43.13782],[19.78172,43.14388],[19.77923,43.15677],[19.76992,43.1662],[19.74674,43.15889],[19.73708,43.16215],[19.73474,43.17126],[19.68593,43.16815],[19.68001,43.17877],[19.67267,43.1835],[19.64189,43.18867],[19.63772,43.20044],[19.6407,43.20668],[19.63468,43.20981],[19.62615,43.22234],[19.6198,43.22514],[19.61894,43.22962],[19.59115,43.23834],[19.55042,43.24456],[19.53598,43.22034],[19.51548,43.21995],[19.50058,43.1893],[19.50723,43.17513],[19.50404,43.16969],[19.4886,43.16192],[19.46091,43.13318],[19.46038,43.12346],[19.44148,43.10831],[19.41566,43.10578],[19.42471,43.09606],[19.4106,43.07993],[19.43669,43.06048],[19.45186,43.05328],[19.48567,43.05776],[19.49924,43.05523],[19.53758,43.02935],[19.56926,43.02994],[19.58177,43.01943],[19.60812,43.01845],[19.61584,43.0132],[19.61964,43.00531],[19.62039,42.98989],[19.60412,42.96223],[19.63217,42.94308],[19.6493,42.94156],[19.65024,42.91431],[19.70521,42.91938],[19.71799,42.91509],[19.72664,42.91567],[19.74567,42.92795],[19.77788,42.93263],[19.79,42.94004],[19.7904,42.95504],[19.80464,42.96634],[19.81808,42.96585],[19.81781,42.94842],[19.84723,42.93224],[19.87398,42.92474]]]}},{"type":"Feature","properties":{"id":"MNE:ADM1:59799669B22511566400758","name":"Bar Municipality","countryCode":"MNE"},"geometry":{"type":"MultiPolygon","coordinates":[[[[19.07889,42.09381],[19.07728,42.09092],[19.07647,42.09241],[19.07883,42.09929],[19.07889,42.09381]]],[[[19.00658,42.19853],[18.99367,42.20618],[18.94689,42.25467],[18.9397,42.26994],[18.9382,42.2865],[18.96794,42.28817],[18.97397,42.27396],[19.01312,42.25223],[19.03797,42.27452],[19.03684,42.29207],[19.0647,42.29764],[19.0918,42.29875],[19.11138,42.28566],[19.11006,42.28148],[19.11962,42.26722],[19.13935,42.25418],[19.284,42.17896],[19.40631,42.10178],[19.38948,42.07939],[19.37845,42.07228],[19.37777,42.05602],[19.33067,42.05432],[19.30298,42.04324],[19.29457,42.0431],[19.23713,42.06662],[19.23819,42.03877],[19.21809,42.03331],[19.25137,42.01226],[19.2658,41.98704],[19.26446,41.97969],[19.24616,41.9628],[19.17872,41.98461],[19.14349,41.99153],[19.14814,41.9931],[19.14511,41.9977],[19.1492,41.9995],[19.14469,42.00428],[19.1511,42.01334],[19.1422,42.0171],[19.14781,42.01951],[19.14909,42.02566],[19.14022,42.03062],[19.14017,42.03119],[19.14284,42.03311],[19.14158,42.04372],[19.12057,42.05516],[19.08253,42.0812],[19.07949,42.08683],[19.08491,42.08552],[19.08301,42.09141],[19.08839,42.08847],[19.086,42.09174],[19.08954,42.09179],[19.09122,42.09658],[19.08207,42.09687],[19.08665,42.09993],[19.0853,42.09723],[19.09074,42.09731],[19.08738,42.09913],[19.09002,42.10146],[19.08356,42.11275],[19.06773,42.1219],[19.06252,42.12209],[19.06157,42.12333],[19.06358,42.12689],[19.06166,42.13295],[19.05051,42.1378],[19.04868,42.1402],[19.02273,42.13976],[19.02156,42.14127],[19.01922,42.1397],[19.01059,42.13955],[19.00213,42.15021],[19.00212,42.15023],[19.0035,42.1573],[19.00043,42.15831],[18.99985,42.16108],[18.9948,42.16364],[18.98805,42.16372],[18.98637,42.16459],[19.01766,42.18207],[19.00658,42.19853]]]]}},{"type":"Feature","properties":{"id":"MNE:ADM1:59799669B28207041867492","name":"Plužine Municipality","countryCode":"MNE"},"geometry":{"type":"Polygon","coordinates":[[[18.9894,42.93345],[19.00145,42.94199],[19.0022,42.95219],[19.01048,42.95798],[19.01839,42.97092],[18.99354,42.98662],[18.97434,42.98993],[18.93369,43.00645],[18.93143,43.01553],[18.93519,43.02517],[18.95928,43.05598],[18.9702,43.07799],[18.97547,43.09586],[18.97397,43.10987],[18.99166,43.11977],[19.01161,43.10768],[19.02345,43.11558],[19.02062,43.12616],[18.99484,43.14635],[18.98467,43.16269],[18.97187,43.22061],[18.97206,43.24872],[18.98503,43.26254],[18.98711,43.27296],[18.98204,43.28058],[18.96756,43.28656],[18.95544,43.28772],[18.949,43.30125],[18.95211,43.31134],[18.95986,43.3174],[18.96132,43.32407],[18.95855,43.33048],[18.9474,43.33059],[18.91446,43.35985],[18.90836,43.36017],[18.89694,43.3543],[18.87845,43.35645],[18.8394,43.34855],[18.83913,43.34398],[18.84949,43.33644],[18.85347,43.32407],[18.83734,43.3201],[18.8291,43.31411],[18.81968,43.31482],[18.80627,43.30736],[18.78858,43.30394],[18.73315,43.28103],[18.68812,43.25471],[18.70544,43.23611],[18.71714,43.23197],[18.68749,43.22139],[18.68244,43.21062],[18.66773,43.20391],[18.6484,43.14713],[18.65396,43.10391],[18.67468,43.09943],[18.68898,43.08843],[18.69614,43.08678],[18.71646,43.09393],[18.73115,43.08348],[18.78272,42.99736],[18.79289,42.99296],[18.79853,42.98415],[18.85011,42.95384],[18.87119,42.94475],[18.92879,42.94503],[18.95778,42.94199],[18.9894,42.93345]]]}},{"type":"Feature","properties":{"id":"MNE:ADM1:59799669B41052051546873","name":"Žabljak Municipality","countryCode":"MNE"},"geometry":{"type":"Polygon","coordinates":[[[19.36614,43.07332],[19.36543,43.08235],[19.35478,43.08799],[19.35345,43.09791],[19.34759,43.10354],[19.31698,43.12142],[19.29462,43.12181],[19.2893,43.1257],[19.28637,43.14221],[19.26001,43.15483],[19.24644,43.16842],[19.22115,43.17697],[19.20624,43.18842],[19.17643,43.202],[19.15806,43.21655],[19.12576,43.21554],[19.10581,43.20669],[19.08859,43.21149],[19.06186,43.20594],[19.04915,43.20662],[19.03353,43.21307],[19.03099,43.22514],[18.99965,43.23755],[18.9972,43.24592],[18.99946,43.25366],[18.99103,43.26005],[18.98503,43.26254],[18.97206,43.24872],[18.97187,43.22061],[18.98467,43.16269],[18.99484,43.14635],[19.01479,43.13248],[19.02062,43.12616],[19.02345,43.11558],[19.03248,43.10802],[19.03568,43.10239],[19.02759,43.09098],[19.03004,43.08672],[19.03888,43.08397],[19.04905,43.07545],[19.07389,43.07462],[19.08782,43.07916],[19.12528,43.08026],[19.12152,43.06279],[19.12359,43.05826],[19.15239,43.04409],[19.1618,43.04491],[19.18796,43.06004],[19.19869,43.06101],[19.23935,43.03748],[19.23803,43.03418],[19.22636,43.03005],[19.22373,43.02524],[19.22919,43.02084],[19.23954,43.01698],[19.2785,43.01437],[19.31112,42.99675],[19.32044,43.02886],[19.34679,43.03431],[19.35239,43.04229],[19.37102,43.04793],[19.37208,43.05805],[19.36614,43.07332]]]}},{"type":"Feature","properties":{"id":"MNE:ADM1:59799669B48420505719641","name":"Kolašin Municipality","countryCode":"MNE"},"geometry":{"type":"Polygon","coordinates":[[[19.63852,42.85366],[19.64967,42.86145],[19.6493,42.86545],[19.62012,42.87566],[19.6173,42.88021],[19.61749,42.88766],[19.63217,42.89731],[19.60821,42.90985],[19.57546,42.91297],[19.56029,42.92116],[19.54565,42.90829],[19.53926,42.90653],[19.52781,42.91316],[19.4791,42.90185],[19.39285,42.9155],[19.38007,42.92603],[19.35478,42.93714],[19.35194,42.91994],[19.34742,42.91498],[19.34027,42.91719],[19.33575,42.9227],[19.30036,42.91002],[19.24051,42.91443],[19.20963,42.90781],[19.21302,42.89595],[19.19684,42.88106],[19.19909,42.86009],[19.22846,42.84519],[19.23599,42.8358],[19.23147,42.82835],[19.21076,42.81371],[19.20248,42.80128],[19.19608,42.76896],[19.22356,42.75044],[19.23072,42.73302],[19.25933,42.69844],[19.26949,42.67188],[19.28305,42.66413],[19.28606,42.65554],[19.34554,42.66108],[19.36173,42.65997],[19.3685,42.65167],[19.3813,42.64585],[19.39034,42.64945],[19.39749,42.65776],[19.40653,42.65804],[19.41067,42.66274],[19.40239,42.67105],[19.40088,42.67907],[19.42535,42.67382],[19.44493,42.68738],[19.44267,42.70342],[19.46224,42.70425],[19.47053,42.70896],[19.49123,42.70481],[19.55523,42.70481],[19.56728,42.699],[19.5782,42.70315],[19.61132,42.68738],[19.61178,42.67794],[19.64452,42.68],[19.64598,42.69409],[19.65836,42.71003],[19.66422,42.73321],[19.65077,42.76546],[19.65005,42.79159],[19.61899,42.80458],[19.63123,42.84834],[19.63852,42.85366]]]}},{"type":"Feature","properties":{"id":"MNE:ADM1:59799669B58100018961631","name":"Pljevlja Municipality","countryCode":"MNE"},"geometry":{"type":"Polygon","coordinates":[[[19.55042,43.24456],[19.54508,43.24639],[19.54307,43.2596],[19.52973,43.27138],[19.52736,43.27781],[19.52732,43.28341],[19.53799,43.30242],[19.53556,43.30785],[19.52155,43.31975],[19.48605,43.3263],[19.4817,43.33276],[19.4608,43.34458],[19.46136,43.35848],[19.45672,43.36502],[19.45059,43.36671],[19.44925,43.38734],[19.43991,43.39117],[19.41259,43.39186],[19.39396,43.40085],[19.38321,43.41203],[19.36079,43.41064],[19.35001,43.41547],[19.3342,43.43613],[19.32246,43.44064],[19.30814,43.43979],[19.29206,43.44388],[19.27744,43.45359],[19.25419,43.46112],[19.24788,43.46839],[19.2231,43.48194],[19.22715,43.48502],[19.22364,43.49133],[19.22685,43.49493],[19.22379,43.50357],[19.22814,43.51196],[19.22384,43.52436],[19.22594,43.52833],[19.19954,43.53276],[19.19762,43.53575],[19.17105,43.53276],[19.15265,43.53678],[19.12476,43.5203],[19.10318,43.52204],[19.09706,43.51334],[19.09168,43.51281],[19.0919,43.51525],[19.08683,43.5167],[19.0752,43.51147],[19.06385,43.51067],[19.06156,43.50507],[19.0479,43.50235],[19.04218,43.5033],[19.04386,43.51329],[19.04001,43.52118],[19.04356,43.52442],[19.03606,43.53289],[19.02548,43.5389],[19.0222,43.54533],[19.01148,43.54275],[19.00508,43.55851],[18.99667,43.55801],[18.98827,43.55531],[18.98157,43.54397],[18.97986,43.53588],[18.98566,43.5312],[18.97888,43.52655],[18.9533,43.52267],[18.94234,43.51506],[18.92743,43.51137],[18.92385,43.50482],[18.91244,43.50328],[18.92149,43.49027],[18.93571,43.49163],[18.93632,43.50253],[18.94991,43.50367],[18.95054,43.4933],[18.95541,43.49238],[18.95946,43.48532],[18.95633,43.47609],[18.96175,43.47006],[18.96108,43.46056],[18.95591,43.45717],[18.95635,43.45227],[18.96306,43.451],[18.97788,43.45602],[18.98771,43.45244],[18.9858,43.4511],[18.98864,43.44567],[18.99243,43.44831],[18.99801,43.44462],[18.99978,43.43895],[19.00493,43.44674],[19.00664,43.44375],[19.01095,43.44558],[19.00697,43.44181],[19.01846,43.43079],[19.02056,43.40857],[19.03103,43.40017],[19.04271,43.3965],[19.04125,43.38734],[19.04339,43.38537],[19.0412,43.38052],[19.03526,43.37861],[19.04016,43.37475],[19.03992,43.36545],[19.06157,43.35214],[19.06126,43.34464],[19.07522,43.33574],[19.07502,43.32782],[19.08339,43.31916],[19.07707,43.30413],[19.08025,43.29978],[19.04242,43.28935],[19.0363,43.29012],[19.01974,43.25961],[19.00878,43.25061],[18.99946,43.25366],[18.9972,43.24592],[18.99965,43.23755],[19.03099,43.22514],[19.03353,43.21307],[19.04915,43.20662],[19.06186,43.20594],[19.08859,43.21149],[19.10581,43.20669],[19.12576,43.21554],[19.15806,43.21655],[19.17643,43.202],[19.20624,43.18842],[19.22115,43.17697],[19.24644,43.16842],[19.26001,43.15483],[19.28637,43.14221],[19.2893,43.1257],[19.29462,43.12181],[19.31698,43.12142],[19.34759,43.10354],[19.35345,43.09791],[19.35478,43.08799],[19.36543,43.08235],[19.36614,43.07332],[19.38691,43.06651],[19.40953,43.06612],[19.41992,43.07157],[19.4106,43.07993],[19.42471,43.09606],[19.41566,43.10578],[19.44148,43.10831],[19.46038,43.12346],[19.46091,43.13318],[19.4886,43.16192],[19.50404,43.16969],[19.50723,43.17513],[19.50058,43.1893],[19.51548,43.21995],[19.53598,43.22034],[19.55042,43.24456]]]}},{"type":"Feature","properties":{"id":"MNE:ADM1:59799669B59523358081802","name":"Plav Municipality","countryCode":"MNE"},"geometry":{"type":"Polygon","coordinates":[[[19.82603,42.62992],[19.85727,42.60857],[19.88802,42.60306],[19.90538,42.59232],[19.9186,42.59014],[19.90965,42.57786],[19.89558,42.57898],[19.89023,42.57459],[19.90036,42.56301],[19.90311,42.54979],[19.89658,42.54094],[19.90276,42.53209],[19.89796,42.52475],[19.90979,42.50657],[19.94015,42.51788],[19.95327,42.51065],[19.96694,42.5093],[19.98253,42.51235],[20.00337,42.50886],[20.00818,42.51289],[20.01635,42.53063],[20.01385,42.53644],[20.01678,42.54315],[20.04968,42.54989],[20.05698,42.55907],[20.0792,42.55549],[20.08518,42.57093],[20.08935,42.57439],[20.08685,42.58742],[20.07262,42.6071],[20.07542,42.62072],[20.09141,42.63142],[20.09507,42.64085],[20.11021,42.64824],[20.11208,42.6562],[20.08844,42.66885],[20.08236,42.67964],[20.06715,42.68015],[20.06273,42.6847],[20.05358,42.68476],[20.04368,42.6954],[20.03213,42.69767],[20.03192,42.71078],[20.01518,42.70993],[19.99116,42.70287],[19.96888,42.70729],[19.9443,42.69921],[19.9352,42.70249],[19.91426,42.69493],[19.90001,42.6934],[19.86949,42.67714],[19.85078,42.65038],[19.83564,42.64381],[19.82603,42.62992]]]}},{"type":"Feature","properties":{"id":"MNE:ADM1:59799669B66678983232609","name":"Nikšić Municipality","countryCode":"MNE"},"geometry":{"type":"Polygon","coordinates":[[[18.93707,42.60846],[18.94874,42.61566],[18.98263,42.6237],[19.00747,42.61843],[19.01914,42.62342],[19.01914,42.63395],[18.99806,42.65416],[18.99731,42.668],[19.03383,42.699],[19.05152,42.69374],[19.08691,42.69706],[19.13058,42.69042],[19.14488,42.6918],[19.1622,42.70259],[19.17161,42.70232],[19.18931,42.69263],[19.20775,42.69125],[19.22131,42.69568],[19.22055,42.70093],[19.2006,42.70481],[19.19533,42.70868],[19.20286,42.7167],[19.19759,42.72334],[19.19608,42.73219],[19.20474,42.7427],[19.21039,42.76039],[19.19608,42.76896],[19.20248,42.80128],[19.21076,42.81371],[19.23147,42.82835],[19.23599,42.8358],[19.22846,42.84519],[19.19909,42.86009],[19.18554,42.8565],[19.16107,42.83994],[19.13171,42.86754],[19.11891,42.86864],[19.0854,42.88382],[19.03797,42.91305],[19.015,42.91664],[18.9894,42.93345],[18.95778,42.94199],[18.92879,42.94503],[18.87119,42.94475],[18.85011,42.95384],[18.79853,42.98415],[18.79289,42.99296],[18.78272,42.99736],[18.73115,43.08348],[18.71646,43.09393],[18.69614,43.08678],[18.68898,43.08843],[18.67468,43.09943],[18.65615,43.102],[18.66069,43.03733],[18.61368,43.02909],[18.59211,43.03283],[18.53584,43.0336],[18.53523,43.02813],[18.5187,43.01995],[18.51044,42.99929],[18.49822,42.99566],[18.49412,42.98646],[18.48595,42.96342],[18.48609,42.93858],[18.48255,42.92835],[18.4947,42.91538],[18.50924,42.88664],[18.48894,42.88006],[18.49137,42.86484],[18.48219,42.861],[18.47808,42.86272],[18.46866,42.85347],[18.4654,42.84489],[18.46552,42.83856],[18.477,42.83175],[18.45809,42.82559],[18.44833,42.81536],[18.4578,42.81064],[18.45547,42.80514],[18.4635,42.79503],[18.45995,42.79212],[18.46038,42.7876],[18.46782,42.78046],[18.46824,42.76377],[18.47352,42.75409],[18.49278,42.74747],[18.4985,42.74203],[18.49619,42.73675],[18.51386,42.73472],[18.52798,42.72388],[18.56992,42.71972],[18.56102,42.70992],[18.5614,42.70263],[18.55477,42.69809],[18.55199,42.69037],[18.54545,42.69215],[18.55043,42.67739],[18.54881,42.67197],[18.56428,42.66186],[18.56466,42.65673],[18.56906,42.65611],[18.5749,42.64275],[18.55874,42.64272],[18.53762,42.63682],[18.52847,42.6309],[18.52029,42.6184],[18.53113,42.61079],[18.53435,42.60262],[18.54981,42.59323],[18.55481,42.58025],[18.54377,42.57337],[18.59866,42.59085],[18.59904,42.60346],[18.6284,42.61322],[18.64487,42.61412],[18.66898,42.62916],[18.68611,42.62542],[18.69345,42.6178],[18.72615,42.63353],[18.72766,42.64267],[18.71223,42.66343],[18.72277,42.67174],[18.72465,42.68502],[18.74385,42.68281],[18.75025,42.69609],[18.75891,42.6972],[18.78827,42.68475],[18.85076,42.68862],[18.86921,42.68059],[18.87712,42.66371],[18.90385,42.64405],[18.91853,42.63048],[18.92305,42.61996],[18.93707,42.60846]]]}},{"type":"Feature","properties":{"id":"MNE:ADM1:59799669B74362705567987","name":"Mojkovac Municipality","countryCode":"MNE"},"geometry":{"type":"Polygon","coordinates":[[[19.65024,42.91431],[19.6493,42.94156],[19.63217,42.94308],[19.60412,42.96223],[19.62039,42.98989],[19.61964,43.00531],[19.61584,43.0132],[19.60812,43.01845],[19.58177,43.01943],[19.56926,43.02994],[19.53758,43.02935],[19.49924,43.05523],[19.48567,43.05776],[19.45186,43.05328],[19.41992,43.07157],[19.40953,43.06612],[19.38691,43.06651],[19.36614,43.07332],[19.37208,43.05805],[19.37102,43.04793],[19.35239,43.04229],[19.34679,43.03431],[19.32044,43.02886],[19.31112,42.99675],[19.32736,42.98721],[19.32949,42.96831],[19.346,42.95059],[19.34626,42.94084],[19.36969,42.93188],[19.39285,42.9155],[19.4791,42.90185],[19.52781,42.91316],[19.53926,42.90653],[19.54565,42.90829],[19.56029,42.92116],[19.57546,42.91297],[19.60821,42.90985],[19.63217,42.89731],[19.64798,42.90696],[19.65024,42.91431]]]}},{"type":"Feature","properties":{"id":"MNE:ADM1:59799669B75560777931070","name":"Gusinje Municipality","countryCode":"MNE"},"geometry":{"type":"Polygon","coordinates":[[[19.82603,42.62992],[19.83067,42.62587],[19.83224,42.61502],[19.83655,42.61272],[19.84955,42.59239],[19.83979,42.59392],[19.83152,42.58848],[19.81642,42.59467],[19.77917,42.59625],[19.77426,42.59197],[19.77429,42.58164],[19.75186,42.58133],[19.75363,42.57659],[19.74812,42.5736],[19.75399,42.56427],[19.74835,42.55583],[19.74938,42.55087],[19.7434,42.54494],[19.7593,42.51979],[19.76575,42.50107],[19.77844,42.49441],[19.79545,42.47885],[19.8311,42.46571],[19.83844,42.47399],[19.83615,42.47889],[19.84137,42.4801],[19.84814,42.47695],[19.85485,42.48403],[19.86812,42.48121],[19.87798,42.49583],[19.88565,42.4938],[19.89533,42.48517],[19.8987,42.48493],[19.90285,42.49039],[19.90632,42.50729],[19.90979,42.50657],[19.89796,42.52475],[19.90276,42.53209],[19.89658,42.54094],[19.90311,42.54979],[19.90036,42.56301],[19.89023,42.57459],[19.89558,42.57898],[19.90965,42.57786],[19.9186,42.59014],[19.90538,42.59232],[19.88802,42.60306],[19.85727,42.60857],[19.82603,42.62992]]]}},{"type":"Feature","properties":{"id":"MNE:ADM1:59799669B7591395216485","name":"Tivat Municipality","countryCode":"MNE"},"geometry":{"type":"Polygon","coordinates":[[[18.65248,42.36841],[18.65294,42.36628],[18.6482,42.36628],[18.64843,42.37396],[18.6402,42.37816],[18.64212,42.39856],[18.62817,42.40611],[18.61767,42.40776],[18.62843,42.4175],[18.6642,42.40536],[18.68693,42.40298],[18.70045,42.39297],[18.70126,42.3946],[18.70259,42.39334],[18.70983,42.39165],[18.70528,42.39358],[18.70997,42.39929],[18.71298,42.3983],[18.70639,42.40215],[18.71076,42.40294],[18.7066,42.40534],[18.70682,42.40579],[18.71284,42.4067],[18.71308,42.41608],[18.70668,42.4201],[18.70655,42.42105],[18.68385,42.45881],[18.68363,42.46244],[18.68638,42.46599],[18.68646,42.47338],[18.69329,42.47678],[18.69116,42.47568],[18.69359,42.47007],[18.71466,42.45801],[18.73805,42.42933],[18.73072,42.4167],[18.73656,42.40691],[18.73724,42.38913],[18.69524,42.37006],[18.69581,42.37376],[18.68356,42.38239],[18.68483,42.38532],[18.68194,42.38354],[18.67848,42.38597],[18.66493,42.38641],[18.66366,42.38672],[18.66272,42.38649],[18.65854,42.38662],[18.65821,42.38537],[18.65691,42.38505],[18.65226,42.38197],[18.6519,42.37585],[18.65521,42.37402],[18.65396,42.36927],[18.65248,42.36841]]]}},{"type":"Feature","properties":{"id":"MNE:ADM1:59799669B78864851615199","name":"Petnjica Municipality","countryCode":"MNE"},"geometry":{"type":"Polygon","coordinates":[[[20.09682,42.97143],[20.09035,42.97565],[20.08351,42.98913],[20.06342,42.99256],[20.05382,43.00473],[19.99364,42.97462],[19.98579,42.97306],[19.97474,42.97958],[19.94439,42.96079],[19.91897,42.96166],[19.87398,42.92474],[19.92587,42.91275],[19.96688,42.89122],[20.03341,42.8638],[20.0571,42.88544],[20.09682,42.97143]]]}},{"type":"Feature","properties":{"id":"MNE:ADM1:59799669B79583520985931","name":"Šavnik Municipality","countryCode":"MNE"},"geometry":{"type":"Polygon","coordinates":[[[19.35478,42.93714],[19.34626,42.94084],[19.346,42.95059],[19.32949,42.96831],[19.32736,42.98721],[19.2785,43.01437],[19.23954,43.01698],[19.22919,43.02084],[19.22373,43.02524],[19.22636,43.03005],[19.23803,43.03418],[19.23935,43.03748],[19.19869,43.06101],[19.18796,43.06004],[19.1618,43.04491],[19.15239,43.04409],[19.12359,43.05826],[19.12152,43.06279],[19.12528,43.08026],[19.08782,43.07916],[19.07389,43.07462],[19.04905,43.07545],[19.03888,43.08397],[19.03004,43.08672],[19.02759,43.09098],[19.03568,43.10239],[19.02345,43.11558],[19.01161,43.10768],[18.99166,43.11977],[18.97397,43.10987],[18.97547,43.09586],[18.9702,43.07799],[18.95928,43.05598],[18.93519,43.02517],[18.93143,43.01553],[18.93369,43.00645],[18.97434,42.98993],[18.99354,42.98662],[19.01839,42.97092],[19.01048,42.95798],[19.0022,42.95219],[19.00145,42.94199],[18.9894,42.93345],[19.015,42.91664],[19.03797,42.91305],[19.0854,42.88382],[19.11891,42.86864],[19.13171,42.86754],[19.16107,42.83994],[19.18554,42.8565],[19.19909,42.86009],[19.19684,42.88106],[19.21302,42.89595],[19.20963,42.90781],[19.24051,42.91443],[19.30036,42.91002],[19.33575,42.9227],[19.34027,42.91719],[19.34742,42.91498],[19.35194,42.91994],[19.35478,42.93714]]]}},{"type":"Feature","properties":{"id":"MNE:ADM1:59799669B80293643035426","name":"Kotor Municipality","countryCode":"MNE"},"geometry":{"type":"Polygon","coordinates":[[[18.72159,42.38359],[18.72526,42.38179],[18.73569,42.38723],[18.73862,42.3959],[18.73072,42.4167],[18.73805,42.42933],[18.71466,42.45801],[18.69359,42.47007],[18.69116,42.47568],[18.73414,42.46579],[18.75431,42.44896],[18.75228,42.44413],[18.76212,42.42219],[18.77181,42.42214],[18.76641,42.42617],[18.77479,42.42672],[18.76757,42.42748],[18.76186,42.44171],[18.76567,42.44859],[18.76273,42.46734],[18.76606,42.48555],[18.76355,42.48975],[18.75355,42.49005],[18.73338,42.4833],[18.6997,42.48525],[18.69254,42.49035],[18.69088,42.49544],[18.69296,42.50617],[18.69621,42.50868],[18.69515,42.51305],[18.68766,42.51712],[18.67648,42.50518],[18.66783,42.50452],[18.64925,42.48962],[18.67459,42.48439],[18.68328,42.47909],[18.68123,42.47717],[18.65588,42.47399],[18.63888,42.47779],[18.62114,42.47298],[18.60393,42.47387],[18.59415,42.48127],[18.58365,42.48083],[18.58038,42.49232],[18.61776,42.49836],[18.63426,42.49679],[18.64591,42.50489],[18.65093,42.50389],[18.65461,42.50987],[18.66655,42.51198],[18.65809,42.52519],[18.63253,42.52601],[18.6084,42.52215],[18.60473,42.52806],[18.60512,42.53783],[18.56575,42.54398],[18.55029,42.5551],[18.55174,42.56003],[18.54397,42.56507],[18.54222,42.57305],[18.59866,42.59085],[18.59904,42.60346],[18.6284,42.61322],[18.64487,42.61412],[18.66898,42.62916],[18.68611,42.62542],[18.69345,42.6178],[18.71261,42.57767],[18.72955,42.57212],[18.73388,42.56727],[18.72579,42.54841],[18.74499,42.54023],[18.7576,42.52567],[18.7864,42.48251],[18.79732,42.45738],[18.79845,42.44627],[18.78565,42.42779],[18.78376,42.41362],[18.77172,42.3993],[18.77398,42.39207],[18.79468,42.38317],[18.80487,42.35478],[18.79671,42.34743],[18.80801,42.32131],[18.79181,42.29323],[18.79103,42.27933],[18.7851,42.28199],[18.78646,42.27418],[18.78639,42.27412],[18.77858,42.27147],[18.77198,42.27692],[18.76246,42.29116],[18.7295,42.31159],[18.71453,42.32526],[18.71445,42.32795],[18.71453,42.32802],[18.71444,42.3281],[18.71412,42.33893],[18.70834,42.34248],[18.69972,42.34984],[18.69361,42.35322],[18.69361,42.35713],[18.70648,42.35434],[18.70024,42.35989],[18.70139,42.36331],[18.69482,42.36731],[18.69527,42.37023],[18.72159,42.38359]]]}},{"type":"Feature","properties":{"id":"MNE:ADM1:59799669B84579627936880","name":"Ulcinj Municipality","countryCode":"MNE"},"geometry":{"type":"Polygon","coordinates":[[[19.15225,41.98254],[19.15027,41.98766],[19.14349,41.99153],[19.17872,41.98461],[19.24616,41.9628],[19.26446,41.97969],[19.2658,41.98704],[19.25137,42.01226],[19.21809,42.03331],[19.23819,42.03877],[19.23713,42.06662],[19.29457,42.0431],[19.30298,42.04324],[19.33067,42.05432],[19.37777,42.05602],[19.37959,42.05201],[19.37053,42.03703],[19.36947,42.02457],[19.37322,42.02271],[19.37118,42.01409],[19.37401,42.00475],[19.37999,42.00201],[19.37904,41.99752],[19.38254,41.99586],[19.38183,41.98557],[19.37637,41.9745],[19.38864,41.96636],[19.38256,41.96146],[19.3524,41.95785],[19.35187,41.93945],[19.36839,41.92941],[19.37174,41.92344],[19.36481,41.91749],[19.34609,41.91329],[19.34259,41.90691],[19.34729,41.90266],[19.36516,41.89846],[19.36911,41.88857],[19.38154,41.8855],[19.375,41.87559],[19.37341,41.85435],[19.36508,41.85236],[19.34693,41.86396],[19.31023,41.89452],[19.29322,41.90078],[19.22022,41.91885],[19.20297,41.92707],[19.18208,41.9329],[19.18065,41.93411],[19.17241,41.93691],[19.17026,41.93797],[19.16228,41.94794],[19.16212,41.95061],[19.16416,41.95027],[19.16555,41.95292],[19.16243,41.95545],[19.16326,41.95897],[19.16033,41.96898],[19.15561,41.97065],[19.14527,41.97761],[19.14235,41.98068],[19.15225,41.98254]]]}},{"type":"Feature","properties":{"id":"MNE:ADM1:59799669B88193558767116","name":"Rožaje Municipality","countryCode":"MNE"},"geometry":{"type":"Polygon","coordinates":[[[20.03341,42.8638],[20.0091,42.85371],[20.02416,42.84778],[20.00853,42.8297],[20.02416,42.82542],[20.02792,42.821],[20.01757,42.80926],[20.0187,42.80498],[20.05616,42.77801],[20.06982,42.77446],[20.09671,42.77631],[20.11409,42.76328],[20.12602,42.76261],[20.14575,42.75539],[20.14906,42.7638],[20.15509,42.76884],[20.19268,42.74712],[20.19612,42.75152],[20.19907,42.74804],[20.20043,42.75132],[20.23367,42.75314],[20.23665,42.75722],[20.25044,42.75897],[20.25531,42.77033],[20.26616,42.7789],[20.26273,42.80399],[20.25231,42.81071],[20.25477,42.81429],[20.27406,42.82],[20.27507,42.82536],[20.28075,42.83041],[20.28531,42.82593],[20.29379,42.82532],[20.29792,42.836],[20.31549,42.83582],[20.32004,42.82605],[20.3349,42.83555],[20.35404,42.83263],[20.3489,42.84631],[20.34939,42.85604],[20.3431,42.86847],[20.34678,42.87616],[20.34584,42.88809],[20.35106,42.896],[20.34641,42.91128],[20.33724,42.90768],[20.33028,42.91355],[20.31122,42.91753],[20.3123,42.92347],[20.29941,42.92191],[20.28498,42.92742],[20.28448,42.93167],[20.27912,42.93262],[20.27835,42.93551],[20.27006,42.93265],[20.25259,42.94046],[20.23032,42.94462],[20.20972,42.95941],[20.19626,42.95848],[20.17198,42.97226],[20.15346,42.97492],[20.15288,42.98564],[20.1473,42.98967],[20.13359,42.9715],[20.12178,42.9635],[20.1085,42.9722],[20.09682,42.97143],[20.0571,42.88544],[20.03341,42.8638]]]}},{"type":"Feature","properties":{"id":"MNE:ADM1:59799669B91583747266461","name":"Cetinje Municipality","countryCode":"MNE"},"geometry":{"type":"Polygon","coordinates":[[[19.00597,42.4867],[18.98714,42.51113],[18.99919,42.51779],[18.99957,42.52778],[19.00973,42.53388],[19.01048,42.54387],[19.01877,42.54969],[18.97811,42.56966],[18.94121,42.59433],[18.93707,42.60846],[18.92305,42.61996],[18.91853,42.63048],[18.90385,42.64405],[18.87712,42.66371],[18.86921,42.68059],[18.85076,42.68862],[18.78827,42.68475],[18.75891,42.6972],[18.75025,42.69609],[18.74385,42.68281],[18.72465,42.68502],[18.72277,42.67174],[18.71223,42.66343],[18.72766,42.64267],[18.72615,42.63353],[18.69345,42.6178],[18.71261,42.57767],[18.72955,42.57212],[18.73388,42.56727],[18.72579,42.54841],[18.74499,42.54023],[18.7864,42.48251],[18.79732,42.45738],[18.79845,42.44627],[18.78565,42.42779],[18.78376,42.41362],[18.77172,42.3993],[18.77398,42.39207],[18.79468,42.38317],[18.80487,42.35478],[18.82497,42.33461],[18.85784,42.33255],[18.87634,42.32015],[18.89804,42.31739],[18.92612,42.29869],[18.9382,42.2865],[18.96794,42.28817],[18.97397,42.27396],[19.01312,42.25223],[19.03797,42.27452],[19.03684,42.29207],[19.0647,42.29764],[19.0918,42.29875],[19.11138,42.28566],[19.16747,42.30989],[19.16107,42.3533],[19.08578,42.39085],[19.07335,42.41921],[19.06244,42.42615],[19.04437,42.4206],[19.03571,42.44782],[19.02404,42.45227],[19.01575,42.46171],[18.9894,42.4756],[19.00597,42.4867]]]}},{"type":"Feature","properties":{"id":"MNE:ADM1:59799669B93063361678836","name":"Andrijevica Municipality","countryCode":"MNE"},"geometry":{"type":"Polygon","coordinates":[[[19.90001,42.6934],[19.88417,42.70707],[19.86158,42.71841],[19.85123,42.7198],[19.82883,42.73404],[19.82902,42.74524],[19.82149,42.75629],[19.842,42.78283],[19.82544,42.79374],[19.80586,42.78379],[19.79306,42.79429],[19.73716,42.80755],[19.71382,42.80783],[19.69161,42.82647],[19.66055,42.82398],[19.64906,42.84496],[19.63852,42.85366],[19.63123,42.84834],[19.61899,42.80458],[19.65005,42.79159],[19.65077,42.76546],[19.66422,42.73321],[19.65836,42.71003],[19.64598,42.69409],[19.64452,42.68],[19.64811,42.64535],[19.65505,42.62004],[19.66715,42.63132],[19.67528,42.62782],[19.68231,42.62987],[19.68626,42.63855],[19.68977,42.63771],[19.70017,42.64513],[19.699,42.65022],[19.70431,42.65567],[19.72711,42.6611],[19.73427,42.65463],[19.73789,42.64276],[19.75704,42.63571],[19.74975,42.6283],[19.75116,42.61382],[19.75993,42.61051],[19.75922,42.60673],[19.77426,42.59197],[19.77917,42.59625],[19.79719,42.59714],[19.81642,42.59467],[19.83152,42.58848],[19.83979,42.59392],[19.84955,42.59239],[19.83655,42.61272],[19.83224,42.61502],[19.83067,42.62587],[19.82603,42.62992],[19.83564,42.64381],[19.85078,42.65038],[19.86949,42.67714],[19.90001,42.6934]]]}},{"type":"Feature","properties":{"id":"MNE:ADM1:59799669B93779420845023","name":"Berane Municipality","countryCode":"MNE"},"geometry":{"type":"Polygon","coordinates":[[[20.01518,42.70993],[20.01608,42.71299],[20.02139,42.71314],[20.03019,42.71973],[20.0168,42.72398],[20.0129,42.72847],[20.01205,42.73978],[20.02247,42.75189],[20.02385,42.76435],[20.03226,42.76491],[20.03292,42.76856],[20.0399,42.77295],[20.05616,42.77801],[20.0187,42.80498],[20.01757,42.80926],[20.02792,42.821],[20.02416,42.82542],[20.00853,42.8297],[20.02416,42.84778],[20.0091,42.85371],[20.03341,42.8638],[19.96688,42.89122],[19.92587,42.91275],[19.84723,42.93224],[19.81781,42.94842],[19.81808,42.96585],[19.80464,42.96634],[19.7904,42.95504],[19.79,42.94004],[19.77788,42.93263],[19.74567,42.92795],[19.72664,42.91567],[19.71799,42.91509],[19.70521,42.91938],[19.65024,42.91431],[19.64798,42.90696],[19.61749,42.88766],[19.62012,42.87566],[19.6493,42.86545],[19.64967,42.86145],[19.63852,42.85366],[19.64906,42.84496],[19.66055,42.82398],[19.69161,42.82647],[19.71382,42.80783],[19.73716,42.80755],[19.79306,42.79429],[19.80586,42.78379],[19.82544,42.79374],[19.842,42.78283],[19.82149,42.75629],[19.82902,42.74524],[19.82883,42.73404],[19.85123,42.7198],[19.86158,42.71841],[19.88417,42.70707],[19.90001,42.6934],[19.91426,42.69493],[19.9352,42.70249],[19.9443,42.69921],[19.96888,42.70729],[19.99116,42.70287],[20.01518,42.70993]]]}},{"type":"Feature","properties":{"id":"MNE:ADM1:59799669B9703090978387","name":"Herceg Novi Municipality","countryCode":"MNE"},"geometry":{"type":"MultiPolygon","coordinates":[[[[18.57531,42.43201],[18.62843,42.4175],[18.61767,42.40776],[18.62817,42.40611],[18.64212,42.39856],[18.6402,42.37816],[18.64843,42.37396],[18.6482,42.36628],[18.6465,42.36628],[18.63911,42.36997],[18.63841,42.37052],[18.6359,42.37005],[18.6171,42.36811],[18.61682,42.36823],[18.61677,42.36808],[18.61671,42.36807],[18.61231,42.36994],[18.60711,42.37641],[18.5949,42.38373],[18.5809,42.38984],[18.57296,42.39227],[18.57923,42.39462],[18.57658,42.397],[18.58018,42.39772],[18.57988,42.4006],[18.57653,42.40122],[18.55776,42.41112],[18.5589,42.41237],[18.55511,42.41252],[18.55299,42.41364],[18.54675,42.42158],[18.56127,42.43097],[18.57531,42.43201]]],[[[18.43593,42.55237],[18.44267,42.55598],[18.44386,42.56214],[18.4591,42.56516],[18.47366,42.56367],[18.47487,42.56944],[18.48593,42.57405],[18.49992,42.58813],[18.52778,42.58353],[18.53622,42.57527],[18.54377,42.57337],[18.54397,42.56507],[18.55174,42.56003],[18.55029,42.5551],[18.56575,42.54398],[18.60512,42.53783],[18.60473,42.52806],[18.6084,42.52215],[18.63253,42.52601],[18.65809,42.52519],[18.66655,42.51198],[18.65461,42.50987],[18.65093,42.50389],[18.64591,42.50489],[18.63426,42.49679],[18.61776,42.49836],[18.58038,42.49232],[18.58365,42.48083],[18.59415,42.48127],[18.60393,42.47387],[18.62114,42.47298],[18.63888,42.47779],[18.65588,42.47399],[18.68123,42.47717],[18.65414,42.45181],[18.60865,42.44538],[18.57247,42.44887],[18.56437,42.45398],[18.55522,42.45054],[18.52884,42.45309],[18.51632,42.45888],[18.50964,42.45494],[18.50245,42.45563],[18.50245,42.44819],[18.50541,42.44658],[18.51117,42.43839],[18.51977,42.43281],[18.51741,42.42456],[18.5057,42.43158],[18.47275,42.46538],[18.43376,42.48415],[18.43816,42.48811],[18.44498,42.50988],[18.43342,42.52111],[18.43903,42.54343],[18.43593,42.55237]]]]}}]}}
