{"type":"FeatureCollection","features":[{"type":"Feature","properties":{"id":"MNP:ADM0:30081990B47496530181215","name":"Northern Mariana Islands","countryCode":"MNP","adminLevel":0,"sourceCode":"30081990B47496530181215","parentId":"MNP:ADM1:MNP-4937"},"geometry":{"type":"MultiPolygon","coordinates":[[[[145.17363,14.16672],[145.19641,14.17382],[145.2143,14.18486],[145.2512,14.19988],[145.28508,14.19243],[145.28895,14.1846],[145.28439,14.17554],[145.28297,14.16249],[145.28207,14.16104],[145.27361,14.15583],[145.26043,14.15412],[145.2598,14.15388],[145.25456,14.15465],[145.24155,14.15152],[145.22937,14.14109],[145.23066,14.1313],[145.21239,14.11555],[145.20115,14.1134],[145.19947,14.11392],[145.18963,14.12177],[145.17164,14.12617],[145.167,14.12562],[145.16639,14.12891],[145.14429,14.13951],[145.12785,14.12318],[145.12623,14.12324],[145.12375,14.12552],[145.12421,14.12808],[145.14252,14.14411],[145.15603,14.163],[145.15724,14.16376],[145.16596,14.16755],[145.17363,14.16672]],[[145.23772,14.17448],[145.2405,14.17439],[145.23933,14.17466],[145.23772,14.17448]]],[[[145.63575,14.92283],[145.62974,14.93374],[145.62883,14.94344],[145.63203,14.95227],[145.62777,14.96231],[145.61284,14.97197],[145.61323,14.98157],[145.60833,14.98572],[145.60838,14.99086],[145.59277,14.99001],[145.58582,14.99445],[145.58896,15.0092],[145.58264,15.01777],[145.58888,15.03767],[145.59238,15.03674],[145.59707,15.04064],[145.59916,15.04934],[145.59831,15.05075],[145.6111,15.0668],[145.63307,15.0821],[145.64731,15.07209],[145.6526,15.05927],[145.65163,15.05037],[145.64794,15.04665],[145.64808,15.03458],[145.64827,15.03424],[145.64796,15.03294],[145.64731,15.01748],[145.65138,15.00873],[145.66505,14.99299],[145.6675,14.98391],[145.66195,14.96543],[145.66152,14.95813],[145.66163,14.95793],[145.66139,14.95698],[145.65512,14.94606],[145.6548,14.94596],[145.65332,14.94292],[145.64576,14.92976],[145.63678,14.92323],[145.63575,14.92283]]],[[[145.72378,15.21694],[145.73031,15.21909],[145.73245,15.22502],[145.73932,15.22681],[145.73901,15.23138],[145.74491,15.23306],[145.75387,15.24249],[145.77864,15.2539],[145.78572,15.26571],[145.78785,15.26728],[145.80112,15.27216],[145.81658,15.27017],[145.82374,15.2624],[145.82159,15.26019],[145.81585,15.26138],[145.81104,15.25855],[145.81174,15.25246],[145.8099,15.24902],[145.80047,15.24323],[145.79273,15.23225],[145.79019,15.22579],[145.78998,15.22572],[145.77851,15.20989],[145.78167,15.20418],[145.77836,15.19579],[145.77755,15.19421],[145.77759,15.19384],[145.77589,15.18952],[145.77654,15.18085],[145.78452,15.16828],[145.7798,15.15917],[145.77361,15.15461],[145.7724,15.15467],[145.76571,15.1628],[145.75724,15.16079],[145.75717,15.16083],[145.75708,15.16075],[145.74985,15.15904],[145.74634,15.15109],[145.74497,15.14985],[145.73878,15.13666],[145.73943,15.12271],[145.74692,15.10932],[145.75111,15.09953],[145.75018,15.09609],[145.7462,15.0962],[145.73961,15.10586],[145.70761,15.10644],[145.7025,15.11457],[145.68998,15.12016],[145.69388,15.12275],[145.69253,15.13038],[145.7003,15.14705],[145.70022,15.15646],[145.70849,15.16502],[145.71299,15.1783],[145.717,15.19667],[145.71737,15.21796],[145.71919,15.21867],[145.72378,15.21694]],[[145.71428,15.1494],[145.71266,15.15528],[145.71038,15.15385],[145.7112,15.15],[145.71428,15.1494]],[[145.77694,15.16133],[145.77863,15.16068],[145.77786,15.16193],[145.77694,15.16133]]]]}}],"admin1":{"type":"FeatureCollection","features":[{"type":"Feature","properties":{"id":"MNP:ADM1:MNP-4937","name":"Rota","countryCode":"MNP"},"geometry":{"type":"MultiPolygon","coordinates":[[[[145.19641,14.17382],[145.2143,14.18486],[145.2512,14.19988],[145.28508,14.19243],[145.28895,14.1846],[145.28439,14.17554],[145.28297,14.16249],[145.28207,14.16104],[145.27361,14.15583],[145.26043,14.15412],[145.2598,14.15388],[145.25456,14.15465],[145.24155,14.15152],[145.22937,14.14109],[145.23066,14.1313],[145.21239,14.11555],[145.20115,14.1134],[145.19947,14.11392],[145.18963,14.12177],[145.17164,14.12617],[145.167,14.12562],[145.16639,14.12891],[145.14429,14.13951],[145.12785,14.12318],[145.12623,14.12324],[145.12375,14.12552],[145.12421,14.12808],[145.14252,14.14411],[145.15603,14.163],[145.15724,14.16376],[145.16596,14.16755],[145.17363,14.16672],[145.19641,14.17382]],[[145.2405,14.17439],[145.23933,14.17466],[145.23772,14.17448],[145.2405,14.17439]]],[[[145.62883,14.94344],[145.63203,14.95227],[145.62777,14.96231],[145.61284,14.97197],[145.61323,14.98157],[145.60833,14.98572],[145.60838,14.99086],[145.59277,14.99001],[145.58582,14.99445],[145.58896,15.0092],[145.58264,15.01777],[145.58888,15.03767],[145.59238,15.03674],[145.59707,15.04064],[145.59916,15.04934],[145.59831,15.05075],[145.6111,15.0668],[145.63307,15.0821],[145.64731,15.07209],[145.6526,15.05927],[145.65163,15.05037],[145.64794,15.04665],[145.64808,15.03458],[145.64827,15.03424],[145.64796,15.03294],[145.64731,15.01748],[145.65138,15.00873],[145.66505,14.99299],[145.6675,14.98391],[145.66195,14.96543],[145.66152,14.95813],[145.66163,14.95793],[145.66139,14.95698],[145.65512,14.94606],[145.6548,14.94596],[145.65332,14.94292],[145.64576,14.92976],[145.63678,14.92323],[145.63575,14.92283],[145.62974,14.93374],[145.62883,14.94344]]],[[[145.73245,15.22502],[145.73932,15.22681],[145.73901,15.23138],[145.74491,15.23306],[145.75387,15.24249],[145.77864,15.2539],[145.78572,15.26571],[145.78785,15.26728],[145.80112,15.27216],[145.81658,15.27017],[145.82374,15.2624],[145.82159,15.26019],[145.81585,15.26138],[145.81104,15.25855],[145.81174,15.25246],[145.8099,15.24902],[145.80047,15.24323],[145.79273,15.23225],[145.79019,15.22579],[145.78998,15.22572],[145.77851,15.20989],[145.78167,15.20418],[145.77836,15.19579],[145.77755,15.19421],[145.77759,15.19384],[145.77589,15.18952],[145.77654,15.18085],[145.78452,15.16828],[145.7798,15.15917],[145.77361,15.15461],[145.7724,15.15467],[145.76571,15.1628],[145.75724,15.16079],[145.75717,15.16083],[145.75708,15.16075],[145.74985,15.15904],[145.74634,15.15109],[145.74497,15.14985],[145.73878,15.13666],[145.73943,15.12271],[145.74692,15.10932],[145.75111,15.09953],[145.75018,15.09609],[145.7462,15.0962],[145.73961,15.10586],[145.70761,15.10644],[145.7025,15.11457],[145.68998,15.12016],[145.69388,15.12275],[145.69253,15.13038],[145.7003,15.14705],[145.70022,15.15646],[145.70849,15.16502],[145.71299,15.1783],[145.717,15.19667],[145.71737,15.21796],[145.71919,15.21867],[145.72378,15.21694],[145.73031,15.21909],[145.73245,15.22502]],[[145.71038,15.15385],[145.7112,15.15],[145.71428,15.1494],[145.71266,15.15528],[145.71038,15.15385]],[[145.77786,15.16193],[145.77694,15.16133],[145.77863,15.16068],[145.77786,15.16193]]]]}}]}}
