{"type":"FeatureCollection","features":[{"type":"Feature","properties":{"id":"MSR:ADM0:1980395B85993439826165","name":"Montserrat","countryCode":"MSR","adminLevel":0,"sourceCode":"1980395B85993439826165","parentId":"MSR:ADM1:MSR-5089"},"geometry":{"type":"Polygon","coordinates":[[[-62.20932,16.68806],[-62.22463,16.70863],[-62.23013,16.72761],[-62.21886,16.77631],[-62.21448,16.78749],[-62.20533,16.80143],[-62.20736,16.80518],[-62.20705,16.80647],[-62.20202,16.81932],[-62.18944,16.81444],[-62.18293,16.81273],[-62.17957,16.8129],[-62.17783,16.80821],[-62.18151,16.79995],[-62.17922,16.79486],[-62.17931,16.7945],[-62.17764,16.79136],[-62.1679,16.76972],[-62.15871,16.76323],[-62.15632,16.76032],[-62.14804,16.74549],[-62.14787,16.7365],[-62.15176,16.72451],[-62.15079,16.72036],[-62.14777,16.71616],[-62.15021,16.71007],[-62.14436,16.69666],[-62.16065,16.67676],[-62.16338,16.67623],[-62.17036,16.67601],[-62.20443,16.68493],[-62.20932,16.68806]],[[-62.21111,16.73396],[-62.21322,16.73349],[-62.21206,16.73317],[-62.21111,16.73396]]]}}],"admin1":{"type":"FeatureCollection","features":[{"type":"Feature","properties":{"id":"MSR:ADM1:MSR-5089","name":"Saint Peter","countryCode":"MSR"},"geometry":{"type":"Polygon","coordinates":[[[-62.20932,16.68806],[-62.22463,16.70863],[-62.23013,16.72761],[-62.21886,16.77631],[-62.21448,16.78749],[-62.20533,16.80143],[-62.20736,16.80518],[-62.20705,16.80647],[-62.20202,16.81932],[-62.18944,16.81444],[-62.18293,16.81273],[-62.17957,16.8129],[-62.17783,16.80821],[-62.18151,16.79995],[-62.17922,16.79486],[-62.17931,16.7945],[-62.17764,16.79136],[-62.1679,16.76972],[-62.15871,16.76323],[-62.15632,16.76032],[-62.14804,16.74549],[-62.14787,16.7365],[-62.15176,16.72451],[-62.15079,16.72036],[-62.14777,16.71616],[-62.15021,16.71007],[-62.14436,16.69666],[-62.16065,16.67676],[-62.16338,16.67623],[-62.17036,16.67601],[-62.20443,16.68493],[-62.20932,16.68806]],[[-62.21111,16.73396],[-62.21322,16.73349],[-62.21206,16.73317],[-62.21111,16.73396]]]}}]}}
