{"type":"FeatureCollection","features":[{"type":"Feature","properties":{"id":"MTQ:ADM0:67621225B22962942564085","name":"Martinique","countryCode":"MTQ","adminLevel":0,"sourceCode":"67621225B22962942564085"},"geometry":{"type":"MultiPolygon","coordinates":[[[[-60.9801,14.47609],[-60.97899,14.47771],[-60.97867,14.47483],[-60.9801,14.47609]]],[[[-60.98357,14.48548],[-60.98357,14.48566],[-60.98348,14.48548],[-60.98357,14.48548]]],[[[-60.8372,14.56676],[-60.83831,14.56611],[-60.83483,14.56922],[-60.8353,14.56757],[-60.8372,14.56676]]],[[[-60.98822,14.78709],[-60.99034,14.78759],[-60.98986,14.7877],[-60.98817,14.78724],[-60.98822,14.78709]]],[[[-61.03145,14.82397],[-61.02299,14.82146],[-61.01617,14.80735],[-61.00196,14.80814],[-61.00409,14.79791],[-60.98743,14.77779],[-60.9814,14.77859],[-60.97966,14.77561],[-60.98278,14.77533],[-60.98213,14.77294],[-60.96802,14.76037],[-60.96724,14.7521],[-60.96197,14.74721],[-60.96142,14.73786],[-60.95725,14.73625],[-60.94471,14.7569],[-60.93466,14.76131],[-60.92503,14.76322],[-60.92307,14.75888],[-60.91945,14.75872],[-60.90915,14.76662],[-60.90198,14.76695],[-60.89216,14.77334],[-60.88972,14.7772],[-60.88367,14.77725],[-60.88105,14.77588],[-60.8863,14.77163],[-60.89245,14.76777],[-60.89538,14.76382],[-60.89458,14.76169],[-60.89643,14.76171],[-60.89679,14.75868],[-60.89399,14.75638],[-60.91077,14.73967],[-60.91314,14.74527],[-60.92244,14.74958],[-60.92618,14.75556],[-60.93278,14.75103],[-60.93534,14.75106],[-60.94431,14.74046],[-60.94274,14.73588],[-60.93762,14.7342],[-60.9438,14.73373],[-60.94593,14.72812],[-60.94366,14.72225],[-60.93969,14.72109],[-60.94096,14.7156],[-60.93517,14.71541],[-60.93456,14.70897],[-60.93291,14.7097],[-60.93245,14.70728],[-60.92067,14.7099],[-60.9195,14.71226],[-60.91893,14.71223],[-60.91389,14.70928],[-60.91394,14.70265],[-60.91092,14.70092],[-60.93456,14.68846],[-60.92711,14.6811],[-60.92887,14.68022],[-60.93576,14.683],[-60.93804,14.67562],[-60.93928,14.67499],[-60.93915,14.67437],[-60.9429,14.67133],[-60.94218,14.66771],[-60.93518,14.66483],[-60.93295,14.65786],[-60.92724,14.65302],[-60.91971,14.65433],[-60.91968,14.65833],[-60.91162,14.66572],[-60.90589,14.66214],[-60.90629,14.66662],[-60.9013,14.66223],[-60.89726,14.66503],[-60.89719,14.665],[-60.89926,14.66127],[-60.89511,14.65947],[-60.89831,14.65803],[-60.90168,14.65591],[-60.9073,14.65375],[-60.90515,14.64856],[-60.90568,14.64835],[-60.90487,14.64529],[-60.9036,14.64479],[-60.90103,14.63858],[-60.89338,14.63081],[-60.89282,14.63049],[-60.89779,14.62863],[-60.8981,14.62049],[-60.90291,14.61794],[-60.89652,14.62077],[-60.88943,14.61933],[-60.8885,14.62225],[-60.88642,14.61549],[-60.87688,14.62134],[-60.87552,14.62092],[-60.87316,14.61961],[-60.8721,14.61776],[-60.87826,14.61268],[-60.87581,14.60784],[-60.86905,14.60496],[-60.86782,14.60109],[-60.87179,14.60167],[-60.8695,14.60053],[-60.87253,14.59615],[-60.86762,14.59055],[-60.85933,14.5887],[-60.85122,14.59556],[-60.85033,14.58554],[-60.84572,14.58417],[-60.85313,14.58052],[-60.84439,14.57878],[-60.84447,14.57805],[-60.85271,14.57689],[-60.85416,14.57405],[-60.85151,14.56827],[-60.84334,14.57139],[-60.84895,14.56624],[-60.84089,14.56674],[-60.84515,14.55962],[-60.84111,14.5591],[-60.83592,14.56402],[-60.83642,14.55297],[-60.83641,14.55296],[-60.83858,14.5498],[-60.83414,14.54501],[-60.833,14.541],[-60.82793,14.53435],[-60.82796,14.53429],[-60.83452,14.53558],[-60.83688,14.53303],[-60.82557,14.53125],[-60.82478,14.53022],[-60.83092,14.52709],[-60.8334,14.52436],[-60.83398,14.52326],[-60.8352,14.52301],[-60.83477,14.52176],[-60.83507,14.52119],[-60.83837,14.51659],[-60.83498,14.51499],[-60.83678,14.51171],[-60.83366,14.5099],[-60.83095,14.51309],[-60.82527,14.5104],[-60.82277,14.50412],[-60.82331,14.49592],[-60.81934,14.49428],[-60.81664,14.4809],[-60.81337,14.47452],[-60.81365,14.47396],[-60.81889,14.47179],[-60.82017,14.47654],[-60.82406,14.47174],[-60.81852,14.4698],[-60.81456,14.46081],[-60.81586,14.45963],[-60.82266,14.45669],[-60.83198,14.43437],[-60.83418,14.43374],[-60.83434,14.42872],[-60.83483,14.42756],[-60.8382,14.42319],[-60.84087,14.42256],[-60.8422,14.42701],[-60.84859,14.42742],[-60.84943,14.42175],[-60.8433,14.42035],[-60.84469,14.41514],[-60.84444,14.41511],[-60.8452,14.41413],[-60.85643,14.40937],[-60.8706,14.40811],[-60.88248,14.41328],[-60.88627,14.42604],[-60.88592,14.42637],[-60.88011,14.43818],[-60.8695,14.44147],[-60.85985,14.44672],[-60.85888,14.46198],[-60.86852,14.47598],[-60.88223,14.47053],[-60.8981,14.46088],[-60.91145,14.4618],[-60.91057,14.47144],[-60.91103,14.46864],[-60.91365,14.46869],[-60.9134,14.47211],[-60.92003,14.47338],[-60.94762,14.46874],[-60.96143,14.47052],[-60.96407,14.47299],[-60.96902,14.4715],[-60.9775,14.47259],[-60.97565,14.47552],[-60.98067,14.48268],[-60.98492,14.47355],[-60.98559,14.47364],[-60.99168,14.47923],[-60.99155,14.4744],[-61.00221,14.47578],[-61.00378,14.47937],[-61.00683,14.47695],[-61.0068,14.47615],[-61.01174,14.47544],[-61.01897,14.48081],[-61.03353,14.4769],[-61.04524,14.4699],[-61.04662,14.46414],[-61.06119,14.46198],[-61.0689,14.46633],[-61.07009,14.46868],[-61.07103,14.4687],[-61.0789,14.47943],[-61.07965,14.4897],[-61.08872,14.49281],[-61.08991,14.49443],[-61.08921,14.4977],[-61.084,14.49845],[-61.08502,14.50519],[-61.09187,14.50657],[-61.0924,14.50829],[-61.09679,14.51154],[-61.09883,14.51268],[-61.09403,14.52467],[-61.08701,14.5276],[-61.08713,14.5341],[-61.07619,14.54212],[-61.06552,14.5407],[-61.06082,14.55043],[-61.05318,14.55257],[-61.05239,14.55704],[-61.05232,14.55707],[-61.05123,14.55809],[-61.05095,14.55713],[-61.04856,14.55933],[-61.05054,14.55104],[-61.03736,14.55511],[-61.03737,14.54983],[-61.04392,14.54685],[-61.04061,14.54118],[-61.02988,14.54066],[-61.03187,14.53683],[-61.02717,14.53485],[-61.02268,14.53946],[-61.01819,14.53903],[-61.01653,14.53417],[-61.01267,14.53534],[-61.00805,14.54167],[-61.0055,14.53808],[-61.00048,14.54465],[-60.99399,14.54664],[-60.9996,14.55138],[-60.99239,14.55133],[-60.99049,14.54814],[-60.99728,14.56116],[-60.99795,14.56115],[-60.996,14.56501],[-60.99938,14.57136],[-61.00699,14.58185],[-61.01215,14.59172],[-61.0106,14.5922],[-61.01222,14.59211],[-61.01212,14.5953],[-61.01274,14.59284],[-61.01431,14.59585],[-61.01487,14.60021],[-61.00764,14.60271],[-61.0152,14.60279],[-61.01647,14.61278],[-61.0231,14.61057],[-61.02369,14.61249],[-61.02767,14.60906],[-61.0314,14.60782],[-61.04357,14.60545],[-61.05427,14.60513],[-61.06493,14.60594],[-61.08593,14.60464],[-61.09162,14.60594],[-61.09594,14.61026],[-61.1022,14.62222],[-61.10587,14.62645],[-61.14159,14.65009],[-61.15958,14.66694],[-61.16735,14.68476],[-61.16808,14.69107],[-61.17024,14.69644],[-61.17357,14.70124],[-61.17789,14.70588],[-61.18163,14.71304],[-61.18004,14.71967],[-61.17667,14.72614],[-61.17479,14.7329],[-61.17688,14.74374],[-61.17659,14.74513],[-61.1789,14.74844],[-61.18297,14.75642],[-61.19054,14.76634],[-61.21911,14.79548],[-61.22619,14.80777],[-61.22875,14.82153],[-61.22876,14.82208],[-61.2226,14.83827],[-61.21452,14.85094],[-61.2106,14.85444],[-61.17208,14.87575],[-61.16589,14.87645],[-61.14121,14.87682],[-61.11875,14.87149],[-61.11121,14.86912],[-61.09832,14.86307],[-61.09161,14.85463],[-61.08147,14.85141],[-61.07771,14.84633],[-61.06444,14.84276],[-61.06174,14.83643],[-61.05158,14.83255],[-61.0478,14.83434],[-61.04073,14.83129],[-61.04115,14.82999],[-61.03796,14.83008],[-61.03062,14.82691],[-61.03145,14.82397]],[[-61.01626,14.61385],[-61.01842,14.61439],[-61.0182,14.61348],[-61.01626,14.61385]],[[-60.9559,14.60487],[-60.95424,14.60425],[-60.95527,14.6063],[-60.9559,14.60487]],[[-60.9373,14.58933],[-60.92721,14.59135],[-60.92642,14.59503],[-60.93411,14.59298],[-60.93137,14.59597],[-60.93777,14.60131],[-60.9373,14.58933]],[[-60.87415,14.5878],[-60.87262,14.58654],[-60.87325,14.58825],[-60.87415,14.5878]],[[-60.97449,14.59376],[-60.97153,14.59364],[-60.97209,14.59605],[-60.97427,14.59531],[-60.97449,14.59376]],[[-61.00638,14.59822],[-61.00728,14.59876],[-61.00871,14.59785],[-61.00753,14.59648],[-61.00638,14.59822]],[[-60.99596,14.57064],[-60.99426,14.57007],[-60.99365,14.57348],[-60.99542,14.57226],[-60.99596,14.57064]],[[-60.98577,14.53835],[-60.9829,14.53455],[-60.98509,14.53803],[-60.98348,14.54064],[-60.98577,14.53835]],[[-61.00722,14.53151],[-61.01001,14.53081],[-61.00841,14.52999],[-61.00722,14.53151]],[[-60.82492,14.49541],[-60.82663,14.49967],[-60.82661,14.49783],[-60.82492,14.49541]],[[-60.98312,14.48485],[-60.98321,14.48791],[-60.98505,14.4847],[-60.98357,14.48539],[-60.98312,14.48485]],[[-60.96551,14.4774],[-60.96695,14.47794],[-60.96734,14.47587],[-60.96551,14.4774]],[[-60.97138,14.47339],[-60.97009,14.47219],[-60.96982,14.47317],[-60.97138,14.47339]],[[-60.84823,14.42829],[-60.83723,14.42637],[-60.84328,14.43019],[-60.84645,14.43466],[-60.84823,14.42829]],[[-60.91077,14.65989],[-60.91224,14.65966],[-60.91188,14.65766],[-60.91082,14.65888],[-60.91077,14.65989]]],[[[-60.89036,14.66207],[-60.88679,14.66055],[-60.89066,14.66017],[-60.89036,14.66207]]]]}}],"admin1":{"type":"FeatureCollection","features":[]}}
