{"type":"FeatureCollection","features":[{"type":"Feature","properties":{"id":"MUS:ADM0:6221475B96225440771281","name":"Mauritius","countryCode":"MUS","adminLevel":0,"sourceCode":"6221475B96225440771281","parentId":"MUS:ADM1:MUS-5186"},"geometry":{"type":"MultiPolygon","coordinates":[[[[57.5921,-19.98986],[57.61074,-19.98207],[57.61816,-19.98469],[57.63479,-19.98758],[57.63284,-19.99312],[57.63649,-19.99223],[57.64324,-20.00101],[57.64732,-20.00238],[57.64877,-19.99982],[57.64987,-20.00377],[57.65333,-19.99692],[57.65997,-20.00192],[57.66223,-19.99926],[57.66296,-20.00523],[57.6706,-20.00855],[57.68376,-20.00939],[57.68094,-20.01107],[57.68377,-20.01331],[57.68345,-20.01523],[57.68264,-20.01773],[57.67502,-20.01771],[57.68123,-20.02204],[57.67921,-20.02825],[57.68044,-20.03126],[57.6793,-20.03191],[57.68097,-20.03254],[57.68312,-20.03777],[57.68566,-20.04119],[57.68588,-20.04355],[57.68177,-20.04525],[57.68453,-20.04966],[57.68056,-20.04683],[57.68381,-20.05158],[57.68138,-20.05587],[57.68995,-20.05892],[57.68562,-20.06127],[57.6893,-20.06372],[57.68687,-20.06647],[57.69257,-20.06832],[57.68998,-20.06797],[57.69289,-20.07243],[57.69084,-20.07426],[57.70006,-20.07748],[57.70499,-20.08685],[57.7081,-20.0867],[57.70856,-20.08872],[57.70432,-20.0918],[57.70908,-20.09278],[57.71019,-20.09989],[57.7165,-20.09868],[57.7175,-20.10345],[57.72444,-20.10553],[57.72928,-20.10198],[57.74586,-20.10741],[57.74773,-20.11151],[57.74461,-20.14248],[57.73971,-20.14307],[57.74389,-20.14846],[57.74775,-20.14822],[57.74875,-20.14957],[57.74899,-20.15549],[57.74081,-20.15558],[57.74173,-20.159],[57.74724,-20.16084],[57.74599,-20.16492],[57.7486,-20.16697],[57.75139,-20.16616],[57.74921,-20.16267],[57.75125,-20.16176],[57.75525,-20.16721],[57.75367,-20.16898],[57.75586,-20.16684],[57.758,-20.16943],[57.75907,-20.16618],[57.75452,-20.15892],[57.75987,-20.16002],[57.76254,-20.16204],[57.77215,-20.19053],[57.79135,-20.21217],[57.79575,-20.22275],[57.79454,-20.23892],[57.78854,-20.23948],[57.78676,-20.24313],[57.79151,-20.24381],[57.79245,-20.24882],[57.79345,-20.24949],[57.78891,-20.27418],[57.78278,-20.29165],[57.77457,-20.28041],[57.78031,-20.29028],[57.773,-20.29825],[57.77912,-20.30208],[57.77817,-20.30478],[57.77664,-20.31529],[57.77017,-20.3194],[57.77195,-20.32802],[57.76866,-20.33141],[57.77776,-20.33376],[57.77873,-20.33658],[57.77491,-20.33777],[57.76461,-20.33735],[57.76494,-20.3409],[57.75709,-20.34336],[57.72926,-20.36395],[57.71934,-20.37766],[57.71408,-20.37871],[57.71364,-20.37343],[57.70852,-20.37026],[57.70986,-20.3677],[57.70167,-20.36988],[57.70472,-20.37483],[57.70133,-20.39489],[57.69271,-20.3952],[57.69977,-20.39823],[57.70371,-20.40795],[57.70508,-20.40572],[57.70273,-20.40154],[57.70901,-20.40237],[57.71162,-20.41911],[57.71883,-20.42687],[57.71309,-20.42001],[57.71686,-20.42147],[57.71466,-20.41819],[57.71854,-20.41644],[57.71996,-20.42239],[57.72089,-20.42002],[57.72666,-20.42547],[57.72332,-20.43426],[57.71762,-20.43613],[57.71127,-20.4358],[57.70582,-20.43874],[57.70435,-20.44122],[57.69917,-20.44065],[57.69906,-20.44415],[57.70267,-20.44408],[57.69466,-20.45767],[57.69235,-20.45806],[57.68504,-20.4688],[57.67688,-20.47165],[57.68188,-20.47346],[57.67369,-20.47872],[57.67088,-20.48007],[57.60106,-20.50101],[57.60095,-20.50098],[57.60082,-20.50109],[57.58839,-20.50482],[57.50359,-20.51735],[57.47364,-20.51507],[57.46794,-20.51334],[57.45463,-20.50316],[57.44817,-20.50471],[57.44763,-20.50133],[57.44322,-20.50585],[57.42693,-20.50091],[57.39926,-20.49798],[57.3949,-20.49984],[57.38936,-20.49951],[57.37118,-20.49076],[57.37347,-20.47971],[57.3723,-20.48523],[57.36795,-20.4879],[57.35445,-20.48675],[57.35386,-20.4814],[57.34869,-20.47804],[57.34201,-20.46602],[57.33508,-20.46218],[57.34129,-20.46393],[57.33605,-20.46041],[57.33854,-20.45847],[57.32229,-20.45964],[57.32057,-20.45819],[57.31396,-20.45094],[57.31612,-20.44439],[57.32192,-20.44234],[57.31695,-20.44296],[57.32244,-20.43248],[57.32592,-20.43552],[57.32212,-20.44227],[57.34421,-20.44536],[57.36788,-20.41469],[57.36609,-20.41168],[57.36935,-20.41027],[57.3704,-20.40079],[57.36732,-20.39646],[57.38085,-20.39201],[57.37953,-20.39069],[57.37608,-20.39123],[57.37556,-20.39015],[57.37836,-20.38678],[57.36878,-20.38451],[57.36785,-20.37615],[57.35963,-20.3718],[57.35966,-20.37138],[57.38025,-20.36656],[57.37459,-20.36585],[57.37777,-20.3648],[57.37614,-20.3629],[57.37161,-20.36657],[57.3704,-20.36121],[57.36174,-20.35584],[57.365,-20.34596],[57.36519,-20.33506],[57.36549,-20.33382],[57.37903,-20.32294],[57.36699,-20.31465],[57.36571,-20.30601],[57.36598,-20.29078],[57.36838,-20.2751],[57.38412,-20.24982],[57.38086,-20.24225],[57.38679,-20.22633],[57.3932,-20.21666],[57.4018,-20.21587],[57.40358,-20.19846],[57.42369,-20.18398],[57.43148,-20.17409],[57.43922,-20.17403],[57.46743,-20.16413],[57.4731,-20.168],[57.4717,-20.17511],[57.47763,-20.16864],[57.47549,-20.16321],[57.48279,-20.15323],[57.49526,-20.15766],[57.49452,-20.16316],[57.49913,-20.16173],[57.49628,-20.1593],[57.50016,-20.16106],[57.50459,-20.15735],[57.50063,-20.15654],[57.49849,-20.15834],[57.49908,-20.15282],[57.49658,-20.15402],[57.4859,-20.14557],[57.49732,-20.13852],[57.50568,-20.14111],[57.49851,-20.13766],[57.49578,-20.12678],[57.50213,-20.11311],[57.51725,-20.10689],[57.50866,-20.09528],[57.50876,-20.09053],[57.51633,-20.08599],[57.51238,-20.08311],[57.51159,-20.07702],[57.51812,-20.06791],[57.51915,-20.05918],[57.52246,-20.05789],[57.52452,-20.04652],[57.54158,-20.04098],[57.54679,-20.02705],[57.55643,-20.01801],[57.55398,-20.00847],[57.56007,-20.00384],[57.56098,-20.00345],[57.57003,-20.00311],[57.56821,-20.01441],[57.57872,-20.016],[57.58425,-20.01175],[57.57748,-20.00771],[57.58394,-19.99878],[57.58385,-19.998],[57.58611,-19.99676],[57.58653,-19.99608],[57.58658,-19.9961],[57.59113,-19.99366],[57.59003,-19.99044],[57.59051,-19.98968],[57.59094,-19.98917],[57.5921,-19.98986]]],[[[63.44939,-19.67408],[63.45436,-19.66989],[63.47625,-19.67783],[63.49391,-19.6819],[63.48959,-19.70143],[63.46941,-19.72291],[63.43873,-19.733],[63.41651,-19.73642],[63.40064,-19.74489],[63.39701,-19.74758],[63.39359,-19.74827],[63.39494,-19.74911],[63.38559,-19.75604],[63.36763,-19.76646],[63.36461,-19.7654],[63.35353,-19.7543],[63.35436,-19.74798],[63.35933,-19.745],[63.36161,-19.74779],[63.36287,-19.74525],[63.35922,-19.73553],[63.35151,-19.7443],[63.34988,-19.74241],[63.34418,-19.74492],[63.3382,-19.73892],[63.3388,-19.73892],[63.33408,-19.72561],[63.3351,-19.72003],[63.3445,-19.71437],[63.34807,-19.7178],[63.34985,-19.71472],[63.36191,-19.71194],[63.35947,-19.71493],[63.36262,-19.71678],[63.36438,-19.7105],[63.36734,-19.71328],[63.3702,-19.70811],[63.37787,-19.71169],[63.37767,-19.70227],[63.38904,-19.69801],[63.38898,-19.69011],[63.3998,-19.68889],[63.399,-19.68578],[63.40203,-19.6844],[63.40967,-19.69154],[63.41393,-19.68173],[63.41771,-19.68139],[63.41835,-19.68432],[63.41834,-19.6811],[63.43443,-19.67258],[63.4481,-19.6707],[63.44939,-19.67408]]]]}}],"admin1":{"type":"FeatureCollection","features":[{"type":"Feature","properties":{"id":"MUS:ADM1:MUS-5186","name":"Moka","countryCode":"MUS"},"geometry":{"type":"MultiPolygon","coordinates":[[[[57.61074,-19.98207],[57.61816,-19.98469],[57.63479,-19.98758],[57.63284,-19.99312],[57.63649,-19.99223],[57.64324,-20.00101],[57.64732,-20.00238],[57.64877,-19.99982],[57.64987,-20.00377],[57.65333,-19.99692],[57.65997,-20.00192],[57.66223,-19.99926],[57.66296,-20.00523],[57.6706,-20.00855],[57.68376,-20.00939],[57.68094,-20.01107],[57.68377,-20.01331],[57.68345,-20.01523],[57.68264,-20.01773],[57.67502,-20.01771],[57.68123,-20.02204],[57.67921,-20.02825],[57.68044,-20.03126],[57.6793,-20.03191],[57.68097,-20.03254],[57.68312,-20.03777],[57.68566,-20.04119],[57.68588,-20.04355],[57.68177,-20.04525],[57.68453,-20.04966],[57.68056,-20.04683],[57.68381,-20.05158],[57.68138,-20.05587],[57.68995,-20.05892],[57.68562,-20.06127],[57.6893,-20.06372],[57.68687,-20.06647],[57.69257,-20.06832],[57.68998,-20.06797],[57.69289,-20.07243],[57.69084,-20.07426],[57.70006,-20.07748],[57.70499,-20.08685],[57.7081,-20.0867],[57.70856,-20.08872],[57.70432,-20.0918],[57.70908,-20.09278],[57.71019,-20.09989],[57.7165,-20.09868],[57.7175,-20.10345],[57.72444,-20.10553],[57.72928,-20.10198],[57.74586,-20.10741],[57.74773,-20.11151],[57.74461,-20.14248],[57.73971,-20.14307],[57.74389,-20.14846],[57.74775,-20.14822],[57.74875,-20.14957],[57.74899,-20.15549],[57.74081,-20.15558],[57.74173,-20.159],[57.74724,-20.16084],[57.74599,-20.16492],[57.7486,-20.16697],[57.75139,-20.16616],[57.74921,-20.16267],[57.75125,-20.16176],[57.75525,-20.16721],[57.75367,-20.16898],[57.75586,-20.16684],[57.758,-20.16943],[57.75907,-20.16618],[57.75452,-20.15892],[57.75987,-20.16002],[57.76254,-20.16204],[57.77215,-20.19053],[57.79135,-20.21217],[57.79575,-20.22275],[57.79454,-20.23892],[57.78854,-20.23948],[57.78676,-20.24313],[57.79151,-20.24381],[57.79245,-20.24882],[57.79345,-20.24949],[57.78891,-20.27418],[57.78278,-20.29165],[57.77457,-20.28041],[57.78031,-20.29028],[57.773,-20.29825],[57.77912,-20.30208],[57.77817,-20.30478],[57.77664,-20.31529],[57.77017,-20.3194],[57.77195,-20.32802],[57.76866,-20.33141],[57.77776,-20.33376],[57.77873,-20.33658],[57.77491,-20.33777],[57.76461,-20.33735],[57.76494,-20.3409],[57.75709,-20.34336],[57.72926,-20.36395],[57.71934,-20.37766],[57.71408,-20.37871],[57.71364,-20.37343],[57.70852,-20.37026],[57.70986,-20.3677],[57.70167,-20.36988],[57.70472,-20.37483],[57.70133,-20.39489],[57.69271,-20.3952],[57.69977,-20.39823],[57.70371,-20.40795],[57.70508,-20.40572],[57.70273,-20.40154],[57.70901,-20.40237],[57.71162,-20.41911],[57.71883,-20.42687],[57.71309,-20.42001],[57.71686,-20.42147],[57.71466,-20.41819],[57.71854,-20.41644],[57.71996,-20.42239],[57.72089,-20.42002],[57.72666,-20.42547],[57.72332,-20.43426],[57.71762,-20.43613],[57.71127,-20.4358],[57.70582,-20.43874],[57.70435,-20.44122],[57.69917,-20.44065],[57.69906,-20.44415],[57.70267,-20.44408],[57.69466,-20.45767],[57.69235,-20.45806],[57.68504,-20.4688],[57.67688,-20.47165],[57.68188,-20.47346],[57.67369,-20.47872],[57.67088,-20.48007],[57.60106,-20.50101],[57.60095,-20.50098],[57.60082,-20.50109],[57.58839,-20.50482],[57.50359,-20.51735],[57.47364,-20.51507],[57.46794,-20.51334],[57.45463,-20.50316],[57.44817,-20.50471],[57.44763,-20.50133],[57.44322,-20.50585],[57.42693,-20.50091],[57.39926,-20.49798],[57.3949,-20.49984],[57.38936,-20.49951],[57.37118,-20.49076],[57.37347,-20.47971],[57.3723,-20.48523],[57.36795,-20.4879],[57.35445,-20.48675],[57.35386,-20.4814],[57.34869,-20.47804],[57.34201,-20.46602],[57.33508,-20.46218],[57.34129,-20.46393],[57.33605,-20.46041],[57.33854,-20.45847],[57.32229,-20.45964],[57.32057,-20.45819],[57.31396,-20.45094],[57.31612,-20.44439],[57.32192,-20.44234],[57.31695,-20.44296],[57.32244,-20.43248],[57.32592,-20.43552],[57.32212,-20.44227],[57.34421,-20.44536],[57.36788,-20.41469],[57.36609,-20.41168],[57.36935,-20.41027],[57.3704,-20.40079],[57.36732,-20.39646],[57.38085,-20.39201],[57.37953,-20.39069],[57.37608,-20.39123],[57.37556,-20.39015],[57.37836,-20.38678],[57.36878,-20.38451],[57.36785,-20.37615],[57.35963,-20.3718],[57.35966,-20.37138],[57.38025,-20.36656],[57.37459,-20.36585],[57.37777,-20.3648],[57.37614,-20.3629],[57.37161,-20.36657],[57.3704,-20.36121],[57.36174,-20.35584],[57.365,-20.34596],[57.36519,-20.33506],[57.36549,-20.33382],[57.37903,-20.32294],[57.36699,-20.31465],[57.36571,-20.30601],[57.36598,-20.29078],[57.36838,-20.2751],[57.38412,-20.24982],[57.38086,-20.24225],[57.38679,-20.22633],[57.3932,-20.21666],[57.4018,-20.21587],[57.40358,-20.19846],[57.42369,-20.18398],[57.43148,-20.17409],[57.43922,-20.17403],[57.46743,-20.16413],[57.4731,-20.168],[57.4717,-20.17511],[57.47763,-20.16864],[57.47549,-20.16321],[57.48279,-20.15323],[57.49526,-20.15766],[57.49452,-20.16316],[57.49913,-20.16173],[57.49628,-20.1593],[57.50016,-20.16106],[57.50459,-20.15735],[57.50063,-20.15654],[57.49849,-20.15834],[57.49908,-20.15282],[57.49658,-20.15402],[57.4859,-20.14557],[57.49732,-20.13852],[57.50568,-20.14111],[57.49851,-20.13766],[57.49578,-20.12678],[57.50213,-20.11311],[57.51725,-20.10689],[57.50866,-20.09528],[57.50876,-20.09053],[57.51633,-20.08599],[57.51238,-20.08311],[57.51159,-20.07702],[57.51812,-20.06791],[57.51915,-20.05918],[57.52246,-20.05789],[57.52452,-20.04652],[57.54158,-20.04098],[57.54679,-20.02705],[57.55643,-20.01801],[57.55398,-20.00847],[57.56007,-20.00384],[57.56098,-20.00345],[57.57003,-20.00311],[57.56821,-20.01441],[57.57872,-20.016],[57.58425,-20.01175],[57.57748,-20.00771],[57.58394,-19.99878],[57.58385,-19.998],[57.58611,-19.99676],[57.58653,-19.99608],[57.58658,-19.9961],[57.59113,-19.99366],[57.59003,-19.99044],[57.59051,-19.98968],[57.59094,-19.98917],[57.5921,-19.98986],[57.61074,-19.98207]]],[[[63.45436,-19.66989],[63.47625,-19.67783],[63.49391,-19.6819],[63.48959,-19.70143],[63.46941,-19.72291],[63.43873,-19.733],[63.41651,-19.73642],[63.40064,-19.74489],[63.39701,-19.74758],[63.39359,-19.74827],[63.39494,-19.74911],[63.38559,-19.75604],[63.36763,-19.76646],[63.36461,-19.7654],[63.35353,-19.7543],[63.35436,-19.74798],[63.35933,-19.745],[63.36161,-19.74779],[63.36287,-19.74525],[63.35922,-19.73553],[63.35151,-19.7443],[63.34988,-19.74241],[63.34418,-19.74492],[63.3382,-19.73892],[63.3388,-19.73892],[63.33408,-19.72561],[63.3351,-19.72003],[63.3445,-19.71437],[63.34807,-19.7178],[63.34985,-19.71472],[63.36191,-19.71194],[63.35947,-19.71493],[63.36262,-19.71678],[63.36438,-19.7105],[63.36734,-19.71328],[63.3702,-19.70811],[63.37787,-19.71169],[63.37767,-19.70227],[63.38904,-19.69801],[63.38898,-19.69011],[63.3998,-19.68889],[63.399,-19.68578],[63.40203,-19.6844],[63.40967,-19.69154],[63.41393,-19.68173],[63.41771,-19.68139],[63.41835,-19.68432],[63.41834,-19.6811],[63.43443,-19.67258],[63.4481,-19.6707],[63.44939,-19.67408],[63.45436,-19.66989]]]]}}]}}
