{"type":"FeatureCollection","features":[{"type":"Feature","properties":{"id":"MYT:ADM0:23144892B86340439294886","name":"Mayotte","countryCode":"MYT","adminLevel":0,"sourceCode":"23144892B86340439294886"},"geometry":{"type":"MultiPolygon","coordinates":[[[[45.1394,-12.92159],[45.1418,-12.9174],[45.14379,-12.91961],[45.14224,-12.9217],[45.1394,-12.92159]]],[[[45.26813,-12.77924],[45.26906,-12.78043],[45.26793,-12.78091],[45.26742,-12.77934],[45.26813,-12.77924]]],[[[45.27417,-12.77764],[45.2679,-12.77746],[45.28434,-12.75898],[45.28955,-12.76536],[45.29,-12.76609],[45.29086,-12.77402],[45.28842,-12.78834],[45.28256,-12.80486],[45.27855,-12.80486],[45.27844,-12.80428],[45.27323,-12.7972],[45.26951,-12.78576],[45.27417,-12.77764]]],[[[45.17579,-12.72876],[45.18328,-12.72703],[45.1958,-12.73099],[45.20159,-12.72975],[45.21122,-12.73572],[45.2142,-12.73246],[45.21328,-12.74074],[45.2231,-12.74297],[45.22478,-12.7457],[45.22495,-12.75953],[45.22055,-12.77752],[45.19695,-12.8117],[45.18816,-12.81707],[45.18873,-12.82879],[45.19361,-12.83769],[45.19177,-12.84086],[45.19572,-12.8448],[45.19723,-12.85477],[45.20055,-12.85413],[45.20396,-12.86102],[45.21136,-12.86282],[45.21095,-12.86533],[45.20436,-12.87851],[45.20069,-12.88397],[45.19166,-12.90496],[45.1753,-12.924],[45.16822,-12.94427],[45.16991,-12.94655],[45.16878,-12.94892],[45.17829,-12.96591],[45.18553,-12.97027],[45.1823,-12.97576],[45.17807,-12.98105],[45.17335,-12.98478],[45.17194,-12.97846],[45.16535,-12.97478],[45.159,-12.97875],[45.15309,-12.97967],[45.1443,-12.98577],[45.13185,-12.98919],[45.12585,-12.98763],[45.12552,-12.983],[45.11987,-12.98038],[45.11463,-12.982],[45.11329,-12.98105],[45.10753,-12.97849],[45.10661,-12.97442],[45.11069,-12.96757],[45.10931,-12.96069],[45.10492,-12.95765],[45.10015,-12.9641],[45.0973,-12.965],[45.09449,-12.95819],[45.09002,-12.95608],[45.09514,-12.95325],[45.10081,-12.94637],[45.10433,-12.93299],[45.09837,-12.92516],[45.08964,-12.9289],[45.09018,-12.924],[45.08123,-12.9083],[45.07744,-12.90632],[45.07686,-12.9048],[45.0718,-12.89957],[45.09676,-12.89877],[45.10297,-12.90598],[45.10252,-12.91753],[45.10626,-12.92382],[45.12438,-12.92948],[45.12537,-12.9332],[45.13165,-12.93596],[45.14422,-12.935],[45.14828,-12.93044],[45.14936,-12.91934],[45.14253,-12.90148],[45.13884,-12.90076],[45.14043,-12.89553],[45.13772,-12.89058],[45.13049,-12.88529],[45.12387,-12.87509],[45.11329,-12.86338],[45.09621,-12.84919],[45.10268,-12.84369],[45.11689,-12.84208],[45.11516,-12.8382],[45.10092,-12.8339],[45.10119,-12.83311],[45.1045,-12.83278],[45.1045,-12.82594],[45.10389,-12.82506],[45.10647,-12.81737],[45.09993,-12.80722],[45.09996,-12.80022],[45.10858,-12.79419],[45.09759,-12.79207],[45.0945,-12.78455],[45.10202,-12.78017],[45.10247,-12.76632],[45.09879,-12.76507],[45.09207,-12.77124],[45.08933,-12.76807],[45.08717,-12.7597],[45.07838,-12.7536],[45.06715,-12.75009],[45.05665,-12.74342],[45.05171,-12.73714],[45.05407,-12.7353],[45.05783,-12.72803],[45.05527,-12.72332],[45.04461,-12.72229],[45.04394,-12.71887],[45.04782,-12.71591],[45.05174,-12.70024],[45.06228,-12.70176],[45.06866,-12.69711],[45.0732,-12.68545],[45.06668,-12.68119],[45.07674,-12.68379],[45.082,-12.68048],[45.08557,-12.66752],[45.09051,-12.66709],[45.09067,-12.66719],[45.08999,-12.66743],[45.08859,-12.6706],[45.09632,-12.67354],[45.09718,-12.67449],[45.10348,-12.67981],[45.1024,-12.6831],[45.11059,-12.68579],[45.11061,-12.68581],[45.11195,-12.68739],[45.1113,-12.6913],[45.11478,-12.69594],[45.12072,-12.69776],[45.12612,-12.70415],[45.1233,-12.70745],[45.13432,-12.72512],[45.13328,-12.72812],[45.14819,-12.72816],[45.15502,-12.73476],[45.16504,-12.7261],[45.16376,-12.72319],[45.16691,-12.72413],[45.16374,-12.72],[45.16581,-12.71809],[45.16658,-12.71808],[45.17579,-12.72876]]],[[[45.09309,-12.65771],[45.09635,-12.6579],[45.09718,-12.66082],[45.09312,-12.6618],[45.09309,-12.65771]]]]}}],"admin1":{"type":"FeatureCollection","features":[]}}
