{"type":"FeatureCollection","features":[{"type":"Feature","properties":{"id":"NIU:ADM0:98221342B98938166103994","name":"Niue","countryCode":"NIU","adminLevel":0,"sourceCode":"98221342B98938166103994","parentId":"NIU:ADM1:NIU-5481"},"geometry":{"type":"Polygon","coordinates":[[[-169.92169,-19.05563],[-169.91722,-19.03865],[-169.9233,-19.01185],[-169.90426,-18.99086],[-169.89432,-18.97234],[-169.88444,-18.96473],[-169.86372,-18.96404],[-169.85115,-18.9651],[-169.82531,-18.96795],[-169.82262,-18.97259],[-169.79426,-19.04713],[-169.78291,-19.06894],[-169.79686,-19.07391],[-169.80598,-19.08196],[-169.82384,-19.10231],[-169.86543,-19.12965],[-169.873,-19.12591],[-169.88097,-19.12908],[-169.89695,-19.14126],[-169.89928,-19.13943],[-169.90002,-19.1393],[-169.90205,-19.13299],[-169.90998,-19.1286],[-169.91495,-19.12834],[-169.91277,-19.12635],[-169.91257,-19.11346],[-169.91882,-19.10424],[-169.92376,-19.10045],[-169.92406,-19.09938],[-169.92626,-19.0949],[-169.93427,-19.0924],[-169.94004,-19.08797],[-169.94857,-19.07511],[-169.94829,-19.07326],[-169.92169,-19.05563]]]}}],"admin1":{"type":"FeatureCollection","features":[{"type":"Feature","properties":{"id":"NIU:ADM1:NIU-5481","name":"Niue","countryCode":"NIU"},"geometry":{"type":"Polygon","coordinates":[[[-169.92169,-19.05563],[-169.91722,-19.03865],[-169.9233,-19.01185],[-169.90426,-18.99086],[-169.89432,-18.97234],[-169.88444,-18.96473],[-169.86372,-18.96404],[-169.85115,-18.9651],[-169.82531,-18.96795],[-169.82262,-18.97259],[-169.79426,-19.04713],[-169.78291,-19.06894],[-169.79686,-19.07391],[-169.80598,-19.08196],[-169.82384,-19.10231],[-169.86543,-19.12965],[-169.873,-19.12591],[-169.88097,-19.12908],[-169.89695,-19.14126],[-169.89928,-19.13943],[-169.90002,-19.1393],[-169.90205,-19.13299],[-169.90998,-19.1286],[-169.91495,-19.12834],[-169.91277,-19.12635],[-169.91257,-19.11346],[-169.91882,-19.10424],[-169.92376,-19.10045],[-169.92406,-19.09938],[-169.92626,-19.0949],[-169.93427,-19.0924],[-169.94004,-19.08797],[-169.94857,-19.07511],[-169.94829,-19.07326],[-169.92169,-19.05563]]]}}]}}
