{"type":"FeatureCollection","features":[{"type":"Feature","properties":{"id":"NRU:ADM0:75428603B72820031819534","name":"Nauru","countryCode":"NRU","adminLevel":0,"sourceCode":"75428603B72820031819534","parentId":"NRU:ADM1:NRU-4970"},"geometry":{"type":"Polygon","coordinates":[[[166.93875,-0.55184],[166.91635,-0.54754],[166.90934,-0.53052],[166.90918,-0.52854],[166.91266,-0.52294],[166.93451,-0.50268],[166.94724,-0.50373],[166.95674,-0.51133],[166.95822,-0.51739],[166.95826,-0.51767],[166.95636,-0.52358],[166.95226,-0.52936],[166.95089,-0.53961],[166.9389,-0.55176],[166.93875,-0.55184]]]}}],"admin1":{"type":"FeatureCollection","features":[{"type":"Feature","properties":{"id":"NRU:ADM1:NRU-4970","name":"Buada","countryCode":"NRU"},"geometry":{"type":"Polygon","coordinates":[[[166.93875,-0.55184],[166.91635,-0.54754],[166.90934,-0.53052],[166.90918,-0.52854],[166.91266,-0.52294],[166.93451,-0.50268],[166.94724,-0.50373],[166.95674,-0.51133],[166.95822,-0.51739],[166.95826,-0.51767],[166.95636,-0.52358],[166.95226,-0.52936],[166.95089,-0.53961],[166.9389,-0.55176],[166.93875,-0.55184]]]}}]}}
