{"type":"FeatureCollection","features":[{"type":"Feature","properties":{"id":"PCN:ADM0:31937491B92395428123965","name":"Pitcairn Island","countryCode":"PCN","adminLevel":0,"sourceCode":"31937491B92395428123965","parentId":"PCN:ADM1:PCN+00?"},"geometry":{"type":"Polygon","coordinates":[[[-128.34279,-24.3384],[-128.32218,-24.33944],[-128.30694,-24.33339],[-128.3037,-24.33465],[-128.30293,-24.33651],[-128.3069,-24.34843],[-128.29346,-24.38872],[-128.29264,-24.40219],[-128.30012,-24.41367],[-128.32067,-24.40065],[-128.34219,-24.37176],[-128.34804,-24.34963],[-128.34279,-24.3384]]]}}],"admin1":{"type":"FeatureCollection","features":[{"type":"Feature","properties":{"id":"PCN:ADM1:PCN+00?","name":"Pitcairn Islands","countryCode":"PCN"},"geometry":{"type":"Polygon","coordinates":[[[-128.34279,-24.3384],[-128.32218,-24.33944],[-128.30694,-24.33339],[-128.3037,-24.33465],[-128.30293,-24.33651],[-128.3069,-24.34843],[-128.29346,-24.38872],[-128.29264,-24.40219],[-128.30012,-24.41367],[-128.32067,-24.40065],[-128.34219,-24.37176],[-128.34804,-24.34963],[-128.34279,-24.3384]]]}}]}}
