{"type":"FeatureCollection","features":[{"type":"Feature","properties":{"id":"PLW:ADM0:91809328B67452395039921","name":"Palau","countryCode":"PLW","adminLevel":0,"sourceCode":"91809328B67452395039921","parentId":"PLW:ADM1:PLW-5256"},"geometry":{"type":"MultiPolygon","coordinates":[[[[131.16976,3.051],[131.1804,3.03325],[131.16049,3.02277],[131.13844,3.01895],[131.13111,3.02949],[131.1421,3.04731],[131.15971,3.05806],[131.16976,3.051]]],[[[134.13763,6.9223],[134.14102,6.92485],[134.15294,6.91391],[134.15371,6.90968],[134.14685,6.8998],[134.14559,6.89884],[134.14527,6.89916],[134.13673,6.91909],[134.13735,6.9223],[134.13763,6.9223]]],[[[134.25548,7.04386],[134.26949,7.04929],[134.26597,7.03471],[134.26986,7.03396],[134.2694,7.03112],[134.2526,7.02212],[134.24505,7.0134],[134.26088,7.02253],[134.2622,7.01783],[134.26751,7.01819],[134.26966,7.02416],[134.27795,7.02361],[134.27825,7.02313],[134.26769,7.01801],[134.26682,7.01644],[134.26645,7.01642],[134.25782,7.01309],[134.24334,6.99282],[134.23975,6.98942],[134.23889,6.9906],[134.23252,6.98788],[134.23223,6.98701],[134.23048,6.9892],[134.23569,7.00849],[134.25148,7.03762],[134.25548,7.04386]]],[[[134.26403,7.05854],[134.26676,7.06269],[134.26984,7.05729],[134.26497,7.0538],[134.26034,7.05395],[134.26317,7.05917],[134.26403,7.05854]]],[[[134.35166,7.25251],[134.35375,7.24813],[134.3625,7.24613],[134.36793,7.23595],[134.37422,7.23257],[134.37155,7.23093],[134.3799,7.22741],[134.38241,7.23148],[134.38007,7.2361],[134.383,7.23551],[134.38552,7.23839],[134.38901,7.23892],[134.4017,7.24649],[134.41273,7.25634],[134.41313,7.25263],[134.40874,7.24436],[134.40075,7.23472],[134.39786,7.24223],[134.39507,7.24116],[134.39461,7.2358],[134.38888,7.23187],[134.38304,7.22097],[134.38144,7.2204],[134.38318,7.22592],[134.36928,7.22114],[134.36328,7.2402],[134.35844,7.24383],[134.35223,7.2449],[134.35181,7.24276],[134.35003,7.25057],[134.34722,7.25102],[134.34732,7.25332],[134.35166,7.25251]]],[[[134.44148,7.25925],[134.43523,7.26205],[134.43346,7.268],[134.42636,7.26851],[134.43686,7.2779],[134.43901,7.28082],[134.4421,7.2751],[134.43952,7.27407],[134.4405,7.26817],[134.44043,7.2733],[134.4478,7.26544],[134.44886,7.2722],[134.4514,7.27048],[134.45283,7.26248],[134.45087,7.25495],[134.44614,7.25381],[134.44455,7.25377],[134.44148,7.25925]]],[[[134.4489,7.3112],[134.4533,7.30064],[134.44608,7.29419],[134.44484,7.3004],[134.44434,7.30011],[134.44142,7.31025],[134.44119,7.31483],[134.4489,7.3112]]],[[[134.44962,7.33537],[134.45513,7.34013],[134.46188,7.3404],[134.46233,7.33907],[134.46056,7.33759],[134.45895,7.33968],[134.45838,7.33578],[134.45027,7.32902],[134.44962,7.33537]]],[[[134.47858,7.35221],[134.48148,7.34749],[134.48526,7.35133],[134.4965,7.35192],[134.49734,7.35391],[134.50644,7.34979],[134.50468,7.34324],[134.51394,7.33139],[134.51331,7.32314],[134.50983,7.31811],[134.50608,7.31952],[134.50536,7.31671],[134.50327,7.31932],[134.50178,7.32255],[134.5044,7.32364],[134.50749,7.33009],[134.50619,7.33602],[134.49561,7.33575],[134.49521,7.33609],[134.49122,7.34268],[134.48039,7.34606],[134.47858,7.35221]]],[[[134.4621,7.34213],[134.46573,7.34635],[134.47474,7.34592],[134.46803,7.34382],[134.46534,7.34157],[134.4621,7.34213]]],[[[134.46537,7.35258],[134.45598,7.35177],[134.45376,7.34562],[134.44824,7.34646],[134.44956,7.35541],[134.45208,7.35792],[134.46537,7.35258]]],[[[134.58641,7.6155],[134.59217,7.61604],[134.60007,7.61174],[134.60737,7.61365],[134.61621,7.62398],[134.63502,7.62934],[134.64096,7.64598],[134.63299,7.69819],[134.62371,7.71796],[134.62143,7.72968],[134.62245,7.73083],[134.63013,7.72582],[134.62985,7.71735],[134.63785,7.7126],[134.63679,7.70826],[134.64587,7.70181],[134.64448,7.69479],[134.63731,7.68757],[134.64248,7.68313],[134.64177,7.66014],[134.64681,7.63314],[134.64279,7.62486],[134.64207,7.60899],[134.64435,7.60737],[134.63817,7.59846],[134.64127,7.593],[134.63971,7.58478],[134.63255,7.58015],[134.63731,7.57177],[134.63498,7.5661],[134.63845,7.55028],[134.62405,7.53657],[134.6192,7.54469],[134.61902,7.53662],[134.61401,7.53435],[134.61357,7.52935],[134.61746,7.52428],[134.61874,7.53004],[134.61983,7.51435],[134.62395,7.51443],[134.63232,7.50706],[134.63513,7.50232],[134.63136,7.49868],[134.62719,7.48595],[134.62367,7.48366],[134.60942,7.46747],[134.60663,7.46281],[134.60769,7.45513],[134.60857,7.4542],[134.6047,7.44917],[134.6037,7.44968],[134.60465,7.4491],[134.60017,7.44329],[134.60008,7.44329],[134.59987,7.4429],[134.59962,7.44257],[134.59955,7.44231],[134.59515,7.43413],[134.59183,7.43485],[134.58797,7.41653],[134.5912,7.4119],[134.58941,7.39926],[134.58489,7.3999],[134.58334,7.40364],[134.5783,7.39874],[134.58244,7.39307],[134.58154,7.38585],[134.58361,7.38882],[134.58826,7.3874],[134.59352,7.36814],[134.59164,7.36689],[134.58668,7.3686],[134.57496,7.36957],[134.5656,7.37531],[134.55934,7.37617],[134.5547,7.37254],[134.5442,7.35855],[134.53883,7.3557],[134.52801,7.35757],[134.52377,7.36103],[134.52231,7.36701],[134.51344,7.39179],[134.50587,7.42402],[134.49928,7.43822],[134.49122,7.44457],[134.48552,7.44416],[134.48292,7.44579],[134.48439,7.45873],[134.48756,7.46992],[134.49334,7.48013],[134.50131,7.48835],[134.5081,7.49174],[134.50801,7.48828],[134.5037,7.48203],[134.51072,7.47275],[134.51524,7.48132],[134.51547,7.48054],[134.52443,7.47883],[134.53386,7.48599],[134.53883,7.4997],[134.53743,7.504],[134.53906,7.50904],[134.53519,7.51084],[134.5344,7.50978],[134.52833,7.5161],[134.51157,7.52766],[134.5193,7.53486],[134.53272,7.5537],[134.54477,7.56184],[134.5464,7.56118],[134.54721,7.56672],[134.54713,7.58039],[134.5464,7.58161],[134.55468,7.59691],[134.55643,7.59754],[134.56533,7.60529],[134.56327,7.60767],[134.56428,7.60872],[134.56451,7.60859],[134.57452,7.61442],[134.57536,7.61623],[134.58335,7.61944],[134.58641,7.6155]]],[[[134.51401,7.48461],[134.51421,7.48472],[134.51456,7.48356],[134.51401,7.48461]]],[[[134.72084,8.07836],[134.7163,8.07072],[134.71704,8.08208],[134.7131,8.09197],[134.71943,8.09308],[134.72084,8.07836]]],[[[131.7754,2.96406],[131.785,2.97407],[131.79152,2.97773],[131.80641,2.97427],[131.813,2.96043],[131.79518,2.94904],[131.77882,2.95283],[131.7754,2.96406]]]]}}],"admin1":{"type":"FeatureCollection","features":[{"type":"Feature","properties":{"id":"PLW:ADM1:PLW-5256","name":"Ngeremlengui","countryCode":"PLW"},"geometry":{"type":"MultiPolygon","coordinates":[[[[131.80641,2.97427],[131.813,2.96043],[131.79518,2.94904],[131.77882,2.95283],[131.7754,2.96406],[131.785,2.97407],[131.79152,2.97773],[131.80641,2.97427]]],[[[131.13111,3.02949],[131.1421,3.04731],[131.15971,3.05806],[131.16976,3.051],[131.1804,3.03325],[131.16049,3.02277],[131.13844,3.01895],[131.13111,3.02949]]],[[[134.14685,6.8998],[134.14559,6.89884],[134.14527,6.89916],[134.13673,6.91909],[134.13735,6.9223],[134.13763,6.9223],[134.14102,6.92485],[134.15294,6.91391],[134.15371,6.90968],[134.14685,6.8998]]],[[[134.2694,7.03112],[134.2526,7.02212],[134.24505,7.0134],[134.26088,7.02253],[134.2622,7.01783],[134.26751,7.01819],[134.26966,7.02416],[134.27795,7.02361],[134.27825,7.02313],[134.26769,7.01801],[134.26682,7.01644],[134.26645,7.01642],[134.25782,7.01309],[134.24334,6.99282],[134.23975,6.98942],[134.23889,6.9906],[134.23252,6.98788],[134.23223,6.98701],[134.23048,6.9892],[134.23569,7.00849],[134.25148,7.03762],[134.25548,7.04386],[134.26949,7.04929],[134.26597,7.03471],[134.26986,7.03396],[134.2694,7.03112]]],[[[134.26034,7.05395],[134.26317,7.05917],[134.26403,7.05854],[134.26676,7.06269],[134.26984,7.05729],[134.26497,7.0538],[134.26034,7.05395]]],[[[134.37422,7.23257],[134.37155,7.23093],[134.3799,7.22741],[134.38241,7.23148],[134.38007,7.2361],[134.383,7.23551],[134.38552,7.23839],[134.38901,7.23892],[134.4017,7.24649],[134.41273,7.25634],[134.41313,7.25263],[134.40874,7.24436],[134.40075,7.23472],[134.39786,7.24223],[134.39507,7.24116],[134.39461,7.2358],[134.38888,7.23187],[134.38304,7.22097],[134.38144,7.2204],[134.38318,7.22592],[134.36928,7.22114],[134.36328,7.2402],[134.35844,7.24383],[134.35223,7.2449],[134.35181,7.24276],[134.35003,7.25057],[134.34722,7.25102],[134.34732,7.25332],[134.35166,7.25251],[134.35375,7.24813],[134.3625,7.24613],[134.36793,7.23595],[134.37422,7.23257]]],[[[134.43686,7.2779],[134.43901,7.28082],[134.4421,7.2751],[134.43952,7.27407],[134.4405,7.26817],[134.44043,7.2733],[134.4478,7.26544],[134.44886,7.2722],[134.4514,7.27048],[134.45283,7.26248],[134.45087,7.25495],[134.44614,7.25381],[134.44455,7.25377],[134.44148,7.25925],[134.43523,7.26205],[134.43346,7.268],[134.42636,7.26851],[134.43686,7.2779]]],[[[134.44434,7.30011],[134.44142,7.31025],[134.44119,7.31483],[134.4489,7.3112],[134.4533,7.30064],[134.44608,7.29419],[134.44484,7.3004],[134.44434,7.30011]]],[[[134.46056,7.33759],[134.45895,7.33968],[134.45838,7.33578],[134.45027,7.32902],[134.44962,7.33537],[134.45513,7.34013],[134.46188,7.3404],[134.46233,7.33907],[134.46056,7.33759]]],[[[134.49734,7.35391],[134.50644,7.34979],[134.50468,7.34324],[134.51394,7.33139],[134.51331,7.32314],[134.50983,7.31811],[134.50608,7.31952],[134.50536,7.31671],[134.50327,7.31932],[134.50178,7.32255],[134.5044,7.32364],[134.50749,7.33009],[134.50619,7.33602],[134.49561,7.33575],[134.49521,7.33609],[134.49122,7.34268],[134.48039,7.34606],[134.47858,7.35221],[134.48148,7.34749],[134.48526,7.35133],[134.4965,7.35192],[134.49734,7.35391]]],[[[134.46534,7.34157],[134.4621,7.34213],[134.46573,7.34635],[134.47474,7.34592],[134.46803,7.34382],[134.46534,7.34157]]],[[[134.44956,7.35541],[134.45208,7.35792],[134.46537,7.35258],[134.45598,7.35177],[134.45376,7.34562],[134.44824,7.34646],[134.44956,7.35541]]],[[[134.51421,7.48472],[134.51456,7.48356],[134.51401,7.48461],[134.51421,7.48472]]],[[[134.61621,7.62398],[134.63502,7.62934],[134.64096,7.64598],[134.63299,7.69819],[134.62371,7.71796],[134.62143,7.72968],[134.62245,7.73083],[134.63013,7.72582],[134.62985,7.71735],[134.63785,7.7126],[134.63679,7.70826],[134.64587,7.70181],[134.64448,7.69479],[134.63731,7.68757],[134.64248,7.68313],[134.64177,7.66014],[134.64681,7.63314],[134.64279,7.62486],[134.64207,7.60899],[134.64435,7.60737],[134.63817,7.59846],[134.64127,7.593],[134.63971,7.58478],[134.63255,7.58015],[134.63731,7.57177],[134.63498,7.5661],[134.63845,7.55028],[134.62405,7.53657],[134.6192,7.54469],[134.61902,7.53662],[134.61401,7.53435],[134.61357,7.52935],[134.61746,7.52428],[134.61874,7.53004],[134.61983,7.51435],[134.62395,7.51443],[134.63232,7.50706],[134.63513,7.50232],[134.63136,7.49868],[134.62719,7.48595],[134.62367,7.48366],[134.60942,7.46747],[134.60663,7.46281],[134.60769,7.45513],[134.60857,7.4542],[134.6047,7.44917],[134.6037,7.44968],[134.60465,7.4491],[134.60017,7.44329],[134.60008,7.44329],[134.59987,7.4429],[134.59962,7.44257],[134.59955,7.44231],[134.59515,7.43413],[134.59183,7.43485],[134.58797,7.41653],[134.5912,7.4119],[134.58941,7.39926],[134.58489,7.3999],[134.58334,7.40364],[134.5783,7.39874],[134.58244,7.39307],[134.58154,7.38585],[134.58361,7.38882],[134.58826,7.3874],[134.59352,7.36814],[134.59164,7.36689],[134.58668,7.3686],[134.57496,7.36957],[134.5656,7.37531],[134.55934,7.37617],[134.5547,7.37254],[134.5442,7.35855],[134.53883,7.3557],[134.52801,7.35757],[134.52377,7.36103],[134.52231,7.36701],[134.51344,7.39179],[134.50587,7.42402],[134.49928,7.43822],[134.49122,7.44457],[134.48552,7.44416],[134.48292,7.44579],[134.48439,7.45873],[134.48756,7.46992],[134.49334,7.48013],[134.50131,7.48835],[134.5081,7.49174],[134.50801,7.48828],[134.5037,7.48203],[134.51072,7.47275],[134.51524,7.48132],[134.51547,7.48054],[134.52443,7.47883],[134.53386,7.48599],[134.53883,7.4997],[134.53743,7.504],[134.53906,7.50904],[134.53519,7.51084],[134.5344,7.50978],[134.52833,7.5161],[134.51157,7.52766],[134.5193,7.53486],[134.53272,7.5537],[134.54477,7.56184],[134.5464,7.56118],[134.54721,7.56672],[134.54713,7.58039],[134.5464,7.58161],[134.55468,7.59691],[134.55643,7.59754],[134.56533,7.60529],[134.56327,7.60767],[134.56428,7.60872],[134.56451,7.60859],[134.57452,7.61442],[134.57536,7.61623],[134.58335,7.61944],[134.58641,7.6155],[134.59217,7.61604],[134.60007,7.61174],[134.60737,7.61365],[134.61621,7.62398]]],[[[134.71943,8.09308],[134.72084,8.07836],[134.7163,8.07072],[134.71704,8.08208],[134.7131,8.09197],[134.71943,8.09308]]]]}}]}}
