{"type":"FeatureCollection","features":[{"type":"Feature","properties":{"id":"PRI:ADM2:52423323B11153152222342","name":"San Lorenzo","countryCode":"PRI","adminLevel":2,"sourceCode":"52423323B11153152222342","parentId":"PRI:ADM1:PRI-5260"},"geometry":{"type":"Polygon","coordinates":[[[-66.05255,18.11307],[-66.05179,18.10988],[-66.01305,18.0965],[-66.01024,18.07557],[-65.97598,18.09431],[-65.96205,18.0865],[-65.93317,18.09339],[-65.92066,18.13783],[-65.92834,18.14285],[-65.93201,18.1619],[-65.9294,18.19744],[-65.95174,18.21592],[-65.95102,18.22929],[-65.98905,18.22034],[-65.99765,18.20699],[-65.99961,18.18871],[-66.00385,18.1856],[-66.01132,18.18606],[-66.02225,18.16604],[-66.02028,18.14408],[-66.03537,18.11954],[-66.05255,18.11307]]]}},{"type":"Feature","properties":{"id":"PRI:ADM2:52423323B11408712561371","name":"Cidra","countryCode":"PRI","adminLevel":2,"sourceCode":"52423323B11408712561371","parentId":"PRI:ADM1:PRI-5260"},"geometry":{"type":"Polygon","coordinates":[[[-66.24046,18.1848],[-66.24273,18.18025],[-66.22371,18.16572],[-66.2169,18.14322],[-66.18733,18.13706],[-66.18227,18.14463],[-66.17507,18.13375],[-66.16475,18.14447],[-66.13188,18.13258],[-66.13083,18.13883],[-66.1185,18.13815],[-66.10172,18.15126],[-66.0951,18.16908],[-66.10376,18.17046],[-66.10167,18.18308],[-66.11777,18.20995],[-66.14106,18.19791],[-66.14394,18.22811],[-66.16912,18.22429],[-66.18248,18.2023],[-66.2071,18.19694],[-66.21185,18.17309],[-66.24046,18.1848]]]}},{"type":"Feature","properties":{"id":"PRI:ADM2:52423323B1142335795557","name":"Florida","countryCode":"PRI","adminLevel":2,"sourceCode":"52423323B1142335795557","parentId":"PRI:ADM1:PRI-5260"},"geometry":{"type":"Polygon","coordinates":[[[-66.58818,18.38941],[-66.58228,18.37372],[-66.59078,18.33806],[-66.53963,18.34441],[-66.53362,18.35134],[-66.53053,18.38502],[-66.54308,18.40542],[-66.56431,18.41331],[-66.58818,18.38941]]]}},{"type":"Feature","properties":{"id":"PRI:ADM2:52423323B11777472364014","name":"Bayamón","countryCode":"PRI","adminLevel":2,"sourceCode":"52423323B11777472364014","parentId":"PRI:ADM1:PRI-5260"},"geometry":{"type":"Polygon","coordinates":[[[-66.19067,18.25884],[-66.1616,18.28254],[-66.14386,18.27959],[-66.13799,18.29841],[-66.14178,18.32241],[-66.13381,18.33468],[-66.14164,18.36182],[-66.13452,18.37458],[-66.11836,18.37926],[-66.12407,18.3991],[-66.12128,18.41439],[-66.13158,18.42466],[-66.15854,18.42156],[-66.16951,18.431],[-66.17265,18.42105],[-66.18755,18.41974],[-66.19801,18.41463],[-66.19955,18.33989],[-66.20361,18.33668],[-66.20153,18.32899],[-66.20473,18.31604],[-66.21354,18.30629],[-66.20613,18.27666],[-66.20167,18.27642],[-66.19067,18.25884]]]}},{"type":"Feature","properties":{"id":"PRI:ADM2:52423323B1226588316364","name":"Lajas","countryCode":"PRI","adminLevel":2,"sourceCode":"52423323B1226588316364","parentId":"PRI:ADM1:PRI-5260"},"geometry":{"type":"Polygon","coordinates":[[[-67.10228,17.97496],[-67.11585,18.03337],[-67.10904,18.05609],[-67.06791,18.06633],[-67.03619,18.05782],[-67.00787,18.06023],[-66.98334,18.05252],[-66.98267,18.0412],[-66.95875,18.03248],[-66.96193,17.99159],[-66.97888,17.95693],[-66.98448,17.9626],[-66.98608,17.96734],[-66.99686,17.96817],[-67.00063,17.96463],[-67.00596,17.96491],[-67.01117,17.96575],[-67.01474,17.96847],[-67.02452,17.97072],[-67.06248,17.97382],[-67.06607,17.97227],[-67.06701,17.97256],[-67.06882,17.97109],[-67.07653,17.96776],[-67.08248,17.96045],[-67.09732,17.95287],[-67.10879,17.95032],[-67.10228,17.97496]]]}},{"type":"Feature","properties":{"id":"PRI:ADM2:52423323B13112190165396","name":"Cataño","countryCode":"PRI","adminLevel":2,"sourceCode":"52423323B13112190165396","parentId":"PRI:ADM1:PRI-5260"},"geometry":{"type":"Polygon","coordinates":[[[-66.13158,18.42466],[-66.15854,18.42156],[-66.16951,18.431],[-66.13955,18.46231],[-66.13464,18.46392],[-66.13747,18.45276],[-66.11808,18.44303],[-66.11677,18.43901],[-66.13158,18.42466]]]}},{"type":"Feature","properties":{"id":"PRI:ADM2:52423323B13977400518801","name":"Mayagüez","countryCode":"PRI","adminLevel":2,"sourceCode":"52423323B13977400518801","parentId":"PRI:ADM1:PRI-5260"},"geometry":{"type":"MultiPolygon","coordinates":[[[[-67.16122,18.27301],[-67.1415,18.26996],[-67.13582,18.24593],[-67.082,18.25495],[-67.05622,18.24544],[-67.05035,18.22748],[-67.03296,18.21809],[-67.01739,18.1899],[-67.03452,18.18552],[-67.05146,18.17406],[-67.08214,18.16808],[-67.08636,18.14983],[-67.09838,18.15855],[-67.1622,18.15249],[-67.17683,18.1649],[-67.17394,18.17529],[-67.16339,18.18638],[-67.15754,18.19173],[-67.15674,18.19337],[-67.15518,18.195],[-67.154,18.199],[-67.15186,18.20339],[-67.15401,18.20683],[-67.158,18.21672],[-67.173,18.23067],[-67.17543,18.24801],[-67.18235,18.25851],[-67.18532,18.26746],[-67.16122,18.27301]]],[[[-67.87146,18.0578],[-67.89125,18.05339],[-67.89196,18.05345],[-67.89623,18.05634],[-67.9027,18.06542],[-67.93114,18.08051],[-67.93782,18.09422],[-67.9313,18.10871],[-67.91975,18.11449],[-67.89577,18.11516],[-67.8871,18.11258],[-67.87643,18.11416],[-67.87339,18.11579],[-67.86189,18.11612],[-67.85586,18.11469],[-67.84806,18.10782],[-67.84419,18.09751],[-67.84976,18.09064],[-67.85993,18.07315],[-67.86417,18.06875],[-67.86754,18.0642],[-67.86807,18.06113],[-67.87146,18.0578]]]]}},{"type":"Feature","properties":{"id":"PRI:ADM2:52423323B15402942481985","name":"Barranquitas","countryCode":"PRI","adminLevel":2,"sourceCode":"52423323B15402942481985","parentId":"PRI:ADM1:PRI-5260"},"geometry":{"type":"Polygon","coordinates":[[[-66.24046,18.1848],[-66.26355,18.18496],[-66.27026,18.21938],[-66.26533,18.23355],[-66.26646,18.24527],[-66.29384,18.24641],[-66.30707,18.24148],[-66.3133,18.24933],[-66.32613,18.24792],[-66.34012,18.23869],[-66.35079,18.24124],[-66.35165,18.1942],[-66.36373,18.20067],[-66.37377,18.1737],[-66.35126,18.16549],[-66.32232,18.16551],[-66.31485,18.15209],[-66.27772,18.1742],[-66.24829,18.16562],[-66.24046,18.1848]]]}},{"type":"Feature","properties":{"id":"PRI:ADM2:52423323B15729403870987","name":"Caguas","countryCode":"PRI","adminLevel":2,"sourceCode":"52423323B15729403870987","parentId":"PRI:ADM1:PRI-5260"},"geometry":{"type":"Polygon","coordinates":[[[-65.99765,18.20699],[-66.01374,18.22565],[-66.00946,18.24105],[-66.01397,18.26471],[-66.00823,18.27818],[-66.02989,18.29087],[-66.03057,18.30118],[-66.02175,18.30504],[-66.02561,18.30962],[-66.04153,18.31235],[-66.04533,18.29942],[-66.0661,18.30332],[-66.07731,18.25651],[-66.09019,18.2276],[-66.11777,18.20995],[-66.10167,18.18308],[-66.10376,18.17046],[-66.0951,18.16908],[-66.06597,18.14841],[-66.06959,18.13752],[-66.05255,18.11307],[-66.03537,18.11954],[-66.02028,18.14408],[-66.02225,18.16604],[-66.01132,18.18606],[-66.00385,18.1856],[-65.99961,18.18871],[-65.99765,18.20699]]]}},{"type":"Feature","properties":{"id":"PRI:ADM2:52423323B15729416108881","name":"San Juan","countryCode":"PRI","adminLevel":2,"sourceCode":"52423323B15729416108881","parentId":"PRI:ADM1:PRI-5260"},"geometry":{"type":"Polygon","coordinates":[[[-66.04297,18.44418],[-66.02973,18.4278],[-65.99181,18.40387],[-65.99955,18.38007],[-66.02509,18.37978],[-66.03535,18.36968],[-66.0325,18.3557],[-66.03553,18.34437],[-66.0355,18.31984],[-66.04153,18.31235],[-66.04533,18.29942],[-66.0661,18.30332],[-66.08047,18.2973],[-66.08515,18.30051],[-66.08758,18.33461],[-66.09967,18.34263],[-66.0982,18.34964],[-66.08835,18.35714],[-66.09004,18.37506],[-66.1065,18.38269],[-66.09786,18.41643],[-66.10128,18.42026],[-66.09317,18.41983],[-66.06021,18.42939],[-66.06021,18.43683],[-66.07677,18.43887],[-66.09496,18.4477],[-66.10936,18.46141],[-66.11902,18.4709],[-66.10599,18.46879],[-66.08066,18.46121],[-66.07399,18.4581],[-66.06823,18.45749],[-66.0559,18.4538],[-66.0397,18.45051],[-66.03712,18.44969],[-66.04297,18.44418]]]}},{"type":"Feature","properties":{"id":"PRI:ADM2:52423323B16848468403028","name":"Guayama","countryCode":"PRI","adminLevel":2,"sourceCode":"52423323B16848468403028","parentId":"PRI:ADM1:PRI-5260"},"geometry":{"type":"Polygon","coordinates":[[[-66.20621,17.9629],[-66.20559,18.01298],[-66.18051,18.02507],[-66.16614,18.05007],[-66.13899,18.03692],[-66.11981,18.0629],[-66.12903,18.08864],[-66.11271,18.09016],[-66.10257,18.10503],[-66.06857,18.10183],[-66.05314,18.1073],[-66.06832,18.07873],[-66.0894,18.05626],[-66.08226,18.03296],[-66.09521,18.02219],[-66.07161,17.99373],[-66.06998,17.96636],[-66.08141,17.96655],[-66.08929,17.96261],[-66.10464,17.95893],[-66.15987,17.93086],[-66.17497,17.93574],[-66.1934,17.93679],[-66.19707,17.93007],[-66.20538,17.92459],[-66.20857,17.92914],[-66.20983,17.93187],[-66.21044,17.93659],[-66.19957,17.9396],[-66.19701,17.9444],[-66.20116,17.95051],[-66.21044,17.9571],[-66.21138,17.95629],[-66.20621,17.9629]]]}},{"type":"Feature","properties":{"id":"PRI:ADM2:52423323B17082300411624","name":"Corozal","countryCode":"PRI","adminLevel":2,"sourceCode":"52423323B17082300411624","parentId":"PRI:ADM1:PRI-5260"},"geometry":{"type":"Polygon","coordinates":[[[-66.37771,18.29398],[-66.38303,18.27535],[-66.35079,18.24124],[-66.34012,18.23869],[-66.32613,18.24792],[-66.3133,18.24933],[-66.29608,18.25755],[-66.27807,18.32998],[-66.30572,18.36999],[-66.33824,18.36794],[-66.36527,18.33323],[-66.37771,18.29398]]]}},{"type":"Feature","properties":{"id":"PRI:ADM2:52423323B18041062174834","name":"Peñuelas","countryCode":"PRI","adminLevel":2,"sourceCode":"52423323B18041062174834","parentId":"PRI:ADM1:PRI-5260"},"geometry":{"type":"Polygon","coordinates":[[[-66.76905,18.13499],[-66.76096,18.11161],[-66.76969,18.08784],[-66.76588,18.0822],[-66.7695,18.05883],[-66.76513,18.03898],[-66.75352,18.04955],[-66.73629,18.04241],[-66.74172,18.03053],[-66.73299,18.0175],[-66.74843,18.01107],[-66.76019,17.99837],[-66.75625,17.98701],[-66.73112,17.99166],[-66.71696,17.99035],[-66.70985,17.98211],[-66.69911,17.97757],[-66.68677,17.99149],[-66.68944,18.04026],[-66.68035,18.07705],[-66.67809,18.1007],[-66.69407,18.13054],[-66.71359,18.13211],[-66.72734,18.11304],[-66.74962,18.11367],[-66.76905,18.13499]]]}},{"type":"Feature","properties":{"id":"PRI:ADM2:52423323B24006196223482","name":"Carolina","countryCode":"PRI","adminLevel":2,"sourceCode":"52423323B24006196223482","parentId":"PRI:ADM1:PRI-5260"},"geometry":{"type":"Polygon","coordinates":[[[-65.96721,18.43239],[-65.9304,18.42848],[-65.91928,18.403],[-65.93134,18.39368],[-65.91315,18.37929],[-65.9171,18.36777],[-65.91592,18.34809],[-65.90314,18.32066],[-65.91565,18.29242],[-65.90726,18.27217],[-65.91853,18.27013],[-65.93929,18.28677],[-65.94243,18.29347],[-65.93898,18.30875],[-65.9566,18.31831],[-65.98205,18.3585],[-65.98964,18.36584],[-65.9915,18.37701],[-65.99955,18.38007],[-65.99181,18.40387],[-66.02973,18.4278],[-66.04297,18.44418],[-66.03712,18.44969],[-66.03214,18.44812],[-66.02322,18.44388],[-66.0132,18.44416],[-66.0121,18.44396],[-66.01153,18.44421],[-66.00652,18.44435],[-65.99718,18.4499],[-65.99451,18.45487],[-65.99253,18.45775],[-65.96721,18.43239]]]}},{"type":"Feature","properties":{"id":"PRI:ADM2:52423323B26167875661566","name":"Trujillo Alto","countryCode":"PRI","adminLevel":2,"sourceCode":"52423323B26167875661566","parentId":"PRI:ADM1:PRI-5260"},"geometry":{"type":"Polygon","coordinates":[[[-65.94243,18.29347],[-65.93898,18.30875],[-65.9566,18.31831],[-65.98205,18.3585],[-65.98964,18.36584],[-65.9915,18.37701],[-65.99955,18.38007],[-66.02509,18.37978],[-66.03535,18.36968],[-66.0325,18.3557],[-66.03553,18.34437],[-66.0355,18.31984],[-66.04153,18.31235],[-66.02561,18.30962],[-66.02175,18.30504],[-65.96815,18.31016],[-65.94243,18.29347]]]}},{"type":"Feature","properties":{"id":"PRI:ADM2:52423323B28131645769529","name":"Ciales","countryCode":"PRI","adminLevel":2,"sourceCode":"52423323B28131645769529","parentId":"PRI:ADM1:PRI-5260"},"geometry":{"type":"Polygon","coordinates":[[[-66.46321,18.37148],[-66.51177,18.36201],[-66.52928,18.35026],[-66.53362,18.35134],[-66.53963,18.34441],[-66.59078,18.33806],[-66.60023,18.33961],[-66.61112,18.32238],[-66.58527,18.32269],[-66.5547,18.28159],[-66.56445,18.24265],[-66.53272,18.20052],[-66.53102,18.18014],[-66.54313,18.1631],[-66.53155,18.15568],[-66.51105,18.1781],[-66.51771,18.22594],[-66.50107,18.25684],[-66.46697,18.24567],[-66.4557,18.25773],[-66.46488,18.28324],[-66.45335,18.30989],[-66.45429,18.33266],[-66.46514,18.35224],[-66.46321,18.37148]]]}},{"type":"Feature","properties":{"id":"PRI:ADM2:52423323B28169903287246","name":"Dorado","countryCode":"PRI","adminLevel":2,"sourceCode":"52423323B28169903287246","parentId":"PRI:ADM1:PRI-5260"},"geometry":{"type":"Polygon","coordinates":[[[-66.19893,18.46666],[-66.23053,18.45439],[-66.25794,18.45502],[-66.26431,18.42654],[-66.25255,18.39419],[-66.27079,18.38377],[-66.30366,18.38408],[-66.29992,18.42392],[-66.31742,18.45108],[-66.31529,18.47211],[-66.30386,18.46882],[-66.28989,18.4727],[-66.28367,18.47221],[-66.2764,18.47644],[-66.26688,18.47908],[-66.2418,18.46874],[-66.21131,18.46726],[-66.20519,18.4654],[-66.20318,18.46687],[-66.19893,18.46666]]]}},{"type":"Feature","properties":{"id":"PRI:ADM2:52423323B30468560709175","name":"Aibonito","countryCode":"PRI","adminLevel":2,"sourceCode":"52423323B30468560709175","parentId":"PRI:ADM1:PRI-5260"},"geometry":{"type":"Polygon","coordinates":[[[-66.24273,18.18025],[-66.24829,18.16562],[-66.27772,18.1742],[-66.31485,18.15209],[-66.32091,18.12601],[-66.27294,18.08659],[-66.25995,18.08261],[-66.25753,18.07589],[-66.24224,18.07715],[-66.24005,18.09319],[-66.22449,18.09534],[-66.22683,18.11664],[-66.2169,18.14322],[-66.22371,18.16572],[-66.24273,18.18025]]]}},{"type":"Feature","properties":{"id":"PRI:ADM2:52423323B30804513522660","name":"Moca","countryCode":"PRI","adminLevel":2,"sourceCode":"52423323B30804513522660","parentId":"PRI:ADM1:PRI-5260"},"geometry":{"type":"Polygon","coordinates":[[[-67.13221,18.38939],[-67.12665,18.37145],[-67.13451,18.34652],[-67.13017,18.31793],[-67.1214,18.32396],[-67.06347,18.31157],[-67.05258,18.30666],[-67.03585,18.32954],[-67.0474,18.35086],[-67.04202,18.35581],[-67.02717,18.39338],[-67.05651,18.46096],[-67.09894,18.43703],[-67.12517,18.40893],[-67.13221,18.38939]]]}},{"type":"Feature","properties":{"id":"PRI:ADM2:52423323B30821332153735","name":"Barceloneta","countryCode":"PRI","adminLevel":2,"sourceCode":"52423323B30821332153735","parentId":"PRI:ADM1:PRI-5260"},"geometry":{"type":"Polygon","coordinates":[[[-66.53323,18.48174],[-66.52733,18.45601],[-66.53752,18.43593],[-66.52116,18.43116],[-66.54378,18.41815],[-66.54308,18.40542],[-66.56431,18.41331],[-66.58818,18.38941],[-66.58322,18.43778],[-66.58777,18.4376],[-66.58006,18.46811],[-66.58651,18.48427],[-66.58207,18.48508],[-66.56524,18.48553],[-66.56474,18.48694],[-66.5507,18.48681],[-66.53323,18.48174]]]}},{"type":"Feature","properties":{"id":"PRI:ADM2:52423323B31237535640697","name":"Aguada","countryCode":"PRI","adminLevel":2,"sourceCode":"52423323B31237535640697","parentId":"PRI:ADM1:PRI-5260"},"geometry":{"type":"Polygon","coordinates":[[[-67.13221,18.38939],[-67.15656,18.39398],[-67.16014,18.41559],[-67.217,18.38208],[-67.23909,18.37532],[-67.22733,18.34877],[-67.19551,18.33031],[-67.18285,18.31303],[-67.14577,18.32267],[-67.13017,18.31793],[-67.13451,18.34652],[-67.12665,18.37145],[-67.13221,18.38939]]]}},{"type":"Feature","properties":{"id":"PRI:ADM2:52423323B32135121114798","name":"Jayuya","countryCode":"PRI","adminLevel":2,"sourceCode":"52423323B32135121114798","parentId":"PRI:ADM1:PRI-5260"},"geometry":{"type":"Polygon","coordinates":[[[-66.56662,18.29855],[-66.57876,18.28405],[-66.59747,18.28411],[-66.60673,18.23848],[-66.62514,18.24669],[-66.62843,18.2143],[-66.65455,18.16959],[-66.64947,18.15886],[-66.6366,18.15168],[-66.591,18.17248],[-66.55276,18.15206],[-66.54722,18.15313],[-66.53102,18.18014],[-66.53272,18.20052],[-66.56445,18.24265],[-66.5547,18.28159],[-66.56662,18.29855]]]}},{"type":"Feature","properties":{"id":"PRI:ADM2:52423323B32764376391113","name":"Gurabo","countryCode":"PRI","adminLevel":2,"sourceCode":"52423323B32764376391113","parentId":"PRI:ADM1:PRI-5260"},"geometry":{"type":"Polygon","coordinates":[[[-65.95102,18.22929],[-65.93947,18.23412],[-65.94584,18.25266],[-65.91853,18.27013],[-65.93929,18.28677],[-65.94243,18.29347],[-65.96815,18.31016],[-66.02175,18.30504],[-66.03057,18.30118],[-66.02989,18.29087],[-66.00823,18.27818],[-66.01397,18.26471],[-66.00946,18.24105],[-66.01374,18.22565],[-65.99765,18.20699],[-65.98905,18.22034],[-65.95102,18.22929]]]}},{"type":"Feature","properties":{"id":"PRI:ADM2:52423323B3277020886605","name":"Loíza","countryCode":"PRI","adminLevel":2,"sourceCode":"52423323B3277020886605","parentId":"PRI:ADM1:PRI-5260"},"geometry":{"type":"Polygon","coordinates":[[[-65.92567,18.44488],[-65.90775,18.4469],[-65.90499,18.45093],[-65.87868,18.43832],[-65.83882,18.43187],[-65.82845,18.42355],[-65.85254,18.4017],[-65.85969,18.38207],[-65.86745,18.3782],[-65.8765,18.37868],[-65.86995,18.40892],[-65.89993,18.41368],[-65.91928,18.403],[-65.9304,18.42848],[-65.96721,18.43239],[-65.99156,18.45917],[-65.99116,18.45976],[-65.92567,18.44488]]]}},{"type":"Feature","properties":{"id":"PRI:ADM2:52423323B32786783590075","name":"Patillas","countryCode":"PRI","adminLevel":2,"sourceCode":"52423323B32786783590075","parentId":"PRI:ADM1:PRI-5260"},"geometry":{"type":"Polygon","coordinates":[[[-65.99518,17.97899],[-66.01954,17.97836],[-66.04693,18.0091],[-66.04368,18.02945],[-66.05726,18.04044],[-66.08226,18.03296],[-66.0894,18.05626],[-66.06832,18.07873],[-66.05179,18.10988],[-66.01305,18.0965],[-66.01052,18.0677],[-65.98852,18.05894],[-65.98558,18.04521],[-65.97995,18.0389],[-65.9819,18.03484],[-65.95285,18.02311],[-65.94312,17.99253],[-65.91384,17.98051],[-65.92474,17.97609],[-65.95667,17.97091],[-65.96166,17.97102],[-65.98453,17.97565],[-65.99226,17.97636],[-65.99518,17.97899]]]}},{"type":"Feature","properties":{"id":"PRI:ADM2:52423323B33690071450754","name":"Lares","countryCode":"PRI","adminLevel":2,"sourceCode":"52423323B33690071450754","parentId":"PRI:ADM1:PRI-5260"},"geometry":{"type":"Polygon","coordinates":[[[-66.89796,18.18775],[-66.86399,18.18675],[-66.86283,18.17481],[-66.82733,18.17124],[-66.8363,18.18579],[-66.83269,18.2291],[-66.81727,18.23034],[-66.81756,18.23543],[-66.82721,18.2441],[-66.82956,18.28775],[-66.82422,18.343],[-66.85474,18.35534],[-66.87696,18.35683],[-66.88995,18.36799],[-66.89334,18.36709],[-66.90997,18.30281],[-66.90723,18.25309],[-66.91286,18.23301],[-66.89796,18.18775]]]}},{"type":"Feature","properties":{"id":"PRI:ADM2:52423323B3757307003168","name":"Salinas","countryCode":"PRI","adminLevel":2,"sourceCode":"52423323B3757307003168","parentId":"PRI:ADM1:PRI-5260"},"geometry":{"type":"Polygon","coordinates":[[[-66.26433,17.94454],[-66.27565,17.94826],[-66.29078,17.94649],[-66.29768,17.95915],[-66.31695,17.97669],[-66.33815,17.97649],[-66.34261,17.99356],[-66.33124,18.01589],[-66.29794,18.05694],[-66.28481,18.05972],[-66.27938,18.06892],[-66.25753,18.07589],[-66.24224,18.07715],[-66.24005,18.09319],[-66.22449,18.09534],[-66.20175,18.06764],[-66.20204,18.04612],[-66.16614,18.05007],[-66.18051,18.02507],[-66.20559,18.01298],[-66.20621,17.9629],[-66.21138,17.95629],[-66.22989,17.94042],[-66.24136,17.93732],[-66.25552,17.94066],[-66.26055,17.94117],[-66.26433,17.94454]]]}},{"type":"Feature","properties":{"id":"PRI:ADM2:52423323B37641528063122","name":"Vega Alta","countryCode":"PRI","adminLevel":2,"sourceCode":"52423323B37641528063122","parentId":"PRI:ADM1:PRI-5260"},"geometry":{"type":"Polygon","coordinates":[[[-66.31742,18.45108],[-66.29992,18.42392],[-66.30366,18.38408],[-66.31416,18.3808],[-66.31876,18.36741],[-66.33824,18.36794],[-66.36527,18.33323],[-66.37706,18.34425],[-66.37324,18.37194],[-66.36428,18.38982],[-66.3589,18.42103],[-66.34783,18.42886],[-66.34951,18.48197],[-66.31529,18.47211],[-66.31742,18.45108]]]}},{"type":"Feature","properties":{"id":"PRI:ADM2:52423323B39360840436508","name":"Villalba","countryCode":"PRI","adminLevel":2,"sourceCode":"52423323B39360840436508","parentId":"PRI:ADM1:PRI-5260"},"geometry":{"type":"Polygon","coordinates":[[[-66.5219,18.15196],[-66.53004,18.10695],[-66.51824,18.08503],[-66.49237,18.09819],[-66.45463,18.08125],[-66.43031,18.08206],[-66.42138,18.09859],[-66.43049,18.11641],[-66.41937,18.14531],[-66.43457,18.17354],[-66.47054,18.17783],[-66.5219,18.15196]]]}},{"type":"Feature","properties":{"id":"PRI:ADM2:52423323B40146913346839","name":"Cayey","countryCode":"PRI","adminLevel":2,"sourceCode":"52423323B40146913346839","parentId":"PRI:ADM1:PRI-5260"},"geometry":{"type":"Polygon","coordinates":[[[-66.05255,18.11307],[-66.06959,18.13752],[-66.06597,18.14841],[-66.0951,18.16908],[-66.10172,18.15126],[-66.1185,18.13815],[-66.13083,18.13883],[-66.13188,18.13258],[-66.16475,18.14447],[-66.17507,18.13375],[-66.18227,18.14463],[-66.18733,18.13706],[-66.2169,18.14322],[-66.22683,18.11664],[-66.22449,18.09534],[-66.20175,18.06764],[-66.20204,18.04612],[-66.16614,18.05007],[-66.13899,18.03692],[-66.11981,18.0629],[-66.12903,18.08864],[-66.11271,18.09016],[-66.10257,18.10503],[-66.06857,18.10183],[-66.05314,18.1073],[-66.05255,18.11307]]]}},{"type":"Feature","properties":{"id":"PRI:ADM2:52423323B40695299315200","name":"Isabela","countryCode":"PRI","adminLevel":2,"sourceCode":"52423323B40695299315200","parentId":"PRI:ADM1:PRI-5260"},"geometry":{"type":"Polygon","coordinates":[[[-66.98896,18.49773],[-66.95752,18.48917],[-66.96678,18.44992],[-66.94794,18.43787],[-66.93859,18.41912],[-66.94733,18.4016],[-66.92202,18.39321],[-66.93833,18.37643],[-67.00914,18.39513],[-67.02717,18.39338],[-67.05281,18.44836],[-67.05846,18.47998],[-67.07706,18.48897],[-67.10347,18.51453],[-67.02415,18.51079],[-67.01236,18.50576],[-67.00504,18.50434],[-66.98896,18.49773]]]}},{"type":"Feature","properties":{"id":"PRI:ADM2:52423323B41088190294642","name":"San Germán","countryCode":"PRI","adminLevel":2,"sourceCode":"52423323B41088190294642","parentId":"PRI:ADM1:PRI-5260"},"geometry":{"type":"Polygon","coordinates":[[[-67.10049,18.1064],[-67.10556,18.07386],[-67.09912,18.06736],[-67.10904,18.05609],[-67.06791,18.06633],[-67.03619,18.05782],[-67.00787,18.06023],[-66.98334,18.05252],[-66.9806,18.07878],[-66.98413,18.10697],[-66.97037,18.1319],[-66.97785,18.1438],[-67.01384,18.16588],[-67.05146,18.17406],[-67.08214,18.16808],[-67.08636,18.14983],[-67.09391,18.14231],[-67.09212,18.12537],[-67.07953,18.117],[-67.08105,18.10672],[-67.10049,18.1064]]]}},{"type":"Feature","properties":{"id":"PRI:ADM2:52423323B42234793142601","name":"Humacao","countryCode":"PRI","adminLevel":2,"sourceCode":"52423323B42234793142601","parentId":"PRI:ADM1:PRI-5260"},"geometry":{"type":"Polygon","coordinates":[[[-65.79671,18.08375],[-65.79656,18.08336],[-65.80456,18.07334],[-65.82924,18.08472],[-65.84805,18.09917],[-65.84812,18.11749],[-65.87021,18.10843],[-65.87761,18.11817],[-65.86307,18.14017],[-65.85412,18.17728],[-65.83645,18.17525],[-65.82606,18.20041],[-65.79248,18.20676],[-65.7605,18.19558],[-65.76604,18.1821],[-65.74521,18.17541],[-65.75487,18.16625],[-65.79029,18.11397],[-65.79247,18.09383],[-65.79671,18.08375]]]}},{"type":"Feature","properties":{"id":"PRI:ADM2:52423323B42777689659233","name":"Vega Baja","countryCode":"PRI","adminLevel":2,"sourceCode":"52423323B42777689659233","parentId":"PRI:ADM1:PRI-5260"},"geometry":{"type":"Polygon","coordinates":[[[-66.34783,18.42886],[-66.3589,18.42103],[-66.36428,18.38982],[-66.37324,18.37194],[-66.37706,18.34425],[-66.38592,18.34474],[-66.39558,18.37189],[-66.401,18.36371],[-66.42186,18.37781],[-66.4438,18.37103],[-66.44899,18.38722],[-66.43941,18.41037],[-66.43885,18.48072],[-66.39522,18.489],[-66.36851,18.48744],[-66.34951,18.48197],[-66.34783,18.42886]]]}},{"type":"Feature","properties":{"id":"PRI:ADM2:52423323B43736341835391","name":"Orocovis","countryCode":"PRI","adminLevel":2,"sourceCode":"52423323B43736341835391","parentId":"PRI:ADM1:PRI-5260"},"geometry":{"type":"Polygon","coordinates":[[[-66.4557,18.25773],[-66.46697,18.24567],[-66.50107,18.25684],[-66.51771,18.22594],[-66.51105,18.1781],[-66.53155,18.15568],[-66.54313,18.1631],[-66.54722,18.15313],[-66.54428,18.14762],[-66.5219,18.15196],[-66.47054,18.17783],[-66.44456,18.17668],[-66.42365,18.17203],[-66.41368,18.16334],[-66.37377,18.1737],[-66.36373,18.20067],[-66.35165,18.1942],[-66.35079,18.24124],[-66.38303,18.27535],[-66.37771,18.29398],[-66.38403,18.2908],[-66.39096,18.27339],[-66.40943,18.26331],[-66.4557,18.25773]]]}},{"type":"Feature","properties":{"id":"PRI:ADM2:52423323B44939102873256","name":"San Sebastián","countryCode":"PRI","adminLevel":2,"sourceCode":"52423323B44939102873256","parentId":"PRI:ADM1:PRI-5260"},"geometry":{"type":"Polygon","coordinates":[[[-66.90723,18.25309],[-66.90997,18.30281],[-66.89334,18.36709],[-66.90367,18.36587],[-66.9195,18.37858],[-66.92202,18.39321],[-66.93833,18.37643],[-67.00914,18.39513],[-67.02717,18.39338],[-67.04202,18.35581],[-67.0474,18.35086],[-67.03585,18.32954],[-67.05258,18.30666],[-67.04071,18.3003],[-67.03819,18.28047],[-67.00592,18.27916],[-66.94639,18.26877],[-66.93839,18.25879],[-66.93348,18.25867],[-66.93247,18.25375],[-66.92882,18.25427],[-66.9299,18.25876],[-66.92423,18.26049],[-66.90723,18.25309]]]}},{"type":"Feature","properties":{"id":"PRI:ADM2:52423323B45396051816333","name":"Coamo","countryCode":"PRI","adminLevel":2,"sourceCode":"52423323B45396051816333","parentId":"PRI:ADM1:PRI-5260"},"geometry":{"type":"Polygon","coordinates":[[[-66.37377,18.1737],[-66.41368,18.16334],[-66.42365,18.17203],[-66.44456,18.17668],[-66.43457,18.17354],[-66.41937,18.14531],[-66.43049,18.11641],[-66.42138,18.09859],[-66.43031,18.08206],[-66.4241,18.04797],[-66.42699,18.04263],[-66.37222,18.03262],[-66.35678,18.03694],[-66.33124,18.01589],[-66.29794,18.05694],[-66.28481,18.05972],[-66.27938,18.06892],[-66.25753,18.07589],[-66.25995,18.08261],[-66.27294,18.08659],[-66.32091,18.12601],[-66.31485,18.15209],[-66.32232,18.16551],[-66.35126,18.16549],[-66.37377,18.1737]]]}},{"type":"Feature","properties":{"id":"PRI:ADM2:52423323B46245109709528","name":"Maunabo","countryCode":"PRI","adminLevel":2,"sourceCode":"52423323B46245109709528","parentId":"PRI:ADM1:PRI-5260"},"geometry":{"type":"Polygon","coordinates":[[[-65.8961,17.99026],[-65.91384,17.98051],[-65.94312,17.99253],[-65.95285,18.02311],[-65.9819,18.03484],[-65.97995,18.0389],[-65.98558,18.04521],[-65.98852,18.05894],[-65.97779,18.0611],[-65.93387,18.03682],[-65.90739,18.0359],[-65.87925,18.02051],[-65.86469,18.02574],[-65.85091,18.01196],[-65.87033,18.0066],[-65.88414,17.98951],[-65.88564,17.98863],[-65.8961,17.99026]]]}},{"type":"Feature","properties":{"id":"PRI:ADM2:52423323B48021062516164","name":"Adjuntas","countryCode":"PRI","adminLevel":2,"sourceCode":"52423323B48021062516164","parentId":"PRI:ADM1:PRI-5260"},"geometry":{"type":"Polygon","coordinates":[[[-66.79756,18.13345],[-66.7844,18.13865],[-66.76905,18.13499],[-66.74962,18.11367],[-66.72734,18.11304],[-66.71359,18.13211],[-66.67695,18.12998],[-66.67049,18.15283],[-66.67699,18.15096],[-66.6647,18.17547],[-66.68169,18.18761],[-66.68132,18.20417],[-66.69373,18.21689],[-66.70772,18.2167],[-66.73218,18.22576],[-66.73936,18.22052],[-66.76062,18.2259],[-66.7647,18.23768],[-66.7817,18.25025],[-66.7945,18.24987],[-66.79876,18.23003],[-66.83269,18.2291],[-66.8363,18.18579],[-66.82733,18.17124],[-66.82628,18.16022],[-66.80406,18.14806],[-66.79756,18.13345]]]}},{"type":"Feature","properties":{"id":"PRI:ADM2:52423323B51190014897639","name":"Arecibo","countryCode":"PRI","adminLevel":2,"sourceCode":"52423323B51190014897639","parentId":"PRI:ADM1:PRI-5260"},"geometry":{"type":"Polygon","coordinates":[[[-66.58006,18.46811],[-66.58777,18.4376],[-66.58322,18.43778],[-66.58818,18.38941],[-66.58228,18.37372],[-66.59078,18.33806],[-66.60023,18.33961],[-66.60699,18.32819],[-66.67162,18.32452],[-66.7173,18.31568],[-66.71976,18.33625],[-66.73595,18.34968],[-66.77007,18.32502],[-66.76794,18.42725],[-66.77014,18.43386],[-66.76813,18.47766],[-66.76489,18.4841],[-66.74207,18.47468],[-66.71074,18.47261],[-66.67987,18.48495],[-66.62462,18.4942],[-66.5992,18.48799],[-66.5878,18.48404],[-66.58651,18.48427],[-66.58006,18.46811]]]}},{"type":"Feature","properties":{"id":"PRI:ADM2:52423323B51950353714831","name":"Ponce","countryCode":"PRI","adminLevel":2,"sourceCode":"52423323B51950353714831","parentId":"PRI:ADM1:PRI-5260"},"geometry":{"type":"Polygon","coordinates":[[[-66.69911,17.97757],[-66.68677,17.99149],[-66.68944,18.04026],[-66.68035,18.07705],[-66.67809,18.1007],[-66.69407,18.13054],[-66.67695,18.12998],[-66.67049,18.15283],[-66.65318,18.15915],[-66.6366,18.15168],[-66.591,18.17248],[-66.55276,18.15206],[-66.56456,18.13941],[-66.56159,18.1153],[-66.54906,18.09563],[-66.55542,18.08452],[-66.54526,18.06876],[-66.54617,18.0538],[-66.53734,18.04129],[-66.54219,18.03104],[-66.53042,18.00308],[-66.54159,17.99161],[-66.54074,17.97857],[-66.55988,17.97752],[-66.57042,17.97236],[-66.58064,17.96581],[-66.58603,17.96479],[-66.58966,17.96939],[-66.60363,17.96905],[-66.60827,17.97134],[-66.60846,17.97122],[-66.62379,17.98105],[-66.63194,17.98275],[-66.64565,17.98026],[-66.65252,17.97586],[-66.68509,17.97164],[-66.69911,17.97757]]]}},{"type":"Feature","properties":{"id":"PRI:ADM2:52423323B52221590077134","name":"Guayanilla","countryCode":"PRI","adminLevel":2,"sourceCode":"52423323B52221590077134","parentId":"PRI:ADM1:PRI-5260"},"geometry":{"type":"Polygon","coordinates":[[[-66.85229,17.95501],[-66.83668,17.96597],[-66.82598,17.9997],[-66.82966,18.01871],[-66.81803,18.02931],[-66.82498,18.04268],[-66.81661,18.07073],[-66.80221,18.09099],[-66.81066,18.11303],[-66.79627,18.12146],[-66.79756,18.13345],[-66.7844,18.13865],[-66.76905,18.13499],[-66.76096,18.11161],[-66.76969,18.08784],[-66.76588,18.0822],[-66.7695,18.05883],[-66.76513,18.03898],[-66.75352,18.04955],[-66.73629,18.04241],[-66.74172,18.03053],[-66.73299,18.0175],[-66.74843,18.01107],[-66.76019,17.99837],[-66.76449,18.00632],[-66.77031,18.00596],[-66.77664,18.00163],[-66.78746,17.99933],[-66.80012,17.99185],[-66.80012,17.98436],[-66.78645,17.98436],[-66.79796,17.96931],[-66.79853,17.96901],[-66.80827,17.96564],[-66.81481,17.96048],[-66.8177,17.95897],[-66.84057,17.9527],[-66.8445,17.95212],[-66.85229,17.95501]]]}},{"type":"Feature","properties":{"id":"PRI:ADM2:52423323B53542655119676","name":"Cabo Rojo","countryCode":"PRI","adminLevel":2,"sourceCode":"52423323B53542655119676","parentId":"PRI:ADM1:PRI-5260"},"geometry":{"type":"Polygon","coordinates":[[[-67.1622,18.15249],[-67.15973,18.15323],[-67.13375,18.13187],[-67.12616,18.11515],[-67.10049,18.1064],[-67.10556,18.07386],[-67.09912,18.06736],[-67.10904,18.05609],[-67.11585,18.03337],[-67.10228,17.97496],[-67.10879,17.95032],[-67.11197,17.94961],[-67.12401,17.95116],[-67.14021,17.95276],[-67.16703,17.96308],[-67.17439,17.96291],[-67.18047,17.96612],[-67.19122,17.95799],[-67.18419,17.93507],[-67.19507,17.93568],[-67.20961,17.95689],[-67.21273,17.96261],[-67.2146,17.97792],[-67.21449,17.98497],[-67.2083,17.99685],[-67.19135,18.00445],[-67.1743,18.01115],[-67.1743,18.01115],[-67.17422,18.01118],[-67.16649,18.01504],[-67.1632,18.02253],[-67.16723,18.0279],[-67.17687,18.0327],[-67.18946,18.03043],[-67.19327,18.03185],[-67.1942,18.03205],[-67.20288,18.03572],[-67.20216,18.05362],[-67.20143,18.05534],[-67.1954,18.06377],[-67.18569,18.07043],[-67.18974,18.08061],[-67.19352,18.09586],[-67.18392,18.10369],[-67.18218,18.10851],[-67.17655,18.15105],[-67.17848,18.159],[-67.17683,18.1649],[-67.1622,18.15249]]]}},{"type":"Feature","properties":{"id":"PRI:ADM2:52423323B53991752457296","name":"Utuado","countryCode":"PRI","adminLevel":2,"sourceCode":"52423323B53991752457296","parentId":"PRI:ADM1:PRI-5260"},"geometry":{"type":"Polygon","coordinates":[[[-66.60699,18.32819],[-66.67162,18.32452],[-66.7173,18.31568],[-66.71976,18.33625],[-66.73595,18.34968],[-66.77007,18.32502],[-66.77036,18.32065],[-66.82613,18.32338],[-66.82956,18.28775],[-66.82721,18.2441],[-66.81756,18.23543],[-66.81727,18.23034],[-66.79876,18.23003],[-66.7945,18.24987],[-66.7817,18.25025],[-66.7647,18.23768],[-66.76062,18.2259],[-66.73936,18.22052],[-66.73218,18.22576],[-66.70772,18.2167],[-66.69373,18.21689],[-66.68132,18.20417],[-66.68169,18.18761],[-66.6647,18.17547],[-66.67699,18.15096],[-66.64947,18.15886],[-66.65455,18.16959],[-66.62843,18.2143],[-66.62514,18.24669],[-66.60673,18.23848],[-66.59747,18.28411],[-66.57876,18.28405],[-66.56662,18.29855],[-66.58527,18.32269],[-66.61112,18.32238],[-66.60699,18.32819]]]}},{"type":"Feature","properties":{"id":"PRI:ADM2:52423323B55438776297696","name":"Guaynabo","countryCode":"PRI","adminLevel":2,"sourceCode":"52423323B55438776297696","parentId":"PRI:ADM1:PRI-5260"},"geometry":{"type":"Polygon","coordinates":[[[-66.09786,18.41643],[-66.1065,18.38269],[-66.09004,18.37506],[-66.08835,18.35714],[-66.0982,18.34964],[-66.09967,18.34263],[-66.08758,18.33461],[-66.08515,18.30051],[-66.08047,18.2973],[-66.08646,18.2851],[-66.10779,18.27788],[-66.14386,18.27959],[-66.13799,18.29841],[-66.14178,18.32241],[-66.13381,18.33468],[-66.14164,18.36182],[-66.13452,18.37458],[-66.11836,18.37926],[-66.12407,18.3991],[-66.12128,18.41439],[-66.13158,18.42466],[-66.11677,18.43901],[-66.11486,18.43317],[-66.10847,18.42064],[-66.10128,18.42026],[-66.09786,18.41643]]]}},{"type":"Feature","properties":{"id":"PRI:ADM2:52423323B55997906288289","name":"Hatillo","countryCode":"PRI","adminLevel":2,"sourceCode":"52423323B55997906288289","parentId":"PRI:ADM1:PRI-5260"},"geometry":{"type":"Polygon","coordinates":[[[-66.77007,18.32502],[-66.76794,18.42725],[-66.77014,18.43386],[-66.76813,18.47766],[-66.76489,18.4841],[-66.78031,18.49141],[-66.79932,18.49278],[-66.83663,18.4877],[-66.82897,18.47271],[-66.82364,18.41247],[-66.81067,18.38663],[-66.82422,18.343],[-66.82613,18.32338],[-66.77036,18.32065],[-66.77007,18.32502]]]}},{"type":"Feature","properties":{"id":"PRI:ADM2:52423323B57121552581282","name":"Juncos","countryCode":"PRI","adminLevel":2,"sourceCode":"52423323B57121552581282","parentId":"PRI:ADM1:PRI-5260"},"geometry":{"type":"Polygon","coordinates":[[[-65.92834,18.14285],[-65.8961,18.20227],[-65.87476,18.21592],[-65.85193,18.24801],[-65.85261,18.25497],[-65.87469,18.25306],[-65.91853,18.27013],[-65.94584,18.25266],[-65.93947,18.23412],[-65.95102,18.22929],[-65.95174,18.21592],[-65.9294,18.19744],[-65.93201,18.1619],[-65.92834,18.14285]]]}},{"type":"Feature","properties":{"id":"PRI:ADM2:52423323B5772281676312","name":"Luquillo","countryCode":"PRI","adminLevel":2,"sourceCode":"52423323B5772281676312","parentId":"PRI:ADM1:PRI-5260"},"geometry":{"type":"Polygon","coordinates":[[[-65.71434,18.37635],[-65.69907,18.36816],[-65.68339,18.36849],[-65.66916,18.36348],[-65.68592,18.32999],[-65.71946,18.30658],[-65.73185,18.28857],[-65.75359,18.29676],[-65.75886,18.29061],[-65.76249,18.3061],[-65.75351,18.34154],[-65.77043,18.36615],[-65.75018,18.38505],[-65.74215,18.38046],[-65.73357,18.38221],[-65.72999,18.38601],[-65.7302,18.38767],[-65.72485,18.39127],[-65.71677,18.3852],[-65.71434,18.37635]]]}},{"type":"Feature","properties":{"id":"PRI:ADM2:52423323B58893245125586","name":"Canóvanas","countryCode":"PRI","adminLevel":2,"sourceCode":"52423323B58893245125586","parentId":"PRI:ADM1:PRI-5260"},"geometry":{"type":"Polygon","coordinates":[[[-65.85261,18.25497],[-65.84629,18.25809],[-65.83639,18.27525],[-65.86811,18.29399],[-65.86276,18.32149],[-65.87671,18.36151],[-65.86745,18.3782],[-65.8765,18.37868],[-65.86995,18.40892],[-65.89993,18.41368],[-65.93134,18.39368],[-65.91315,18.37929],[-65.9171,18.36777],[-65.91592,18.34809],[-65.90314,18.32066],[-65.91565,18.29242],[-65.90726,18.27217],[-65.91853,18.27013],[-65.87469,18.25306],[-65.85261,18.25497]]]}},{"type":"Feature","properties":{"id":"PRI:ADM2:52423323B59988568496806","name":"Sabana Grande","countryCode":"PRI","adminLevel":2,"sourceCode":"52423323B59988568496806","parentId":"PRI:ADM1:PRI-5260"},"geometry":{"type":"Polygon","coordinates":[[[-66.92652,18.15127],[-66.97186,18.14154],[-66.97785,18.1438],[-66.97037,18.1319],[-66.98413,18.10697],[-66.9806,18.07878],[-66.98267,18.0412],[-66.95875,18.03248],[-66.89521,18.02336],[-66.88465,18.02482],[-66.88748,18.03408],[-66.90103,18.03986],[-66.92069,18.10347],[-66.91162,18.11352],[-66.92652,18.15127]]]}},{"type":"Feature","properties":{"id":"PRI:ADM2:52423323B60583840273125","name":"Hormigueros","countryCode":"PRI","adminLevel":2,"sourceCode":"52423323B60583840273125","parentId":"PRI:ADM1:PRI-5260"},"geometry":{"type":"Polygon","coordinates":[[[-67.15973,18.15323],[-67.13375,18.13187],[-67.12616,18.11515],[-67.10049,18.1064],[-67.08105,18.10672],[-67.07953,18.117],[-67.09212,18.12537],[-67.09391,18.14231],[-67.08636,18.14983],[-67.09838,18.15855],[-67.15973,18.15323]]]}},{"type":"Feature","properties":{"id":"PRI:ADM2:52423323B61278008297409","name":"Toa Baja","countryCode":"PRI","adminLevel":2,"sourceCode":"52423323B61278008297409","parentId":"PRI:ADM1:PRI-5260"},"geometry":{"type":"Polygon","coordinates":[[[-66.13955,18.46231],[-66.16951,18.431],[-66.17265,18.42105],[-66.18755,18.41974],[-66.19801,18.41463],[-66.19698,18.38929],[-66.23392,18.40128],[-66.25255,18.39419],[-66.26431,18.42654],[-66.25794,18.45502],[-66.23053,18.45439],[-66.19893,18.46666],[-66.18672,18.46973],[-66.18207,18.46347],[-66.17039,18.45784],[-66.17007,18.45734],[-66.16158,18.4533],[-66.16131,18.45345],[-66.16121,18.45341],[-66.15304,18.45446],[-66.14222,18.46428],[-66.14069,18.46774],[-66.13415,18.46589],[-66.13464,18.46392],[-66.13955,18.46231]]]}},{"type":"Feature","properties":{"id":"PRI:ADM2:52423323B63484657830280","name":"Aguadilla","countryCode":"PRI","adminLevel":2,"sourceCode":"52423323B63484657830280","parentId":"PRI:ADM1:PRI-5260"},"geometry":{"type":"Polygon","coordinates":[[[-67.16901,18.47849],[-67.16414,18.4874],[-67.14283,18.50549],[-67.12565,18.51171],[-67.10347,18.51453],[-67.07706,18.48897],[-67.05846,18.47998],[-67.05651,18.46096],[-67.09894,18.43703],[-67.12517,18.40893],[-67.13221,18.38939],[-67.15656,18.39398],[-67.16014,18.41559],[-67.15524,18.4244],[-67.15662,18.43956],[-67.15813,18.44284],[-67.15812,18.44311],[-67.15871,18.44409],[-67.16899,18.46632],[-67.16901,18.46664],[-67.16901,18.47849]]]}},{"type":"Feature","properties":{"id":"PRI:ADM2:52423323B64463590012985","name":"Fajardo","countryCode":"PRI","adminLevel":2,"sourceCode":"52423323B64463590012985","parentId":"PRI:ADM1:PRI-5260"},"geometry":{"type":"Polygon","coordinates":[[[-65.63437,18.28359],[-65.66613,18.28805],[-65.68217,18.27507],[-65.69501,18.28568],[-65.69989,18.27308],[-65.71751,18.26775],[-65.73774,18.27388],[-65.75359,18.29676],[-65.73185,18.28857],[-65.71946,18.30658],[-65.68592,18.32999],[-65.66916,18.36348],[-65.6539,18.36694],[-65.64375,18.3795],[-65.62402,18.38717],[-65.62131,18.38747],[-65.621,18.38227],[-65.62577,18.35811],[-65.63329,18.34747],[-65.62955,18.33902],[-65.63077,18.33283],[-65.63296,18.291],[-65.6309,18.28512],[-65.63437,18.28359]]]}},{"type":"Feature","properties":{"id":"PRI:ADM2:52423323B65711938596700","name":"Yauco","countryCode":"PRI","adminLevel":2,"sourceCode":"52423323B65711938596700","parentId":"PRI:ADM1:PRI-5260"},"geometry":{"type":"Polygon","coordinates":[[[-66.92652,18.15127],[-66.91162,18.11352],[-66.92069,18.10347],[-66.90103,18.03986],[-66.88748,18.03408],[-66.88465,18.02482],[-66.86322,17.99803],[-66.85947,17.95432],[-66.85229,17.95501],[-66.83668,17.96597],[-66.82598,17.9997],[-66.82966,18.01871],[-66.81803,18.02931],[-66.82498,18.04268],[-66.81661,18.07073],[-66.80221,18.09099],[-66.81066,18.11303],[-66.79627,18.12146],[-66.79756,18.13345],[-66.80406,18.14806],[-66.82628,18.16022],[-66.82733,18.17124],[-66.83676,18.17056],[-66.85012,18.16289],[-66.85678,18.13859],[-66.8881,18.1534],[-66.9038,18.14637],[-66.92652,18.15127]]]}},{"type":"Feature","properties":{"id":"PRI:ADM2:52423323B66250868095677","name":"Juana Díaz","countryCode":"PRI","adminLevel":2,"sourceCode":"52423323B66250868095677","parentId":"PRI:ADM1:PRI-5260"},"geometry":{"type":"Polygon","coordinates":[[[-66.54159,17.99161],[-66.53042,18.00308],[-66.54219,18.03104],[-66.53734,18.04129],[-66.54617,18.0538],[-66.54526,18.06876],[-66.55542,18.08452],[-66.54906,18.09563],[-66.56159,18.1153],[-66.56456,18.13941],[-66.55276,18.15206],[-66.54722,18.15313],[-66.54428,18.14762],[-66.5219,18.15196],[-66.53004,18.10695],[-66.51824,18.08503],[-66.49237,18.09819],[-66.45463,18.08125],[-66.43031,18.08206],[-66.4241,18.04797],[-66.42699,18.04263],[-66.42105,18.01931],[-66.45037,17.98323],[-66.46134,17.99028],[-66.46528,17.99027],[-66.46915,17.99266],[-66.48087,17.99027],[-66.49139,17.99026],[-66.50179,17.98714],[-66.50197,17.98711],[-66.50214,17.98703],[-66.52796,17.97926],[-66.54074,17.97857],[-66.54159,17.99161]]]}},{"type":"Feature","properties":{"id":"PRI:ADM2:52423323B67874562212910","name":"Río Grande","countryCode":"PRI","adminLevel":2,"sourceCode":"52423323B67874562212910","parentId":"PRI:ADM1:PRI-5260"},"geometry":{"type":"Polygon","coordinates":[[[-65.77169,18.40628],[-65.75018,18.38505],[-65.77043,18.36615],[-65.75351,18.34154],[-65.76249,18.3061],[-65.75886,18.29061],[-65.76683,18.28001],[-65.78486,18.294],[-65.79322,18.29653],[-65.79554,18.28951],[-65.81142,18.29014],[-65.82422,18.27306],[-65.83639,18.27525],[-65.86811,18.29399],[-65.86276,18.32149],[-65.87671,18.36151],[-65.86745,18.3782],[-65.85969,18.38207],[-65.85254,18.4017],[-65.82845,18.42355],[-65.81669,18.41067],[-65.81291,18.41071],[-65.81261,18.41041],[-65.81191,18.41072],[-65.80579,18.4108],[-65.79206,18.42233],[-65.78805,18.41734],[-65.79232,18.41276],[-65.79631,18.40503],[-65.78878,18.40674],[-65.77837,18.41067],[-65.77469,18.41293],[-65.77085,18.41294],[-65.77059,18.41259],[-65.77169,18.40628]]]}},{"type":"Feature","properties":{"id":"PRI:ADM2:52423323B69111161141403","name":"Santa Isabel","countryCode":"PRI","adminLevel":2,"sourceCode":"52423323B69111161141403","parentId":"PRI:ADM1:PRI-5260"},"geometry":{"type":"Polygon","coordinates":[[[-66.45037,17.98323],[-66.42105,18.01931],[-66.42699,18.04263],[-66.37222,18.03262],[-66.35678,18.03694],[-66.33124,18.01589],[-66.34261,17.99356],[-66.33815,17.97649],[-66.36251,17.96823],[-66.36315,17.96705],[-66.36767,17.96601],[-66.39484,17.94811],[-66.45037,17.98323]]]}},{"type":"Feature","properties":{"id":"PRI:ADM2:52423323B72611764841085","name":"Morovis","countryCode":"PRI","adminLevel":2,"sourceCode":"52423323B72611764841085","parentId":"PRI:ADM1:PRI-5260"},"geometry":{"type":"Polygon","coordinates":[[[-66.46321,18.37148],[-66.46514,18.35224],[-66.45429,18.33266],[-66.45335,18.30989],[-66.46488,18.28324],[-66.4557,18.25773],[-66.40943,18.26331],[-66.39096,18.27339],[-66.38403,18.2908],[-66.37771,18.29398],[-66.37302,18.30277],[-66.36527,18.33323],[-66.37706,18.34425],[-66.38592,18.34474],[-66.39558,18.37189],[-66.401,18.36371],[-66.42186,18.37781],[-66.4438,18.37103],[-66.46321,18.37148]]]}},{"type":"Feature","properties":{"id":"PRI:ADM2:52423323B72724897935672","name":"Aguas Buenas","countryCode":"PRI","adminLevel":2,"sourceCode":"52423323B72724897935672","parentId":"PRI:ADM1:PRI-5260"},"geometry":{"type":"Polygon","coordinates":[[[-66.11777,18.20995],[-66.09019,18.2276],[-66.07731,18.25651],[-66.0661,18.30332],[-66.08047,18.2973],[-66.08646,18.2851],[-66.10779,18.27788],[-66.1616,18.28254],[-66.19067,18.25884],[-66.17825,18.24631],[-66.16912,18.22429],[-66.14394,18.22811],[-66.14106,18.19791],[-66.11777,18.20995]]]}},{"type":"Feature","properties":{"id":"PRI:ADM2:52423323B74070322698639","name":"Quebradillas","countryCode":"PRI","adminLevel":2,"sourceCode":"52423323B74070322698639","parentId":"PRI:ADM1:PRI-5260"},"geometry":{"type":"Polygon","coordinates":[[[-66.90143,18.48456],[-66.8989,18.36611],[-66.90367,18.36587],[-66.9195,18.37858],[-66.92202,18.39321],[-66.94733,18.4016],[-66.93859,18.41912],[-66.94794,18.43787],[-66.96678,18.44992],[-66.95752,18.48917],[-66.94463,18.4917],[-66.91425,18.48667],[-66.90732,18.48532],[-66.90661,18.48541],[-66.90143,18.48456]]]}},{"type":"Feature","properties":{"id":"PRI:ADM2:52423323B77773616076355","name":"Las Piedras","countryCode":"PRI","adminLevel":2,"sourceCode":"52423323B77773616076355","parentId":"PRI:ADM1:PRI-5260"},"geometry":{"type":"Polygon","coordinates":[[[-65.92623,18.11997],[-65.90745,18.12615],[-65.87761,18.11817],[-65.86307,18.14017],[-65.85412,18.17728],[-65.83645,18.17525],[-65.82606,18.20041],[-65.82879,18.23025],[-65.81566,18.26253],[-65.82422,18.27306],[-65.83639,18.27525],[-65.84629,18.25809],[-65.85261,18.25497],[-65.85193,18.24801],[-65.87476,18.21592],[-65.8961,18.20227],[-65.92834,18.14285],[-65.92066,18.13783],[-65.92623,18.11997]]]}},{"type":"Feature","properties":{"id":"PRI:ADM2:52423323B8068619404186","name":"Naranjito","countryCode":"PRI","adminLevel":2,"sourceCode":"52423323B8068619404186","parentId":"PRI:ADM1:PRI-5260"},"geometry":{"type":"Polygon","coordinates":[[[-66.20613,18.27666],[-66.21354,18.30629],[-66.20473,18.31604],[-66.21718,18.3342],[-66.23301,18.32455],[-66.25851,18.33191],[-66.27807,18.32998],[-66.29608,18.25755],[-66.3133,18.24933],[-66.30707,18.24148],[-66.29384,18.24641],[-66.26646,18.24527],[-66.22788,18.25421],[-66.2182,18.27471],[-66.20613,18.27666]]]}},{"type":"Feature","properties":{"id":"PRI:ADM2:52423323B81395860012193","name":"Vieques","countryCode":"PRI","adminLevel":2,"sourceCode":"52423323B81395860012193","parentId":"PRI:ADM1:PRI-5260"},"geometry":{"type":"Polygon","coordinates":[[[-65.57558,18.11567],[-65.5462,18.11933],[-65.51171,18.13284],[-65.48983,18.13591],[-65.43706,18.15766],[-65.39952,18.16194],[-65.33429,18.14776],[-65.30872,18.14517],[-65.30229,18.14109],[-65.28796,18.1481],[-65.27708,18.13648],[-65.28307,18.13349],[-65.3098,18.1352],[-65.31656,18.1328],[-65.33556,18.12027],[-65.34081,18.11469],[-65.34773,18.11469],[-65.35271,18.11928],[-65.35079,18.12335],[-65.36588,18.1247],[-65.37367,18.12142],[-65.37383,18.11849],[-65.39025,18.11197],[-65.46858,18.09443],[-65.47092,18.09337],[-65.47979,18.09635],[-65.50152,18.09263],[-65.50487,18.09365],[-65.536,18.09007],[-65.56509,18.09394],[-65.57579,18.1136],[-65.57558,18.11567]]]}},{"type":"Feature","properties":{"id":"PRI:ADM2:52423323B8139894881456","name":"Yabucoa","countryCode":"PRI","adminLevel":2,"sourceCode":"52423323B8139894881456","parentId":"PRI:ADM1:PRI-5260"},"geometry":{"type":"Polygon","coordinates":[[[-65.85091,18.01196],[-65.86469,18.02574],[-65.87925,18.02051],[-65.90739,18.0359],[-65.93387,18.03682],[-65.97779,18.0611],[-65.98852,18.05894],[-66.01052,18.0677],[-66.01024,18.07557],[-65.97598,18.09431],[-65.96205,18.0865],[-65.93317,18.09339],[-65.92623,18.11997],[-65.90745,18.12615],[-65.87761,18.11817],[-65.87021,18.10843],[-65.84812,18.11749],[-65.84805,18.09917],[-65.82924,18.08472],[-65.80456,18.07334],[-65.807,18.0703],[-65.81216,18.06729],[-65.83528,18.06249],[-65.84048,18.05634],[-65.83422,18.03829],[-65.83315,18.02436],[-65.84638,18.01268],[-65.85091,18.01196]]]}},{"type":"Feature","properties":{"id":"PRI:ADM2:52423323B84341860753916","name":"Camuy","countryCode":"PRI","adminLevel":2,"sourceCode":"52423323B84341860753916","parentId":"PRI:ADM1:PRI-5260"},"geometry":{"type":"Polygon","coordinates":[[[-66.83663,18.4877],[-66.82897,18.47271],[-66.82364,18.41247],[-66.81067,18.38663],[-66.82422,18.343],[-66.85474,18.35534],[-66.87696,18.35683],[-66.88995,18.36799],[-66.8989,18.36611],[-66.90143,18.48456],[-66.87566,18.48927],[-66.86524,18.49057],[-66.83663,18.4877]]]}},{"type":"Feature","properties":{"id":"PRI:ADM2:52423323B86132788198176","name":"Comerío","countryCode":"PRI","adminLevel":2,"sourceCode":"52423323B86132788198176","parentId":"PRI:ADM1:PRI-5260"},"geometry":{"type":"Polygon","coordinates":[[[-66.16912,18.22429],[-66.17825,18.24631],[-66.19067,18.25884],[-66.20167,18.27642],[-66.2182,18.27471],[-66.22788,18.25421],[-66.26646,18.24527],[-66.26533,18.23355],[-66.27026,18.21938],[-66.26355,18.18496],[-66.24046,18.1848],[-66.21185,18.17309],[-66.2071,18.19694],[-66.18248,18.2023],[-66.16912,18.22429]]]}},{"type":"Feature","properties":{"id":"PRI:ADM2:52423323B88446663762190","name":"Las Marías","countryCode":"PRI","adminLevel":2,"sourceCode":"52423323B88446663762190","parentId":"PRI:ADM1:PRI-5260"},"geometry":{"type":"Polygon","coordinates":[[[-67.03793,18.28971],[-67.04023,18.27199],[-67.06183,18.27008],[-67.082,18.25495],[-67.05622,18.24544],[-67.05035,18.22748],[-67.03296,18.21809],[-67.01983,18.19547],[-67.0038,18.1935],[-66.97838,18.20792],[-66.89796,18.18775],[-66.91286,18.23301],[-66.90723,18.25309],[-66.92423,18.26049],[-66.9299,18.25876],[-66.92882,18.25427],[-66.93247,18.25375],[-66.93348,18.25867],[-66.93839,18.25879],[-66.94639,18.26877],[-67.00592,18.27916],[-67.03819,18.28047],[-67.03793,18.28971]]]}},{"type":"Feature","properties":{"id":"PRI:ADM2:52423323B91072384884845","name":"Manatí","countryCode":"PRI","adminLevel":2,"sourceCode":"52423323B91072384884845","parentId":"PRI:ADM1:PRI-5260"},"geometry":{"type":"Polygon","coordinates":[[[-66.43941,18.41037],[-66.44899,18.38722],[-66.4438,18.37103],[-66.46321,18.37148],[-66.51177,18.36201],[-66.52928,18.35026],[-66.53362,18.35134],[-66.53053,18.38502],[-66.54308,18.40542],[-66.54378,18.41815],[-66.52116,18.43116],[-66.53752,18.43593],[-66.52733,18.45601],[-66.53323,18.48174],[-66.47029,18.46907],[-66.45648,18.46892],[-66.44918,18.47099],[-66.44287,18.47995],[-66.43885,18.48072],[-66.43941,18.41037]]]}},{"type":"Feature","properties":{"id":"PRI:ADM2:52423323B91102328415682","name":"Maricao","countryCode":"PRI","adminLevel":2,"sourceCode":"52423323B91102328415682","parentId":"PRI:ADM1:PRI-5260"},"geometry":{"type":"Polygon","coordinates":[[[-67.01983,18.19547],[-67.01739,18.1899],[-67.03452,18.18552],[-67.05146,18.17406],[-67.01384,18.16588],[-66.97186,18.14154],[-66.92652,18.15127],[-66.9038,18.14637],[-66.8881,18.1534],[-66.85678,18.13859],[-66.85012,18.16289],[-66.83676,18.17056],[-66.86283,18.17481],[-66.86399,18.18675],[-66.89796,18.18775],[-66.97838,18.20792],[-67.0038,18.1935],[-67.01983,18.19547]]]}},{"type":"Feature","properties":{"id":"PRI:ADM2:52423323B92182718553781","name":"Añasco","countryCode":"PRI","adminLevel":2,"sourceCode":"52423323B92182718553781","parentId":"PRI:ADM1:PRI-5260"},"geometry":{"type":"Polygon","coordinates":[[[-67.22071,18.3057],[-67.14577,18.32267],[-67.13017,18.31793],[-67.1214,18.32396],[-67.06347,18.31157],[-67.04071,18.3003],[-67.03793,18.28971],[-67.04023,18.27199],[-67.06183,18.27008],[-67.082,18.25495],[-67.13582,18.24593],[-67.1415,18.26996],[-67.16122,18.27301],[-67.18532,18.26746],[-67.18708,18.27277],[-67.18943,18.2774],[-67.18997,18.28102],[-67.19605,18.29045],[-67.19606,18.29045],[-67.19651,18.29134],[-67.21883,18.29557],[-67.22518,18.29708],[-67.22071,18.3057]]]}},{"type":"Feature","properties":{"id":"PRI:ADM2:52423323B92327379026195","name":"Naguabo","countryCode":"PRI","adminLevel":2,"sourceCode":"52423323B92327379026195","parentId":"PRI:ADM1:PRI-5260"},"geometry":{"type":"Polygon","coordinates":[[[-65.76604,18.1821],[-65.7605,18.19558],[-65.79248,18.20676],[-65.82606,18.20041],[-65.82879,18.23025],[-65.81566,18.26253],[-65.82422,18.27306],[-65.81142,18.29014],[-65.79554,18.28951],[-65.79322,18.29653],[-65.78486,18.294],[-65.76683,18.28001],[-65.7624,18.27133],[-65.72192,18.25221],[-65.7024,18.25948],[-65.683,18.25272],[-65.69303,18.23902],[-65.671,18.22305],[-65.6578,18.2225],[-65.66243,18.20691],[-65.66552,18.20844],[-65.68297,18.20283],[-65.70128,18.19424],[-65.72102,18.18985],[-65.73754,18.18268],[-65.74521,18.17541],[-65.76604,18.1821]]]}},{"type":"Feature","properties":{"id":"PRI:ADM2:52423323B9429339455263","name":"Rincón","countryCode":"PRI","adminLevel":2,"sourceCode":"52423323B9429339455263","parentId":"PRI:ADM1:PRI-5260"},"geometry":{"type":"Polygon","coordinates":[[[-67.26067,18.3702],[-67.23909,18.37532],[-67.22733,18.34877],[-67.19551,18.33031],[-67.18285,18.31303],[-67.22071,18.3057],[-67.22518,18.29708],[-67.2302,18.29827],[-67.23514,18.29994],[-67.27005,18.36009],[-67.27084,18.36183],[-67.27052,18.36294],[-67.26067,18.3702]]]}},{"type":"Feature","properties":{"id":"PRI:ADM2:52423323B97779835384319","name":"Arroyo","countryCode":"PRI","adminLevel":2,"sourceCode":"52423323B97779835384319","parentId":"PRI:ADM1:PRI-5260"},"geometry":{"type":"Polygon","coordinates":[[[-66.06998,17.96636],[-66.07161,17.99373],[-66.09521,18.02219],[-66.08226,18.03296],[-66.05726,18.04044],[-66.04368,18.02945],[-66.04693,18.0091],[-66.01954,17.97836],[-66.02817,17.97086],[-66.04654,17.96385],[-66.05358,17.96312],[-66.06389,17.96337],[-66.06998,17.96636]]]}},{"type":"Feature","properties":{"id":"PRI:ADM2:52423323B98554944088847","name":"Toa Alta","countryCode":"PRI","adminLevel":2,"sourceCode":"52423323B98554944088847","parentId":"PRI:ADM1:PRI-5260"},"geometry":{"type":"Polygon","coordinates":[[[-66.27807,18.32998],[-66.25851,18.33191],[-66.23301,18.32455],[-66.21718,18.3342],[-66.20473,18.31604],[-66.20153,18.32899],[-66.20361,18.33668],[-66.19955,18.33989],[-66.19729,18.3602],[-66.19698,18.38929],[-66.23392,18.40128],[-66.27079,18.38377],[-66.30366,18.38408],[-66.31416,18.3808],[-66.31876,18.36741],[-66.30572,18.36999],[-66.27807,18.32998]]]}},{"type":"Feature","properties":{"id":"PRI:ADM2:52423323B98587415300192","name":"Ceiba","countryCode":"PRI","adminLevel":2,"sourceCode":"52423323B98587415300192","parentId":"PRI:ADM1:PRI-5260"},"geometry":{"type":"Polygon","coordinates":[[[-65.6578,18.2225],[-65.671,18.22305],[-65.69303,18.23902],[-65.683,18.25272],[-65.7024,18.25948],[-65.72192,18.25221],[-65.7624,18.27133],[-65.76683,18.28001],[-65.75886,18.29061],[-65.75359,18.29676],[-65.73774,18.27388],[-65.71751,18.26775],[-65.69989,18.27308],[-65.69501,18.28568],[-65.68217,18.27507],[-65.66613,18.28805],[-65.63437,18.28359],[-65.6309,18.28512],[-65.62881,18.2792],[-65.63292,18.26691],[-65.6258,18.25983],[-65.61759,18.25634],[-65.60642,18.26158],[-65.6046,18.25997],[-65.60659,18.25361],[-65.60377,18.24634],[-65.59176,18.23089],[-65.60211,18.22375],[-65.60353,18.21527],[-65.61175,18.21456],[-65.61713,18.22741],[-65.62121,18.22774],[-65.62222,18.22926],[-65.63336,18.22918],[-65.63351,18.22874],[-65.63818,18.22912],[-65.63557,18.22273],[-65.63699,18.21857],[-65.6304,18.21003],[-65.62841,18.20515],[-65.63528,18.19998],[-65.66164,18.20652],[-65.66243,18.20691],[-65.6578,18.2225]]]}}],"admin1":{"type":"FeatureCollection","features":[{"type":"Feature","properties":{"id":"PRI:ADM1:PRI-5260","name":"Puerto Rico","countryCode":"PRI"},"geometry":{"type":"MultiPolygon","coordinates":[[[[-66.98608,17.96734],[-66.99686,17.96817],[-67.00063,17.96463],[-67.00596,17.96491],[-67.01117,17.96575],[-67.01474,17.96847],[-67.02452,17.97072],[-67.06248,17.97382],[-67.06607,17.97227],[-67.06701,17.97256],[-67.06882,17.97109],[-67.07653,17.96776],[-67.08248,17.96045],[-67.09732,17.95287],[-67.10879,17.95032],[-67.11197,17.94961],[-67.12401,17.95116],[-67.14021,17.95276],[-67.16703,17.96308],[-67.17439,17.96291],[-67.18047,17.96612],[-67.19122,17.95799],[-67.18419,17.93507],[-67.19507,17.93568],[-67.20961,17.95689],[-67.21273,17.96261],[-67.2146,17.97792],[-67.21449,17.98497],[-67.2083,17.99685],[-67.19135,18.00445],[-67.1743,18.01115],[-67.17422,18.01118],[-67.16649,18.01504],[-67.1632,18.02253],[-67.16723,18.0279],[-67.17687,18.0327],[-67.18946,18.03043],[-67.19327,18.03185],[-67.1942,18.03205],[-67.20288,18.03572],[-67.20216,18.05362],[-67.20143,18.05534],[-67.1954,18.06377],[-67.18569,18.07043],[-67.18974,18.08061],[-67.19352,18.09586],[-67.18392,18.10369],[-67.18218,18.10851],[-67.17655,18.15105],[-67.17848,18.159],[-67.17683,18.1649],[-67.17394,18.17529],[-67.16339,18.18638],[-67.15754,18.19173],[-67.15674,18.19337],[-67.15518,18.195],[-67.154,18.199],[-67.15186,18.20339],[-67.15401,18.20683],[-67.158,18.21672],[-67.173,18.23067],[-67.17543,18.24801],[-67.18235,18.25851],[-67.18532,18.26746],[-67.18708,18.27277],[-67.18943,18.2774],[-67.18997,18.28102],[-67.19605,18.29045],[-67.19606,18.29045],[-67.19651,18.29134],[-67.21883,18.29557],[-67.22518,18.29708],[-67.2302,18.29827],[-67.23514,18.29994],[-67.27005,18.36009],[-67.27084,18.36183],[-67.27052,18.36294],[-67.26067,18.3702],[-67.23909,18.37532],[-67.217,18.38208],[-67.16014,18.41559],[-67.15524,18.4244],[-67.15662,18.43956],[-67.15813,18.44284],[-67.15812,18.44311],[-67.15871,18.44409],[-67.16899,18.46632],[-67.16901,18.46664],[-67.16901,18.47849],[-67.16414,18.4874],[-67.14283,18.50549],[-67.12565,18.51171],[-67.10347,18.51453],[-67.02415,18.51079],[-67.01236,18.50576],[-67.00504,18.50434],[-66.98896,18.49773],[-66.95752,18.48917],[-66.94463,18.4917],[-66.91425,18.48667],[-66.90732,18.48532],[-66.90661,18.48541],[-66.90143,18.48456],[-66.87566,18.48927],[-66.86524,18.49057],[-66.83663,18.4877],[-66.79932,18.49278],[-66.78031,18.49141],[-66.76489,18.4841],[-66.74207,18.47468],[-66.71074,18.47261],[-66.67987,18.48495],[-66.62462,18.4942],[-66.5992,18.48799],[-66.5878,18.48404],[-66.58651,18.48427],[-66.58207,18.48508],[-66.56524,18.48553],[-66.56474,18.48694],[-66.5507,18.48681],[-66.53323,18.48174],[-66.47029,18.46907],[-66.45648,18.46892],[-66.44918,18.47099],[-66.44287,18.47995],[-66.43885,18.48072],[-66.39522,18.489],[-66.36851,18.48744],[-66.34951,18.48197],[-66.31529,18.47211],[-66.30386,18.46882],[-66.28989,18.4727],[-66.28367,18.47221],[-66.2764,18.47644],[-66.26688,18.47908],[-66.2418,18.46874],[-66.21131,18.46726],[-66.20519,18.4654],[-66.20318,18.46687],[-66.19893,18.46666],[-66.18672,18.46973],[-66.18207,18.46347],[-66.17039,18.45784],[-66.17007,18.45734],[-66.16158,18.4533],[-66.16131,18.45345],[-66.16121,18.45341],[-66.15304,18.45446],[-66.14222,18.46428],[-66.14069,18.46774],[-66.13415,18.46589],[-66.13464,18.46392],[-66.13747,18.45276],[-66.11808,18.44303],[-66.11677,18.43901],[-66.11486,18.43317],[-66.10847,18.42064],[-66.10128,18.42026],[-66.09317,18.41983],[-66.06021,18.42939],[-66.06021,18.43683],[-66.07677,18.43887],[-66.09496,18.4477],[-66.10936,18.46141],[-66.11902,18.4709],[-66.10599,18.46879],[-66.08066,18.46121],[-66.07399,18.4581],[-66.06823,18.45749],[-66.0559,18.4538],[-66.0397,18.45051],[-66.03712,18.44969],[-66.03214,18.44812],[-66.02322,18.44388],[-66.0132,18.44416],[-66.0121,18.44396],[-66.01153,18.44421],[-66.00652,18.44435],[-65.99718,18.4499],[-65.99451,18.45487],[-65.99253,18.45775],[-65.96721,18.43239],[-65.99156,18.45917],[-65.99116,18.45976],[-65.92567,18.44488],[-65.90775,18.4469],[-65.90499,18.45093],[-65.87868,18.43832],[-65.83882,18.43187],[-65.82845,18.42355],[-65.81669,18.41067],[-65.81291,18.41071],[-65.81261,18.41041],[-65.81191,18.41072],[-65.80579,18.4108],[-65.79206,18.42233],[-65.78805,18.41734],[-65.79232,18.41276],[-65.79631,18.40503],[-65.78878,18.40674],[-65.77837,18.41067],[-65.77469,18.41293],[-65.77085,18.41294],[-65.77059,18.41259],[-65.77169,18.40628],[-65.75018,18.38505],[-65.74215,18.38046],[-65.73357,18.38221],[-65.72999,18.38601],[-65.7302,18.38767],[-65.72485,18.39127],[-65.71677,18.3852],[-65.71434,18.37635],[-65.69907,18.36816],[-65.68339,18.36849],[-65.66916,18.36348],[-65.6539,18.36694],[-65.64375,18.3795],[-65.62402,18.38717],[-65.62131,18.38747],[-65.621,18.38227],[-65.62577,18.35811],[-65.63329,18.34747],[-65.62955,18.33902],[-65.63077,18.33283],[-65.63296,18.291],[-65.6309,18.28512],[-65.62881,18.2792],[-65.63292,18.26691],[-65.6258,18.25983],[-65.61759,18.25634],[-65.60642,18.26158],[-65.6046,18.25997],[-65.60659,18.25361],[-65.60377,18.24634],[-65.59176,18.23089],[-65.60211,18.22375],[-65.60353,18.21527],[-65.61175,18.21456],[-65.61713,18.22741],[-65.62121,18.22774],[-65.62222,18.22926],[-65.63336,18.22918],[-65.63351,18.22874],[-65.63818,18.22912],[-65.63557,18.22273],[-65.63699,18.21857],[-65.6304,18.21003],[-65.62841,18.20515],[-65.63528,18.19998],[-65.66164,18.20652],[-65.66243,18.20691],[-65.66552,18.20844],[-65.68297,18.20283],[-65.70128,18.19424],[-65.72102,18.18985],[-65.73754,18.18268],[-65.74521,18.17541],[-65.75487,18.16625],[-65.79029,18.11397],[-65.79247,18.09383],[-65.79671,18.08375],[-65.79656,18.08336],[-65.80456,18.07334],[-65.807,18.0703],[-65.81216,18.06729],[-65.83528,18.06249],[-65.84048,18.05634],[-65.83422,18.03829],[-65.83315,18.02436],[-65.84638,18.01268],[-65.85091,18.01196],[-65.87033,18.0066],[-65.88414,17.98951],[-65.88564,17.98863],[-65.8961,17.99026],[-65.91384,17.98051],[-65.92474,17.97609],[-65.95667,17.97091],[-65.96166,17.97102],[-65.98453,17.97565],[-65.99226,17.97636],[-65.99518,17.97899],[-66.01954,17.97836],[-66.02817,17.97086],[-66.04654,17.96385],[-66.05358,17.96312],[-66.06389,17.96337],[-66.06998,17.96636],[-66.08141,17.96655],[-66.08929,17.96261],[-66.10464,17.95893],[-66.15987,17.93086],[-66.17497,17.93574],[-66.1934,17.93679],[-66.19707,17.93007],[-66.20538,17.92459],[-66.20857,17.92914],[-66.20983,17.93187],[-66.21044,17.93659],[-66.19957,17.9396],[-66.19701,17.9444],[-66.20116,17.95051],[-66.21044,17.9571],[-66.21138,17.95629],[-66.22989,17.94042],[-66.24136,17.93732],[-66.25552,17.94066],[-66.26055,17.94117],[-66.26433,17.94454],[-66.27565,17.94826],[-66.29078,17.94649],[-66.29768,17.95915],[-66.31695,17.97669],[-66.33815,17.97649],[-66.36251,17.96823],[-66.36315,17.96705],[-66.36767,17.96601],[-66.39484,17.94811],[-66.45037,17.98323],[-66.46134,17.99028],[-66.46528,17.99027],[-66.46915,17.99266],[-66.48087,17.99027],[-66.49139,17.99026],[-66.50179,17.98714],[-66.50197,17.98711],[-66.50214,17.98703],[-66.52796,17.97926],[-66.54074,17.97857],[-66.55988,17.97752],[-66.57042,17.97236],[-66.58064,17.96581],[-66.58603,17.96479],[-66.58966,17.96939],[-66.60363,17.96905],[-66.60827,17.97134],[-66.60846,17.97122],[-66.62379,17.98105],[-66.63194,17.98275],[-66.64565,17.98026],[-66.65252,17.97586],[-66.68509,17.97164],[-66.69911,17.97757],[-66.70985,17.98211],[-66.71696,17.99035],[-66.73112,17.99166],[-66.75625,17.98701],[-66.76019,17.99837],[-66.76449,18.00632],[-66.77031,18.00596],[-66.77664,18.00163],[-66.78746,17.99933],[-66.80012,17.99185],[-66.80012,17.98436],[-66.78645,17.98436],[-66.79796,17.96931],[-66.79853,17.96901],[-66.80827,17.96564],[-66.81481,17.96048],[-66.8177,17.95897],[-66.84057,17.9527],[-66.8445,17.95212],[-66.85229,17.95501],[-66.85947,17.95432],[-66.86322,17.99803],[-66.88465,18.02482],[-66.89521,18.02336],[-66.95875,18.03248],[-66.96193,17.99159],[-66.97888,17.95693],[-66.98448,17.9626],[-66.98608,17.96734]],[[-66.20167,18.27642],[-66.20613,18.27666],[-66.2182,18.27471],[-66.20167,18.27642]],[[-67.05258,18.30666],[-67.06347,18.31157],[-67.04071,18.3003],[-67.05258,18.30666]],[[-66.88995,18.36799],[-66.89538,18.36685],[-66.89334,18.36709],[-66.88995,18.36799]],[[-66.6366,18.15168],[-66.64947,18.15886],[-66.65134,18.15832],[-66.6366,18.15168]],[[-66.69407,18.13054],[-66.67695,18.12998],[-66.71359,18.13211],[-66.69407,18.13054]],[[-67.01384,18.16588],[-66.97785,18.1438],[-66.97186,18.14154],[-67.01384,18.16588]],[[-66.83676,18.17056],[-66.82733,18.17124],[-66.86283,18.17481],[-66.83676,18.17056]],[[-66.98267,18.0412],[-66.9806,18.07878],[-66.98334,18.05252],[-66.98267,18.0412]],[[-67.03865,18.28413],[-67.03865,18.28413],[-67.04023,18.27199],[-67.03865,18.28413]],[[-67.03296,18.21809],[-67.01739,18.1899],[-67.01983,18.19547],[-67.03296,18.21809]],[[-66.79876,18.23003],[-66.81727,18.23034],[-66.83269,18.2291],[-66.79876,18.23003]],[[-67.05405,18.45529],[-67.05846,18.47998],[-67.05651,18.46096],[-67.05405,18.45529]],[[-66.43457,18.17354],[-66.44456,18.17668],[-66.47054,18.17783],[-66.43457,18.17354]],[[-66.27079,18.38377],[-66.23392,18.40128],[-66.25255,18.39419],[-66.27079,18.38377]],[[-66.05255,18.11307],[-66.05314,18.10734],[-66.05179,18.10988],[-66.05255,18.11307]],[[-66.01024,18.07557],[-66.01305,18.0965],[-66.01052,18.0677],[-66.01024,18.07557]],[[-65.89993,18.41368],[-65.91928,18.403],[-65.93134,18.39368],[-65.89993,18.41368]]],[[[-67.93782,18.09422],[-67.9313,18.10871],[-67.91975,18.11449],[-67.89577,18.11516],[-67.8871,18.11258],[-67.87643,18.11416],[-67.87339,18.11579],[-67.86189,18.11612],[-67.85586,18.11469],[-67.84806,18.10782],[-67.84419,18.09751],[-67.84976,18.09064],[-67.85993,18.07315],[-67.86417,18.06875],[-67.86754,18.0642],[-67.86807,18.06113],[-67.87146,18.0578],[-67.89125,18.05339],[-67.89196,18.05345],[-67.89623,18.05634],[-67.9027,18.06542],[-67.93114,18.08051],[-67.93782,18.09422]]],[[[-65.33429,18.14776],[-65.30872,18.14517],[-65.30229,18.14109],[-65.28796,18.1481],[-65.27708,18.13648],[-65.28307,18.13349],[-65.3098,18.1352],[-65.31656,18.1328],[-65.33556,18.12027],[-65.34081,18.11469],[-65.34773,18.11469],[-65.35271,18.11928],[-65.35079,18.12335],[-65.36588,18.1247],[-65.37367,18.12142],[-65.37383,18.11849],[-65.39025,18.11197],[-65.46858,18.09443],[-65.47092,18.09337],[-65.47979,18.09635],[-65.50152,18.09263],[-65.50487,18.09365],[-65.536,18.09007],[-65.56509,18.09394],[-65.57579,18.1136],[-65.57558,18.11567],[-65.5462,18.11933],[-65.51171,18.13284],[-65.48983,18.13591],[-65.43706,18.15766],[-65.39952,18.16194],[-65.33429,18.14776]]]]}}]}}
