{"type":"FeatureCollection","features":[{"type":"Feature","properties":{"id":"PSE:ADM0:62339095B98297478170311","name":"State of Palestine","countryCode":"PSE","adminLevel":0,"sourceCode":"62339095B98297478170311"},"geometry":{"type":"MultiPolygon","coordinates":[[[[34.4919,31.59585],[34.52694,31.57028],[34.56668,31.54146],[34.56455,31.53191],[34.54675,31.51303],[34.51271,31.50069],[34.47791,31.47621],[34.44702,31.44507],[34.43706,31.44027],[34.4236,31.42337],[34.4042,31.41164],[34.38027,31.38957],[34.37183,31.37022],[34.36717,31.36958],[34.36506,31.36441],[34.37329,31.30617],[34.36655,31.29053],[34.3422,31.27825],[34.32581,31.25797],[34.29191,31.2412],[34.2675,31.22013],[34.24007,31.29578],[34.23552,31.29662],[34.21898,31.32328],[34.27267,31.36998],[34.28142,31.3767],[34.28277,31.37876],[34.34906,31.43642],[34.40902,31.49809],[34.42286,31.51646],[34.43211,31.52463],[34.4336,31.5248],[34.44012,31.5317],[34.44337,31.53457],[34.44663,31.53859],[34.45649,31.54904],[34.4763,31.57522],[34.47877,31.57827],[34.47909,31.57891],[34.4919,31.59585]],[[34.52306,31.56739],[34.52184,31.56878],[34.52114,31.56771],[34.52306,31.56739]],[[34.51336,31.55356],[34.5155,31.55035],[34.51818,31.55253],[34.51588,31.55482],[34.51336,31.55356]],[[34.51098,31.50582],[34.51534,31.50325],[34.51242,31.50501],[34.51098,31.50582]],[[34.28905,31.36869],[34.29102,31.3699],[34.28972,31.37021],[34.28905,31.36869]],[[34.23278,31.30792],[34.231,31.30998],[34.23184,31.30729],[34.23278,31.30792]]],[[[35.23165,32.54266],[35.25251,32.52306],[35.28903,32.51061],[35.30633,32.50991],[35.3425,32.5191],[35.3563,32.51876],[35.37125,32.5148],[35.3845,32.505],[35.40287,32.50123],[35.40512,32.48365],[35.4203,32.45889],[35.41608,32.45608],[35.411,32.43677],[35.41941,32.41679],[35.44073,32.40594],[35.44483,32.41086],[35.453,32.41299],[35.47955,32.41049],[35.49636,32.40105],[35.52762,32.39368],[35.54116,32.38716],[35.5543,32.38908],[35.56256,32.3847],[35.56026,32.37958],[35.56383,32.36945],[35.55953,32.36031],[35.55803,32.36538],[35.55282,32.36672],[35.55357,32.35945],[35.55676,32.35696],[35.55487,32.35453],[35.5595,32.3483],[35.55375,32.34357],[35.55726,32.33156],[35.55299,32.32181],[35.56016,32.31797],[35.56369,32.30972],[35.55455,32.29875],[35.56214,32.29525],[35.56687,32.28601],[35.56597,32.27589],[35.55795,32.27247],[35.56008,32.26444],[35.56481,32.26186],[35.56251,32.2513],[35.56739,32.25004],[35.57148,32.24374],[35.56656,32.24053],[35.56785,32.2381],[35.56336,32.24179],[35.56359,32.23728],[35.558,32.23764],[35.56401,32.22844],[35.5697,32.23044],[35.56827,32.22131],[35.573,32.21928],[35.5648,32.21747],[35.56786,32.21426],[35.57098,32.21531],[35.57349,32.20912],[35.56686,32.20684],[35.56417,32.20901],[35.566,32.20408],[35.56246,32.19813],[35.56919,32.19969],[35.57257,32.19267],[35.55821,32.18427],[35.56168,32.1778],[35.5599,32.17507],[35.55322,32.17498],[35.55801,32.17409],[35.55894,32.17036],[35.55126,32.17206],[35.55465,32.16996],[35.55307,32.16486],[35.55625,32.1672],[35.55797,32.16484],[35.54867,32.16171],[35.55637,32.15884],[35.55623,32.15573],[35.5521,32.15579],[35.55357,32.15247],[35.55556,32.15483],[35.56071,32.15136],[35.55885,32.14454],[35.54423,32.14247],[35.5467,32.14108],[35.54308,32.14059],[35.5439,32.13676],[35.54981,32.13562],[35.5468,32.13283],[35.54349,32.13469],[35.5427,32.13052],[35.54536,32.12857],[35.55076,32.13214],[35.55016,32.12915],[35.54708,32.12838],[35.55057,32.12649],[35.54586,32.12513],[35.54766,32.12212],[35.54302,32.11032],[35.532,32.10795],[35.5351,32.10246],[35.53182,32.10062],[35.53987,32.09666],[35.54066,32.09167],[35.53755,32.08955],[35.54557,32.088],[35.54283,32.0818],[35.54631,32.08109],[35.54364,32.08],[35.53935,32.08262],[35.54118,32.07961],[35.5368,32.07851],[35.5387,32.07501],[35.53506,32.07681],[35.53517,32.06915],[35.52987,32.07129],[35.53254,32.06763],[35.52982,32.06651],[35.53281,32.06529],[35.53011,32.06371],[35.53458,32.0638],[35.52934,32.06187],[35.53212,32.06027],[35.52878,32.05851],[35.52981,32.05032],[35.52553,32.05077],[35.52399,32.04768],[35.52049,32.05105],[35.51928,32.04627],[35.52246,32.04169],[35.51886,32.03575],[35.52271,32.03506],[35.51984,32.03146],[35.52405,32.0299],[35.52057,32.02192],[35.52897,32.01981],[35.52297,32.01461],[35.52937,32.01147],[35.52376,32.00489],[35.52888,32.00342],[35.52728,31.99928],[35.53217,31.99888],[35.53289,32.0018],[35.5349,31.99823],[35.53724,32.00099],[35.53577,31.99758],[35.54167,31.99832],[35.53577,31.99276],[35.53451,31.98573],[35.53732,31.98093],[35.54072,31.98236],[35.54132,31.97536],[35.54742,31.97089],[35.54168,31.96537],[35.54523,31.96235],[35.54022,31.95842],[35.54414,31.95435],[35.53906,31.95305],[35.54387,31.94953],[35.54121,31.94551],[35.5441,31.94437],[35.54105,31.94316],[35.54503,31.94164],[35.541,31.93807],[35.54525,31.93727],[35.54428,31.93194],[35.54027,31.93364],[35.54243,31.92932],[35.53607,31.93018],[35.53911,31.92381],[35.52724,31.9228],[35.52428,31.90797],[35.52794,31.89921],[35.53246,31.89645],[35.53039,31.89274],[35.5341,31.89377],[35.53006,31.89062],[35.53548,31.88555],[35.53244,31.88269],[35.53892,31.87972],[35.53903,31.87424],[35.54969,31.87271],[35.5452,31.87103],[35.54868,31.8655],[35.54471,31.86638],[35.54684,31.86383],[35.54379,31.86464],[35.54287,31.85934],[35.53987,31.86094],[35.53995,31.85747],[35.53645,31.85637],[35.54214,31.85445],[35.53897,31.85201],[35.5432,31.85049],[35.54107,31.84831],[35.54641,31.84801],[35.54337,31.84554],[35.54897,31.84401],[35.54466,31.84267],[35.54752,31.84038],[35.5465,31.83608],[35.54937,31.83615],[35.5447,31.83021],[35.54764,31.82926],[35.5487,31.82368],[35.54313,31.82264],[35.54005,31.81895],[35.54319,31.81708],[35.53895,31.81622],[35.54441,31.81356],[35.54288,31.80491],[35.55152,31.79652],[35.54735,31.78314],[35.5557,31.77217],[35.55286,31.76734],[35.55803,31.76557],[35.55833,31.75792],[35.52181,31.75977],[35.50686,31.76437],[35.48267,31.7174],[35.47306,31.70754],[35.45205,31.69608],[35.45355,31.69341],[35.44864,31.68378],[35.44944,31.67911],[35.45297,31.67768],[35.4492,31.67584],[35.45052,31.6662],[35.44541,31.66051],[35.44633,31.65408],[35.44265,31.65421],[35.43745,31.6404],[35.43129,31.63733],[35.43498,31.62494],[35.42783,31.61856],[35.42384,31.61866],[35.41774,31.61101],[35.42141,31.60443],[35.4137,31.60078],[35.41154,31.58476],[35.41958,31.56704],[35.41217,31.55335],[35.40956,31.55468],[35.40879,31.54976],[35.40373,31.54912],[35.40705,31.5423],[35.40244,31.54101],[35.40236,31.53637],[35.40616,31.53044],[35.4014,31.52918],[35.40157,31.51883],[35.39744,31.51481],[35.40076,31.50618],[35.39912,31.49307],[35.29362,31.42188],[35.23074,31.37446],[35.15923,31.36328],[35.13354,31.35485],[35.00847,31.35775],[34.97081,31.34992],[34.94742,31.3496],[34.92644,31.34169],[34.91075,31.35025],[34.91002,31.35554],[34.89096,31.37049],[34.88108,31.39604],[34.89938,31.43641],[34.92503,31.46439],[34.94227,31.49958],[34.94415,31.50981],[34.94037,31.52328],[34.94127,31.55024],[34.95239,31.59466],[35.00528,31.65194],[35.02928,31.65987],[35.06898,31.68401],[35.08528,31.69061],[35.08572,31.69596],[35.1064,31.71478],[35.12052,31.71557],[35.12591,31.72812],[35.13284,31.73375],[35.13594,31.7342],[35.13657,31.72958],[35.13968,31.72884],[35.15087,31.73667],[35.15403,31.73361],[35.16501,31.73235],[35.17976,31.72055],[35.20576,31.72361],[35.21903,31.71558],[35.22452,31.719],[35.22853,31.71756],[35.23125,31.71295],[35.23908,31.70962],[35.24979,31.7255],[35.25154,31.73884],[35.26337,31.74857],[35.25292,31.76293],[35.25175,31.77018],[35.25759,31.78536],[35.263,31.78997],[35.25991,31.7923],[35.25538,31.81285],[35.26505,31.82555],[35.2511,31.83039],[35.25706,31.83829],[35.25104,31.8439],[35.23007,31.84265],[35.22483,31.85348],[35.22794,31.8637],[35.22021,31.88267],[35.20684,31.88153],[35.20417,31.87258],[35.20648,31.86535],[35.21146,31.86299],[35.21453,31.85076],[35.21587,31.8207],[35.20983,31.81714],[35.20671,31.82338],[35.18414,31.82594],[35.18181,31.82081],[35.18763,31.80937],[35.15991,31.80913],[35.1368,31.81509],[35.12026,31.82532],[35.10718,31.82385],[35.10299,31.83295],[35.09613,31.83507],[35.08586,31.85042],[35.06894,31.85654],[35.05853,31.85615],[35.04693,31.85023],[35.03058,31.83388],[35.0222,31.82982],[34.97777,31.83261],[34.97806,31.83733],[34.99219,31.84681],[34.99561,31.85289],[35.03309,31.85799],[35.03823,31.87727],[35.03886,31.90684],[35.03106,31.92347],[35.0137,31.92715],[35.00317,31.93484],[35.00283,31.93918],[35.00879,31.94365],[34.99463,31.95557],[34.98755,31.96782],[34.98684,31.9706],[34.99407,31.97278],[34.99915,31.99355],[34.99955,32.01749],[35.00519,32.02185],[34.99946,32.05306],[34.98631,32.08978],[34.98251,32.08956],[34.98616,32.10031],[34.99319,32.10642],[34.98532,32.12629],[34.99043,32.14215],[34.98664,32.14844],[34.97451,32.15213],[34.97729,32.15874],[34.95959,32.17566],[34.95702,32.19015],[34.96435,32.19996],[34.97518,32.20052],[34.98909,32.20754],[35.01422,32.23555],[35.02019,32.23443],[35.01923,32.24246],[35.03063,32.26566],[35.02012,32.27927],[35.00899,32.28122],[35.01491,32.30274],[35.01621,32.33846],[35.02694,32.3401],[35.02856,32.34694],[35.04089,32.3465],[35.04116,32.35513],[35.05074,32.36405],[35.04904,32.3765],[35.0402,32.3806],[35.0539,32.4029],[35.05374,32.41653],[35.06579,32.44306],[35.06573,32.44943],[35.07241,32.45386],[35.07282,32.45913],[35.09267,32.47625],[35.10193,32.47821],[35.10902,32.47604],[35.12604,32.4839],[35.13994,32.49341],[35.139,32.49629],[35.16051,32.5041],[35.18064,32.52436],[35.18713,32.52369],[35.19707,32.53555],[35.21481,32.54443],[35.21833,32.54913],[35.22457,32.55215],[35.23165,32.54266]],[[35.51099,32.06601],[35.51345,32.06578],[35.51092,32.07169],[35.51017,32.06977],[35.51099,32.06601]],[[35.51966,32.06725],[35.51989,32.06487],[35.52127,32.06497],[35.52277,32.06898],[35.51966,32.06725]],[[35.50377,32.05955],[35.50519,32.05796],[35.50649,32.0589],[35.50472,32.06104],[35.50377,32.05955]],[[35.51694,32.05745],[35.51657,32.05506],[35.51877,32.05536],[35.51973,32.05809],[35.51694,32.05745]],[[35.49091,32.05941],[35.48911,32.06079],[35.48722,32.05662],[35.49064,32.05715],[35.49091,32.05941]],[[35.4598,31.91105],[35.4565,31.91145],[35.45664,31.9097],[35.4598,31.91105]],[[35.02772,31.84728],[35.02475,31.84933],[35.02503,31.84586],[35.02772,31.84728]],[[35.50052,31.79512],[35.50227,31.79627],[35.50013,31.79641],[35.50052,31.79512]],[[35.49239,31.78851],[35.49541,31.78897],[35.49286,31.79243],[35.49098,31.79019],[35.49239,31.78851]],[[35.47852,31.7693],[35.48108,31.77037],[35.47816,31.77434],[35.4773,31.77118],[35.47852,31.7693]],[[35.36415,31.69576],[35.36241,31.69664],[35.36295,31.69546],[35.36415,31.69576]]]]}}],"admin1":{"type":"FeatureCollection","features":[]}}
