{"type":"FeatureCollection","features":[{"type":"Feature","properties":{"id":"PYF:ADM0:99418368B5405450586203","name":"French Polynesia","countryCode":"PYF","adminLevel":0,"sourceCode":"99418368B5405450586203","parentId":"PYF:ADM1:PYF-4967"},"geometry":{"type":"MultiPolygon","coordinates":[[[[-144.30366,-27.62163],[-144.30154,-27.62073],[-144.30187,-27.62233],[-144.30366,-27.62163]]],[[[-144.34412,-27.57823],[-144.34129,-27.57687],[-144.34268,-27.57129],[-144.33953,-27.5673],[-144.33401,-27.56912],[-144.33309,-27.57518],[-144.3294,-27.56958],[-144.32903,-27.57809],[-144.32422,-27.58352],[-144.31765,-27.57593],[-144.31301,-27.58491],[-144.30882,-27.58676],[-144.31191,-27.5899],[-144.31045,-27.59803],[-144.31811,-27.60059],[-144.31233,-27.60461],[-144.31908,-27.60426],[-144.33377,-27.61058],[-144.34025,-27.60623],[-144.34174,-27.59982],[-144.34678,-27.59946],[-144.3473,-27.59998],[-144.34797,-27.58554],[-144.34495,-27.57625],[-144.34412,-27.57823]]],[[[-144.31802,-27.63621],[-144.31772,-27.64059],[-144.32364,-27.64121],[-144.33837,-27.63372],[-144.34659,-27.61533],[-144.34685,-27.6097],[-144.34147,-27.61703],[-144.32964,-27.61942],[-144.31476,-27.61349],[-144.31497,-27.61999],[-144.30505,-27.62174],[-144.32147,-27.62538],[-144.31989,-27.62865],[-144.31071,-27.63016],[-144.30817,-27.63586],[-144.3088,-27.63644],[-144.31802,-27.63621]]],[[[-147.69433,-23.8695],[-147.68042,-23.86785],[-147.68182,-23.85789],[-147.67096,-23.86084],[-147.65806,-23.85412],[-147.64834,-23.85278],[-147.65124,-23.85857],[-147.65587,-23.86387],[-147.66177,-23.8681],[-147.66894,-23.87176],[-147.69806,-23.87784],[-147.69971,-23.87798],[-147.70019,-23.87795],[-147.69433,-23.8695]]],[[[-149.52508,-23.38145],[-149.52672,-23.3681],[-149.52143,-23.36273],[-149.5089,-23.35955],[-149.48168,-23.35784],[-149.45649,-23.36533],[-149.45092,-23.38112],[-149.46128,-23.39343],[-149.48346,-23.39605],[-149.49358,-23.39898],[-149.5078,-23.40049],[-149.51001,-23.39937],[-149.52508,-23.38145]]],[[[-134.96638,-23.11036],[-134.96943,-23.1171],[-134.96841,-23.11892],[-134.98162,-23.13518],[-134.98186,-23.1352],[-134.99472,-23.13071],[-134.99992,-23.12263],[-135.00961,-23.11915],[-135.01066,-23.11708],[-134.99834,-23.11633],[-134.99692,-23.11844],[-134.97959,-23.11997],[-134.97549,-23.11525],[-134.97649,-23.11039],[-134.98113,-23.10294],[-134.97874,-23.10104],[-134.97788,-23.10308],[-134.9719,-23.10285],[-134.97052,-23.09451],[-134.96675,-23.09152],[-134.95783,-23.09682],[-134.95039,-23.08587],[-134.94298,-23.08359],[-134.95055,-23.09694],[-134.95261,-23.09948],[-134.96638,-23.11036]]],[[[-151.37254,-22.46506],[-151.3769,-22.45353],[-151.37684,-22.44321],[-151.37122,-22.43333],[-151.36927,-22.43228],[-151.3675,-22.43418],[-151.35924,-22.44752],[-151.35591,-22.45664],[-151.35698,-22.47355],[-151.37254,-22.46506]]],[[[-138.88989,-21.86748],[-138.87371,-21.87082],[-138.87368,-21.87127],[-138.88433,-21.87127],[-138.88989,-21.86748]]],[[[-138.90603,-21.86682],[-138.92746,-21.87125],[-138.92008,-21.86783],[-138.90891,-21.8659],[-138.90603,-21.86682]]],[[[-138.89448,-21.86722],[-138.90221,-21.86668],[-138.90044,-21.86507],[-138.90032,-21.86506],[-138.89547,-21.86553],[-138.89448,-21.86722]]],[[[-154.6959,-21.80547],[-154.69894,-21.80432],[-154.70091,-21.80231],[-154.70083,-21.79813],[-154.69917,-21.7977],[-154.69758,-21.79884],[-154.69583,-21.80169],[-154.69514,-21.80584],[-154.69555,-21.806],[-154.6959,-21.80547]]],[[[-140.63012,-21.7176],[-140.62834,-21.71655],[-140.62897,-21.71801],[-140.62739,-21.71988],[-140.62751,-21.71995],[-140.63012,-21.7176]]],[[[-140.63228,-21.7154],[-140.63058,-21.7147],[-140.63155,-21.71604],[-140.63228,-21.7154]]],[[[-140.63342,-21.71486],[-140.63538,-21.71359],[-140.63438,-21.71246],[-140.63304,-21.71384],[-140.63342,-21.71486]]],[[[-140.63743,-21.71261],[-140.64038,-21.7102],[-140.63822,-21.71021],[-140.63743,-21.71261]]],[[[-140.64224,-21.70769],[-140.64002,-21.70901],[-140.64207,-21.70909],[-140.64224,-21.70769]]],[[[-140.64365,-21.70845],[-140.64484,-21.70829],[-140.64343,-21.70698],[-140.64365,-21.70845]]],[[[-140.64537,-21.70589],[-140.64526,-21.70773],[-140.64575,-21.70689],[-140.64537,-21.70589]]],[[[-140.64836,-21.70566],[-140.64711,-21.70409],[-140.64692,-21.70642],[-140.64836,-21.70566]]],[[[-140.67106,-21.67499],[-140.6723,-21.67889],[-140.6748,-21.68131],[-140.67426,-21.6771],[-140.67106,-21.67499]]],[[[-140.65511,-21.70359],[-140.6631,-21.70611],[-140.66541,-21.70296],[-140.65511,-21.70359]]],[[[-140.66606,-21.67226],[-140.66913,-21.67211],[-140.66705,-21.66717],[-140.66139,-21.66406],[-140.66298,-21.6655],[-140.66606,-21.67226]]],[[[-140.66093,-21.6632],[-140.65668,-21.65822],[-140.65869,-21.66286],[-140.66093,-21.6632]]],[[[-140.65577,-21.65616],[-140.65562,-21.64861],[-140.65337,-21.64718],[-140.65577,-21.65616]]],[[[-135.49192,-21.49413],[-135.48493,-21.49684],[-135.4759,-21.50415],[-135.49192,-21.49413]]],[[[-135.4586,-21.52631],[-135.45751,-21.52801],[-135.45909,-21.52706],[-135.4586,-21.52631]]],[[[-136.38198,-21.45855],[-136.37987,-21.45908],[-136.37735,-21.46778],[-136.38198,-21.45855]]],[[[-136.53058,-21.35069],[-136.53707,-21.3554],[-136.53035,-21.34777],[-136.52683,-21.33691],[-136.52571,-21.33807],[-136.52755,-21.34388],[-136.53058,-21.35069]]],[[[-136.54522,-21.3355],[-136.53222,-21.33131],[-136.53078,-21.3328],[-136.54522,-21.3355]]],[[[-136.53858,-21.3565],[-136.54312,-21.3598],[-136.54068,-21.35679],[-136.53858,-21.3565]]],[[[-136.63788,-21.33932],[-136.63932,-21.33736],[-136.63741,-21.33565],[-136.63682,-21.33861],[-136.63788,-21.33932]]],[[[-136.73732,-21.30474],[-136.74119,-21.29949],[-136.73864,-21.29949],[-136.73794,-21.30024],[-136.73431,-21.30749],[-136.73543,-21.31121],[-136.73395,-21.30941],[-136.73522,-21.31147],[-136.73837,-21.30912],[-136.73732,-21.30474]]],[[[-136.74513,-21.31654],[-136.74579,-21.316],[-136.74478,-21.31585],[-136.74377,-21.31615],[-136.74513,-21.31654]]],[[[-138.56646,-20.78758],[-138.56843,-20.78818],[-138.56635,-20.78651],[-138.56646,-20.78758]]],[[[-138.54844,-20.77999],[-138.54263,-20.78037],[-138.53937,-20.78525],[-138.54844,-20.77999]]],[[[-140.40473,-19.6121],[-140.38542,-19.63051],[-140.38031,-19.64052],[-140.38295,-19.64834],[-140.39205,-19.65804],[-140.40102,-19.66107],[-140.40874,-19.66081],[-140.40534,-19.65803],[-140.4045,-19.65772],[-140.40361,-19.6605],[-140.4013,-19.65695],[-140.40068,-19.66015],[-140.40023,-19.65657],[-140.38713,-19.65172],[-140.38183,-19.63992],[-140.38929,-19.63069],[-140.3898,-19.62884],[-140.39173,-19.62767],[-140.39912,-19.61852],[-140.40952,-19.61144],[-140.40802,-19.61052],[-140.40473,-19.6121]]],[[[-139.19746,-19.34008],[-139.20265,-19.33515],[-139.19592,-19.34091],[-139.19591,-19.34095],[-139.19591,-19.34341],[-139.20007,-19.35398],[-139.20456,-19.35851],[-139.19746,-19.34008]]],[[[-138.80289,-19.28209],[-138.8024,-19.282],[-138.79459,-19.28167],[-138.79266,-19.28316],[-138.80289,-19.28209]]],[[[-141.26077,-19.19813],[-141.25899,-19.19635],[-141.25757,-19.20042],[-141.25951,-19.20112],[-141.26077,-19.19813]]],[[[-141.23167,-19.21929],[-141.23203,-19.2195],[-141.23207,-19.21931],[-141.23167,-19.21929]]],[[[-141.22972,-19.21862],[-141.22758,-19.20834],[-141.22753,-19.20843],[-141.22893,-19.21764],[-141.22972,-19.21862]]],[[[-140.71869,-19.13196],[-140.71511,-19.12994],[-140.71453,-19.13193],[-140.71823,-19.13284],[-140.71869,-19.13196]]],[[[-140.66619,-19.14609],[-140.66494,-19.14339],[-140.66436,-19.14467],[-140.67544,-19.15466],[-140.6817,-19.15661],[-140.67821,-19.15247],[-140.66619,-19.14609]]],[[[-138.81422,-18.76182],[-138.80158,-18.76523],[-138.80155,-18.76527],[-138.81503,-18.76449],[-138.81921,-18.76541],[-138.82416,-18.76284],[-138.81422,-18.76182]]],[[[-138.79493,-18.77793],[-138.79328,-18.77563],[-138.79324,-18.77722],[-138.79493,-18.77793]]],[[[-136.46675,-18.46939],[-136.46424,-18.46639],[-136.45873,-18.46429],[-136.45512,-18.46551],[-136.45749,-18.46965],[-136.46125,-18.46868],[-136.46462,-18.47319],[-136.46675,-18.46939]]],[[[-136.33131,-18.52871],[-136.3402,-18.52428],[-136.333,-18.52673],[-136.32822,-18.52916],[-136.32264,-18.53309],[-136.30583,-18.54816],[-136.30649,-18.5497],[-136.33131,-18.52871]]],[[[-136.97165,-18.36139],[-136.97143,-18.36191],[-136.97198,-18.36136],[-136.97165,-18.36139]]],[[[-140.72189,-18.37525],[-140.76738,-18.35233],[-140.77009,-18.35027],[-140.77244,-18.34753],[-140.72428,-18.37129],[-140.71433,-18.38148],[-140.7202,-18.37875],[-140.72189,-18.37525]]],[[[-140.67921,-18.40472],[-140.67983,-18.40443],[-140.68098,-18.40228],[-140.68439,-18.39941],[-140.67986,-18.40159],[-140.67823,-18.40383],[-140.67195,-18.41717],[-140.67331,-18.41555],[-140.67921,-18.40472]]],[[[-137.06387,-18.27002],[-137.06762,-18.26629],[-137.06133,-18.2691],[-137.06387,-18.27002]]],[[[-137.04522,-18.27632],[-137.04235,-18.2776],[-137.03041,-18.28756],[-137.04522,-18.27632]]],[[[-136.97232,-18.35986],[-136.97198,-18.36064],[-136.97263,-18.36071],[-136.97285,-18.3605],[-136.97232,-18.35986]]],[[[-140.96965,-18.06299],[-140.96638,-18.06525],[-140.96759,-18.06516],[-140.97011,-18.0631],[-140.96965,-18.06299]]],[[[-140.93546,-18.08619],[-140.94865,-18.07388],[-140.94228,-18.07683],[-140.93425,-18.08455],[-140.92074,-18.09208],[-140.91877,-18.09537],[-140.93546,-18.08619]]],[[[-140.88604,-18.14297],[-140.88956,-18.13815],[-140.87731,-18.15057],[-140.86354,-18.16061],[-140.83094,-18.18939],[-140.82995,-18.19036],[-140.82916,-18.19338],[-140.88604,-18.14297]]],[[[-143.06505,-17.86335],[-143.06268,-17.86047],[-143.06164,-17.86657],[-143.06485,-17.8637],[-143.06491,-17.8636],[-143.06505,-17.86335]]],[[[-143.06369,-17.85851],[-143.06384,-17.85769],[-143.06374,-17.8579],[-143.06369,-17.85851]]],[[[-143.08779,-17.84724],[-143.08321,-17.84083],[-143.07987,-17.83791],[-143.07503,-17.83951],[-143.08859,-17.84955],[-143.08789,-17.85772],[-143.0911,-17.85434],[-143.08779,-17.84724]]],[[[-140.82358,-17.81003],[-140.82492,-17.81138],[-140.82381,-17.80919],[-140.82358,-17.81003]]],[[[-140.82075,-17.80643],[-140.82216,-17.80845],[-140.82319,-17.80795],[-140.82274,-17.80706],[-140.82148,-17.8058],[-140.82075,-17.80643]]],[[[-140.81944,-17.80428],[-140.81969,-17.804],[-140.81884,-17.80314],[-140.81944,-17.80428]]],[[[-140.67288,-17.77042],[-140.6661,-17.76201],[-140.6683,-17.76783],[-140.67384,-17.77446],[-140.67288,-17.77042]]],[[[-140.66443,-17.7573],[-140.66229,-17.75782],[-140.66388,-17.76173],[-140.66547,-17.76035],[-140.66443,-17.7573]]],[[[-140.66042,-17.75621],[-140.66099,-17.75751],[-140.66289,-17.75611],[-140.66188,-17.75519],[-140.66042,-17.75621]]],[[[-140.7934,-17.77088],[-140.7557,-17.75608],[-140.73163,-17.73443],[-140.69769,-17.70919],[-140.69637,-17.7112],[-140.70302,-17.71544],[-140.76146,-17.762],[-140.7956,-17.77474],[-140.79341,-17.77089],[-140.7934,-17.77088]]],[[[-140.66574,-17.70771],[-140.64692,-17.71999],[-140.64833,-17.73674],[-140.65829,-17.75534],[-140.66071,-17.75321],[-140.6515,-17.73943],[-140.65056,-17.72493],[-140.64827,-17.72411],[-140.65905,-17.71363],[-140.66933,-17.70888],[-140.68586,-17.70708],[-140.69549,-17.71069],[-140.69678,-17.70858],[-140.6842,-17.70503],[-140.66574,-17.70771]]],[[[-150.64405,-17.66369],[-150.65022,-17.66687],[-150.65151,-17.66459],[-150.64318,-17.65545],[-150.6408,-17.66434],[-150.64405,-17.66369]]],[[[-142.62999,-17.54149],[-142.6312,-17.54037],[-142.61829,-17.54388],[-142.61434,-17.54597],[-142.61227,-17.54711],[-142.60006,-17.55577],[-142.62999,-17.54149]]],[[[-142.58256,-17.57101],[-142.58713,-17.56496],[-142.57763,-17.57171],[-142.57216,-17.57944],[-142.58256,-17.57101]]],[[[-149.57843,-17.53223],[-149.57456,-17.5356],[-149.57661,-17.53906],[-149.57995,-17.5372],[-149.57865,-17.53271],[-149.58183,-17.53334],[-149.57207,-17.52539],[-149.57545,-17.52962],[-149.57843,-17.53223]]],[[[-149.46658,-17.50734],[-149.42869,-17.50732],[-149.42086,-17.51119],[-149.42511,-17.52216],[-149.41963,-17.51163],[-149.39515,-17.52095],[-149.37715,-17.53721],[-149.35279,-17.54153],[-149.34407,-17.55071],[-149.33556,-17.56406],[-149.32966,-17.57985],[-149.32746,-17.59783],[-149.33027,-17.66375],[-149.32746,-17.68418],[-149.3041,-17.7119],[-149.30538,-17.72119],[-149.29927,-17.72783],[-149.28598,-17.72988],[-149.27404,-17.7367],[-149.25771,-17.73912],[-149.24605,-17.73471],[-149.21897,-17.73673],[-149.21838,-17.74172],[-149.21317,-17.74483],[-149.20266,-17.74252],[-149.20058,-17.74735],[-149.19189,-17.75033],[-149.16574,-17.753],[-149.1674,-17.75684],[-149.16446,-17.75263],[-149.16063,-17.75693],[-149.14912,-17.80202],[-149.15644,-17.84629],[-149.1903,-17.86907],[-149.20641,-17.86663],[-149.2517,-17.85424],[-149.25169,-17.85423],[-149.25177,-17.85183],[-149.25375,-17.85368],[-149.25987,-17.85201],[-149.26112,-17.84945],[-149.26715,-17.84889],[-149.26979,-17.84769],[-149.27031,-17.84409],[-149.28673,-17.82565],[-149.29139,-17.82543],[-149.29643,-17.81908],[-149.29213,-17.80727],[-149.29718,-17.80096],[-149.29891,-17.78901],[-149.31054,-17.77872],[-149.31014,-17.76826],[-149.31967,-17.75986],[-149.31746,-17.7574],[-149.32275,-17.75051],[-149.31665,-17.74756],[-149.32293,-17.74774],[-149.32365,-17.7503],[-149.32869,-17.74869],[-149.33239,-17.74613],[-149.32749,-17.74854],[-149.32999,-17.74156],[-149.3184,-17.73834],[-149.31876,-17.73493],[-149.32539,-17.73435],[-149.31945,-17.73033],[-149.32513,-17.72805],[-149.33164,-17.7304],[-149.33199,-17.73541],[-149.33919,-17.73533],[-149.33527,-17.73936],[-149.33957,-17.73943],[-149.34346,-17.72487],[-149.34797,-17.71819],[-149.35753,-17.71787],[-149.36254,-17.72527],[-149.3662,-17.73431],[-149.37182,-17.7387],[-149.39192,-17.74139],[-149.45039,-17.75921],[-149.47204,-17.76051],[-149.48786,-17.75799],[-149.51924,-17.74619],[-149.57612,-17.73756],[-149.57897,-17.73597],[-149.58462,-17.71084],[-149.58646,-17.68404],[-149.60372,-17.64647],[-149.61624,-17.6343],[-149.61301,-17.62608],[-149.61678,-17.61494],[-149.61239,-17.59716],[-149.61688,-17.5845],[-149.61628,-17.57539],[-149.62006,-17.57395],[-149.6192,-17.56964],[-149.61559,-17.56928],[-149.62037,-17.56205],[-149.61356,-17.55256],[-149.6087,-17.55407],[-149.59384,-17.54426],[-149.58303,-17.54546],[-149.57,-17.54028],[-149.5697,-17.53322],[-149.57408,-17.53244],[-149.57428,-17.52942],[-149.56779,-17.52627],[-149.56657,-17.52867],[-149.55626,-17.52432],[-149.54916,-17.5262],[-149.54291,-17.52091],[-149.53555,-17.52564],[-149.52604,-17.52037],[-149.52297,-17.52387],[-149.51236,-17.52215],[-149.50507,-17.51637],[-149.50691,-17.51212],[-149.50017,-17.51074],[-149.49471,-17.50427],[-149.49416,-17.49598],[-149.49117,-17.49568],[-149.46658,-17.50734]],[[-149.41643,-17.67671],[-149.41951,-17.67868],[-149.41748,-17.68233],[-149.41556,-17.68139],[-149.41549,-17.6788],[-149.41643,-17.67671]],[[-149.45059,-17.65276],[-149.45486,-17.65386],[-149.45331,-17.65535],[-149.45059,-17.65276]],[[-149.33847,-17.63076],[-149.33602,-17.63166],[-149.33582,-17.62991],[-149.33847,-17.63076]],[[-149.41795,-17.58634],[-149.42035,-17.58561],[-149.41809,-17.59017],[-149.41756,-17.58914],[-149.41795,-17.58634]]],[[[-149.3391,-17.74055],[-149.33892,-17.74189],[-149.33929,-17.74048],[-149.3391,-17.74055]]],[[[-149.91328,-17.49015],[-149.92032,-17.49022],[-149.91698,-17.48778],[-149.91549,-17.48991],[-149.91328,-17.49015]]],[[[-149.91144,-17.48892],[-149.91391,-17.48688],[-149.91055,-17.48653],[-149.91144,-17.48892]]],[[[-149.87293,-17.55742],[-149.90342,-17.53674],[-149.91497,-17.51242],[-149.91341,-17.49347],[-149.89392,-17.48989],[-149.87785,-17.49413],[-149.87658,-17.49144],[-149.87055,-17.49207],[-149.86348,-17.49728],[-149.85892,-17.50963],[-149.85083,-17.51817],[-149.84864,-17.51663],[-149.85388,-17.50053],[-149.84487,-17.48483],[-149.82806,-17.48563],[-149.82398,-17.50631],[-149.82029,-17.5071],[-149.81684,-17.50244],[-149.81854,-17.48849],[-149.81607,-17.48382],[-149.78571,-17.4776],[-149.78563,-17.47918],[-149.80476,-17.52337],[-149.82246,-17.54974],[-149.84276,-17.56756],[-149.86189,-17.56683],[-149.87034,-17.56267],[-149.87293,-17.55742]],[[-149.84795,-17.51821],[-149.8498,-17.51756],[-149.84824,-17.51982],[-149.84795,-17.51821]]],[[[-145.58138,-17.37445],[-145.58171,-17.37795],[-145.58345,-17.3752],[-145.58138,-17.37445]]],[[[-145.58338,-17.36947],[-145.58592,-17.37129],[-145.58621,-17.37083],[-145.58338,-17.36947]]],[[[-145.59323,-17.3394],[-145.59331,-17.33952],[-145.59331,-17.33934],[-145.59323,-17.3394]]],[[[-145.59129,-17.33701],[-145.59318,-17.3349],[-145.5931,-17.33237],[-145.59066,-17.3338],[-145.59018,-17.33576],[-145.59129,-17.33701]]],[[[-138.45105,-17.34216],[-138.44174,-17.33839],[-138.4549,-17.34979],[-138.45582,-17.35145],[-138.45105,-17.34216]]],[[[-145.59203,-17.32827],[-145.59203,-17.32828],[-145.59299,-17.32852],[-145.59299,-17.32852],[-145.59203,-17.32827]]],[[[-149.58588,-16.99586],[-149.58269,-16.98926],[-149.57011,-16.98422],[-149.56985,-16.98425],[-149.57234,-16.9874],[-149.57313,-16.98811],[-149.5742,-16.98793],[-149.57579,-16.99049],[-149.58498,-16.99874],[-149.58588,-16.99586]]],[[[-151.46472,-16.88406],[-151.46439,-16.88575],[-151.46987,-16.88836],[-151.46472,-16.88406]]],[[[-151.47073,-16.87045],[-151.47592,-16.86922],[-151.47438,-16.86747],[-151.47177,-16.86936],[-151.47073,-16.87045]]],[[[-151.48753,-16.84908],[-151.4882,-16.85067],[-151.48851,-16.85079],[-151.48855,-16.85022],[-151.48753,-16.84908]]],[[[-151.48679,-16.83146],[-151.48985,-16.82974],[-151.48936,-16.82853],[-151.48679,-16.83146]]],[[[-151.03192,-16.77804],[-151.03365,-16.77831],[-151.03429,-16.77691],[-151.03374,-16.77672],[-151.03192,-16.77804]]],[[[-153.93998,-16.7792],[-153.93639,-16.79637],[-153.92629,-16.81238],[-153.9228,-16.8209],[-153.92016,-16.8317],[-153.92017,-16.83172],[-153.92426,-16.8318],[-153.92582,-16.82959],[-153.92294,-16.82517],[-153.93898,-16.79759],[-153.94059,-16.78236],[-153.94778,-16.77553],[-153.94967,-16.7757],[-153.95067,-16.77386],[-153.94498,-16.7744],[-153.93998,-16.7792]]],[[[-150.99173,-16.76401],[-150.98534,-16.76922],[-150.97912,-16.77972],[-150.97838,-16.78802],[-150.97956,-16.80039],[-150.98388,-16.80926],[-150.99279,-16.80706],[-150.99366,-16.80984],[-151.00088,-16.80909],[-151.01103,-16.79763],[-151.00131,-16.78891],[-151.00682,-16.78121],[-151.01156,-16.78128],[-151.01049,-16.79233],[-151.01541,-16.79394],[-151.02327,-16.78761],[-151.01604,-16.78209],[-151.01931,-16.78017],[-151.026,-16.78337],[-151.0273,-16.77849],[-151.01959,-16.77793],[-151.01667,-16.77249],[-151.01505,-16.77239],[-151.01298,-16.77329],[-151.01169,-16.77219],[-151.0111,-16.77215],[-151.00581,-16.76922],[-151.00473,-16.76658],[-150.99173,-16.76401]]],[[[-151.43156,-16.74864],[-151.43304,-16.7519],[-151.42232,-16.76269],[-151.42348,-16.77747],[-151.41472,-16.77556],[-151.41426,-16.77656],[-151.41532,-16.7826],[-151.40802,-16.78637],[-151.40857,-16.79388],[-151.40023,-16.79614],[-151.40001,-16.79643],[-151.41696,-16.81523],[-151.42119,-16.82471],[-151.41838,-16.82184],[-151.41781,-16.82527],[-151.40367,-16.80785],[-151.39553,-16.80899],[-151.39849,-16.81694],[-151.39707,-16.82027],[-151.39294,-16.81985],[-151.39262,-16.82783],[-151.3892,-16.82862],[-151.38171,-16.82281],[-151.37906,-16.82383],[-151.37285,-16.83195],[-151.37605,-16.83576],[-151.3698,-16.83594],[-151.36437,-16.84304],[-151.37096,-16.84551],[-151.36937,-16.84771],[-151.36157,-16.8467],[-151.35368,-16.85702],[-151.35446,-16.85992],[-151.36408,-16.86647],[-151.40087,-16.88535],[-151.4125,-16.88854],[-151.41509,-16.88814],[-151.41509,-16.88815],[-151.41984,-16.88493],[-151.42205,-16.8794],[-151.42639,-16.8765],[-151.42801,-16.88193],[-151.42939,-16.88193],[-151.43159,-16.89219],[-151.43257,-16.89426],[-151.43354,-16.89478],[-151.43353,-16.8963],[-151.43415,-16.89764],[-151.44054,-16.90114],[-151.44917,-16.90293],[-151.45824,-16.9026],[-151.46618,-16.89734],[-151.46463,-16.89326],[-151.45819,-16.8871],[-151.46688,-16.87869],[-151.47158,-16.86644],[-151.4642,-16.85925],[-151.47166,-16.85629],[-151.47974,-16.86118],[-151.48206,-16.85905],[-151.47818,-16.85012],[-151.48254,-16.84594],[-151.48074,-16.842],[-151.48373,-16.83771],[-151.47867,-16.83095],[-151.48166,-16.82766],[-151.4774,-16.8237],[-151.47768,-16.81748],[-151.48336,-16.8192],[-151.49244,-16.7964],[-151.49268,-16.79304],[-151.48924,-16.78925],[-151.48886,-16.78177],[-151.49214,-16.76418],[-151.48622,-16.75774],[-151.49257,-16.75777],[-151.49129,-16.75064],[-151.4912,-16.75026],[-151.48662,-16.74583],[-151.48192,-16.74745],[-151.48419,-16.74348],[-151.47875,-16.73821],[-151.46467,-16.73642],[-151.44652,-16.74049],[-151.43769,-16.7446],[-151.43156,-16.74864]]],[[[-144.07233,-16.73376],[-144.07353,-16.72415],[-144.08095,-16.71744],[-144.08007,-16.71722],[-144.07319,-16.7227],[-144.07063,-16.72755],[-144.07062,-16.73756],[-144.0728,-16.73447],[-144.07233,-16.73376]]],[[[-151.04197,-16.76354],[-151.04681,-16.75842],[-151.04375,-16.74822],[-151.04542,-16.73837],[-151.0411,-16.73232],[-151.03053,-16.73888],[-151.0376,-16.729],[-151.0366,-16.72198],[-151.03154,-16.72209],[-151.03908,-16.71021],[-151.04,-16.70231],[-151.03343,-16.69377],[-151.029,-16.69248],[-151.02627,-16.7081],[-151.00756,-16.74049],[-151.00951,-16.7457],[-151.01635,-16.74871],[-151.02416,-16.75563],[-151.0267,-16.75741],[-151.02628,-16.7559],[-151.0364,-16.76265],[-151.03638,-16.7632],[-151.04282,-16.76486],[-151.04197,-16.76354]]],[[[-144.18701,-16.6488],[-144.18896,-16.6454],[-144.18814,-16.64569],[-144.18663,-16.64696],[-144.1839,-16.65313],[-144.18423,-16.66027],[-144.18527,-16.6597],[-144.18701,-16.6488]]],[[[-143.49887,-16.62104],[-143.52793,-16.62018],[-143.4988,-16.61765],[-143.49891,-16.6196],[-143.50046,-16.6203],[-143.49786,-16.61931],[-143.49875,-16.61764],[-143.49135,-16.617],[-143.49887,-16.62104]]],[[[-151.52501,-16.58885],[-151.52291,-16.58283],[-151.50268,-16.58017],[-151.50032,-16.58074],[-151.49821,-16.5846],[-151.49688,-16.58193],[-151.48395,-16.58114],[-151.48391,-16.58938],[-151.47712,-16.58205],[-151.47513,-16.58691],[-151.47655,-16.59051],[-151.47875,-16.59417],[-151.46272,-16.59356],[-151.46277,-16.59497],[-151.44335,-16.60403],[-151.44777,-16.61141],[-151.43793,-16.614],[-151.43782,-16.61468],[-151.44115,-16.61981],[-151.44819,-16.6242],[-151.45279,-16.6264],[-151.45602,-16.62548],[-151.45962,-16.62717],[-151.4584,-16.63219],[-151.45896,-16.64348],[-151.45959,-16.64326],[-151.46289,-16.6347],[-151.47598,-16.63674],[-151.47765,-16.63947],[-151.48698,-16.6331],[-151.49367,-16.63907],[-151.48978,-16.63831],[-151.48235,-16.64437],[-151.45922,-16.64874],[-151.45983,-16.66107],[-151.46325,-16.67409],[-151.4726,-16.66985],[-151.48054,-16.66497],[-151.48746,-16.662],[-151.48882,-16.65435],[-151.49295,-16.65911],[-151.4993,-16.65332],[-151.49806,-16.65744],[-151.52074,-16.64768],[-151.51178,-16.63971],[-151.52679,-16.64508],[-151.53466,-16.6417],[-151.54039,-16.63649],[-151.54088,-16.63104],[-151.53612,-16.5949],[-151.52943,-16.58843],[-151.52501,-16.58885]]],[[[-151.76725,-16.50625],[-151.76483,-16.50931],[-151.76496,-16.52353],[-151.77069,-16.51788],[-151.76725,-16.50625]]],[[[-151.74984,-16.5111],[-151.75343,-16.50565],[-151.75212,-16.50037],[-151.76013,-16.49791],[-151.75971,-16.48726],[-151.75159,-16.49173],[-151.74836,-16.50433],[-151.74782,-16.51263],[-151.74984,-16.5111]]],[[[-151.76357,-16.47338],[-151.76308,-16.47314],[-151.76193,-16.47443],[-151.76357,-16.47338]]],[[[-151.77513,-16.47972],[-151.77767,-16.47717],[-151.77268,-16.47543],[-151.77513,-16.47972]]],[[[-152.24713,-16.44451],[-152.24743,-16.44554],[-152.2563,-16.45127],[-152.26362,-16.4472],[-152.26146,-16.4415],[-152.24743,-16.44341],[-152.24713,-16.44451]]],[[[-144.25764,-16.45452],[-144.26063,-16.45154],[-144.26085,-16.45086],[-144.28567,-16.42241],[-144.25667,-16.45267],[-144.25152,-16.46197],[-144.25212,-16.46394],[-144.25764,-16.45452]]],[[[-146.39596,-16.13974],[-146.36897,-16.11715],[-146.34765,-16.11899],[-146.33472,-16.12747],[-146.33041,-16.13317],[-146.32877,-16.13763],[-146.33091,-16.14298],[-146.33129,-16.14144],[-146.34008,-16.13786],[-146.34225,-16.12856],[-146.35135,-16.12359],[-146.36164,-16.1218],[-146.37691,-16.12728],[-146.38324,-16.13313],[-146.38819,-16.14824],[-146.38831,-16.14885],[-146.39175,-16.14723],[-146.39605,-16.14005],[-146.39596,-16.13974]]],[[[-145.64178,-16.04789],[-145.62085,-16.04996],[-145.61937,-16.05335],[-145.62163,-16.05353],[-145.64102,-16.05054],[-145.65548,-16.0545],[-145.66111,-16.05667],[-145.66713,-16.05715],[-145.64178,-16.04789]]],[[[-145.61156,-16.09581],[-145.61388,-16.08026],[-145.61095,-16.09735],[-145.60898,-16.1035],[-145.61156,-16.09581]]],[[[-145.59976,-16.13092],[-145.60284,-16.12177],[-145.59597,-16.13529],[-145.59976,-16.13092]]],[[[-145.58771,-16.1448],[-145.58218,-16.1491],[-145.58042,-16.1532],[-145.58771,-16.1448]]],[[[-145.54764,-16.24912],[-145.55441,-16.23822],[-145.54876,-16.24438],[-145.54,-16.26529],[-145.53021,-16.27633],[-145.51503,-16.2839],[-145.51329,-16.28814],[-145.52626,-16.28316],[-145.52859,-16.28162],[-145.52961,-16.27947],[-145.54655,-16.25978],[-145.54764,-16.24912]]],[[[-145.49354,-16.34093],[-145.49569,-16.33102],[-145.49397,-16.33522],[-145.49078,-16.33866],[-145.49062,-16.33938],[-145.48665,-16.34538],[-145.49264,-16.34202],[-145.49354,-16.34093]]],[[[-140.11387,-15.96908],[-140.11541,-15.96563],[-140.10806,-15.96581],[-140.10875,-15.96943],[-140.11387,-15.96908]]],[[[-148.27519,-15.81244],[-148.26737,-15.8055],[-148.25947,-15.80598],[-148.25713,-15.81658],[-148.24693,-15.83317],[-148.24101,-15.83738],[-148.239,-15.83961],[-148.22993,-15.84808],[-148.23078,-15.85687],[-148.23872,-15.86395],[-148.25084,-15.86745],[-148.27172,-15.8532],[-148.27921,-15.83097],[-148.27519,-15.81244]]],[[[-140.88838,-15.83573],[-140.88324,-15.83281],[-140.8801,-15.83535],[-140.88251,-15.83802],[-140.88594,-15.83766],[-140.88838,-15.83573]]],[[[-140.8852,-15.83212],[-140.88733,-15.83297],[-140.88708,-15.8304],[-140.88596,-15.83108],[-140.8852,-15.83212]]],[[[-140.8887,-15.82785],[-140.8874,-15.82942],[-140.88891,-15.83179],[-140.8887,-15.82785]]],[[[-140.87621,-15.83423],[-140.87525,-15.83418],[-140.87971,-15.83831],[-140.88022,-15.83826],[-140.87621,-15.83423]]],[[[-140.87878,-15.8221],[-140.89013,-15.82229],[-140.88873,-15.82601],[-140.89388,-15.83377],[-140.89501,-15.83294],[-140.89562,-15.82684],[-140.88899,-15.81976],[-140.86144,-15.81552],[-140.85616,-15.81552],[-140.87878,-15.8221]]],[[[-145.91419,-15.87178],[-145.90938,-15.87827],[-145.91934,-15.86891],[-145.91419,-15.87178]]],[[[-145.0578,-15.90029],[-145.05773,-15.90211],[-145.06147,-15.89344],[-145.0578,-15.90029]]],[[[-145.10262,-15.81918],[-145.10396,-15.81715],[-145.10207,-15.81244],[-145.10368,-15.80599],[-145.1009,-15.81106],[-145.10262,-15.81918]]],[[[-145.11789,-15.78168],[-145.11658,-15.78245],[-145.11411,-15.78696],[-145.12291,-15.78298],[-145.12725,-15.78197],[-145.12918,-15.77906],[-145.11789,-15.78168]]],[[[-146.48421,-15.8215],[-146.48905,-15.81012],[-146.49036,-15.80878],[-146.49059,-15.80828],[-146.49492,-15.80146],[-146.48816,-15.80794],[-146.48179,-15.82337],[-146.48192,-15.82692],[-146.48435,-15.8217],[-146.48421,-15.8215]]],[[[-144.62707,-15.73244],[-144.62194,-15.73602],[-144.62171,-15.73766],[-144.62707,-15.73244]]],[[[-144.64619,-15.75156],[-144.64891,-15.74928],[-144.64922,-15.74831],[-144.64619,-15.75156]]],[[[-144.651,-15.7425],[-144.65172,-15.74017],[-144.65155,-15.73924],[-144.651,-15.7425]]],[[[-144.6511,-15.73691],[-144.64981,-15.73016],[-144.64851,-15.73003],[-144.6511,-15.73691]]],[[[-145.44199,-15.49282],[-145.44649,-15.48887],[-145.44814,-15.48862],[-145.45222,-15.48555],[-145.44409,-15.48625],[-145.43914,-15.49072],[-145.43807,-15.49619],[-145.44192,-15.4933],[-145.44199,-15.49282]]],[[[-146.19997,-15.33645],[-146.2023,-15.33326],[-146.19763,-15.33417],[-146.19669,-15.33563],[-146.19507,-15.34003],[-146.19997,-15.33645]]],[[[-146.19393,-15.35723],[-146.19416,-15.35947],[-146.19449,-15.36054],[-146.19393,-15.35723]]],[[[-146.61147,-15.24926],[-146.60401,-15.25742],[-146.60311,-15.26502],[-146.60583,-15.26168],[-146.606,-15.26066],[-146.60816,-15.25882],[-146.6101,-15.25644],[-146.61615,-15.24709],[-146.61147,-15.24926]]],[[[-147.23842,-15.23606],[-147.23742,-15.24424],[-147.23893,-15.24244],[-147.24015,-15.23869],[-147.24305,-15.238],[-147.24187,-15.23389],[-147.24797,-15.2361],[-147.25089,-15.23504],[-147.25522,-15.23301],[-147.25453,-15.2328],[-147.2541,-15.23249],[-147.24226,-15.23235],[-147.23879,-15.23507],[-147.23842,-15.23606]]],[[[-147.76649,-15.22113],[-147.75632,-15.22662],[-147.76655,-15.22201],[-147.76649,-15.22113]]],[[[-147.76859,-15.21991],[-147.76929,-15.22077],[-147.77896,-15.2164],[-147.77642,-15.21488],[-147.76859,-15.21991]]],[[[-147.93575,-15.07029],[-147.9362,-15.07452],[-147.93668,-15.07391],[-147.93782,-15.0709],[-147.93767,-15.07037],[-147.93575,-15.07029]]],[[[-147.47474,-15.10712],[-147.47072,-15.11075],[-147.47222,-15.11103],[-147.47494,-15.10891],[-147.47488,-15.10879],[-147.47496,-15.1089],[-147.47938,-15.10545],[-147.47474,-15.10712]]],[[[-147.52204,-15.0735],[-147.51919,-15.07584],[-147.5263,-15.07169],[-147.52617,-15.0716],[-147.52648,-15.07159],[-147.53029,-15.06936],[-147.53034,-15.06926],[-147.52275,-15.07263],[-147.52204,-15.0735]]],[[[-148.04893,-14.98475],[-148.04699,-14.99273],[-148.04725,-14.99546],[-148.05011,-14.99107],[-148.04893,-14.98475]]],[[[-148.62908,-14.88657],[-148.6307,-14.87728],[-148.63957,-14.87128],[-148.66238,-14.86568],[-148.67048,-14.86227],[-148.63353,-14.87173],[-148.62845,-14.87638],[-148.62544,-14.88648],[-148.628,-14.89471],[-148.63287,-14.8891],[-148.62908,-14.88657]]],[[[-145.24041,-14.6441],[-145.23943,-14.63813],[-145.23676,-14.63328],[-145.23799,-14.64118],[-145.24409,-14.65637],[-145.24041,-14.6441]]],[[[-145.25739,-14.68227],[-145.25029,-14.67276],[-145.25167,-14.67905],[-145.25635,-14.68811],[-145.25604,-14.69961],[-145.25385,-14.70087],[-145.25742,-14.70166],[-145.26201,-14.69673],[-145.26217,-14.69617],[-145.25739,-14.68227]]],[[[-145.20969,-14.67533],[-145.21622,-14.68334],[-145.22297,-14.68841],[-145.2232,-14.68852],[-145.21421,-14.67514],[-145.20986,-14.67218],[-145.20969,-14.67533]]],[[[-144.97614,-14.48596],[-144.97742,-14.48704],[-144.97798,-14.48644],[-144.97671,-14.48519],[-144.97614,-14.48596]]],[[[-144.97291,-14.48247],[-144.97224,-14.48396],[-144.97423,-14.48515],[-144.97573,-14.48422],[-144.97474,-14.48325],[-144.97291,-14.48247]]],[[[-144.96797,-14.48273],[-144.97266,-14.48242],[-144.96252,-14.47758],[-144.96707,-14.48207],[-144.96797,-14.48273]]],[[[-144.93436,-14.45242],[-144.93342,-14.45191],[-144.93848,-14.46102],[-144.94017,-14.46164],[-144.93436,-14.45242]]],[[[-145.92352,-14.43423],[-145.92349,-14.43425],[-145.92363,-14.43431],[-145.92352,-14.43423]]],[[[-144.99383,-14.43748],[-144.9851,-14.43231],[-144.98352,-14.43188],[-144.98537,-14.43512],[-144.99248,-14.44052],[-145.00015,-14.44229],[-144.99383,-14.43748]]],[[[-144.88315,-14.41583],[-144.8975,-14.42915],[-144.90077,-14.43016],[-144.88805,-14.41815],[-144.8911,-14.41936],[-144.88809,-14.41662],[-144.87969,-14.41243],[-144.8799,-14.4147],[-144.88315,-14.41583]]],[[[-145.84785,-14.34244],[-145.84612,-14.34612],[-145.85025,-14.34555],[-145.85436,-14.33828],[-145.8496,-14.33939],[-145.84785,-14.34244]]],[[[-145.8444,-14.35589],[-145.84356,-14.35155],[-145.84149,-14.35595],[-145.84277,-14.35877],[-145.8444,-14.35589]]],[[[-141.18623,-14.18919],[-141.18636,-14.18445],[-141.20516,-14.16893],[-141.20275,-14.17018],[-141.17799,-14.18726],[-141.17703,-14.18858],[-141.17714,-14.1932],[-141.17895,-14.19569],[-141.18027,-14.19598],[-141.18928,-14.1902],[-141.19079,-14.18858],[-141.18623,-14.18919]]],[[[-138.64078,-10.4402],[-138.63789,-10.43981],[-138.63671,-10.44061],[-138.62043,-10.47186],[-138.62023,-10.51084],[-138.63362,-10.53592],[-138.63628,-10.53624],[-138.63653,-10.54114],[-138.63991,-10.53956],[-138.64364,-10.54378],[-138.66002,-10.54771],[-138.66277,-10.54167],[-138.6699,-10.54081],[-138.67174,-10.53711],[-138.68127,-10.53342],[-138.69066,-10.52222],[-138.68671,-10.5114],[-138.68957,-10.50971],[-138.68126,-10.49905],[-138.67905,-10.50002],[-138.67319,-10.48948],[-138.67701,-10.48521],[-138.67408,-10.47292],[-138.677,-10.47187],[-138.66492,-10.46495],[-138.67174,-10.45902],[-138.67243,-10.45118],[-138.68506,-10.44097],[-138.6875,-10.42675],[-138.66519,-10.42734],[-138.65046,-10.43141],[-138.65004,-10.43169],[-138.65019,-10.43297],[-138.64883,-10.4325],[-138.63987,-10.43849],[-138.64078,-10.4402]]],[[[-139.12513,-10.00538],[-139.12554,-10.00066],[-139.13056,-10.00038],[-139.13043,-9.9831],[-139.1272,-9.98184],[-139.12839,-9.97836],[-139.13214,-9.97817],[-139.13065,-9.97008],[-139.11897,-9.96637],[-139.11737,-9.96179],[-139.12193,-9.95663],[-139.11683,-9.95229],[-139.11911,-9.94294],[-139.1095,-9.93827],[-139.10977,-9.93468],[-139.11782,-9.93061],[-139.11178,-9.92067],[-139.1127,-9.91616],[-139.10621,-9.91467],[-139.10693,-9.90966],[-139.10186,-9.90773],[-139.10503,-9.90501],[-139.09887,-9.90022],[-139.0972,-9.89385],[-139.09142,-9.89574],[-139.09068,-9.89517],[-139.08239,-9.89951],[-139.06916,-9.9039],[-139.05565,-9.91318],[-139.04776,-9.92254],[-139.05134,-9.92669],[-139.055,-9.9284],[-139.05761,-9.93239],[-139.05972,-9.93711],[-139.06188,-9.94036],[-139.06664,-9.94329],[-139.07665,-9.94459],[-139.08239,-9.9472],[-139.09586,-9.96168],[-139.11848,-10.00018],[-139.12452,-10.00742],[-139.12513,-10.00538]]],[[[-139.10617,-9.84022],[-139.10819,-9.84272],[-139.10954,-9.83878],[-139.11529,-9.84218],[-139.11413,-9.83981],[-139.11606,-9.83627],[-139.11834,-9.83777],[-139.11705,-9.83506],[-139.12,-9.83508],[-139.12053,-9.83113],[-139.12477,-9.83361],[-139.12657,-9.82949],[-139.13536,-9.82625],[-139.14049,-9.81799],[-139.13938,-9.81367],[-139.15217,-9.80065],[-139.15684,-9.78412],[-139.16353,-9.77551],[-139.14912,-9.75789],[-139.14628,-9.7576],[-139.1457,-9.76258],[-139.14244,-9.76097],[-139.14148,-9.76777],[-139.13885,-9.76834],[-139.13645,-9.7552],[-139.13234,-9.75032],[-139.12826,-9.75299],[-139.125,-9.74733],[-139.10483,-9.74455],[-139.09874,-9.75001],[-139.09759,-9.74417],[-139.09202,-9.74418],[-139.09202,-9.73933],[-139.08779,-9.74275],[-139.08236,-9.73399],[-139.07385,-9.73511],[-139.07474,-9.73256],[-139.07012,-9.73246],[-139.06775,-9.72575],[-139.06341,-9.72848],[-139.06049,-9.72667],[-139.06211,-9.72199],[-139.05697,-9.71701],[-139.05031,-9.72001],[-139.05088,-9.71314],[-139.0441,-9.71414],[-139.04459,-9.71001],[-139.04182,-9.71124],[-139.03914,-9.70413],[-139.0273,-9.71194],[-139.02027,-9.71208],[-139.0167,-9.71863],[-139.01288,-9.71761],[-139.01408,-9.70924],[-139.00581,-9.69911],[-138.99363,-9.7043],[-138.99104,-9.70247],[-138.99359,-9.69821],[-138.98931,-9.70069],[-138.98597,-9.69924],[-138.98453,-9.69948],[-138.97252,-9.72064],[-138.9618,-9.73323],[-138.9608,-9.73963],[-138.9492,-9.73939],[-138.94274,-9.74236],[-138.92121,-9.74717],[-138.90079,-9.74863],[-138.88132,-9.75328],[-138.8813,-9.75341],[-138.88582,-9.76094],[-138.88016,-9.76571],[-138.87332,-9.76281],[-138.87197,-9.75911],[-138.86776,-9.76454],[-138.86396,-9.75857],[-138.85892,-9.76314],[-138.85275,-9.76046],[-138.85047,-9.76261],[-138.8469,-9.75919],[-138.84544,-9.76199],[-138.84899,-9.76876],[-138.84472,-9.77088],[-138.85938,-9.78326],[-138.86309,-9.78358],[-138.87104,-9.79231],[-138.87385,-9.79344],[-138.87886,-9.79207],[-138.88088,-9.79624],[-138.88621,-9.79837],[-138.8883,-9.798],[-138.88873,-9.79937],[-138.89208,-9.80071],[-138.90324,-9.80338],[-138.90402,-9.80239],[-138.90681,-9.80423],[-138.90715,-9.80431],[-138.90912,-9.79801],[-138.9118,-9.80542],[-138.91574,-9.80636],[-138.92326,-9.79973],[-138.92522,-9.80733],[-138.92635,-9.80742],[-138.93849,-9.80635],[-138.93925,-9.80134],[-138.94384,-9.8023],[-138.94884,-9.79621],[-138.95022,-9.80345],[-138.9567,-9.80465],[-138.95571,-9.80856],[-138.9743,-9.80227],[-138.9792,-9.80734],[-138.9833,-9.7998],[-138.98493,-9.80787],[-138.98825,-9.80616],[-138.99017,-9.80936],[-139.00335,-9.80913],[-139.00341,-9.80523],[-139.00652,-9.80907],[-139.00943,-9.80902],[-139.01429,-9.80788],[-139.01626,-9.80658],[-139.01658,-9.80734],[-139.0209,-9.80633],[-139.02624,-9.8034],[-139.03083,-9.80302],[-139.03063,-9.80088],[-139.03217,-9.80291],[-139.03799,-9.80242],[-139.04971,-9.80348],[-139.05504,-9.80633],[-139.05504,-9.81876],[-139.06099,-9.82706],[-139.06011,-9.83896],[-139.05666,-9.84125],[-139.06192,-9.85394],[-139.06521,-9.85422],[-139.06818,-9.84988],[-139.08135,-9.85056],[-139.08473,-9.84914],[-139.08486,-9.84775],[-139.08742,-9.8484],[-139.09245,-9.84733],[-139.09423,-9.84557],[-139.09572,-9.84663],[-139.10066,-9.84558],[-139.10617,-9.84022]]],[[[-140.08848,-9.44258],[-140.09505,-9.44322],[-140.09718,-9.43908],[-140.09567,-9.43369],[-140.10476,-9.43165],[-140.10834,-9.42291],[-140.11299,-9.42265],[-140.11324,-9.41649],[-140.1224,-9.40966],[-140.12348,-9.40479],[-140.13043,-9.40146],[-140.12603,-9.39812],[-140.12877,-9.39552],[-140.12617,-9.3848],[-140.13158,-9.38481],[-140.1355,-9.38057],[-140.12816,-9.38279],[-140.1273,-9.37858],[-140.12217,-9.37898],[-140.11992,-9.37357],[-140.1146,-9.37264],[-140.11077,-9.36758],[-140.11147,-9.35801],[-140.10304,-9.35898],[-140.10032,-9.34922],[-140.09539,-9.34655],[-140.09659,-9.34321],[-140.09185,-9.34165],[-140.09171,-9.34632],[-140.08435,-9.34476],[-140.08121,-9.33712],[-140.06994,-9.33575],[-140.07128,-9.33923],[-140.06854,-9.34251],[-140.05645,-9.34614],[-140.05093,-9.3511],[-140.04945,-9.35978],[-140.04308,-9.35546],[-140.03998,-9.35679],[-140.03981,-9.36147],[-140.03613,-9.36213],[-140.03453,-9.35986],[-140.04064,-9.37412],[-140.04894,-9.40814],[-140.0629,-9.43597],[-140.09055,-9.44664],[-140.08848,-9.44258]]],[[[-139.50396,-8.89816],[-139.50382,-8.89815],[-139.50316,-8.89902],[-139.50841,-8.91204],[-139.52343,-8.92156],[-139.54166,-8.9262],[-139.5856,-8.92946],[-139.60244,-8.93666],[-139.60763,-8.92998],[-139.61202,-8.93],[-139.61074,-8.92654],[-139.61417,-8.92245],[-139.61123,-8.90687],[-139.6086,-8.9071],[-139.60552,-8.89592],[-139.59917,-8.89569],[-139.59975,-8.89089],[-139.5943,-8.88902],[-139.59598,-8.88694],[-139.58821,-8.8806],[-139.58686,-8.86937],[-139.57694,-8.87106],[-139.57688,-8.8765],[-139.57301,-8.87404],[-139.56917,-8.87615],[-139.56542,-8.86998],[-139.56246,-8.86895],[-139.5607,-8.87187],[-139.55186,-8.86608],[-139.55013,-8.86645],[-139.54828,-8.86914],[-139.54312,-8.86919],[-139.54186,-8.87314],[-139.54005,-8.8707],[-139.53722,-8.87217],[-139.53659,-8.87488],[-139.53556,-8.87302],[-139.51895,-8.88161],[-139.51837,-8.88594],[-139.51557,-8.88336],[-139.51439,-8.88397],[-139.51363,-8.88498],[-139.51295,-8.88664],[-139.51262,-8.88634],[-139.50388,-8.89805],[-139.50396,-8.89816]]],[[[-140.16493,-8.78987],[-140.15712,-8.79175],[-140.16088,-8.80788],[-140.15676,-8.80409],[-140.1506,-8.80999],[-140.15047,-8.80285],[-140.14539,-8.80502],[-140.14697,-8.79952],[-140.14269,-8.8048],[-140.13996,-8.80136],[-140.13479,-8.80689],[-140.12792,-8.8033],[-140.13085,-8.8139],[-140.12609,-8.81647],[-140.11841,-8.8118],[-140.11274,-8.81439],[-140.11221,-8.80801],[-140.10711,-8.80966],[-140.10429,-8.80732],[-140.10039,-8.80921],[-140.10202,-8.81469],[-140.09396,-8.81717],[-140.0923,-8.81469],[-140.08588,-8.82885],[-140.08121,-8.8276],[-140.07946,-8.82281],[-140.07917,-8.80863],[-140.08321,-8.80393],[-140.07465,-8.80841],[-140.07276,-8.80223],[-140.06604,-8.80392],[-140.06665,-8.8143],[-140.06221,-8.81729],[-140.06692,-8.81987],[-140.06594,-8.82625],[-140.05556,-8.82845],[-140.05245,-8.81987],[-140.0541,-8.81014],[-140.05015,-8.79972],[-140.04865,-8.79884],[-140.04773,-8.80479],[-140.05089,-8.81253],[-140.04545,-8.81673],[-140.03318,-8.79254],[-140.03257,-8.79917],[-140.03942,-8.80706],[-140.04943,-8.82318],[-140.04461,-8.82736],[-140.04665,-8.82769],[-140.04752,-8.83469],[-140.03211,-8.84677],[-140.02704,-8.84492],[-140.02369,-8.84556],[-140.02229,-8.84677],[-140.01598,-8.85931],[-140.01535,-8.86633],[-140.01608,-8.86685],[-140.01527,-8.8672],[-140.01469,-8.87371],[-140.01599,-8.87458],[-140.01439,-8.87702],[-140.01403,-8.88112],[-140.01915,-8.89642],[-140.02161,-8.89602],[-140.02533,-8.8894],[-140.02864,-8.88966],[-140.02762,-8.89506],[-140.03095,-8.89452],[-140.03708,-8.88429],[-140.05489,-8.87408],[-140.04834,-8.88327],[-140.05557,-8.87851],[-140.06054,-8.9],[-140.07665,-8.91522],[-140.0934,-8.91852],[-140.09549,-8.9132],[-140.10296,-8.91252],[-140.11022,-8.90569],[-140.11766,-8.90569],[-140.12999,-8.91644],[-140.16991,-8.92946],[-140.17854,-8.93678],[-140.18322,-8.95371],[-140.19432,-8.95037],[-140.19823,-8.94699],[-140.19769,-8.94632],[-140.19941,-8.94597],[-140.20702,-8.93939],[-140.20778,-8.93893],[-140.2138,-8.93135],[-140.21711,-8.93255],[-140.22106,-8.92915],[-140.22235,-8.93021],[-140.22575,-8.92818],[-140.22546,-8.91541],[-140.22143,-8.9141],[-140.22742,-8.89374],[-140.23172,-8.89127],[-140.22878,-8.88982],[-140.22912,-8.88223],[-140.2356,-8.87222],[-140.23154,-8.86915],[-140.23756,-8.86608],[-140.23387,-8.86449],[-140.23533,-8.85986],[-140.2418,-8.85762],[-140.2386,-8.85407],[-140.24319,-8.85313],[-140.24738,-8.84771],[-140.24743,-8.84735],[-140.24958,-8.83864],[-140.25067,-8.83769],[-140.25144,-8.8337],[-140.25118,-8.82522],[-140.24672,-8.82612],[-140.24979,-8.81444],[-140.24443,-8.79703],[-140.2399,-8.79843],[-140.23727,-8.79351],[-140.21847,-8.78738],[-140.21161,-8.78992],[-140.20912,-8.78418],[-140.20238,-8.78506],[-140.20132,-8.78356],[-140.19636,-8.78438],[-140.19485,-8.79391],[-140.19298,-8.79004],[-140.18775,-8.78988],[-140.18729,-8.78588],[-140.184,-8.78643],[-140.17858,-8.79056],[-140.17619,-8.78878],[-140.17687,-8.78761],[-140.16505,-8.78956],[-140.16493,-8.78987]]],[[[-140.71727,-8.04082],[-140.72153,-8.03043],[-140.72009,-8.01875],[-140.72355,-8.01777],[-140.72001,-8.01327],[-140.71695,-7.9923],[-140.70787,-7.99513],[-140.71239,-7.98495],[-140.70603,-7.9854],[-140.70891,-7.97981],[-140.70442,-7.97873],[-140.70325,-7.97171],[-140.7006,-7.97567],[-140.6983,-7.97032],[-140.68959,-7.97369],[-140.68826,-7.96975],[-140.67417,-7.96802],[-140.67217,-7.96227],[-140.66754,-7.96854],[-140.66126,-7.95776],[-140.65558,-7.96208],[-140.65335,-7.95561],[-140.64756,-7.95721],[-140.64674,-7.95764],[-140.64822,-7.9636],[-140.6436,-7.96222],[-140.64306,-7.96324],[-140.65307,-7.9708],[-140.65831,-7.9734],[-140.67565,-7.97674],[-140.68391,-7.98528],[-140.69245,-8.01507],[-140.69888,-8.02899],[-140.70783,-8.03973],[-140.71697,-8.04115],[-140.71727,-8.04082]]]]}}],"admin1":{"type":"FeatureCollection","features":[{"type":"Feature","properties":{"id":"PYF:ADM1:PYF-4967","name":"Marquesas Islands","countryCode":"PYF"},"geometry":{"type":"MultiPolygon","coordinates":[[[[-147.65587,-23.86387],[-147.66177,-23.8681],[-147.66894,-23.87176],[-147.69806,-23.87784],[-147.69971,-23.87798],[-147.70019,-23.87795],[-147.69433,-23.8695],[-147.68042,-23.86785],[-147.68182,-23.85789],[-147.67096,-23.86084],[-147.65806,-23.85412],[-147.64834,-23.85278],[-147.65124,-23.85857],[-147.65587,-23.86387]]],[[[-149.46128,-23.39343],[-149.48346,-23.39605],[-149.49358,-23.39898],[-149.5078,-23.40049],[-149.51001,-23.39937],[-149.52508,-23.38145],[-149.52672,-23.3681],[-149.52143,-23.36273],[-149.5089,-23.35955],[-149.48168,-23.35784],[-149.45649,-23.36533],[-149.45092,-23.38112],[-149.46128,-23.39343]]],[[[-151.35591,-22.45664],[-151.35698,-22.47355],[-151.37254,-22.46506],[-151.3769,-22.45353],[-151.37684,-22.44321],[-151.37122,-22.43333],[-151.36927,-22.43228],[-151.3675,-22.43418],[-151.35924,-22.44752],[-151.35591,-22.45664]]],[[[-154.69514,-21.80584],[-154.69555,-21.806],[-154.6959,-21.80547],[-154.69894,-21.80432],[-154.70091,-21.80231],[-154.70083,-21.79813],[-154.69917,-21.7977],[-154.69758,-21.79884],[-154.69583,-21.80169],[-154.69514,-21.80584]]],[[[-149.33892,-17.74189],[-149.33929,-17.74048],[-149.3391,-17.74055],[-149.33892,-17.74189]]],[[[-149.35279,-17.54153],[-149.34407,-17.55071],[-149.33556,-17.56406],[-149.32966,-17.57985],[-149.32746,-17.59783],[-149.33027,-17.66375],[-149.32746,-17.68418],[-149.3041,-17.7119],[-149.30538,-17.72119],[-149.29927,-17.72783],[-149.28598,-17.72988],[-149.27404,-17.7367],[-149.25771,-17.73912],[-149.24605,-17.73471],[-149.21897,-17.73673],[-149.21838,-17.74172],[-149.21317,-17.74483],[-149.20266,-17.74252],[-149.20058,-17.74735],[-149.19189,-17.75033],[-149.16574,-17.753],[-149.1674,-17.75684],[-149.16446,-17.75263],[-149.16063,-17.75693],[-149.14912,-17.80202],[-149.15644,-17.84629],[-149.1903,-17.86907],[-149.20641,-17.86663],[-149.2517,-17.85424],[-149.25169,-17.85423],[-149.25177,-17.85183],[-149.25375,-17.85368],[-149.25987,-17.85201],[-149.26112,-17.84945],[-149.26715,-17.84889],[-149.26979,-17.84769],[-149.27031,-17.84409],[-149.28673,-17.82565],[-149.29139,-17.82543],[-149.29643,-17.81908],[-149.29213,-17.80727],[-149.29718,-17.80096],[-149.29891,-17.78901],[-149.31054,-17.77872],[-149.31014,-17.76826],[-149.31967,-17.75986],[-149.31746,-17.7574],[-149.32275,-17.75051],[-149.31665,-17.74756],[-149.32293,-17.74774],[-149.32365,-17.7503],[-149.32869,-17.74869],[-149.33239,-17.74613],[-149.32749,-17.74854],[-149.32999,-17.74156],[-149.3184,-17.73834],[-149.31876,-17.73493],[-149.32539,-17.73435],[-149.31945,-17.73033],[-149.32513,-17.72805],[-149.33164,-17.7304],[-149.33199,-17.73541],[-149.33919,-17.73533],[-149.33527,-17.73936],[-149.33957,-17.73943],[-149.34346,-17.72487],[-149.34797,-17.71819],[-149.35753,-17.71787],[-149.36254,-17.72527],[-149.3662,-17.73431],[-149.37182,-17.7387],[-149.39192,-17.74139],[-149.45039,-17.75921],[-149.47204,-17.76051],[-149.48786,-17.75799],[-149.51924,-17.74619],[-149.57612,-17.73756],[-149.57897,-17.73597],[-149.58462,-17.71084],[-149.58646,-17.68404],[-149.60372,-17.64647],[-149.61624,-17.6343],[-149.61301,-17.62608],[-149.61678,-17.61494],[-149.61239,-17.59716],[-149.61688,-17.5845],[-149.61628,-17.57539],[-149.62006,-17.57395],[-149.6192,-17.56964],[-149.61559,-17.56928],[-149.62037,-17.56205],[-149.61356,-17.55256],[-149.6087,-17.55407],[-149.59384,-17.54426],[-149.58303,-17.54546],[-149.57,-17.54028],[-149.5697,-17.53322],[-149.57408,-17.53244],[-149.57428,-17.52942],[-149.56779,-17.52627],[-149.56657,-17.52867],[-149.55626,-17.52432],[-149.54916,-17.5262],[-149.54291,-17.52091],[-149.53555,-17.52564],[-149.52604,-17.52037],[-149.52297,-17.52387],[-149.51236,-17.52215],[-149.50507,-17.51637],[-149.50691,-17.51212],[-149.50017,-17.51074],[-149.49471,-17.50427],[-149.49416,-17.49598],[-149.49117,-17.49568],[-149.46658,-17.50734],[-149.42869,-17.50732],[-149.42086,-17.51119],[-149.42511,-17.52216],[-149.41963,-17.51163],[-149.39515,-17.52095],[-149.37715,-17.53721],[-149.35279,-17.54153]],[[-149.41748,-17.68233],[-149.41556,-17.68139],[-149.41549,-17.6788],[-149.41643,-17.67671],[-149.41951,-17.67868],[-149.41748,-17.68233]],[[-149.45486,-17.65386],[-149.45331,-17.65535],[-149.45059,-17.65276],[-149.45486,-17.65386]],[[-149.33602,-17.63166],[-149.33582,-17.62991],[-149.33847,-17.63076],[-149.33602,-17.63166]],[[-149.41756,-17.58914],[-149.41795,-17.58634],[-149.42035,-17.58561],[-149.41809,-17.59017],[-149.41756,-17.58914]]],[[[-150.65151,-17.66459],[-150.64318,-17.65545],[-150.6408,-17.66434],[-150.64405,-17.66369],[-150.65022,-17.66687],[-150.65151,-17.66459]]],[[[-149.57843,-17.53223],[-149.57456,-17.5356],[-149.57661,-17.53906],[-149.57995,-17.5372],[-149.57865,-17.53271],[-149.58183,-17.53334],[-149.57207,-17.52539],[-149.57545,-17.52962],[-149.57843,-17.53223]]],[[[-149.86348,-17.49728],[-149.85892,-17.50963],[-149.85083,-17.51817],[-149.84864,-17.51663],[-149.85388,-17.50053],[-149.84487,-17.48483],[-149.82806,-17.48563],[-149.82398,-17.50631],[-149.82029,-17.5071],[-149.81684,-17.50244],[-149.81854,-17.48849],[-149.81607,-17.48382],[-149.78571,-17.4776],[-149.78563,-17.47918],[-149.80476,-17.52337],[-149.82246,-17.54974],[-149.84276,-17.56756],[-149.86189,-17.56683],[-149.87034,-17.56267],[-149.87293,-17.55742],[-149.90342,-17.53674],[-149.91497,-17.51242],[-149.91341,-17.49347],[-149.89392,-17.48989],[-149.87785,-17.49413],[-149.87658,-17.49144],[-149.87055,-17.49207],[-149.86348,-17.49728]],[[-149.84824,-17.51982],[-149.84795,-17.51821],[-149.8498,-17.51756],[-149.84824,-17.51982]]],[[[-149.91549,-17.48991],[-149.91328,-17.49015],[-149.92032,-17.49022],[-149.91698,-17.48778],[-149.91549,-17.48991]]],[[[-149.91391,-17.48688],[-149.91055,-17.48653],[-149.91144,-17.48892],[-149.91391,-17.48688]]],[[[-149.57579,-16.99049],[-149.58498,-16.99874],[-149.58588,-16.99586],[-149.58269,-16.98926],[-149.57011,-16.98422],[-149.56985,-16.98425],[-149.57234,-16.9874],[-149.57313,-16.98811],[-149.5742,-16.98793],[-149.57579,-16.99049]]],[[[-151.46987,-16.88836],[-151.46472,-16.88406],[-151.46439,-16.88575],[-151.46987,-16.88836]]],[[[-151.47073,-16.87045],[-151.47592,-16.86922],[-151.47438,-16.86747],[-151.47177,-16.86936],[-151.47073,-16.87045]]],[[[-151.48855,-16.85022],[-151.48753,-16.84908],[-151.4882,-16.85067],[-151.48851,-16.85079],[-151.48855,-16.85022]]],[[[-151.48985,-16.82974],[-151.48936,-16.82853],[-151.48679,-16.83146],[-151.48985,-16.82974]]],[[[-151.40802,-16.78637],[-151.40857,-16.79388],[-151.40023,-16.79614],[-151.40001,-16.79643],[-151.41696,-16.81523],[-151.42119,-16.82471],[-151.41838,-16.82184],[-151.41781,-16.82527],[-151.40367,-16.80785],[-151.39553,-16.80899],[-151.39849,-16.81694],[-151.39707,-16.82027],[-151.39294,-16.81985],[-151.39262,-16.82783],[-151.3892,-16.82862],[-151.38171,-16.82281],[-151.37906,-16.82383],[-151.37285,-16.83195],[-151.37605,-16.83576],[-151.3698,-16.83594],[-151.36437,-16.84304],[-151.37096,-16.84551],[-151.36937,-16.84771],[-151.36157,-16.8467],[-151.35368,-16.85702],[-151.35446,-16.85992],[-151.36408,-16.86647],[-151.40087,-16.88535],[-151.4125,-16.88854],[-151.41509,-16.88814],[-151.41509,-16.88815],[-151.41984,-16.88493],[-151.42205,-16.8794],[-151.42639,-16.8765],[-151.42801,-16.88193],[-151.42939,-16.88193],[-151.43159,-16.89219],[-151.43257,-16.89426],[-151.43354,-16.89478],[-151.43353,-16.8963],[-151.43415,-16.89764],[-151.44054,-16.90114],[-151.44917,-16.90293],[-151.45824,-16.9026],[-151.46618,-16.89734],[-151.46463,-16.89326],[-151.45819,-16.8871],[-151.46688,-16.87869],[-151.47158,-16.86644],[-151.4642,-16.85925],[-151.47166,-16.85629],[-151.47974,-16.86118],[-151.48206,-16.85905],[-151.47818,-16.85012],[-151.48254,-16.84594],[-151.48074,-16.842],[-151.48373,-16.83771],[-151.47867,-16.83095],[-151.48166,-16.82766],[-151.4774,-16.8237],[-151.47768,-16.81748],[-151.48336,-16.8192],[-151.49244,-16.7964],[-151.49268,-16.79304],[-151.48924,-16.78925],[-151.48886,-16.78177],[-151.49214,-16.76418],[-151.48622,-16.75774],[-151.49257,-16.75777],[-151.49129,-16.75064],[-151.4912,-16.75026],[-151.48662,-16.74583],[-151.48192,-16.74745],[-151.48419,-16.74348],[-151.47875,-16.73821],[-151.46467,-16.73642],[-151.44652,-16.74049],[-151.43769,-16.7446],[-151.43156,-16.74864],[-151.43304,-16.7519],[-151.42232,-16.76269],[-151.42348,-16.77747],[-151.41472,-16.77556],[-151.41426,-16.77656],[-151.41532,-16.7826],[-151.40802,-16.78637]]],[[[-153.92294,-16.82517],[-153.93898,-16.79759],[-153.94059,-16.78236],[-153.94778,-16.77553],[-153.94967,-16.7757],[-153.95067,-16.77386],[-153.94498,-16.7744],[-153.93998,-16.7792],[-153.93639,-16.79637],[-153.92629,-16.81238],[-153.9228,-16.8209],[-153.92016,-16.8317],[-153.92017,-16.83172],[-153.92426,-16.8318],[-153.92582,-16.82959],[-153.92294,-16.82517]]],[[[-151.00088,-16.80909],[-151.01103,-16.79763],[-151.00131,-16.78891],[-151.00682,-16.78121],[-151.01156,-16.78128],[-151.01049,-16.79233],[-151.01541,-16.79394],[-151.02327,-16.78761],[-151.01604,-16.78209],[-151.01931,-16.78017],[-151.026,-16.78337],[-151.0273,-16.77849],[-151.01959,-16.77793],[-151.01667,-16.77249],[-151.01505,-16.77239],[-151.01298,-16.77329],[-151.01169,-16.77219],[-151.0111,-16.77215],[-151.00581,-16.76922],[-151.00473,-16.76658],[-150.99173,-16.76401],[-150.98534,-16.76922],[-150.97912,-16.77972],[-150.97838,-16.78802],[-150.97956,-16.80039],[-150.98388,-16.80926],[-150.99279,-16.80706],[-150.99366,-16.80984],[-151.00088,-16.80909]]],[[[-151.03374,-16.77672],[-151.03192,-16.77804],[-151.03365,-16.77831],[-151.03429,-16.77691],[-151.03374,-16.77672]]],[[[-151.0366,-16.72198],[-151.03154,-16.72209],[-151.03908,-16.71021],[-151.04,-16.70231],[-151.03343,-16.69377],[-151.029,-16.69248],[-151.02627,-16.7081],[-151.00756,-16.74049],[-151.00951,-16.7457],[-151.01635,-16.74871],[-151.02416,-16.75563],[-151.0267,-16.75741],[-151.02628,-16.7559],[-151.0364,-16.76265],[-151.03638,-16.7632],[-151.04282,-16.76486],[-151.04197,-16.76354],[-151.04681,-16.75842],[-151.04375,-16.74822],[-151.04542,-16.73837],[-151.0411,-16.73232],[-151.03053,-16.73888],[-151.0376,-16.729],[-151.0366,-16.72198]]],[[[-151.48391,-16.58938],[-151.47712,-16.58205],[-151.47513,-16.58691],[-151.47655,-16.59051],[-151.47875,-16.59417],[-151.46272,-16.59356],[-151.46277,-16.59497],[-151.44335,-16.60403],[-151.44777,-16.61141],[-151.43793,-16.614],[-151.43782,-16.61468],[-151.44115,-16.61981],[-151.44819,-16.6242],[-151.45279,-16.6264],[-151.45602,-16.62548],[-151.45962,-16.62717],[-151.4584,-16.63219],[-151.45896,-16.64348],[-151.45959,-16.64326],[-151.46289,-16.6347],[-151.47598,-16.63674],[-151.47765,-16.63947],[-151.48698,-16.6331],[-151.49367,-16.63907],[-151.48978,-16.63831],[-151.48235,-16.64437],[-151.45922,-16.64874],[-151.45983,-16.66107],[-151.46325,-16.67409],[-151.4726,-16.66985],[-151.48054,-16.66497],[-151.48746,-16.662],[-151.48882,-16.65435],[-151.49295,-16.65911],[-151.4993,-16.65332],[-151.49806,-16.65744],[-151.52074,-16.64768],[-151.51178,-16.63971],[-151.52679,-16.64508],[-151.53466,-16.6417],[-151.54039,-16.63649],[-151.54088,-16.63104],[-151.53612,-16.5949],[-151.52943,-16.58843],[-151.52501,-16.58885],[-151.52291,-16.58283],[-151.50268,-16.58017],[-151.50032,-16.58074],[-151.49821,-16.5846],[-151.49688,-16.58193],[-151.48395,-16.58114],[-151.48391,-16.58938]]],[[[-151.76725,-16.50625],[-151.76483,-16.50931],[-151.76496,-16.52353],[-151.77069,-16.51788],[-151.76725,-16.50625]]],[[[-151.74984,-16.5111],[-151.75343,-16.50565],[-151.75212,-16.50037],[-151.76013,-16.49791],[-151.75971,-16.48726],[-151.75159,-16.49173],[-151.74836,-16.50433],[-151.74782,-16.51263],[-151.74984,-16.5111]]],[[[-151.77767,-16.47717],[-151.77268,-16.47543],[-151.77513,-16.47972],[-151.77767,-16.47717]]],[[[-151.76308,-16.47314],[-151.76193,-16.47443],[-151.76357,-16.47338],[-151.76308,-16.47314]]],[[[-152.24743,-16.44554],[-152.2563,-16.45127],[-152.26362,-16.4472],[-152.26146,-16.4415],[-152.24743,-16.44341],[-152.24713,-16.44451],[-152.24743,-16.44554]]],[[[-146.34008,-16.13786],[-146.34225,-16.12856],[-146.35135,-16.12359],[-146.36164,-16.1218],[-146.37691,-16.12728],[-146.38324,-16.13313],[-146.38819,-16.14824],[-146.38831,-16.14885],[-146.39175,-16.14723],[-146.39605,-16.14005],[-146.39596,-16.13974],[-146.36897,-16.11715],[-146.34765,-16.11899],[-146.33472,-16.12747],[-146.33041,-16.13317],[-146.32877,-16.13763],[-146.33091,-16.14298],[-146.33129,-16.14144],[-146.34008,-16.13786]]],[[[-148.23078,-15.85687],[-148.23872,-15.86395],[-148.25084,-15.86745],[-148.27172,-15.8532],[-148.27921,-15.83097],[-148.27519,-15.81244],[-148.26737,-15.8055],[-148.25947,-15.80598],[-148.25713,-15.81658],[-148.24693,-15.83317],[-148.24101,-15.83738],[-148.239,-15.83961],[-148.22993,-15.84808],[-148.23078,-15.85687]]],[[[-146.48192,-15.82692],[-146.48435,-15.8217],[-146.48421,-15.8215],[-146.48905,-15.81012],[-146.49036,-15.80878],[-146.49059,-15.80828],[-146.49492,-15.80146],[-146.48816,-15.80794],[-146.48179,-15.82337],[-146.48192,-15.82692]]],[[[-146.19763,-15.33417],[-146.19669,-15.33563],[-146.19507,-15.34003],[-146.19997,-15.33645],[-146.2023,-15.33326],[-146.19763,-15.33417]]],[[[-146.61615,-15.24709],[-146.61147,-15.24926],[-146.60401,-15.25742],[-146.60311,-15.26502],[-146.60583,-15.26168],[-146.606,-15.26066],[-146.60816,-15.25882],[-146.6101,-15.25644],[-146.61615,-15.24709]]],[[[-147.25522,-15.23301],[-147.25453,-15.2328],[-147.2541,-15.23249],[-147.24226,-15.23235],[-147.23879,-15.23507],[-147.23842,-15.23606],[-147.23742,-15.24424],[-147.23893,-15.24244],[-147.24015,-15.23869],[-147.24305,-15.238],[-147.24187,-15.23389],[-147.24797,-15.2361],[-147.25089,-15.23504],[-147.25522,-15.23301]]],[[[-147.76655,-15.22201],[-147.76649,-15.22113],[-147.75632,-15.22662],[-147.76655,-15.22201]]],[[[-147.77642,-15.21488],[-147.76859,-15.21991],[-147.76929,-15.22077],[-147.77896,-15.2164],[-147.77642,-15.21488]]],[[[-147.47474,-15.10712],[-147.47072,-15.11075],[-147.47222,-15.11103],[-147.47494,-15.10891],[-147.47488,-15.10879],[-147.47496,-15.1089],[-147.47938,-15.10545],[-147.47474,-15.10712]]],[[[-147.52275,-15.07263],[-147.52204,-15.0735],[-147.51919,-15.07584],[-147.5263,-15.07169],[-147.52617,-15.0716],[-147.52648,-15.07159],[-147.53029,-15.06936],[-147.53034,-15.06926],[-147.52275,-15.07263]]],[[[-147.93782,-15.0709],[-147.93767,-15.07037],[-147.93575,-15.07029],[-147.9362,-15.07452],[-147.93668,-15.07391],[-147.93782,-15.0709]]],[[[-148.04893,-14.98475],[-148.04699,-14.99273],[-148.04725,-14.99546],[-148.05011,-14.99107],[-148.04893,-14.98475]]],[[[-148.62544,-14.88648],[-148.628,-14.89471],[-148.63287,-14.8891],[-148.62908,-14.88657],[-148.6307,-14.87728],[-148.63957,-14.87128],[-148.66238,-14.86568],[-148.67048,-14.86227],[-148.63353,-14.87173],[-148.62845,-14.87638],[-148.62544,-14.88648]]],[[[-144.32964,-27.61942],[-144.31476,-27.61349],[-144.31497,-27.61999],[-144.30505,-27.62174],[-144.32147,-27.62538],[-144.31989,-27.62865],[-144.31071,-27.63016],[-144.30817,-27.63586],[-144.3088,-27.63644],[-144.31802,-27.63621],[-144.31772,-27.64059],[-144.32364,-27.64121],[-144.33837,-27.63372],[-144.34659,-27.61533],[-144.34685,-27.6097],[-144.34147,-27.61703],[-144.32964,-27.61942]]],[[[-144.30154,-27.62073],[-144.30187,-27.62233],[-144.30366,-27.62163],[-144.30154,-27.62073]]],[[[-144.32903,-27.57809],[-144.32422,-27.58352],[-144.31765,-27.57593],[-144.31301,-27.58491],[-144.30882,-27.58676],[-144.31191,-27.5899],[-144.31045,-27.59803],[-144.31811,-27.60059],[-144.31233,-27.60461],[-144.31908,-27.60426],[-144.33377,-27.61058],[-144.34025,-27.60623],[-144.34174,-27.59982],[-144.34678,-27.59946],[-144.3473,-27.59998],[-144.34797,-27.58554],[-144.34495,-27.57625],[-144.34412,-27.57823],[-144.34129,-27.57687],[-144.34268,-27.57129],[-144.33953,-27.5673],[-144.33401,-27.56912],[-144.33309,-27.57518],[-144.3294,-27.56958],[-144.32903,-27.57809]]],[[[-145.58171,-17.37795],[-145.58345,-17.3752],[-145.58138,-17.37445],[-145.58171,-17.37795]]],[[[-145.58592,-17.37129],[-145.58621,-17.37083],[-145.58338,-17.36947],[-145.58592,-17.37129]]],[[[-145.59331,-17.33952],[-145.59331,-17.33934],[-145.59323,-17.3394],[-145.59331,-17.33952]]],[[[-145.59066,-17.3338],[-145.59018,-17.33576],[-145.59129,-17.33701],[-145.59318,-17.3349],[-145.5931,-17.33237],[-145.59066,-17.3338]]],[[[-145.59299,-17.32852],[-145.59203,-17.32827],[-145.59203,-17.32828],[-145.59299,-17.32852]]],[[[-144.0728,-16.73447],[-144.07233,-16.73376],[-144.07353,-16.72415],[-144.08095,-16.71744],[-144.08007,-16.71722],[-144.07319,-16.7227],[-144.07063,-16.72755],[-144.07062,-16.73756],[-144.0728,-16.73447]]],[[[-144.18701,-16.6488],[-144.18896,-16.6454],[-144.18814,-16.64569],[-144.18663,-16.64696],[-144.1839,-16.65313],[-144.18423,-16.66027],[-144.18527,-16.6597],[-144.18701,-16.6488]]],[[[-143.49135,-16.617],[-143.49887,-16.62104],[-143.52793,-16.62018],[-143.4988,-16.61765],[-143.49891,-16.6196],[-143.50046,-16.6203],[-143.49786,-16.61931],[-143.49875,-16.61764],[-143.49135,-16.617]]],[[[-144.26063,-16.45154],[-144.26085,-16.45086],[-144.28567,-16.42241],[-144.25667,-16.45267],[-144.25152,-16.46197],[-144.25212,-16.46394],[-144.25764,-16.45452],[-144.26063,-16.45154]]],[[[-145.49569,-16.33102],[-145.49397,-16.33522],[-145.49078,-16.33866],[-145.49062,-16.33938],[-145.48665,-16.34538],[-145.49264,-16.34202],[-145.49354,-16.34093],[-145.49569,-16.33102]]],[[[-145.52626,-16.28316],[-145.52859,-16.28162],[-145.52961,-16.27947],[-145.54655,-16.25978],[-145.54764,-16.24912],[-145.55441,-16.23822],[-145.54876,-16.24438],[-145.54,-16.26529],[-145.53021,-16.27633],[-145.51503,-16.2839],[-145.51329,-16.28814],[-145.52626,-16.28316]]],[[[-145.58218,-16.1491],[-145.58042,-16.1532],[-145.58771,-16.1448],[-145.58218,-16.1491]]],[[[-145.60284,-16.12177],[-145.59597,-16.13529],[-145.59976,-16.13092],[-145.60284,-16.12177]]],[[[-145.61156,-16.09581],[-145.61388,-16.08026],[-145.61095,-16.09735],[-145.60898,-16.1035],[-145.61156,-16.09581]]],[[[-145.64178,-16.04789],[-145.62085,-16.04996],[-145.61937,-16.05335],[-145.62163,-16.05353],[-145.64102,-16.05054],[-145.65548,-16.0545],[-145.66111,-16.05667],[-145.66713,-16.05715],[-145.64178,-16.04789]]],[[[-145.05773,-15.90211],[-145.06147,-15.89344],[-145.0578,-15.90029],[-145.05773,-15.90211]]],[[[-145.90938,-15.87827],[-145.91934,-15.86891],[-145.91419,-15.87178],[-145.90938,-15.87827]]],[[[-145.10207,-15.81244],[-145.10368,-15.80599],[-145.1009,-15.81106],[-145.10262,-15.81918],[-145.10396,-15.81715],[-145.10207,-15.81244]]],[[[-145.11411,-15.78696],[-145.12291,-15.78298],[-145.12725,-15.78197],[-145.12918,-15.77906],[-145.11789,-15.78168],[-145.11658,-15.78245],[-145.11411,-15.78696]]],[[[-144.64922,-15.74831],[-144.64619,-15.75156],[-144.64891,-15.74928],[-144.64922,-15.74831]]],[[[-144.65172,-15.74017],[-144.65155,-15.73924],[-144.651,-15.7425],[-144.65172,-15.74017]]],[[[-144.62194,-15.73602],[-144.62171,-15.73766],[-144.62707,-15.73244],[-144.62194,-15.73602]]],[[[-144.64981,-15.73016],[-144.64851,-15.73003],[-144.6511,-15.73691],[-144.64981,-15.73016]]],[[[-145.44199,-15.49282],[-145.44649,-15.48887],[-145.44814,-15.48862],[-145.45222,-15.48555],[-145.44409,-15.48625],[-145.43914,-15.49072],[-145.43807,-15.49619],[-145.44192,-15.4933],[-145.44199,-15.49282]]],[[[-146.19449,-15.36054],[-146.19393,-15.35723],[-146.19416,-15.35947],[-146.19449,-15.36054]]],[[[-145.26201,-14.69673],[-145.26217,-14.69617],[-145.25739,-14.68227],[-145.25029,-14.67276],[-145.25167,-14.67905],[-145.25635,-14.68811],[-145.25604,-14.69961],[-145.25385,-14.70087],[-145.25742,-14.70166],[-145.26201,-14.69673]]],[[[-145.21622,-14.68334],[-145.22297,-14.68841],[-145.2232,-14.68852],[-145.21421,-14.67514],[-145.20986,-14.67218],[-145.20969,-14.67533],[-145.21622,-14.68334]]],[[[-145.23676,-14.63328],[-145.23799,-14.64118],[-145.24409,-14.65637],[-145.24041,-14.6441],[-145.23943,-14.63813],[-145.23676,-14.63328]]],[[[-144.97614,-14.48596],[-144.97742,-14.48704],[-144.97798,-14.48644],[-144.97671,-14.48519],[-144.97614,-14.48596]]],[[[-144.97573,-14.48422],[-144.97474,-14.48325],[-144.97291,-14.48247],[-144.97224,-14.48396],[-144.97423,-14.48515],[-144.97573,-14.48422]]],[[[-144.96707,-14.48207],[-144.96797,-14.48273],[-144.97266,-14.48242],[-144.96252,-14.47758],[-144.96707,-14.48207]]],[[[-144.94017,-14.46164],[-144.93436,-14.45242],[-144.93342,-14.45191],[-144.93848,-14.46102],[-144.94017,-14.46164]]],[[[-144.9851,-14.43231],[-144.98352,-14.43188],[-144.98537,-14.43512],[-144.99248,-14.44052],[-145.00015,-14.44229],[-144.99383,-14.43748],[-144.9851,-14.43231]]],[[[-145.92363,-14.43431],[-145.92352,-14.43423],[-145.92349,-14.43425],[-145.92363,-14.43431]]],[[[-144.88315,-14.41583],[-144.8975,-14.42915],[-144.90077,-14.43016],[-144.88805,-14.41815],[-144.8911,-14.41936],[-144.88809,-14.41662],[-144.87969,-14.41243],[-144.8799,-14.4147],[-144.88315,-14.41583]]],[[[-145.84277,-14.35877],[-145.8444,-14.35589],[-145.84356,-14.35155],[-145.84149,-14.35595],[-145.84277,-14.35877]]],[[[-145.85025,-14.34555],[-145.85436,-14.33828],[-145.8496,-14.33939],[-145.84785,-14.34244],[-145.84612,-14.34612],[-145.85025,-14.34555]]],[[[-140.64038,-21.7102],[-140.63822,-21.71021],[-140.63743,-21.71261],[-140.64038,-21.7102]]],[[[-140.64002,-21.70901],[-140.64207,-21.70909],[-140.64224,-21.70769],[-140.64002,-21.70901]]],[[[-140.64484,-21.70829],[-140.64343,-21.70698],[-140.64365,-21.70845],[-140.64484,-21.70829]]],[[[-140.64526,-21.70773],[-140.64575,-21.70689],[-140.64537,-21.70589],[-140.64526,-21.70773]]],[[[-140.64711,-21.70409],[-140.64692,-21.70642],[-140.64836,-21.70566],[-140.64711,-21.70409]]],[[[-140.66541,-21.70296],[-140.65511,-21.70359],[-140.6631,-21.70611],[-140.66541,-21.70296]]],[[[-140.67106,-21.67499],[-140.6723,-21.67889],[-140.6748,-21.68131],[-140.67426,-21.6771],[-140.67106,-21.67499]]],[[[-140.66705,-21.66717],[-140.66139,-21.66406],[-140.66298,-21.6655],[-140.66606,-21.67226],[-140.66913,-21.67211],[-140.66705,-21.66717]]],[[[-140.65668,-21.65822],[-140.65869,-21.66286],[-140.66093,-21.6632],[-140.65668,-21.65822]]],[[[-140.65562,-21.64861],[-140.65337,-21.64718],[-140.65577,-21.65616],[-140.65562,-21.64861]]],[[[-141.23207,-19.21931],[-141.23167,-19.21929],[-141.23203,-19.2195],[-141.23207,-19.21931]]],[[[-141.22972,-19.21862],[-141.22758,-19.20834],[-141.22753,-19.20843],[-141.22893,-19.21764],[-141.22972,-19.21862]]],[[[-141.25951,-19.20112],[-141.26077,-19.19813],[-141.25899,-19.19635],[-141.25757,-19.20042],[-141.25951,-19.20112]]],[[[-140.66494,-19.14339],[-140.66436,-19.14467],[-140.67544,-19.15466],[-140.6817,-19.15661],[-140.67821,-19.15247],[-140.66619,-19.14609],[-140.66494,-19.14339]]],[[[-140.71823,-19.13284],[-140.71869,-19.13196],[-140.71511,-19.12994],[-140.71453,-19.13193],[-140.71823,-19.13284]]],[[[-140.67921,-18.40472],[-140.67983,-18.40443],[-140.68098,-18.40228],[-140.68439,-18.39941],[-140.67986,-18.40159],[-140.67823,-18.40383],[-140.67195,-18.41717],[-140.67331,-18.41555],[-140.67921,-18.40472]]],[[[-140.76738,-18.35233],[-140.77009,-18.35027],[-140.77244,-18.34753],[-140.72428,-18.37129],[-140.71433,-18.38148],[-140.7202,-18.37875],[-140.72189,-18.37525],[-140.76738,-18.35233]]],[[[-140.88604,-18.14297],[-140.88956,-18.13815],[-140.87731,-18.15057],[-140.86354,-18.16061],[-140.83094,-18.18939],[-140.82995,-18.19036],[-140.82916,-18.19338],[-140.88604,-18.14297]]],[[[-140.94865,-18.07388],[-140.94228,-18.07683],[-140.93425,-18.08455],[-140.92074,-18.09208],[-140.91877,-18.09537],[-140.93546,-18.08619],[-140.94865,-18.07388]]],[[[-140.97011,-18.0631],[-140.96965,-18.06299],[-140.96638,-18.06525],[-140.96759,-18.06516],[-140.97011,-18.0631]]],[[[-143.06485,-17.8637],[-143.06491,-17.8636],[-143.06505,-17.86335],[-143.06268,-17.86047],[-143.06164,-17.86657],[-143.06485,-17.8637]]],[[[-143.06374,-17.8579],[-143.06369,-17.85851],[-143.06384,-17.85769],[-143.06374,-17.8579]]],[[[-143.08779,-17.84724],[-143.08321,-17.84083],[-143.07987,-17.83791],[-143.07503,-17.83951],[-143.08859,-17.84955],[-143.08789,-17.85772],[-143.0911,-17.85434],[-143.08779,-17.84724]]],[[[-140.82492,-17.81138],[-140.82381,-17.80919],[-140.82358,-17.81003],[-140.82492,-17.81138]]],[[[-140.82319,-17.80795],[-140.82274,-17.80706],[-140.82148,-17.8058],[-140.82075,-17.80643],[-140.82216,-17.80845],[-140.82319,-17.80795]]],[[[-140.81884,-17.80314],[-140.81944,-17.80428],[-140.81969,-17.804],[-140.81884,-17.80314]]],[[[-140.67288,-17.77042],[-140.6661,-17.76201],[-140.6683,-17.76783],[-140.67384,-17.77446],[-140.67288,-17.77042]]],[[[-140.66547,-17.76035],[-140.66443,-17.7573],[-140.66229,-17.75782],[-140.66388,-17.76173],[-140.66547,-17.76035]]],[[[-140.66188,-17.75519],[-140.66042,-17.75621],[-140.66099,-17.75751],[-140.66289,-17.75611],[-140.66188,-17.75519]]],[[[-140.7956,-17.77474],[-140.79341,-17.77089],[-140.7934,-17.77088],[-140.7557,-17.75608],[-140.73163,-17.73443],[-140.69769,-17.70919],[-140.69637,-17.7112],[-140.70302,-17.71544],[-140.76146,-17.762],[-140.7956,-17.77474]]],[[[-140.65905,-17.71363],[-140.66933,-17.70888],[-140.68586,-17.70708],[-140.69549,-17.71069],[-140.69678,-17.70858],[-140.6842,-17.70503],[-140.66574,-17.70771],[-140.64692,-17.71999],[-140.64833,-17.73674],[-140.65829,-17.75534],[-140.66071,-17.75321],[-140.6515,-17.73943],[-140.65056,-17.72493],[-140.64827,-17.72411],[-140.65905,-17.71363]]],[[[-142.58256,-17.57101],[-142.58713,-17.56496],[-142.57763,-17.57171],[-142.57216,-17.57944],[-142.58256,-17.57101]]],[[[-142.6312,-17.54037],[-142.61829,-17.54388],[-142.61434,-17.54597],[-142.61227,-17.54711],[-142.60006,-17.55577],[-142.62999,-17.54149],[-142.6312,-17.54037]]],[[[-140.88022,-15.83826],[-140.87621,-15.83423],[-140.87525,-15.83418],[-140.87971,-15.83831],[-140.88022,-15.83826]]],[[[-140.8801,-15.83535],[-140.88251,-15.83802],[-140.88594,-15.83766],[-140.88838,-15.83573],[-140.88324,-15.83281],[-140.8801,-15.83535]]],[[[-140.8852,-15.83212],[-140.88733,-15.83297],[-140.88708,-15.8304],[-140.88596,-15.83108],[-140.8852,-15.83212]]],[[[-140.88891,-15.83179],[-140.8887,-15.82785],[-140.8874,-15.82942],[-140.88891,-15.83179]]],[[[-140.86144,-15.81552],[-140.85616,-15.81552],[-140.87878,-15.8221],[-140.89013,-15.82229],[-140.88873,-15.82601],[-140.89388,-15.83377],[-140.89501,-15.83294],[-140.89562,-15.82684],[-140.88899,-15.81976],[-140.86144,-15.81552]]],[[[-141.17895,-14.19569],[-141.18027,-14.19598],[-141.18928,-14.1902],[-141.19079,-14.18858],[-141.18623,-14.18919],[-141.18636,-14.18445],[-141.20516,-14.16893],[-141.20275,-14.17018],[-141.17799,-14.18726],[-141.17703,-14.18858],[-141.17714,-14.1932],[-141.17895,-14.19569]]],[[[-140.71239,-7.98495],[-140.70603,-7.9854],[-140.70891,-7.97981],[-140.70442,-7.97873],[-140.70325,-7.97171],[-140.7006,-7.97567],[-140.6983,-7.97032],[-140.68959,-7.97369],[-140.68826,-7.96975],[-140.67417,-7.96802],[-140.67217,-7.96227],[-140.66754,-7.96854],[-140.66126,-7.95776],[-140.65558,-7.96208],[-140.65335,-7.95561],[-140.64756,-7.95721],[-140.64674,-7.95764],[-140.64822,-7.9636],[-140.6436,-7.96222],[-140.64306,-7.96324],[-140.65307,-7.9708],[-140.65831,-7.9734],[-140.67565,-7.97674],[-140.68391,-7.98528],[-140.69245,-8.01507],[-140.69888,-8.02899],[-140.70783,-8.03973],[-140.71697,-8.04115],[-140.71727,-8.04082],[-140.72153,-8.03043],[-140.72009,-8.01875],[-140.72355,-8.01777],[-140.72001,-8.01327],[-140.71695,-7.9923],[-140.70787,-7.99513],[-140.71239,-7.98495]]],[[[-135.01066,-23.11708],[-134.99834,-23.11633],[-134.99692,-23.11844],[-134.97959,-23.11997],[-134.97549,-23.11525],[-134.97649,-23.11039],[-134.98113,-23.10294],[-134.97874,-23.10104],[-134.97788,-23.10308],[-134.9719,-23.10285],[-134.97052,-23.09451],[-134.96675,-23.09152],[-134.95783,-23.09682],[-134.95039,-23.08587],[-134.94298,-23.08359],[-134.95055,-23.09694],[-134.95261,-23.09948],[-134.96638,-23.11036],[-134.96943,-23.1171],[-134.96841,-23.11892],[-134.98162,-23.13518],[-134.98186,-23.1352],[-134.99472,-23.13071],[-134.99992,-23.12263],[-135.00961,-23.11915],[-135.01066,-23.11708]]],[[[-138.88989,-21.86748],[-138.87371,-21.87082],[-138.87368,-21.87127],[-138.88433,-21.87127],[-138.88989,-21.86748]]],[[[-138.90891,-21.8659],[-138.90603,-21.86682],[-138.92746,-21.87125],[-138.92008,-21.86783],[-138.90891,-21.8659]]],[[[-138.90044,-21.86507],[-138.90032,-21.86506],[-138.89547,-21.86553],[-138.89448,-21.86722],[-138.90221,-21.86668],[-138.90044,-21.86507]]],[[[-140.62897,-21.71801],[-140.62739,-21.71988],[-140.62751,-21.71995],[-140.63012,-21.7176],[-140.62834,-21.71655],[-140.62897,-21.71801]]],[[[-140.63155,-21.71604],[-140.63228,-21.7154],[-140.63058,-21.7147],[-140.63155,-21.71604]]],[[[-140.63342,-21.71486],[-140.63538,-21.71359],[-140.63438,-21.71246],[-140.63304,-21.71384],[-140.63342,-21.71486]]],[[[-135.45751,-21.52801],[-135.45909,-21.52706],[-135.4586,-21.52631],[-135.45751,-21.52801]]],[[[-135.48493,-21.49684],[-135.4759,-21.50415],[-135.49192,-21.49413],[-135.48493,-21.49684]]],[[[-136.37987,-21.45908],[-136.37735,-21.46778],[-136.38198,-21.45855],[-136.37987,-21.45908]]],[[[-136.54068,-21.35679],[-136.53858,-21.3565],[-136.54312,-21.3598],[-136.54068,-21.35679]]],[[[-136.53035,-21.34777],[-136.52683,-21.33691],[-136.52571,-21.33807],[-136.52755,-21.34388],[-136.53058,-21.35069],[-136.53707,-21.3554],[-136.53035,-21.34777]]],[[[-136.63682,-21.33861],[-136.63788,-21.33932],[-136.63932,-21.33736],[-136.63741,-21.33565],[-136.63682,-21.33861]]],[[[-136.53222,-21.33131],[-136.53078,-21.3328],[-136.54522,-21.3355],[-136.53222,-21.33131]]],[[[-136.74377,-21.31615],[-136.74513,-21.31654],[-136.74579,-21.316],[-136.74478,-21.31585],[-136.74377,-21.31615]]],[[[-136.73837,-21.30912],[-136.73732,-21.30474],[-136.74119,-21.29949],[-136.73864,-21.29949],[-136.73794,-21.30024],[-136.73431,-21.30749],[-136.73543,-21.31121],[-136.73395,-21.30941],[-136.73522,-21.31147],[-136.73837,-21.30912]]],[[[-138.56635,-20.78651],[-138.56646,-20.78758],[-138.56843,-20.78818],[-138.56635,-20.78651]]],[[[-138.54263,-20.78037],[-138.53937,-20.78525],[-138.54844,-20.77999],[-138.54263,-20.78037]]],[[[-140.40534,-19.65803],[-140.4045,-19.65772],[-140.40361,-19.6605],[-140.4013,-19.65695],[-140.40068,-19.66015],[-140.40023,-19.65657],[-140.38713,-19.65172],[-140.38183,-19.63992],[-140.38929,-19.63069],[-140.3898,-19.62884],[-140.39173,-19.62767],[-140.39912,-19.61852],[-140.40952,-19.61144],[-140.40802,-19.61052],[-140.40473,-19.6121],[-140.38542,-19.63051],[-140.38031,-19.64052],[-140.38295,-19.64834],[-140.39205,-19.65804],[-140.40102,-19.66107],[-140.40874,-19.66081],[-140.40534,-19.65803]]],[[[-139.19746,-19.34008],[-139.20265,-19.33515],[-139.19592,-19.34091],[-139.19591,-19.34095],[-139.19591,-19.34341],[-139.20007,-19.35398],[-139.20456,-19.35851],[-139.19746,-19.34008]]],[[[-138.80289,-19.28209],[-138.8024,-19.282],[-138.79459,-19.28167],[-138.79266,-19.28316],[-138.80289,-19.28209]]],[[[-138.79324,-18.77722],[-138.79493,-18.77793],[-138.79328,-18.77563],[-138.79324,-18.77722]]],[[[-138.80158,-18.76523],[-138.80155,-18.76527],[-138.81503,-18.76449],[-138.81921,-18.76541],[-138.82416,-18.76284],[-138.81422,-18.76182],[-138.80158,-18.76523]]],[[[-136.33131,-18.52871],[-136.3402,-18.52428],[-136.333,-18.52673],[-136.32822,-18.52916],[-136.32264,-18.53309],[-136.30583,-18.54816],[-136.30649,-18.5497],[-136.33131,-18.52871]]],[[[-136.46675,-18.46939],[-136.46424,-18.46639],[-136.45873,-18.46429],[-136.45512,-18.46551],[-136.45749,-18.46965],[-136.46125,-18.46868],[-136.46462,-18.47319],[-136.46675,-18.46939]]],[[[-136.97198,-18.36136],[-136.97165,-18.36139],[-136.97143,-18.36191],[-136.97198,-18.36136]]],[[[-136.97232,-18.35986],[-136.97198,-18.36064],[-136.97263,-18.36071],[-136.97285,-18.3605],[-136.97232,-18.35986]]],[[[-137.04235,-18.2776],[-137.03041,-18.28756],[-137.04522,-18.27632],[-137.04235,-18.2776]]],[[[-137.06762,-18.26629],[-137.06133,-18.2691],[-137.06387,-18.27002],[-137.06762,-18.26629]]],[[[-138.45582,-17.35145],[-138.45105,-17.34216],[-138.44174,-17.33839],[-138.4549,-17.34979],[-138.45582,-17.35145]]],[[[-140.11387,-15.96908],[-140.11541,-15.96563],[-140.10806,-15.96581],[-140.10875,-15.96943],[-140.11387,-15.96908]]],[[[-138.63991,-10.53956],[-138.64364,-10.54378],[-138.66002,-10.54771],[-138.66277,-10.54167],[-138.6699,-10.54081],[-138.67174,-10.53711],[-138.68127,-10.53342],[-138.69066,-10.52222],[-138.68671,-10.5114],[-138.68957,-10.50971],[-138.68126,-10.49905],[-138.67905,-10.50002],[-138.67319,-10.48948],[-138.67701,-10.48521],[-138.67408,-10.47292],[-138.677,-10.47187],[-138.66492,-10.46495],[-138.67174,-10.45902],[-138.67243,-10.45118],[-138.68506,-10.44097],[-138.6875,-10.42675],[-138.66519,-10.42734],[-138.65046,-10.43141],[-138.65004,-10.43169],[-138.65019,-10.43297],[-138.64883,-10.4325],[-138.63987,-10.43849],[-138.64078,-10.4402],[-138.63789,-10.43981],[-138.63671,-10.44061],[-138.62043,-10.47186],[-138.62023,-10.51084],[-138.63362,-10.53592],[-138.63628,-10.53624],[-138.63653,-10.54114],[-138.63991,-10.53956]]],[[[-139.13065,-9.97008],[-139.11897,-9.96637],[-139.11737,-9.96179],[-139.12193,-9.95663],[-139.11683,-9.95229],[-139.11911,-9.94294],[-139.1095,-9.93827],[-139.10977,-9.93468],[-139.11782,-9.93061],[-139.11178,-9.92067],[-139.1127,-9.91616],[-139.10621,-9.91467],[-139.10693,-9.90966],[-139.10186,-9.90773],[-139.10503,-9.90501],[-139.09887,-9.90022],[-139.0972,-9.89385],[-139.09142,-9.89574],[-139.09068,-9.89517],[-139.08239,-9.89951],[-139.06916,-9.9039],[-139.05565,-9.91318],[-139.04776,-9.92254],[-139.05134,-9.92669],[-139.055,-9.9284],[-139.05761,-9.93239],[-139.05972,-9.93711],[-139.06188,-9.94036],[-139.06664,-9.94329],[-139.07665,-9.94459],[-139.08239,-9.9472],[-139.09586,-9.96168],[-139.11848,-10.00018],[-139.12452,-10.00742],[-139.12513,-10.00538],[-139.12554,-10.00066],[-139.13056,-10.00038],[-139.13043,-9.9831],[-139.1272,-9.98184],[-139.12839,-9.97836],[-139.13214,-9.97817],[-139.13065,-9.97008]]],[[[-139.11705,-9.83506],[-139.12,-9.83508],[-139.12053,-9.83113],[-139.12477,-9.83361],[-139.12657,-9.82949],[-139.13536,-9.82625],[-139.14049,-9.81799],[-139.13938,-9.81367],[-139.15217,-9.80065],[-139.15684,-9.78412],[-139.16353,-9.77551],[-139.14912,-9.75789],[-139.14628,-9.7576],[-139.1457,-9.76258],[-139.14244,-9.76097],[-139.14148,-9.76777],[-139.13885,-9.76834],[-139.13645,-9.7552],[-139.13234,-9.75032],[-139.12826,-9.75299],[-139.125,-9.74733],[-139.10483,-9.74455],[-139.09874,-9.75001],[-139.09759,-9.74417],[-139.09202,-9.74418],[-139.09202,-9.73933],[-139.08779,-9.74275],[-139.08236,-9.73399],[-139.07385,-9.73511],[-139.07474,-9.73256],[-139.07012,-9.73246],[-139.06775,-9.72575],[-139.06341,-9.72848],[-139.06049,-9.72667],[-139.06211,-9.72199],[-139.05697,-9.71701],[-139.05031,-9.72001],[-139.05088,-9.71314],[-139.0441,-9.71414],[-139.04459,-9.71001],[-139.04182,-9.71124],[-139.03914,-9.70413],[-139.0273,-9.71194],[-139.02027,-9.71208],[-139.0167,-9.71863],[-139.01288,-9.71761],[-139.01408,-9.70924],[-139.00581,-9.69911],[-138.99363,-9.7043],[-138.99104,-9.70247],[-138.99359,-9.69821],[-138.98931,-9.70069],[-138.98597,-9.69924],[-138.98453,-9.69948],[-138.97252,-9.72064],[-138.9618,-9.73323],[-138.9608,-9.73963],[-138.9492,-9.73939],[-138.94274,-9.74236],[-138.92121,-9.74717],[-138.90079,-9.74863],[-138.88132,-9.75328],[-138.8813,-9.75341],[-138.88582,-9.76094],[-138.88016,-9.76571],[-138.87332,-9.76281],[-138.87197,-9.75911],[-138.86776,-9.76454],[-138.86396,-9.75857],[-138.85892,-9.76314],[-138.85275,-9.76046],[-138.85047,-9.76261],[-138.8469,-9.75919],[-138.84544,-9.76199],[-138.84899,-9.76876],[-138.84472,-9.77088],[-138.85938,-9.78326],[-138.86309,-9.78358],[-138.87104,-9.79231],[-138.87385,-9.79344],[-138.87886,-9.79207],[-138.88088,-9.79624],[-138.88621,-9.79837],[-138.8883,-9.798],[-138.88873,-9.79937],[-138.89208,-9.80071],[-138.90324,-9.80338],[-138.90402,-9.80239],[-138.90681,-9.80423],[-138.90715,-9.80431],[-138.90912,-9.79801],[-138.9118,-9.80542],[-138.91574,-9.80636],[-138.92326,-9.79973],[-138.92522,-9.80733],[-138.92635,-9.80742],[-138.93849,-9.80635],[-138.93925,-9.80134],[-138.94384,-9.8023],[-138.94884,-9.79621],[-138.95022,-9.80345],[-138.9567,-9.80465],[-138.95571,-9.80856],[-138.9743,-9.80227],[-138.9792,-9.80734],[-138.9833,-9.7998],[-138.98493,-9.80787],[-138.98825,-9.80616],[-138.99017,-9.80936],[-139.00335,-9.80913],[-139.00341,-9.80523],[-139.00652,-9.80907],[-139.00943,-9.80902],[-139.01429,-9.80788],[-139.01626,-9.80658],[-139.01658,-9.80734],[-139.0209,-9.80633],[-139.02624,-9.8034],[-139.03083,-9.80302],[-139.03063,-9.80088],[-139.03217,-9.80291],[-139.03799,-9.80242],[-139.04971,-9.80348],[-139.05504,-9.80633],[-139.05504,-9.81876],[-139.06099,-9.82706],[-139.06011,-9.83896],[-139.05666,-9.84125],[-139.06192,-9.85394],[-139.06521,-9.85422],[-139.06818,-9.84988],[-139.08135,-9.85056],[-139.08473,-9.84914],[-139.08486,-9.84775],[-139.08742,-9.8484],[-139.09245,-9.84733],[-139.09423,-9.84557],[-139.09572,-9.84663],[-139.10066,-9.84558],[-139.10617,-9.84022],[-139.10819,-9.84272],[-139.10954,-9.83878],[-139.11529,-9.84218],[-139.11413,-9.83981],[-139.11606,-9.83627],[-139.11834,-9.83777],[-139.11705,-9.83506]]],[[[-140.11324,-9.41649],[-140.1224,-9.40966],[-140.12348,-9.40479],[-140.13043,-9.40146],[-140.12603,-9.39812],[-140.12877,-9.39552],[-140.12617,-9.3848],[-140.13158,-9.38481],[-140.1355,-9.38057],[-140.12816,-9.38279],[-140.1273,-9.37858],[-140.12217,-9.37898],[-140.11992,-9.37357],[-140.1146,-9.37264],[-140.11077,-9.36758],[-140.11147,-9.35801],[-140.10304,-9.35898],[-140.10032,-9.34922],[-140.09539,-9.34655],[-140.09659,-9.34321],[-140.09185,-9.34165],[-140.09171,-9.34632],[-140.08435,-9.34476],[-140.08121,-9.33712],[-140.06994,-9.33575],[-140.07128,-9.33923],[-140.06854,-9.34251],[-140.05645,-9.34614],[-140.05093,-9.3511],[-140.04945,-9.35978],[-140.04308,-9.35546],[-140.03998,-9.35679],[-140.03981,-9.36147],[-140.03613,-9.36213],[-140.03453,-9.35986],[-140.04064,-9.37412],[-140.04894,-9.40814],[-140.0629,-9.43597],[-140.09055,-9.44664],[-140.08848,-9.44258],[-140.09505,-9.44322],[-140.09718,-9.43908],[-140.09567,-9.43369],[-140.10476,-9.43165],[-140.10834,-9.42291],[-140.11299,-9.42265],[-140.11324,-9.41649]]],[[[-139.60763,-8.92998],[-139.61202,-8.93],[-139.61074,-8.92654],[-139.61417,-8.92245],[-139.61123,-8.90687],[-139.6086,-8.9071],[-139.60552,-8.89592],[-139.59917,-8.89569],[-139.59975,-8.89089],[-139.5943,-8.88902],[-139.59598,-8.88694],[-139.58821,-8.8806],[-139.58686,-8.86937],[-139.57694,-8.87106],[-139.57688,-8.8765],[-139.57301,-8.87404],[-139.56917,-8.87615],[-139.56542,-8.86998],[-139.56246,-8.86895],[-139.5607,-8.87187],[-139.55186,-8.86608],[-139.55013,-8.86645],[-139.54828,-8.86914],[-139.54312,-8.86919],[-139.54186,-8.87314],[-139.54005,-8.8707],[-139.53722,-8.87217],[-139.53659,-8.87488],[-139.53556,-8.87302],[-139.51895,-8.88161],[-139.51837,-8.88594],[-139.51557,-8.88336],[-139.51439,-8.88397],[-139.51363,-8.88498],[-139.51295,-8.88664],[-139.51262,-8.88634],[-139.50388,-8.89805],[-139.50396,-8.89816],[-139.50382,-8.89815],[-139.50316,-8.89902],[-139.50841,-8.91204],[-139.52343,-8.92156],[-139.54166,-8.9262],[-139.5856,-8.92946],[-139.60244,-8.93666],[-139.60763,-8.92998]]],[[[-140.14269,-8.8048],[-140.13996,-8.80136],[-140.13479,-8.80689],[-140.12792,-8.8033],[-140.13085,-8.8139],[-140.12609,-8.81647],[-140.11841,-8.8118],[-140.11274,-8.81439],[-140.11221,-8.80801],[-140.10711,-8.80966],[-140.10429,-8.80732],[-140.10039,-8.80921],[-140.10202,-8.81469],[-140.09396,-8.81717],[-140.0923,-8.81469],[-140.08588,-8.82885],[-140.08121,-8.8276],[-140.07946,-8.82281],[-140.07917,-8.80863],[-140.08321,-8.80393],[-140.07465,-8.80841],[-140.07276,-8.80223],[-140.06604,-8.80392],[-140.06665,-8.8143],[-140.06221,-8.81729],[-140.06692,-8.81987],[-140.06594,-8.82625],[-140.05556,-8.82845],[-140.05245,-8.81987],[-140.0541,-8.81014],[-140.05015,-8.79972],[-140.04865,-8.79884],[-140.04773,-8.80479],[-140.05089,-8.81253],[-140.04545,-8.81673],[-140.03318,-8.79254],[-140.03257,-8.79917],[-140.03942,-8.80706],[-140.04943,-8.82318],[-140.04461,-8.82736],[-140.04665,-8.82769],[-140.04752,-8.83469],[-140.03211,-8.84677],[-140.02704,-8.84492],[-140.02369,-8.84556],[-140.02229,-8.84677],[-140.01598,-8.85931],[-140.01535,-8.86633],[-140.01608,-8.86685],[-140.01527,-8.8672],[-140.01469,-8.87371],[-140.01599,-8.87458],[-140.01439,-8.87702],[-140.01403,-8.88112],[-140.01915,-8.89642],[-140.02161,-8.89602],[-140.02533,-8.8894],[-140.02864,-8.88966],[-140.02762,-8.89506],[-140.03095,-8.89452],[-140.03708,-8.88429],[-140.05489,-8.87408],[-140.04834,-8.88327],[-140.05557,-8.87851],[-140.06054,-8.9],[-140.07665,-8.91522],[-140.0934,-8.91852],[-140.09549,-8.9132],[-140.10296,-8.91252],[-140.11022,-8.90569],[-140.11766,-8.90569],[-140.12999,-8.91644],[-140.16991,-8.92946],[-140.17854,-8.93678],[-140.18322,-8.95371],[-140.19432,-8.95037],[-140.19823,-8.94699],[-140.19769,-8.94632],[-140.19941,-8.94597],[-140.20702,-8.93939],[-140.20778,-8.93893],[-140.2138,-8.93135],[-140.21711,-8.93255],[-140.22106,-8.92915],[-140.22235,-8.93021],[-140.22575,-8.92818],[-140.22546,-8.91541],[-140.22143,-8.9141],[-140.22742,-8.89374],[-140.23172,-8.89127],[-140.22878,-8.88982],[-140.22912,-8.88223],[-140.2356,-8.87222],[-140.23154,-8.86915],[-140.23756,-8.86608],[-140.23387,-8.86449],[-140.23533,-8.85986],[-140.2418,-8.85762],[-140.2386,-8.85407],[-140.24319,-8.85313],[-140.24738,-8.84771],[-140.24743,-8.84735],[-140.24958,-8.83864],[-140.25067,-8.83769],[-140.25144,-8.8337],[-140.25118,-8.82522],[-140.24672,-8.82612],[-140.24979,-8.81444],[-140.24443,-8.79703],[-140.2399,-8.79843],[-140.23727,-8.79351],[-140.21847,-8.78738],[-140.21161,-8.78992],[-140.20912,-8.78418],[-140.20238,-8.78506],[-140.20132,-8.78356],[-140.19636,-8.78438],[-140.19485,-8.79391],[-140.19298,-8.79004],[-140.18775,-8.78988],[-140.18729,-8.78588],[-140.184,-8.78643],[-140.17858,-8.79056],[-140.17619,-8.78878],[-140.17687,-8.78761],[-140.16505,-8.78956],[-140.16493,-8.78987],[-140.15712,-8.79175],[-140.16088,-8.80788],[-140.15676,-8.80409],[-140.1506,-8.80999],[-140.15047,-8.80285],[-140.14539,-8.80502],[-140.14697,-8.79952],[-140.14269,-8.8048]]]]}}]}}
