{"type":"FeatureCollection","features":[{"type":"Feature","properties":{"id":"QAT:ADM2:91078587B10284648984722","name":"90","countryCode":"QAT","adminLevel":2,"sourceCode":"91078587B10284648984722","parentId":"QAT:ADM1:QAT-1101"},"geometry":{"type":"Polygon","coordinates":[[[51.56514,25.07446],[51.57216,25.08591],[51.55807,25.08628],[51.58295,25.15068],[51.58716,25.19938],[51.59271,25.20388],[51.5989,25.19529],[51.61513,25.19716],[51.61562,25.17645],[51.61062,25.16968],[51.61592,25.16383],[51.61593,25.16346],[51.61325,25.16602],[51.61041,25.16433],[51.61614,25.15426],[51.61655,25.13719],[51.60932,25.06847],[51.60915,25.06819],[51.60925,25.0678],[51.60822,25.05803],[51.56514,25.07446]]]}},{"type":"Feature","properties":{"id":"QAT:ADM2:91078587B12401503508412","name":"13","countryCode":"QAT","adminLevel":2,"sourceCode":"91078587B12401503508412","parentId":"QAT:ADM1:QAT-1099"},"geometry":{"type":"Polygon","coordinates":[[[51.52174,25.27449],[51.51406,25.28594],[51.51215,25.29425],[51.53391,25.29165],[51.53394,25.2918],[51.53447,25.29172],[51.53424,25.29162],[51.53497,25.29165],[51.54879,25.28967],[51.52174,25.27449]]]}},{"type":"Feature","properties":{"id":"QAT:ADM2:91078587B12539996095468","name":"7","countryCode":"QAT","adminLevel":2,"sourceCode":"91078587B12539996095468","parentId":"QAT:ADM1:QAT-1099"},"geometry":{"type":"Polygon","coordinates":[[[51.55305,25.28684],[51.54951,25.28351],[51.54412,25.28704],[51.54879,25.28967],[51.5503,25.28945],[51.55305,25.28684]]]}},{"type":"Feature","properties":{"id":"QAT:ADM2:91078587B12839905472934","name":"85","countryCode":"QAT","adminLevel":2,"sourceCode":"91078587B12839905472934","parentId":"QAT:ADM1:QAT-1100"},"geometry":{"type":"Polygon","coordinates":[[[50.9198,25.26292],[50.9577,25.26292],[50.9577,25.25976],[51.12493,25.25976],[51.12493,25.43114],[51.03311,25.4255],[50.96231,25.45636],[50.93138,25.46351],[50.93133,25.46761],[50.91981,25.46751],[50.91981,25.45736],[50.90723,25.45941],[50.88978,25.43401],[50.88959,25.42408],[50.91579,25.41272],[50.91893,25.39253],[50.9198,25.26292]]]}},{"type":"Feature","properties":{"id":"QAT:ADM2:91078587B15697971941315","name":"43","countryCode":"QAT","adminLevel":2,"sourceCode":"91078587B15697971941315","parentId":"QAT:ADM1:QAT-1100"},"geometry":{"type":"Polygon","coordinates":[[[51.48967,25.25649],[51.52132,25.24079],[51.52152,25.25559],[51.50669,25.25568],[51.49767,25.26098],[51.48967,25.25649]]]}},{"type":"Feature","properties":{"id":"QAT:ADM2:91078587B17099224452406","name":"48","countryCode":"QAT","adminLevel":2,"sourceCode":"91078587B17099224452406","parentId":"QAT:ADM1:QAT-1099"},"geometry":{"type":"Polygon","coordinates":[[[51.58144,25.27755],[51.58783,25.28397],[51.60065,25.24345],[51.57621,25.23289],[51.5662,25.25],[51.5662,25.25629],[51.55234,25.26826],[51.55694,25.2863],[51.56087,25.28794],[51.57582,25.28579],[51.58144,25.27755]]]}},{"type":"Feature","properties":{"id":"QAT:ADM2:91078587B20152806481978","name":"15","countryCode":"QAT","adminLevel":2,"sourceCode":"91078587B20152806481978","parentId":"QAT:ADM1:QAT-1099"},"geometry":{"type":"Polygon","coordinates":[[[51.55262,25.27592],[51.54739,25.28161],[51.5406,25.27787],[51.53527,25.27944],[51.52613,25.27236],[51.53884,25.27062],[51.55262,25.27592]]]}},{"type":"Feature","properties":{"id":"QAT:ADM2:91078587B22410322487846","name":"36","countryCode":"QAT","adminLevel":2,"sourceCode":"91078587B22410322487846","parentId":"QAT:ADM1:QAT-1100"},"geometry":{"type":"Polygon","coordinates":[[[51.48716,25.30836],[51.47376,25.30969],[51.47426,25.29425],[51.48759,25.29425],[51.48716,25.30836]]]}},{"type":"Feature","properties":{"id":"QAT:ADM2:91078587B22433394531175","name":"44","countryCode":"QAT","adminLevel":2,"sourceCode":"91078587B22433394531175","parentId":"QAT:ADM1:QAT-1099"},"geometry":{"type":"Polygon","coordinates":[[[51.52152,25.25568],[51.52132,25.24079],[51.52972,25.23349],[51.54644,25.24105],[51.53484,25.25563],[51.52152,25.25568]]]}},{"type":"Feature","properties":{"id":"QAT:ADM2:91078587B24677998302133","name":"21","countryCode":"QAT","adminLevel":2,"sourceCode":"91078587B24677998302133","parentId":"QAT:ADM1:QAT-1099"},"geometry":{"type":"Polygon","coordinates":[[[51.52599,25.29425],[51.51215,25.29425],[51.50548,25.29425],[51.50008,25.30164],[51.51658,25.30151],[51.51881,25.29706],[51.52598,25.29425],[51.52599,25.29425]]]}},{"type":"Feature","properties":{"id":"QAT:ADM2:91078587B25441317691063","name":"53","countryCode":"QAT","adminLevel":2,"sourceCode":"91078587B25441317691063","parentId":"QAT:ADM1:QAT-1100"},"geometry":{"type":"Polygon","coordinates":[[[51.30828,25.22909],[51.31744,25.23446],[51.34182,25.23484],[51.3425,25.22868],[51.35737,25.21811],[51.36998,25.22419],[51.36284,25.24092],[51.35565,25.24294],[51.35401,25.24739],[51.38175,25.25575],[51.40656,25.25575],[51.40656,25.26122],[51.42217,25.26375],[51.42127,25.2683],[51.43304,25.2702],[51.43472,25.28464],[51.44521,25.29339],[51.44565,25.29757],[51.428,25.29909],[51.40361,25.30859],[51.35569,25.31695],[51.31682,25.3419],[51.31771,25.30245],[51.27292,25.30414],[51.27404,25.29233],[51.30502,25.24509],[51.30828,25.22909]]]}},{"type":"Feature","properties":{"id":"QAT:ADM2:91078587B26591597392685","name":"22","countryCode":"QAT","adminLevel":2,"sourceCode":"91078587B26591597392685","parentId":"QAT:ADM1:QAT-1099"},"geometry":{"type":"Polygon","coordinates":[[[51.51406,25.28594],[51.51215,25.29425],[51.50532,25.29425],[51.50425,25.28424],[51.51406,25.28594]]]}},{"type":"Feature","properties":{"id":"QAT:ADM2:91078587B2684025593760","name":"18-19","countryCode":"QAT","adminLevel":2,"sourceCode":"91078587B2684025593760","parentId":"QAT:ADM1:QAT-1099"},"geometry":{"type":"Polygon","coordinates":[[[51.55262,25.27592],[51.55366,25.27685],[51.55293,25.2807],[51.55483,25.28673],[51.55448,25.28858],[51.54739,25.28161],[51.55262,25.27592]]]}},{"type":"Feature","properties":{"id":"QAT:ADM2:91078587B27040506800660","name":"68","countryCode":"QAT","adminLevel":2,"sourceCode":"91078587B27040506800660","parentId":"QAT:ADM1:QAT-5487"},"geometry":{"type":"Polygon","coordinates":[[[51.4998,25.37772],[51.49763,25.39151],[51.46972,25.37869],[51.48271,25.35418],[51.49945,25.35348],[51.49529,25.37168],[51.4998,25.37772]]]}},{"type":"Feature","properties":{"id":"QAT:ADM2:91078587B27846098888320","name":"25","countryCode":"QAT","adminLevel":2,"sourceCode":"91078587B27846098888320","parentId":"QAT:ADM1:QAT-1099"},"geometry":{"type":"Polygon","coordinates":[[[51.53788,25.27069],[51.52613,25.27236],[51.52231,25.26478],[51.53679,25.26428],[51.53788,25.27069]]]}},{"type":"Feature","properties":{"id":"QAT:ADM2:91078587B28752145715053","name":"23","countryCode":"QAT","adminLevel":2,"sourceCode":"91078587B28752145715053","parentId":"QAT:ADM1:QAT-1099"},"geometry":{"type":"Polygon","coordinates":[[[51.50425,25.28424],[51.51273,25.26943],[51.52174,25.27449],[51.51406,25.28594],[51.50425,25.28424]]]}},{"type":"Feature","properties":{"id":"QAT:ADM2:91078587B29732052080276","name":"83","countryCode":"QAT","adminLevel":2,"sourceCode":"91078587B29732052080276","parentId":"QAT:ADM1:QAT-1100"},"geometry":{"type":"Polygon","coordinates":[[[50.80405,25.0778],[50.79965,25.08194],[50.99686,25.08093],[51.02,25.09005],[51.01888,25.17182],[51.09809,25.15628],[51.14996,25.13398],[51.17058,25.10729],[51.18666,25.11747],[51.21625,25.10754],[51.21625,24.99011],[51.11852,24.99],[51.08847,24.99024],[51.08483,24.98715],[51.08123,24.99063],[51.0642,24.99071],[51.05544,24.98351],[51.04182,24.99317],[51.03525,24.99317],[51.03525,24.99032],[50.98146,24.99032],[50.98146,24.98612],[50.96827,24.98612],[50.96827,24.98953],[50.79939,24.99139],[50.79717,25.00125],[50.79794,25.007],[50.80738,25.03164],[50.80756,25.03312],[50.81357,25.04075],[50.81044,25.06031],[50.8089,25.06452],[50.8086,25.06916],[50.80601,25.07243],[50.80405,25.0778]]]}},{"type":"Feature","properties":{"id":"QAT:ADM2:91078587B32621673387065","name":"4","countryCode":"QAT","adminLevel":2,"sourceCode":"91078587B32621673387065","parentId":"QAT:ADM1:QAT-1099"},"geometry":{"type":"Polygon","coordinates":[[[51.53358,25.28113],[51.53556,25.27927],[51.53938,25.27787],[51.5391,25.28423],[51.53358,25.28113]]]}},{"type":"Feature","properties":{"id":"QAT:ADM2:91078587B33419778787215","name":"73","countryCode":"QAT","adminLevel":2,"sourceCode":"91078587B33419778787215","parentId":"QAT:ADM1:QAT-1100"},"geometry":{"type":"Polygon","coordinates":[[[50.96067,25.78029],[50.95513,25.77206],[50.95584,25.76537],[50.9675,25.76511],[50.96863,25.77016],[50.98272,25.77606],[51.11828,25.77354],[51.11828,25.7137],[51.27111,25.7137],[51.26387,25.69913],[51.25524,25.65182],[51.24293,25.62221],[51.24517,25.61413],[51.26602,25.58759],[51.26602,25.58337],[51.08804,25.58337],[51.08804,25.58778],[50.92526,25.58778],[50.92583,25.59138],[50.91944,25.59729],[50.92897,25.60395],[50.93572,25.59833],[50.94955,25.59772],[50.95023,25.59846],[50.95421,25.59396],[50.96698,25.59834],[50.9691,25.60683],[50.96328,25.61507],[50.9725,25.61816],[50.98074,25.62897],[50.97974,25.63489],[50.98812,25.64081],[50.98513,25.64467],[50.98513,25.64055],[50.98286,25.64441],[50.97974,25.64364],[50.97349,25.6529],[50.97534,25.64724],[50.9742,25.64497],[50.94988,25.63646],[50.92433,25.63231],[50.91196,25.63688],[50.90236,25.64927],[50.89951,25.66754],[50.89567,25.67088],[50.89993,25.68041],[50.89708,25.68453],[50.89749,25.69945],[50.89223,25.70897],[50.89393,25.71515],[50.9023,25.72365],[50.90273,25.72957],[50.91494,25.73652],[50.9182,25.7427],[50.91607,25.74476],[50.91834,25.74682],[50.91323,25.74759],[50.91408,25.75094],[50.90526,25.76431],[50.9078,25.78156],[50.91945,25.78826],[50.93081,25.80808],[50.93794,25.80808],[50.93971,25.8072],[50.94557,25.79849],[50.94923,25.78701],[50.94955,25.77529],[50.96034,25.78184],[50.96067,25.78029]]]}},{"type":"Feature","properties":{"id":"QAT:ADM2:91078587B33803228876819","name":"65","countryCode":"QAT","adminLevel":2,"sourceCode":"91078587B33803228876819","parentId":"QAT:ADM1:QAT-1099"},"geometry":{"type":"Polygon","coordinates":[[[51.51146,25.31891],[51.5023,25.32941],[51.50345,25.35016],[51.5128,25.34179],[51.51197,25.33023],[51.51255,25.31989],[51.51146,25.31891]]]}},{"type":"Feature","properties":{"id":"QAT:ADM2:91078587B34371380976540","name":"51","countryCode":"QAT","adminLevel":2,"sourceCode":"91078587B34371380976540","parentId":"QAT:ADM1:QAT-1100"},"geometry":{"type":"Polygon","coordinates":[[[51.31577,25.38812],[51.31682,25.3419],[51.35569,25.31695],[51.40588,25.3077],[51.43089,25.318],[51.47349,25.31751],[51.44876,25.35787],[51.44105,25.35423],[51.44067,25.36064],[51.43509,25.36649],[51.41865,25.36604],[51.42239,25.34513],[51.41977,25.34108],[51.41343,25.33939],[51.41215,25.35016],[51.39291,25.35168],[51.394,25.36289],[51.35922,25.36563],[51.36105,25.38455],[51.31577,25.38812]]]}},{"type":"Feature","properties":{"id":"QAT:ADM2:91078587B3591736578448","name":"67","countryCode":"QAT","adminLevel":2,"sourceCode":"91078587B3591736578448","parentId":"QAT:ADM1:QAT-1099"},"geometry":{"type":"Polygon","coordinates":[[[51.48271,25.35418],[51.47713,25.35146],[51.48064,25.33676],[51.49348,25.33537],[51.5023,25.32941],[51.50345,25.35016],[51.4993,25.35387],[51.48271,25.35418]]]}},{"type":"Feature","properties":{"id":"QAT:ADM2:91078587B3857116379359","name":"24","countryCode":"QAT","adminLevel":2,"sourceCode":"91078587B3857116379359","parentId":"QAT:ADM1:QAT-1099"},"geometry":{"type":"Polygon","coordinates":[[[51.51267,25.2694],[51.52231,25.26478],[51.52613,25.27236],[51.52174,25.27449],[51.51267,25.2694]]]}},{"type":"Feature","properties":{"id":"QAT:ADM2:91078587B40201324753921","name":"49","countryCode":"QAT","adminLevel":2,"sourceCode":"91078587B40201324753921","parentId":"QAT:ADM1:QAT-1101"},"geometry":{"type":"Polygon","coordinates":[[[51.6,25.24257],[51.60539,25.22411],[51.61468,25.21609],[51.61513,25.19716],[51.5989,25.19529],[51.57634,25.23308],[51.60065,25.24345],[51.58872,25.28394],[51.59002,25.28376],[51.59913,25.27489],[51.6076,25.25511],[51.60944,25.24585],[51.6,25.24257]]]}},{"type":"Feature","properties":{"id":"QAT:ADM2:91078587B41884610793448","name":"98","countryCode":"QAT","adminLevel":2,"sourceCode":"91078587B41884610793448","parentId":"QAT:ADM1:QAT-1100"},"geometry":{"type":"MultiPolygon","coordinates":[[[[51.29573,24.51987],[51.30143,24.50548],[51.26583,24.5056],[51.22047,24.4932],[51.17068,24.48562],[51.15556,24.47879],[51.11768,24.4742],[51.11768,24.71835],[51.15155,24.71835],[51.15155,24.72159],[51.25622,24.72159],[51.29427,24.76607],[51.30882,24.76645],[51.30874,24.76893],[51.45669,24.76874],[51.45669,24.7716],[51.47625,24.77158],[51.47421,24.76447],[51.47283,24.75943],[51.46754,24.74868],[51.45582,24.74067],[51.45037,24.72167],[51.44561,24.69211],[51.44137,24.67716],[51.44057,24.67624],[51.44077,24.68013],[51.43414,24.6799],[51.43567,24.67243],[51.43229,24.67295],[51.43523,24.67005],[51.43043,24.6645],[51.4007,24.64831],[51.40392,24.65373],[51.39768,24.65417],[51.40025,24.65116],[51.39348,24.64861],[51.39501,24.64522],[51.38999,24.64248],[51.38152,24.63508],[51.37615,24.61188],[51.36354,24.59634],[51.34978,24.58381],[51.34059,24.56989],[51.33816,24.573],[51.33836,24.57384],[51.33079,24.58261],[51.33108,24.59281],[51.33269,24.59886],[51.33319,24.59974],[51.33548,24.60113],[51.34307,24.59545],[51.34749,24.60204],[51.34364,24.60072],[51.34154,24.60343],[51.3434,24.61372],[51.34663,24.61294],[51.34393,24.60265],[51.34844,24.60419],[51.35876,24.61961],[51.35807,24.62553],[51.3561,24.62425],[51.35712,24.63917],[51.35446,24.64291],[51.34826,24.64228],[51.34912,24.64717],[51.34363,24.64718],[51.34731,24.65284],[51.34408,24.65735],[51.34294,24.65388],[51.33872,24.65543],[51.32801,24.65005],[51.3252,24.6534],[51.32717,24.64751],[51.32114,24.64818],[51.30142,24.6464],[51.28836,24.67587],[51.28933,24.67304],[51.28468,24.67047],[51.28594,24.66584],[51.28326,24.6661],[51.2842,24.66252],[51.28341,24.66258],[51.28298,24.66353],[51.28287,24.66262],[51.27809,24.66299],[51.26791,24.6562],[51.25457,24.6518],[51.23699,24.65005],[51.22663,24.64629],[51.22661,24.64638],[51.22623,24.64615],[51.22096,24.64423],[51.21258,24.63369],[51.2145,24.62819],[51.21475,24.62606],[51.21506,24.62649],[51.21526,24.62584],[51.2156,24.62468],[51.21558,24.61885],[51.21707,24.61957],[51.21762,24.61766],[51.22348,24.61844],[51.22909,24.61355],[51.23106,24.61664],[51.24175,24.61212],[51.24626,24.6152],[51.2547,24.61055],[51.27076,24.61619],[51.27103,24.61233],[51.27778,24.60897],[51.28124,24.61496],[51.28224,24.61368],[51.28017,24.60742],[51.28452,24.6002],[51.2865,24.60406],[51.28818,24.6002],[51.29016,24.60483],[51.29802,24.59271],[51.30733,24.60201],[51.30633,24.59406],[51.30242,24.58661],[51.29591,24.58356],[51.29029,24.57852],[51.29225,24.56782],[51.29689,24.55809],[51.29957,24.55622],[51.29665,24.52291],[51.29573,24.51987]]],[[[51.28522,24.65863],[51.28467,24.65982],[51.28455,24.66118],[51.28522,24.65863]]],[[[51.36887,24.57982],[51.3607,24.57548],[51.36109,24.57612],[51.3666,24.5812],[51.36887,24.57982]]],[[[51.34515,24.63791],[51.34911,24.64138],[51.35121,24.63944],[51.35103,24.6258],[51.34598,24.63148],[51.34933,24.62014],[51.34539,24.62298],[51.34228,24.61527],[51.34275,24.61903],[51.34685,24.63508],[51.34511,24.63758],[51.34515,24.63791]]]]}},{"type":"Feature","properties":{"id":"QAT:ADM2:91078587B42486259491848","name":"40","countryCode":"QAT","adminLevel":2,"sourceCode":"91078587B42486259491848","parentId":"QAT:ADM1:QAT-1099"},"geometry":{"type":"Polygon","coordinates":[[[51.49767,25.26098],[51.50669,25.25568],[51.52152,25.25559],[51.52221,25.2648],[51.51267,25.2694],[51.49767,25.26098]]]}},{"type":"Feature","properties":{"id":"QAT:ADM2:91078587B42740082367526","name":"32","countryCode":"QAT","adminLevel":2,"sourceCode":"91078587B42740082367526","parentId":"QAT:ADM1:QAT-1099"},"geometry":{"type":"Polygon","coordinates":[[[51.46335,25.33406],[51.47349,25.31751],[51.48494,25.31782],[51.48052,25.33677],[51.46335,25.33406]]]}},{"type":"Feature","properties":{"id":"QAT:ADM2:91078587B4294922321935","name":"33","countryCode":"QAT","adminLevel":2,"sourceCode":"91078587B4294922321935","parentId":"QAT:ADM1:QAT-1099"},"geometry":{"type":"Polygon","coordinates":[[[51.5023,25.32941],[51.49348,25.33537],[51.48052,25.33677],[51.48494,25.31782],[51.49398,25.31438],[51.49484,25.32065],[51.5023,25.32941]]]}},{"type":"Feature","properties":{"id":"QAT:ADM2:91078587B44176615316419","name":"14","countryCode":"QAT","adminLevel":2,"sourceCode":"91078587B44176615316419","parentId":"QAT:ADM1:QAT-1099"},"geometry":{"type":"Polygon","coordinates":[[[51.52174,25.27449],[51.52613,25.27236],[51.53527,25.27944],[51.53358,25.28113],[51.52174,25.27449]]]}},{"type":"Feature","properties":{"id":"QAT:ADM2:91078587B45177861896297","name":"63","countryCode":"QAT","adminLevel":2,"sourceCode":"91078587B45177861896297","parentId":"QAT:ADM1:QAT-1099"},"geometry":{"type":"Polygon","coordinates":[[[51.51146,25.31891],[51.51255,25.31989],[51.51269,25.31728],[51.51146,25.31891]]]}},{"type":"Feature","properties":{"id":"QAT:ADM2:91078587B46444112589307","name":"86","countryCode":"QAT","adminLevel":2,"sourceCode":"91078587B46444112589307","parentId":"QAT:ADM1:QAT-1100"},"geometry":{"type":"Polygon","coordinates":[[[50.82404,25.46639],[50.83047,25.46211],[50.82498,25.46441],[50.82968,25.46082],[50.83953,25.46188],[50.83995,25.45168],[50.87034,25.45042],[50.90181,25.46735],[50.91981,25.46751],[50.91981,25.45736],[50.90723,25.45941],[50.90234,25.45436],[50.89832,25.44348],[50.88978,25.43401],[50.88959,25.42408],[50.91579,25.41272],[50.91893,25.39253],[50.91981,25.26277],[50.78664,25.26203],[50.78661,25.26592],[50.76218,25.26579],[50.76375,25.27045],[50.76015,25.27334],[50.76406,25.27316],[50.76164,25.29012],[50.76424,25.29093],[50.76138,25.29352],[50.76139,25.29358],[50.76391,25.29171],[50.7668,25.29356],[50.76961,25.30126],[50.76539,25.34945],[50.76413,25.34985],[50.76241,25.35898],[50.76353,25.36207],[50.75921,25.38619],[50.76297,25.39332],[50.75431,25.40198],[50.75412,25.40299],[50.75884,25.41503],[50.75164,25.42206],[50.75333,25.42841],[50.75693,25.43358],[50.75611,25.43887],[50.76246,25.46271],[50.76269,25.46602],[50.76976,25.48863],[50.76484,25.49896],[50.76141,25.50161],[50.75736,25.4998],[50.75708,25.50199],[50.76405,25.51034],[50.77117,25.51645],[50.77053,25.5181],[50.77188,25.51972],[50.77796,25.52133],[50.78331,25.52784],[50.79709,25.5299],[50.80843,25.5173],[50.80849,25.51722],[50.81165,25.49889],[50.82038,25.4914],[50.82051,25.49055],[50.82049,25.47183],[50.82331,25.47135],[50.82404,25.46639]]]}},{"type":"Feature","properties":{"id":"QAT:ADM2:91078587B46503062575408","name":"66","countryCode":"QAT","adminLevel":2,"sourceCode":"91078587B46503062575408","parentId":"QAT:ADM1:QAT-1099"},"geometry":{"type":"MultiPolygon","coordinates":[[[[51.51258,25.37333],[51.51511,25.37436],[51.51505,25.37342],[51.51258,25.37333]]],[[[51.4993,25.35387],[51.49529,25.37168],[51.4998,25.37772],[51.51546,25.37927],[51.51515,25.37492],[51.50422,25.36934],[51.50841,25.36421],[51.51458,25.3668],[51.5128,25.34181],[51.4993,25.35387]]]]}},{"type":"Feature","properties":{"id":"QAT:ADM2:91078587B47360643234421","name":"76","countryCode":"QAT","adminLevel":2,"sourceCode":"91078587B47360643234421","parentId":"QAT:ADM1:QAT-1105"},"geometry":{"type":"Polygon","coordinates":[[[50.95553,25.83372],[50.95838,25.83372],[50.96094,25.84812],[51.10312,25.84812],[51.10238,25.84476],[51.11805,25.84476],[51.11805,25.95084],[51.13522,25.95084],[51.13522,25.96628],[51.16582,25.96628],[51.16582,25.94816],[51.23075,25.94816],[51.23075,25.94212],[51.23598,25.94212],[51.23598,25.94883],[51.27106,25.94883],[51.27106,25.89513],[51.34775,25.89513],[51.34775,25.81078],[51.27104,25.7137],[51.11828,25.7137],[51.11828,25.77354],[50.98272,25.77606],[50.97971,25.78894],[50.99094,25.79847],[50.9898,25.80362],[50.98511,25.80516],[50.98767,25.80799],[50.9871,25.81828],[50.97971,25.82562],[50.97246,25.8249],[50.97071,25.83051],[50.96493,25.82473],[50.95553,25.83372]]]}},{"type":"Feature","properties":{"id":"QAT:ADM2:91078587B47528801235686","name":"46","countryCode":"QAT","adminLevel":2,"sourceCode":"91078587B47528801235686","parentId":"QAT:ADM1:QAT-1099"},"geometry":{"type":"Polygon","coordinates":[[[51.54653,25.2411],[51.52972,25.23349],[51.5382,25.22119],[51.55795,25.22727],[51.54653,25.2411]]]}},{"type":"Feature","properties":{"id":"QAT:ADM2:91078587B47648989692762","name":"57","countryCode":"QAT","adminLevel":2,"sourceCode":"91078587B47648989692762","parentId":"QAT:ADM1:QAT-1100"},"geometry":{"type":"Polygon","coordinates":[[[51.47374,25.16962],[51.43047,25.22545],[51.39635,25.20381],[51.43564,25.15309],[51.47374,25.16962]]]}},{"type":"Feature","properties":{"id":"QAT:ADM2:91078587B48537873933910","name":"39","countryCode":"QAT","adminLevel":2,"sourceCode":"91078587B48537873933910","parentId":"QAT:ADM1:QAT-1099"},"geometry":{"type":"Polygon","coordinates":[[[51.4889,25.27961],[51.49628,25.27225],[51.4974,25.26483],[51.48967,25.25649],[51.51273,25.26943],[51.5043,25.28343],[51.48661,25.28189],[51.4889,25.27961]]]}},{"type":"Feature","properties":{"id":"QAT:ADM2:91078587B49650131193986","name":"6","countryCode":"QAT","adminLevel":2,"sourceCode":"91078587B49650131193986","parentId":"QAT:ADM1:QAT-1099"},"geometry":{"type":"Polygon","coordinates":[[[51.5391,25.28423],[51.53938,25.27787],[51.54951,25.28351],[51.54412,25.28704],[51.5391,25.28423]]]}},{"type":"Feature","properties":{"id":"QAT:ADM2:91078587B50341524344212","name":"79","countryCode":"QAT","adminLevel":2,"sourceCode":"91078587B50341524344212","parentId":"QAT:ADM1:QAT-1106"},"geometry":{"type":"Polygon","coordinates":[[[51.33389,26.11797],[51.34685,26.10488],[51.34848,26.08564],[51.34636,26.0607],[51.34711,26.0409],[51.21615,26.0409],[51.21615,26.07949],[51.19519,26.11651],[51.19519,26.12905],[51.19135,26.13453],[51.19435,26.13353],[51.21485,26.13935],[51.21989,26.14222],[51.22362,26.14012],[51.23342,26.14505],[51.2375,26.15227],[51.2474,26.15792],[51.25198,26.15903],[51.26056,26.15348],[51.26135,26.15515],[51.26293,26.15437],[51.26252,26.15116],[51.27726,26.14179],[51.30151,26.13548],[51.3228,26.12505],[51.33389,26.11797]]]}},{"type":"Feature","properties":{"id":"QAT:ADM2:91078587B52698515683272","name":"81","countryCode":"QAT","adminLevel":2,"sourceCode":"91078587B52698515683272","parentId":"QAT:ADM1:QAT-1100"},"geometry":{"type":"Polygon","coordinates":[[[51.18666,25.11747],[51.21625,25.10754],[51.31411,25.08606],[51.33548,25.07324],[51.35759,25.10345],[51.40988,25.09961],[51.38216,25.12746],[51.43624,25.15232],[51.39676,25.20328],[51.36625,25.18835],[51.36541,25.18473],[51.20657,25.13008],[51.18666,25.11747]]]}},{"type":"Feature","properties":{"id":"QAT:ADM2:91078587B56593237076105","name":"55","countryCode":"QAT","adminLevel":2,"sourceCode":"91078587B56593237076105","parentId":"QAT:ADM1:QAT-1100"},"geometry":{"type":"Polygon","coordinates":[[[51.32612,25.17043],[51.36541,25.18473],[51.36625,25.18835],[51.39676,25.20328],[51.42884,25.22476],[51.48936,25.25664],[51.4974,25.26483],[51.49628,25.27225],[51.4889,25.27961],[51.43183,25.24943],[51.43207,25.27004],[51.42127,25.2683],[51.42217,25.26375],[51.40656,25.26122],[51.40656,25.25575],[51.38175,25.25575],[51.35401,25.24739],[51.35565,25.24294],[51.36284,25.24092],[51.36998,25.22419],[51.35737,25.21811],[51.3425,25.22868],[51.34182,25.23484],[51.31744,25.23446],[51.30828,25.22909],[51.32629,25.19073],[51.32612,25.17043]]]}},{"type":"Feature","properties":{"id":"QAT:ADM2:91078587B57954650204567","name":"92","countryCode":"QAT","adminLevel":2,"sourceCode":"91078587B57954650204567","parentId":"QAT:ADM1:QAT-1101"},"geometry":{"type":"Polygon","coordinates":[[[51.59218,24.97867],[51.58562,24.9719],[51.53272,24.9719],[51.53272,24.96923],[51.51533,24.96923],[51.51569,25.04181],[51.5323,25.0559],[51.53167,25.06218],[51.50932,25.08215],[51.52176,25.09216],[51.53661,25.0835],[51.54396,25.08331],[51.54407,25.08664],[51.57216,25.08591],[51.56514,25.07446],[51.60822,25.05803],[51.60572,25.03425],[51.61101,25.02237],[51.60598,25.01742],[51.60081,25.03599],[51.59242,25.03398],[51.59946,25.00688],[51.59925,25.00181],[51.59341,24.9789],[51.59218,24.97867]]]}},{"type":"Feature","properties":{"id":"QAT:ADM2:91078587B61034229486760","name":"80","countryCode":"QAT","adminLevel":2,"sourceCode":"91078587B61034229486760","parentId":"QAT:ADM1:QAT-1100"},"geometry":{"type":"Polygon","coordinates":[[[51.26565,25.47809],[51.20802,25.47809],[51.2006,25.46335],[51.20043,25.44742],[51.19396,25.4419],[51.19021,25.44175],[51.18154,25.44963],[51.15969,25.42558],[51.15096,25.42582],[51.14371,25.4311],[51.12493,25.43114],[51.12493,25.30256],[51.31771,25.30245],[51.31577,25.38812],[51.27087,25.39166],[51.26565,25.39773],[51.26565,25.47809]]]}},{"type":"Feature","properties":{"id":"QAT:ADM2:91078587B61395128667616","name":"94","countryCode":"QAT","adminLevel":2,"sourceCode":"91078587B61395128667616","parentId":"QAT:ADM1:QAT-1101"},"geometry":{"type":"Polygon","coordinates":[[[51.45669,24.7716],[51.45669,24.76874],[51.31386,24.76892],[51.31386,24.90398],[51.46503,25.04896],[51.50932,25.08215],[51.53167,25.06218],[51.5323,25.0559],[51.51569,25.04181],[51.51483,24.86879],[51.51173,24.86786],[51.50514,24.86408],[51.50026,24.85537],[51.49431,24.83463],[51.49208,24.83557],[51.48843,24.83131],[51.4913,24.82411],[51.4833,24.79619],[51.48305,24.79634],[51.48127,24.81076],[51.4753,24.79766],[51.47668,24.7907],[51.4716,24.78943],[51.47695,24.78633],[51.47724,24.78864],[51.48128,24.78914],[51.47978,24.7839],[51.47074,24.78506],[51.4679,24.78018],[51.46481,24.78405],[51.46649,24.77992],[51.47408,24.77398],[51.47636,24.78144],[51.47872,24.78022],[51.47625,24.77158],[51.45669,24.7716]]]}},{"type":"Feature","properties":{"id":"QAT:ADM2:91078587B62879560621739","name":"50","countryCode":"QAT","adminLevel":2,"sourceCode":"91078587B62879560621739","parentId":"QAT:ADM1:QAT-1101"},"geometry":{"type":"Polygon","coordinates":[[[51.58263,25.22061],[51.57641,25.23295],[51.5382,25.22119],[51.54243,25.2048],[51.58263,25.22061]]]}},{"type":"Feature","properties":{"id":"QAT:ADM2:91078587B64948083253590","name":"31","countryCode":"QAT","adminLevel":2,"sourceCode":"91078587B64948083253590","parentId":"QAT:ADM1:QAT-1099"},"geometry":{"type":"Polygon","coordinates":[[[51.45781,25.3431],[51.46335,25.33406],[51.48064,25.33676],[51.47713,25.35146],[51.45781,25.3431]]]}},{"type":"Feature","properties":{"id":"QAT:ADM2:91078587B67880775667160","name":"71","countryCode":"QAT","adminLevel":2,"sourceCode":"91078587B67880775667160","parentId":"QAT:ADM1:QAT-1107"},"geometry":{"type":"Polygon","coordinates":[[[51.44876,25.35787],[51.44851,25.36896],[51.41046,25.43535],[51.40792,25.49521],[51.41494,25.56449],[51.33753,25.56449],[51.31607,25.56078],[51.26602,25.58759],[51.26602,25.57459],[51.25445,25.57459],[51.25445,25.56987],[51.26565,25.56011],[51.26565,25.39773],[51.27087,25.39166],[51.36105,25.38455],[51.35922,25.36563],[51.394,25.36289],[51.39291,25.35168],[51.41215,25.35016],[51.41343,25.33939],[51.41977,25.34108],[51.42239,25.34513],[51.41865,25.36604],[51.43509,25.36649],[51.44067,25.36064],[51.44105,25.35423],[51.44876,25.35787]]]}},{"type":"Feature","properties":{"id":"QAT:ADM2:91078587B68220687266900","name":"42","countryCode":"QAT","adminLevel":2,"sourceCode":"91078587B68220687266900","parentId":"QAT:ADM1:QAT-1099"},"geometry":{"type":"Polygon","coordinates":[[[51.53679,25.26428],[51.53484,25.25566],[51.5507,25.25847],[51.55831,25.26424],[51.55237,25.26824],[51.53679,25.26428]]]}},{"type":"Feature","properties":{"id":"QAT:ADM2:91078587B69331061466095","name":"82","countryCode":"QAT","adminLevel":2,"sourceCode":"91078587B69331061466095","parentId":"QAT:ADM1:QAT-1100"},"geometry":{"type":"Polygon","coordinates":[[[51.01901,25.25976],[51.01901,25.17179],[51.09809,25.15628],[51.14996,25.13398],[51.17058,25.10729],[51.20657,25.13008],[51.32612,25.17032],[51.32629,25.19073],[51.3095,25.22314],[51.30502,25.24509],[51.27404,25.29233],[51.27307,25.30256],[51.12493,25.30256],[51.12493,25.25976],[51.01901,25.25976]]]}},{"type":"Feature","properties":{"id":"QAT:ADM2:91078587B70962484835494","name":"69","countryCode":"QAT","adminLevel":2,"sourceCode":"91078587B70962484835494","parentId":"QAT:ADM1:QAT-5487"},"geometry":{"type":"Polygon","coordinates":[[[51.4998,25.37772],[51.49763,25.39151],[51.48559,25.42064],[51.47508,25.466],[51.50356,25.466],[51.511,25.45429],[51.51694,25.44017],[51.51881,25.42621],[51.5179,25.41346],[51.51716,25.41359],[51.51477,25.42594],[51.51069,25.42419],[51.5088,25.41867],[51.51508,25.40964],[51.51762,25.40957],[51.51572,25.38284],[51.51546,25.37927],[51.4998,25.37772]]]}},{"type":"Feature","properties":{"id":"QAT:ADM2:91078587B71009022079997","name":"41","countryCode":"QAT","adminLevel":2,"sourceCode":"91078587B71009022079997","parentId":"QAT:ADM1:QAT-1099"},"geometry":{"type":"Polygon","coordinates":[[[51.53484,25.25563],[51.53657,25.26428],[51.52221,25.2648],[51.52152,25.25568],[51.53484,25.25563]]]}},{"type":"Feature","properties":{"id":"QAT:ADM2:91078587B72332727540612","name":"78","countryCode":"QAT","adminLevel":2,"sourceCode":"91078587B72332727540612","parentId":"QAT:ADM1:QAT-1106"},"geometry":{"type":"Polygon","coordinates":[[[51.19519,26.12905],[51.19519,26.11651],[51.21615,26.07949],[51.21615,25.94816],[51.16582,25.94816],[51.16582,25.96628],[51.13522,25.96628],[51.13522,25.95084],[51.11805,25.95084],[51.11805,25.84476],[51.10238,25.84476],[51.10312,25.84812],[50.96094,25.84812],[50.95866,25.85647],[50.96605,25.86394],[50.96605,25.87037],[50.9706,25.87089],[50.97088,25.86458],[50.97728,25.86626],[50.97742,25.87526],[50.97287,25.87629],[50.97145,25.88118],[50.97856,25.8871],[50.97941,25.89431],[50.98709,25.89637],[50.99193,25.90151],[50.99634,25.91901],[50.99292,25.93523],[50.99378,25.95427],[50.98979,25.95839],[50.99008,25.96817],[50.98652,25.97537],[50.98778,25.97894],[50.99252,25.97574],[50.99562,25.97285],[50.99807,25.96797],[50.99791,25.96765],[51.00474,25.95993],[51.0238,25.96907],[51.02104,25.97149],[51.01527,25.96787],[51.02394,25.97786],[51.02096,25.98758],[51.02461,25.98987],[51.02774,25.98468],[51.03556,25.9871],[51.03205,25.98995],[51.03504,26.01297],[51.04022,26.01403],[51.03789,26.02014],[51.04309,26.03415],[51.04048,26.04114],[51.03876,26.0418],[51.04273,26.04698],[51.0774,26.06002],[51.08074,26.06488],[51.09107,26.06696],[51.09564,26.0686],[51.09621,26.06812],[51.0976,26.06931],[51.1171,26.07632],[51.11877,26.07194],[51.12327,26.0705],[51.14761,26.08333],[51.15376,26.08949],[51.15796,26.11194],[51.18104,26.12723],[51.18062,26.13062],[51.18382,26.13004],[51.18498,26.13665],[51.19135,26.13453],[51.19519,26.12905]]]}},{"type":"Feature","properties":{"id":"QAT:ADM2:91078587B7321304158437","name":"75","countryCode":"QAT","adminLevel":2,"sourceCode":"91078587B7321304158437","parentId":"QAT:ADM1:QAT-1105"},"geometry":{"type":"MultiPolygon","coordinates":[[[[51.57549,25.72176],[51.57863,25.72176],[51.57619,25.71294],[51.54942,25.71294],[51.54942,25.71609],[51.53528,25.71877],[51.53266,25.72396],[51.52393,25.72396],[51.52078,25.71908],[51.51467,25.71908],[51.51397,25.71588],[51.49665,25.71893],[51.49192,25.71344],[51.4664,25.71358],[51.46642,25.71652],[51.45801,25.71656],[51.45799,25.71273],[51.41816,25.71295],[51.41818,25.71617],[51.40295,25.71625],[51.40293,25.71274],[51.30808,25.71326],[51.3081,25.71667],[51.29956,25.71672],[51.29954,25.71326],[51.27104,25.7137],[51.34775,25.81078],[51.34775,25.89513],[51.46043,25.94937],[51.47278,25.95171],[51.473,25.95356],[51.47486,25.9534],[51.47498,25.9522],[51.47956,25.95299],[51.49195,25.95189],[51.51197,25.94611],[51.52947,25.93732],[51.54607,25.92609],[51.55942,25.91376],[51.57032,25.89838],[51.57309,25.8916],[51.56342,25.89136],[51.5732,25.89135],[51.57329,25.89112],[51.56336,25.88962],[51.57368,25.89017],[51.57516,25.88655],[51.57585,25.8777],[51.57901,25.87124],[51.59169,25.79112],[51.58778,25.79134],[51.58061,25.7776],[51.56297,25.77522],[51.55897,25.76996],[51.56152,25.76789],[51.5661,25.77457],[51.57191,25.77274],[51.56364,25.76276],[51.56332,25.76289],[51.55543,25.75869],[51.54835,25.74885],[51.54673,25.74387],[51.53757,25.74965],[51.54028,25.7398],[51.54541,25.73985],[51.54461,25.73737],[51.54607,25.72809],[51.55502,25.72065],[51.56365,25.72162],[51.56914,25.72644],[51.57039,25.72592],[51.57026,25.72743],[51.57032,25.72748],[51.57332,25.73358],[51.57453,25.73415],[51.57549,25.73278],[51.57549,25.72176]]],[[[51.59395,25.77368],[51.5941,25.77589],[51.59437,25.77419],[51.59395,25.77368]]]]}},{"type":"Feature","properties":{"id":"QAT:ADM2:91078587B74187630814278","name":"26","countryCode":"QAT","adminLevel":2,"sourceCode":"91078587B74187630814278","parentId":"QAT:ADM1:QAT-1099"},"geometry":{"type":"Polygon","coordinates":[[[51.53679,25.26428],[51.5522,25.26812],[51.55366,25.27685],[51.53788,25.27069],[51.53679,25.26428]]]}},{"type":"Feature","properties":{"id":"QAT:ADM2:91078587B74870148919967","name":"27","countryCode":"QAT","adminLevel":2,"sourceCode":"91078587B74870148919967","parentId":"QAT:ADM1:QAT-1099"},"geometry":{"type":"Polygon","coordinates":[[[51.55234,25.26826],[51.55694,25.2863],[51.55483,25.28673],[51.55293,25.2807],[51.55234,25.26826]]]}},{"type":"Feature","properties":{"id":"QAT:ADM2:91078587B7560813116985","name":"28","countryCode":"QAT","adminLevel":2,"sourceCode":"91078587B7560813116985","parentId":"QAT:ADM1:QAT-1099"},"geometry":{"type":"Polygon","coordinates":[[[51.58591,25.28279],[51.58427,25.27834],[51.57892,25.27849],[51.57557,25.28583],[51.58494,25.28449],[51.58591,25.28279]]]}},{"type":"Feature","properties":{"id":"QAT:ADM2:91078587B75856753740390","name":"77","countryCode":"QAT","adminLevel":2,"sourceCode":"91078587B75856753740390","parentId":"QAT:ADM1:QAT-1106"},"geometry":{"type":"Polygon","coordinates":[[[51.46036,25.95213],[51.45538,25.94903],[51.46043,25.94937],[51.34775,25.89513],[51.27106,25.89513],[51.27106,25.94883],[51.23598,25.94883],[51.23598,25.94212],[51.23075,25.94212],[51.23075,25.94816],[51.21615,25.94816],[51.21615,26.0409],[51.34711,26.0409],[51.34718,26.03901],[51.35768,26.02973],[51.37664,26.02289],[51.3825,26.00617],[51.38347,25.98558],[51.38844,25.96703],[51.40398,25.95409],[51.41651,25.95209],[51.42433,25.95087],[51.43179,25.95142],[51.4406,25.94829],[51.45024,25.94785],[51.45149,25.95016],[51.45377,25.95055],[51.45086,25.94845],[51.45415,25.94844],[51.45973,25.95202],[51.45878,25.9534],[51.4598,25.95348],[51.46036,25.95213]]]}},{"type":"Feature","properties":{"id":"QAT:ADM2:91078587B78066269672175","name":"56","countryCode":"QAT","adminLevel":2,"sourceCode":"91078587B78066269672175","parentId":"QAT:ADM1:QAT-1100"},"geometry":{"type":"Polygon","coordinates":[[[51.54236,25.20505],[51.53696,25.22601],[51.52389,25.23952],[51.48936,25.25664],[51.47815,25.25074],[51.49224,25.23704],[51.48438,25.23042],[51.46864,25.24573],[51.42884,25.22476],[51.47597,25.16674],[51.52156,25.19567],[51.54236,25.20505]]]}},{"type":"Feature","properties":{"id":"QAT:ADM2:91078587B78903366981324","name":"72","countryCode":"QAT","adminLevel":2,"sourceCode":"91078587B78903366981324","parentId":"QAT:ADM1:QAT-1100"},"geometry":{"type":"Polygon","coordinates":[[[50.89793,25.5265],[50.89779,25.51775],[50.90545,25.51364],[50.9029,25.51261],[50.90546,25.50849],[50.91226,25.50901],[50.91397,25.50567],[50.91609,25.51262],[50.90942,25.51544],[50.90601,25.52239],[50.91452,25.5314],[50.90657,25.54169],[50.91096,25.5453],[50.91251,25.56126],[50.91846,25.56667],[50.91278,25.57516],[50.91619,25.5767],[50.9159,25.58133],[50.92526,25.58778],[51.08804,25.58778],[51.08804,25.58337],[51.26602,25.58337],[51.26602,25.57459],[51.25445,25.57459],[51.25445,25.56987],[51.26565,25.56011],[51.26565,25.47809],[51.20802,25.47809],[51.2006,25.46335],[51.20043,25.44742],[51.19021,25.44175],[51.18154,25.44963],[51.15969,25.42558],[51.15096,25.42582],[51.14371,25.4311],[51.10166,25.43118],[51.07992,25.42676],[51.03311,25.4255],[50.96231,25.45636],[50.93138,25.46351],[50.93133,25.46761],[50.90181,25.46735],[50.87034,25.45042],[50.83995,25.45168],[50.83953,25.46188],[50.84887,25.46577],[50.85018,25.46792],[50.84853,25.46671],[50.84778,25.47463],[50.84228,25.47984],[50.83878,25.48877],[50.84359,25.49264],[50.83369,25.50396],[50.83673,25.50991],[50.82828,25.52308],[50.82789,25.52505],[50.82667,25.54312],[50.82686,25.54421],[50.83014,25.54541],[50.83562,25.55438],[50.83247,25.56056],[50.83676,25.56503],[50.83487,25.57605],[50.82892,25.5864],[50.82778,25.58867],[50.82689,25.5983],[50.8153,25.59871],[50.81229,25.59686],[50.79656,25.5996],[50.79389,25.60074],[50.80079,25.61456],[50.81504,25.61791],[50.81591,25.6213],[50.81629,25.62134],[50.81726,25.61529],[50.82218,25.62199],[50.8235,25.62214],[50.82466,25.62272],[50.83493,25.6217],[50.84239,25.61361],[50.83653,25.62348],[50.83808,25.62502],[50.84689,25.62271],[50.85399,25.61603],[50.85228,25.62092],[50.83901,25.63246],[50.84018,25.63451],[50.84034,25.63489],[50.84602,25.63713],[50.84409,25.64395],[50.84653,25.64985],[50.84706,25.65026],[50.84942,25.64035],[50.86262,25.64086],[50.86988,25.62917],[50.87385,25.62969],[50.87356,25.63303],[50.87557,25.63261],[50.87615,25.63178],[50.87428,25.61494],[50.86984,25.5967],[50.86008,25.58419],[50.86051,25.5736],[50.86769,25.5714],[50.86769,25.56704],[50.86866,25.55956],[50.87025,25.55582],[50.86762,25.54318],[50.87158,25.54114],[50.87597,25.54236],[50.87672,25.54059],[50.87709,25.54017],[50.87706,25.54013],[50.87761,25.53959],[50.88152,25.53514],[50.88868,25.52949],[50.89221,25.53045],[50.89793,25.5265]]]}},{"type":"Feature","properties":{"id":"QAT:ADM2:91078587B80601194471899","name":"84","countryCode":"QAT","adminLevel":2,"sourceCode":"91078587B80601194471899","parentId":"QAT:ADM1:QAT-1100"},"geometry":{"type":"Polygon","coordinates":[[[50.76659,25.23655],[50.76114,25.23956],[50.76424,25.24183],[50.76218,25.26579],[50.78661,25.26592],[50.78664,25.26203],[50.9577,25.26292],[50.9577,25.25976],[51.01901,25.25976],[51.02,25.09005],[50.99686,25.08093],[50.79965,25.08194],[50.79272,25.09375],[50.77362,25.10685],[50.77106,25.11353],[50.77564,25.1591],[50.76625,25.18424],[50.76633,25.19776],[50.7633,25.20003],[50.76443,25.20288],[50.76812,25.20824],[50.76414,25.21582],[50.76394,25.21844],[50.76659,25.23655]]]}},{"type":"Feature","properties":{"id":"QAT:ADM2:91078587B81580735513592","name":"37","countryCode":"QAT","adminLevel":2,"sourceCode":"91078587B81580735513592","parentId":"QAT:ADM1:QAT-1099"},"geometry":{"type":"Polygon","coordinates":[[[51.50548,25.29425],[51.49375,25.312],[51.48716,25.30852],[51.48759,25.29425],[51.50548,25.29425]]]}},{"type":"Feature","properties":{"id":"QAT:ADM2:91078587B84345070687923","name":"47","countryCode":"QAT","adminLevel":2,"sourceCode":"91078587B84345070687923","parentId":"QAT:ADM1:QAT-1099"},"geometry":{"type":"Polygon","coordinates":[[[51.55795,25.22727],[51.57621,25.23289],[51.56664,25.25019],[51.54653,25.2411],[51.55795,25.22727]]]}},{"type":"Feature","properties":{"id":"QAT:ADM2:91078587B84726999218009","name":"54","countryCode":"QAT","adminLevel":2,"sourceCode":"91078587B84726999218009","parentId":"QAT:ADM1:QAT-1100"},"geometry":{"type":"Polygon","coordinates":[[[51.43207,25.27004],[51.43183,25.24943],[51.4889,25.27961],[51.47464,25.29381],[51.44526,25.29381],[51.43472,25.28464],[51.43207,25.27004]]]}},{"type":"Feature","properties":{"id":"QAT:ADM2:91078587B85079353631459","name":"70","countryCode":"QAT","adminLevel":2,"sourceCode":"91078587B85079353631459","parentId":"QAT:ADM1:QAT-5487"},"geometry":{"type":"Polygon","coordinates":[[[51.47508,25.466],[51.48559,25.42064],[51.49756,25.39148],[51.44795,25.3687],[51.41046,25.43535],[51.40792,25.49521],[51.41526,25.56315],[51.40321,25.61413],[51.40452,25.62305],[51.41254,25.62339],[51.45042,25.65114],[51.45887,25.65333],[51.49698,25.63836],[51.55063,25.63847],[51.55019,25.63566],[51.54879,25.63437],[51.54839,25.63046],[51.5359,25.62238],[51.51881,25.61872],[51.50514,25.61201],[51.4983,25.61591],[51.49138,25.61823],[51.49233,25.59654],[51.48988,25.59058],[51.49085,25.58491],[51.49284,25.58465],[51.49285,25.58449],[51.49113,25.58465],[51.48939,25.58209],[51.48827,25.57849],[51.49312,25.57827],[51.49313,25.57807],[51.48833,25.57798],[51.48992,25.56664],[51.49361,25.56696],[51.49366,25.56582],[51.49163,25.55127],[51.49097,25.5499],[51.49142,25.54964],[51.49138,25.5493],[51.48585,25.54051],[51.47755,25.53107],[51.47193,25.52139],[51.47429,25.51211],[51.47491,25.51114],[51.47649,25.50569],[51.48071,25.502],[51.49032,25.48687],[51.48949,25.48038],[51.49184,25.47546],[51.48841,25.47985],[51.48983,25.477],[51.49383,25.47332],[51.49736,25.47577],[51.50356,25.466],[51.47508,25.466]]]}},{"type":"Feature","properties":{"id":"QAT:ADM2:91078587B85294401922232","name":"97","countryCode":"QAT","adminLevel":2,"sourceCode":"91078587B85294401922232","parentId":"QAT:ADM1:QAT-1100"},"geometry":{"type":"Polygon","coordinates":[[[50.82839,24.71854],[50.87339,24.64601],[50.92835,24.54682],[50.93426,24.54152],[50.99448,24.50397],[51.02456,24.49239],[51.09853,24.47075],[51.11768,24.4742],[51.11768,24.71854],[50.82839,24.71854]]]}},{"type":"Feature","properties":{"id":"QAT:ADM2:91078587B8597340902608","name":"20","countryCode":"QAT","adminLevel":2,"sourceCode":"91078587B8597340902608","parentId":"QAT:ADM1:QAT-1099"},"geometry":{"type":"Polygon","coordinates":[[[51.50041,25.3013],[51.49396,25.31439],[51.51418,25.30628],[51.5166,25.30147],[51.50041,25.3013]]]}},{"type":"Feature","properties":{"id":"QAT:ADM2:91078587B87151067735171","name":"74","countryCode":"QAT","adminLevel":2,"sourceCode":"91078587B87151067735171","parentId":"QAT:ADM1:QAT-1105"},"geometry":{"type":"Polygon","coordinates":[[[51.49698,25.63836],[51.45887,25.65333],[51.45042,25.65114],[51.41254,25.62339],[51.40452,25.62305],[51.40321,25.61413],[51.41494,25.56449],[51.33753,25.56449],[51.31607,25.56078],[51.26831,25.58469],[51.24517,25.61413],[51.24293,25.62221],[51.25524,25.65182],[51.26387,25.69913],[51.27096,25.71342],[51.29954,25.71326],[51.29956,25.71672],[51.3081,25.71667],[51.30808,25.71326],[51.40293,25.71274],[51.40295,25.71625],[51.41818,25.71617],[51.41816,25.71295],[51.45799,25.71273],[51.45801,25.71656],[51.46642,25.71652],[51.4664,25.71358],[51.49192,25.71344],[51.49665,25.71893],[51.51397,25.71588],[51.51467,25.71908],[51.52078,25.71908],[51.52393,25.72396],[51.53266,25.72396],[51.53528,25.71877],[51.54942,25.71609],[51.54942,25.71294],[51.57619,25.71294],[51.57619,25.71672],[51.57863,25.71672],[51.57863,25.72176],[51.57549,25.72176],[51.57614,25.73185],[51.5901,25.7119],[51.57683,25.68867],[51.55681,25.68163],[51.55592,25.68755],[51.55688,25.68826],[51.55771,25.68401],[51.56255,25.68631],[51.56061,25.69481],[51.55429,25.69843],[51.554,25.70036],[51.55467,25.70191],[51.55865,25.70151],[51.55526,25.70615],[51.55364,25.70271],[51.55291,25.70759],[51.53932,25.70393],[51.53923,25.70388],[51.53707,25.70429],[51.51821,25.69406],[51.51586,25.69771],[51.50468,25.69116],[51.50783,25.68848],[51.50514,25.68716],[51.51971,25.68171],[51.53299,25.67432],[51.53181,25.67072],[51.53642,25.66748],[51.53448,25.66428],[51.53713,25.66136],[51.54795,25.6596],[51.54883,25.66015],[51.55246,25.65377],[51.55151,25.6517],[51.55167,25.6451],[51.55071,25.63895],[51.49698,25.63836]]]}},{"type":"Feature","properties":{"id":"QAT:ADM2:91078587B87782055915042","name":"95","countryCode":"QAT","adminLevel":2,"sourceCode":"91078587B87782055915042","parentId":"QAT:ADM1:QAT-1100"},"geometry":{"type":"Polygon","coordinates":[[[51.11768,24.71854],[51.15155,24.71835],[51.15155,24.72159],[51.25622,24.72159],[51.29427,24.76607],[51.31386,24.76892],[51.31386,24.90398],[51.46529,25.04921],[51.4126,25.09847],[51.35759,25.10345],[51.33548,25.07324],[51.31411,25.08606],[51.21625,25.10762],[51.21625,24.99011],[51.11852,24.99011],[51.11852,24.91824],[51.09865,24.91824],[51.09865,24.88338],[51.08745,24.88338],[51.08745,24.84816],[51.09641,24.84816],[51.09641,24.82479],[51.11768,24.82479],[51.11768,24.71854]]]}},{"type":"Feature","properties":{"id":"QAT:ADM2:91078587B88603978758954","name":"34","countryCode":"QAT","adminLevel":2,"sourceCode":"91078587B88603978758954","parentId":"QAT:ADM1:QAT-1099"},"geometry":{"type":"Polygon","coordinates":[[[51.47376,25.30969],[51.48624,25.30845],[51.48511,25.31778],[51.47349,25.31751],[51.47376,25.30969]]]}},{"type":"Feature","properties":{"id":"QAT:ADM2:91078587B90572776822782","name":"64","countryCode":"QAT","adminLevel":2,"sourceCode":"91078587B90572776822782","parentId":"QAT:ADM1:QAT-1099"},"geometry":{"type":"Polygon","coordinates":[[[51.49398,25.31438],[51.49484,25.32065],[51.50246,25.32929],[51.51273,25.31659],[51.51319,25.30825],[51.51418,25.30628],[51.49398,25.31438]]]}},{"type":"Feature","properties":{"id":"QAT:ADM2:91078587B9070844542382","name":"96","countryCode":"QAT","adminLevel":2,"sourceCode":"91078587B9070844542382","parentId":"QAT:ADM1:QAT-1100"},"geometry":{"type":"Polygon","coordinates":[[[50.96827,24.98953],[50.96827,24.98612],[50.98146,24.98612],[50.98146,24.99032],[51.03525,24.99032],[51.03525,24.99317],[51.04182,24.99317],[51.05544,24.98351],[51.0642,24.99071],[51.08123,24.99063],[51.08483,24.98715],[51.08847,24.99024],[51.11852,24.99],[51.11852,24.91824],[51.09865,24.91824],[51.09865,24.88338],[51.08745,24.88338],[51.08745,24.84816],[51.09641,24.84816],[51.09641,24.82479],[51.11768,24.82479],[51.11768,24.71854],[50.82839,24.71854],[50.81162,24.74437],[50.82003,24.74796],[50.82667,24.74868],[50.83214,24.75315],[50.85895,24.76463],[50.87037,24.79545],[50.86948,24.8053],[50.85763,24.82161],[50.85712,24.8236],[50.85581,24.83816],[50.86266,24.856],[50.85909,24.8664],[50.86382,24.87873],[50.85801,24.90382],[50.85038,24.91204],[50.85172,24.91905],[50.83152,24.93521],[50.82442,24.94725],[50.82217,24.95814],[50.81394,24.96504],[50.79998,24.98876],[50.79939,24.99139],[50.96827,24.98953]]]}},{"type":"Feature","properties":{"id":"QAT:ADM2:91078587B91130659475882","name":"30","countryCode":"QAT","adminLevel":2,"sourceCode":"91078587B91130659475882","parentId":"QAT:ADM1:QAT-1099"},"geometry":{"type":"Polygon","coordinates":[[[51.44876,25.35787],[51.45781,25.3431],[51.48284,25.35393],[51.46972,25.37869],[51.44851,25.36896],[51.44876,25.35787]]]}},{"type":"Feature","properties":{"id":"QAT:ADM2:91078587B9146513397895","name":"93","countryCode":"QAT","adminLevel":2,"sourceCode":"91078587B9146513397895","parentId":"QAT:ADM1:QAT-1101"},"geometry":{"type":"Polygon","coordinates":[[[51.51533,24.96923],[51.53272,24.96923],[51.53272,24.9719],[51.58562,24.9719],[51.58153,24.96412],[51.58934,24.96293],[51.58693,24.95344],[51.57407,24.93439],[51.5394,24.89887],[51.52882,24.87442],[51.52084,24.87059],[51.51483,24.86879],[51.51533,24.96923]]]}},{"type":"Feature","properties":{"id":"QAT:ADM2:91078587B93784378535894","name":"35","countryCode":"QAT","adminLevel":2,"sourceCode":"91078587B93784378535894","parentId":"QAT:ADM1:QAT-1099"},"geometry":{"type":"Polygon","coordinates":[[[51.48511,25.31778],[51.48624,25.30845],[51.49375,25.312],[51.49396,25.31439],[51.48511,25.31778]]]}},{"type":"Feature","properties":{"id":"QAT:ADM2:91078587B93924165383207","name":"38","countryCode":"QAT","adminLevel":2,"sourceCode":"91078587B93924165383207","parentId":"QAT:ADM1:QAT-1099"},"geometry":{"type":"Polygon","coordinates":[[[51.47464,25.29381],[51.48661,25.28189],[51.5043,25.28343],[51.50532,25.29425],[51.47464,25.29381]]]}},{"type":"Feature","properties":{"id":"QAT:ADM2:91078587B94476380924667","name":"91","countryCode":"QAT","adminLevel":2,"sourceCode":"91078587B94476380924667","parentId":"QAT:ADM1:QAT-1101"},"geometry":{"type":"Polygon","coordinates":[[[51.50932,25.08215],[51.52176,25.09216],[51.53661,25.0835],[51.54396,25.08331],[51.54407,25.08664],[51.55807,25.08628],[51.58295,25.15068],[51.58716,25.19938],[51.59271,25.20388],[51.58435,25.22129],[51.52156,25.19567],[51.47597,25.16674],[51.47374,25.16962],[51.38216,25.12746],[51.46503,25.04896],[51.50932,25.08215]]]}},{"type":"Feature","properties":{"id":"QAT:ADM2:91078587B95881702990633","name":"45","countryCode":"QAT","adminLevel":2,"sourceCode":"91078587B95881702990633","parentId":"QAT:ADM1:QAT-1099"},"geometry":{"type":"Polygon","coordinates":[[[51.5662,25.25],[51.5662,25.25629],[51.55831,25.26424],[51.5507,25.25847],[51.53484,25.25566],[51.54644,25.24105],[51.5662,25.25]]]}},{"type":"Feature","properties":{"id":"QAT:ADM2:91078587B98938999484026","name":"58","countryCode":"QAT","adminLevel":2,"sourceCode":"91078587B98938999484026","parentId":"QAT:ADM1:QAT-1100"},"geometry":{"type":"Polygon","coordinates":[[[51.47815,25.25074],[51.46864,25.24573],[51.48438,25.23042],[51.49224,25.23704],[51.47815,25.25074]]]}},{"type":"Feature","properties":{"id":"QAT:ADM2:91078587B99921066988790","name":"52","countryCode":"QAT","adminLevel":2,"sourceCode":"91078587B99921066988790","parentId":"QAT:ADM1:QAT-1100"},"geometry":{"type":"Polygon","coordinates":[[[51.44526,25.29381],[51.47464,25.29381],[51.47349,25.31751],[51.43089,25.318],[51.40588,25.3077],[51.428,25.29909],[51.44565,25.29757],[51.44526,25.29381]]]}}],"admin1":{"type":"FeatureCollection","features":[{"type":"Feature","properties":{"id":"QAT:ADM1:QAT-1099","name":"Doha","countryCode":"QAT"},"geometry":{"type":"MultiPolygon","coordinates":[[[[51.48967,25.25649],[51.4974,25.26483],[51.49628,25.27225],[51.4889,25.27961],[51.48661,25.28189],[51.47464,25.29381],[51.50532,25.29425],[51.48759,25.29425],[51.48716,25.30852],[51.49375,25.312],[51.48624,25.30845],[51.47376,25.30969],[51.47349,25.31751],[51.46335,25.33406],[51.45781,25.3431],[51.44876,25.35787],[51.44851,25.36896],[51.46972,25.37869],[51.48271,25.35418],[51.48271,25.35418],[51.4993,25.35387],[51.50345,25.35016],[51.5128,25.34179],[51.51197,25.33023],[51.51255,25.31989],[51.51269,25.31728],[51.51146,25.31891],[51.50316,25.32842],[51.51273,25.31659],[51.51319,25.30825],[51.51418,25.30628],[51.51658,25.30151],[51.51658,25.30151],[51.51881,25.29706],[51.52598,25.29425],[51.51215,25.29425],[51.53391,25.29165],[51.53394,25.2918],[51.53447,25.29172],[51.53424,25.29162],[51.53497,25.29165],[51.54879,25.28967],[51.5503,25.28945],[51.55288,25.287],[51.55448,25.28858],[51.55483,25.28673],[51.55694,25.2863],[51.56087,25.28794],[51.57557,25.28583],[51.57557,25.28583],[51.58494,25.28449],[51.58591,25.28279],[51.58547,25.2816],[51.58783,25.28397],[51.60065,25.24345],[51.57621,25.23289],[51.55795,25.22727],[51.5382,25.22119],[51.52972,25.23349],[51.52132,25.24079],[51.52152,25.25559],[51.50669,25.25568],[51.49767,25.26098],[51.48967,25.25649]],[[51.49921,25.30375],[51.49396,25.31439],[51.49396,25.31439],[51.49375,25.312],[51.49921,25.30375]],[[51.48505,25.31778],[51.48494,25.31782],[51.47349,25.31751],[51.48505,25.31778]],[[51.52174,25.27449],[51.53358,25.28113],[51.5391,25.28423],[51.54412,25.28704],[51.54879,25.28967],[51.52174,25.27449]],[[51.53527,25.27944],[51.53543,25.27939],[51.53358,25.28113],[51.53527,25.27944]],[[51.51267,25.2694],[51.52221,25.2648],[51.52227,25.2648],[51.51267,25.2694],[51.51267,25.2694]],[[51.5043,25.28343],[51.51273,25.26943],[51.51273,25.26943],[51.50436,25.28405],[51.5043,25.28343]],[[51.48063,25.33676],[51.49348,25.33537],[51.48064,25.33676],[51.48063,25.33676]],[[51.5023,25.32941],[51.49484,25.32065],[51.50243,25.32926],[51.5023,25.32941]],[[51.538,25.27074],[51.52613,25.27236],[51.53788,25.27069],[51.538,25.27074]],[[51.55234,25.26826],[51.55239,25.26923],[51.55221,25.2682],[51.55236,25.26824],[51.55234,25.26826]],[[51.58228,25.2784],[51.58084,25.27844],[51.58144,25.27755],[51.58228,25.2784]],[[51.53489,25.25589],[51.53679,25.26428],[51.53205,25.26444],[51.53657,25.26428],[51.53489,25.25589]],[[51.53484,25.25565],[51.53484,25.25563],[51.54643,25.24106],[51.54643,25.24106],[51.53484,25.25565]],[[51.5662,25.25],[51.55655,25.24563],[51.5662,25.24999],[51.5662,25.25]],[[51.54908,25.28327],[51.5398,25.27811],[51.5406,25.27787],[51.54739,25.28161],[51.54908,25.28327]]],[[[51.50841,25.36421],[51.51458,25.3668],[51.5128,25.34181],[51.4993,25.35387],[51.49529,25.37168],[51.4998,25.37772],[51.51546,25.37927],[51.51515,25.37492],[51.50422,25.36934],[51.50841,25.36421]]],[[[51.51505,25.37342],[51.51258,25.37333],[51.51511,25.37436],[51.51505,25.37342]]]]}},{"type":"Feature","properties":{"id":"QAT:ADM1:QAT-1100","name":"Al Rayyan","countryCode":"QAT"},"geometry":{"type":"MultiPolygon","coordinates":[[[[50.93426,24.54152],[50.92835,24.54682],[50.87339,24.64601],[50.82839,24.71854],[50.81162,24.74437],[50.82003,24.74796],[50.82667,24.74868],[50.83214,24.75315],[50.85895,24.76463],[50.87037,24.79545],[50.86948,24.8053],[50.85763,24.82161],[50.85712,24.8236],[50.85581,24.83816],[50.86266,24.856],[50.85909,24.8664],[50.86382,24.87873],[50.85801,24.90382],[50.85038,24.91204],[50.85172,24.91905],[50.83152,24.93521],[50.82442,24.94725],[50.82217,24.95814],[50.81394,24.96504],[50.79998,24.98876],[50.79939,24.99139],[50.79717,25.00125],[50.79794,25.007],[50.80738,25.03164],[50.80756,25.03312],[50.81357,25.04075],[50.81044,25.06031],[50.8089,25.06452],[50.8086,25.06916],[50.80601,25.07243],[50.80405,25.0778],[50.79965,25.08194],[50.79272,25.09375],[50.77362,25.10685],[50.77106,25.11353],[50.77564,25.1591],[50.76625,25.18424],[50.76633,25.19776],[50.7633,25.20003],[50.76443,25.20288],[50.76812,25.20824],[50.76414,25.21582],[50.76394,25.21844],[50.76659,25.23655],[50.76114,25.23956],[50.76424,25.24183],[50.76218,25.26579],[50.76375,25.27045],[50.76015,25.27334],[50.76406,25.27316],[50.76164,25.29012],[50.76424,25.29093],[50.76138,25.29352],[50.76139,25.29358],[50.76391,25.29171],[50.7668,25.29356],[50.76961,25.30126],[50.76539,25.34945],[50.76413,25.34985],[50.76241,25.35898],[50.76353,25.36207],[50.75921,25.38619],[50.76297,25.39332],[50.75431,25.40198],[50.75412,25.40299],[50.75884,25.41503],[50.75164,25.42206],[50.75333,25.42841],[50.75693,25.43358],[50.75611,25.43887],[50.76246,25.46271],[50.76269,25.46602],[50.76976,25.48863],[50.76484,25.49896],[50.76141,25.50161],[50.75736,25.4998],[50.75708,25.50199],[50.76405,25.51034],[50.77117,25.51645],[50.77053,25.5181],[50.77188,25.51972],[50.77796,25.52133],[50.78331,25.52784],[50.79709,25.5299],[50.80843,25.5173],[50.80849,25.51722],[50.81165,25.49889],[50.82038,25.4914],[50.82051,25.49055],[50.82049,25.47183],[50.82331,25.47135],[50.82404,25.46639],[50.83047,25.46211],[50.82498,25.46441],[50.82968,25.46082],[50.83953,25.46188],[50.84887,25.46577],[50.85018,25.46792],[50.84853,25.46671],[50.84778,25.47463],[50.84228,25.47984],[50.83878,25.48877],[50.84359,25.49264],[50.83369,25.50396],[50.83673,25.50991],[50.82828,25.52308],[50.82789,25.52505],[50.82667,25.54312],[50.82686,25.54421],[50.83014,25.54541],[50.83562,25.55438],[50.83247,25.56056],[50.83676,25.56503],[50.83487,25.57605],[50.82892,25.5864],[50.82778,25.58867],[50.82689,25.5983],[50.8153,25.59871],[50.81229,25.59686],[50.79656,25.5996],[50.79389,25.60074],[50.80079,25.61456],[50.81504,25.61791],[50.81591,25.6213],[50.81629,25.62134],[50.81726,25.61529],[50.82218,25.62199],[50.8235,25.62214],[50.82466,25.62272],[50.83493,25.6217],[50.84239,25.61361],[50.83653,25.62348],[50.83808,25.62502],[50.84689,25.62271],[50.85399,25.61603],[50.85228,25.62092],[50.83901,25.63246],[50.84018,25.63451],[50.84034,25.63489],[50.84602,25.63713],[50.84409,25.64395],[50.84653,25.64985],[50.84706,25.65026],[50.84942,25.64035],[50.86262,25.64086],[50.86988,25.62917],[50.87385,25.62969],[50.87356,25.63303],[50.87557,25.63261],[50.87615,25.63178],[50.87428,25.61494],[50.86984,25.5967],[50.86008,25.58419],[50.86051,25.5736],[50.86769,25.5714],[50.86769,25.56704],[50.86866,25.55956],[50.87025,25.55582],[50.86762,25.54318],[50.87158,25.54114],[50.87597,25.54236],[50.87672,25.54059],[50.87709,25.54017],[50.87706,25.54013],[50.87761,25.53959],[50.88152,25.53514],[50.88868,25.52949],[50.89221,25.53045],[50.89793,25.5265],[50.89779,25.51775],[50.90545,25.51364],[50.9029,25.51261],[50.90546,25.50849],[50.91226,25.50901],[50.91397,25.50567],[50.91609,25.51262],[50.90942,25.51544],[50.90601,25.52239],[50.91452,25.5314],[50.90657,25.54169],[50.91096,25.5453],[50.91251,25.56126],[50.91846,25.56667],[50.91278,25.57516],[50.91619,25.5767],[50.9159,25.58133],[50.92526,25.58778],[50.92583,25.59138],[50.91944,25.59729],[50.92897,25.60395],[50.93572,25.59833],[50.94955,25.59772],[50.95023,25.59846],[50.95421,25.59396],[50.96698,25.59834],[50.9691,25.60683],[50.96328,25.61507],[50.9725,25.61816],[50.98074,25.62897],[50.97974,25.63489],[50.98812,25.64081],[50.98513,25.64467],[50.98513,25.64055],[50.98286,25.64441],[50.97974,25.64364],[50.97349,25.6529],[50.97534,25.64724],[50.9742,25.64497],[50.94988,25.63646],[50.92433,25.63231],[50.91196,25.63688],[50.90236,25.64927],[50.89951,25.66754],[50.89567,25.67088],[50.89993,25.68041],[50.89708,25.68453],[50.89749,25.69945],[50.89223,25.70897],[50.89393,25.71515],[50.9023,25.72365],[50.90273,25.72957],[50.91494,25.73652],[50.9182,25.7427],[50.91607,25.74476],[50.91834,25.74682],[50.91323,25.74759],[50.91408,25.75094],[50.90526,25.76431],[50.9078,25.78156],[50.91945,25.78826],[50.93081,25.80808],[50.93794,25.80808],[50.93971,25.8072],[50.94557,25.79849],[50.94923,25.78701],[50.94955,25.77529],[50.96034,25.78184],[50.96067,25.78029],[50.95513,25.77206],[50.95584,25.76537],[50.9675,25.76511],[50.96863,25.77016],[50.98272,25.77606],[51.11828,25.77354],[51.11828,25.7137],[51.27111,25.7137],[51.26387,25.69913],[51.25524,25.65182],[51.24293,25.62221],[51.24517,25.61413],[51.26602,25.58759],[51.26602,25.58337],[51.26602,25.57459],[51.25445,25.57459],[51.25445,25.56987],[51.26565,25.56011],[51.26565,25.47809],[51.26565,25.39773],[51.27087,25.39166],[51.31577,25.38812],[51.36105,25.38455],[51.35922,25.36563],[51.394,25.36289],[51.39291,25.35168],[51.41215,25.35016],[51.41343,25.33939],[51.41977,25.34108],[51.42239,25.34513],[51.41865,25.36604],[51.43509,25.36649],[51.44067,25.36064],[51.44105,25.35423],[51.44876,25.35787],[51.47349,25.31751],[51.47387,25.30968],[51.48716,25.30836],[51.48759,25.29425],[51.47462,25.29425],[51.47464,25.29381],[51.4889,25.27961],[51.49628,25.27225],[51.4974,25.26483],[51.48936,25.25664],[51.50447,25.24915],[51.48967,25.25649],[51.49767,25.26098],[51.50669,25.25568],[51.52152,25.25559],[51.52132,25.24079],[51.52389,25.23952],[51.53696,25.22601],[51.54236,25.20505],[51.52156,25.19567],[51.47597,25.16674],[51.47366,25.16958],[51.43564,25.15309],[51.43624,25.15232],[51.38216,25.12746],[51.40988,25.09961],[51.35759,25.10345],[51.4126,25.09847],[51.46529,25.04921],[51.31386,24.90398],[51.31386,24.76892],[51.45669,24.76874],[51.45669,24.7716],[51.47625,24.77158],[51.47421,24.76447],[51.47283,24.75943],[51.46754,24.74868],[51.45582,24.74067],[51.45037,24.72167],[51.44561,24.69211],[51.44137,24.67716],[51.44057,24.67624],[51.44077,24.68013],[51.43414,24.6799],[51.43567,24.67243],[51.43229,24.67295],[51.43523,24.67005],[51.43043,24.6645],[51.4007,24.64831],[51.40392,24.65373],[51.39768,24.65417],[51.40025,24.65116],[51.39348,24.64861],[51.39501,24.64522],[51.38999,24.64248],[51.38152,24.63508],[51.37615,24.61188],[51.36354,24.59634],[51.34978,24.58381],[51.34059,24.56989],[51.33816,24.573],[51.33836,24.57384],[51.33079,24.58261],[51.33108,24.59281],[51.33269,24.59886],[51.33319,24.59974],[51.33548,24.60113],[51.34307,24.59545],[51.34749,24.60204],[51.34364,24.60072],[51.34154,24.60343],[51.3434,24.61372],[51.34663,24.61294],[51.34393,24.60265],[51.34844,24.60419],[51.35876,24.61961],[51.35807,24.62553],[51.3561,24.62425],[51.35712,24.63917],[51.35446,24.64291],[51.34826,24.64228],[51.34912,24.64717],[51.34363,24.64718],[51.34731,24.65284],[51.34408,24.65735],[51.34294,24.65388],[51.33872,24.65543],[51.32801,24.65005],[51.3252,24.6534],[51.32717,24.64751],[51.32114,24.64818],[51.30142,24.6464],[51.28836,24.67587],[51.28933,24.67304],[51.28468,24.67047],[51.28594,24.66584],[51.28326,24.6661],[51.2842,24.66252],[51.28341,24.66258],[51.28298,24.66353],[51.28287,24.66262],[51.27809,24.66299],[51.26791,24.6562],[51.25457,24.6518],[51.23699,24.65005],[51.22663,24.64629],[51.22661,24.64638],[51.22623,24.64615],[51.22096,24.64423],[51.21258,24.63369],[51.2145,24.62819],[51.21475,24.62606],[51.21506,24.62649],[51.21526,24.62584],[51.2156,24.62468],[51.21558,24.61885],[51.21707,24.61957],[51.21762,24.61766],[51.22348,24.61844],[51.22909,24.61355],[51.23106,24.61664],[51.24175,24.61212],[51.24626,24.6152],[51.2547,24.61055],[51.27076,24.61619],[51.27103,24.61233],[51.27778,24.60897],[51.28124,24.61496],[51.28224,24.61368],[51.28017,24.60742],[51.28452,24.6002],[51.2865,24.60406],[51.28818,24.6002],[51.29016,24.60483],[51.29802,24.59271],[51.30733,24.60201],[51.30633,24.59406],[51.30242,24.58661],[51.29591,24.58356],[51.29029,24.57852],[51.29225,24.56782],[51.29689,24.55809],[51.29957,24.55622],[51.29665,24.52291],[51.29573,24.51987],[51.30143,24.50548],[51.26583,24.5056],[51.22047,24.4932],[51.17068,24.48562],[51.15556,24.47879],[51.11768,24.4742],[51.09853,24.47075],[51.02456,24.49239],[50.99448,24.50397],[50.93426,24.54152]],[[51.31771,25.30245],[51.31682,25.3419],[51.31577,25.38812],[51.31771,25.30245]],[[51.3095,25.22314],[51.32629,25.19073],[51.30829,25.22907],[51.3095,25.22314]],[[51.17058,25.10729],[51.18666,25.11747],[51.20657,25.13008],[51.17058,25.10729]],[[51.11768,24.71854],[51.11768,24.71835],[51.15155,24.71835],[51.11768,24.71854]],[[51.29427,24.76607],[51.30882,24.76645],[51.30876,24.76818],[51.29427,24.76607]],[[50.91981,25.26277],[50.78664,25.26203],[50.9577,25.26292],[50.91981,25.26292],[50.91981,25.26277]],[[50.90069,25.44989],[50.90723,25.45941],[50.90234,25.45436],[50.90069,25.44989]],[[51.0913,25.42907],[51.12486,25.43114],[51.10166,25.43118],[51.0913,25.42907]],[[51.19396,25.4419],[51.20043,25.44742],[51.19021,25.44175],[51.19396,25.4419]],[[51.43207,25.27004],[51.42127,25.2683],[51.43207,25.27004],[51.43207,25.27004]],[[51.39676,25.20328],[51.40219,25.19627],[51.39676,25.20328],[51.39676,25.20328]],[[51.42902,25.22453],[51.42884,25.22476],[51.41911,25.21825],[51.42902,25.22453]],[[51.44525,25.2938],[51.44526,25.29381],[51.44565,25.29757],[51.44525,25.2938]]],[[[51.28455,24.66118],[51.28522,24.65863],[51.28467,24.65982],[51.28455,24.66118]]],[[[51.36887,24.57982],[51.3607,24.57548],[51.36109,24.57612],[51.3666,24.5812],[51.36887,24.57982]]],[[[51.34933,24.62014],[51.34539,24.62298],[51.34228,24.61527],[51.34275,24.61903],[51.34685,24.63508],[51.34511,24.63758],[51.34515,24.63791],[51.34911,24.64138],[51.35121,24.63944],[51.35103,24.6258],[51.34598,24.63148],[51.34933,24.62014]]]]}},{"type":"Feature","properties":{"id":"QAT:ADM1:QAT-1101","name":"Al Wakrah","countryCode":"QAT"},"geometry":{"type":"MultiPolygon","coordinates":[[[[51.58934,24.96293],[51.58693,24.95344],[51.57407,24.93439],[51.5394,24.89887],[51.52882,24.87442],[51.52084,24.87059],[51.51483,24.86879],[51.51173,24.86786],[51.50514,24.86408],[51.50026,24.85537],[51.49431,24.83463],[51.49208,24.83557],[51.48843,24.83131],[51.4913,24.82411],[51.4833,24.79619],[51.48305,24.79634],[51.48127,24.81076],[51.4753,24.79766],[51.47668,24.7907],[51.4716,24.78943],[51.47695,24.78633],[51.47724,24.78864],[51.48128,24.78914],[51.47978,24.7839],[51.47074,24.78506],[51.4679,24.78018],[51.46481,24.78405],[51.46649,24.77992],[51.47408,24.77398],[51.47636,24.78144],[51.47872,24.78022],[51.47625,24.77158],[51.45669,24.7716],[51.45669,24.76874],[51.31386,24.76892],[51.31386,24.90398],[51.46503,25.04896],[51.38216,25.12746],[51.47374,25.16962],[51.47597,25.16674],[51.52156,25.19567],[51.58357,25.22097],[51.57634,25.23308],[51.60065,25.24345],[51.58872,25.28394],[51.59002,25.28376],[51.59913,25.27489],[51.6076,25.25511],[51.60944,25.24585],[51.6,25.24257],[51.60539,25.22411],[51.61468,25.21609],[51.61513,25.19716],[51.61562,25.17645],[51.61062,25.16968],[51.61592,25.16383],[51.61593,25.16346],[51.61325,25.16602],[51.61041,25.16433],[51.61614,25.15426],[51.61655,25.13719],[51.60932,25.06847],[51.60915,25.06819],[51.60925,25.0678],[51.60822,25.05803],[51.60572,25.03425],[51.61101,25.02237],[51.60598,25.01742],[51.60081,25.03599],[51.59242,25.03398],[51.59946,25.00688],[51.59925,25.00181],[51.59341,24.9789],[51.59218,24.97867],[51.58562,24.9719],[51.58153,24.96412],[51.58934,24.96293]],[[51.51533,24.96923],[51.51569,25.04181],[51.51483,24.86879],[51.51533,24.96923]],[[51.57216,25.08591],[51.55807,25.08628],[51.54407,25.08664],[51.57216,25.08591]],[[51.5989,25.19529],[51.58834,25.21297],[51.59271,25.20388],[51.5989,25.19529]]],[[[51.57641,25.23295],[51.58263,25.22061],[51.54243,25.2048],[51.5382,25.22119],[51.57641,25.23295]]]]}},{"type":"Feature","properties":{"id":"QAT:ADM1:QAT-1105","name":"Al Khor","countryCode":"QAT"},"geometry":{"type":"MultiPolygon","coordinates":[[[[51.45042,25.65114],[51.41254,25.62339],[51.40452,25.62305],[51.40321,25.61413],[51.41494,25.56449],[51.33753,25.56449],[51.31607,25.56078],[51.26831,25.58469],[51.24517,25.61413],[51.24293,25.62221],[51.25524,25.65182],[51.26387,25.69913],[51.27096,25.71342],[51.29954,25.71326],[51.27104,25.7137],[51.11828,25.7137],[51.11828,25.77354],[50.98272,25.77606],[50.97971,25.78894],[50.99094,25.79847],[50.9898,25.80362],[50.98511,25.80516],[50.98767,25.80799],[50.9871,25.81828],[50.97971,25.82562],[50.97246,25.8249],[50.97071,25.83051],[50.96493,25.82473],[50.95553,25.83372],[50.95838,25.83372],[50.96094,25.84812],[51.10312,25.84812],[51.10238,25.84476],[51.11805,25.84476],[51.11805,25.95084],[51.13522,25.95084],[51.13522,25.96628],[51.16582,25.96628],[51.16582,25.94816],[51.23075,25.94816],[51.23075,25.94212],[51.23598,25.94212],[51.23598,25.94883],[51.27106,25.94883],[51.27106,25.89513],[51.34775,25.89513],[51.46043,25.94937],[51.47278,25.95171],[51.473,25.95356],[51.47486,25.9534],[51.47498,25.9522],[51.47956,25.95299],[51.49195,25.95189],[51.51197,25.94611],[51.52947,25.93732],[51.54607,25.92609],[51.55942,25.91376],[51.57032,25.89838],[51.57309,25.8916],[51.56342,25.89136],[51.5732,25.89135],[51.57329,25.89112],[51.56336,25.88962],[51.57368,25.89017],[51.57516,25.88655],[51.57585,25.8777],[51.57901,25.87124],[51.59169,25.79112],[51.58778,25.79134],[51.58061,25.7776],[51.56297,25.77522],[51.55897,25.76996],[51.56152,25.76789],[51.5661,25.77457],[51.57191,25.77274],[51.56364,25.76276],[51.56332,25.76289],[51.55543,25.75869],[51.54835,25.74885],[51.54673,25.74387],[51.53757,25.74965],[51.54028,25.7398],[51.54541,25.73985],[51.54461,25.73737],[51.54607,25.72809],[51.55502,25.72065],[51.56365,25.72162],[51.56914,25.72644],[51.57039,25.72592],[51.57026,25.72743],[51.57032,25.72748],[51.57332,25.73358],[51.57453,25.73415],[51.57549,25.73278],[51.57549,25.72176],[51.57614,25.73185],[51.5901,25.7119],[51.57683,25.68867],[51.55681,25.68163],[51.55592,25.68755],[51.55688,25.68826],[51.55771,25.68401],[51.56255,25.68631],[51.56061,25.69481],[51.55429,25.69843],[51.554,25.70036],[51.55467,25.70191],[51.55865,25.70151],[51.55526,25.70615],[51.55364,25.70271],[51.55291,25.70759],[51.53932,25.70393],[51.53923,25.70388],[51.53707,25.70429],[51.51821,25.69406],[51.51586,25.69771],[51.50468,25.69116],[51.50783,25.68848],[51.50514,25.68716],[51.51971,25.68171],[51.53299,25.67432],[51.53181,25.67072],[51.53642,25.66748],[51.53448,25.66428],[51.53713,25.66136],[51.54795,25.6596],[51.54883,25.66015],[51.55246,25.65377],[51.55151,25.6517],[51.55167,25.6451],[51.55071,25.63895],[51.49698,25.63836],[51.45887,25.65333],[51.45042,25.65114]],[[51.57863,25.71672],[51.57863,25.72176],[51.57724,25.71672],[51.57863,25.71672]]],[[[51.59437,25.77419],[51.59395,25.77368],[51.5941,25.77589],[51.59437,25.77419]]]]}},{"type":"Feature","properties":{"id":"QAT:ADM1:QAT-1106","name":"Madinat ash Shamal","countryCode":"QAT"},"geometry":{"type":"Polygon","coordinates":[[[51.45538,25.94903],[51.46043,25.94937],[51.34775,25.89513],[51.27106,25.89513],[51.27106,25.94883],[51.23598,25.94883],[51.23598,25.94212],[51.23075,25.94212],[51.23075,25.94816],[51.21615,25.94816],[51.16582,25.94816],[51.16582,25.96628],[51.13522,25.96628],[51.13522,25.95084],[51.11805,25.95084],[51.11805,25.84476],[51.10238,25.84476],[51.10312,25.84812],[50.96094,25.84812],[50.95866,25.85647],[50.96605,25.86394],[50.96605,25.87037],[50.9706,25.87089],[50.97088,25.86458],[50.97728,25.86626],[50.97742,25.87526],[50.97287,25.87629],[50.97145,25.88118],[50.97856,25.8871],[50.97941,25.89431],[50.98709,25.89637],[50.99193,25.90151],[50.99634,25.91901],[50.99292,25.93523],[50.99378,25.95427],[50.98979,25.95839],[50.99008,25.96817],[50.98652,25.97537],[50.98778,25.97894],[50.99252,25.97574],[50.99562,25.97285],[50.99807,25.96797],[50.99791,25.96765],[51.00474,25.95993],[51.0238,25.96907],[51.02104,25.97149],[51.01527,25.96787],[51.02394,25.97786],[51.02096,25.98758],[51.02461,25.98987],[51.02774,25.98468],[51.03556,25.9871],[51.03205,25.98995],[51.03504,26.01297],[51.04022,26.01403],[51.03789,26.02014],[51.04309,26.03415],[51.04048,26.04114],[51.03876,26.0418],[51.04273,26.04698],[51.0774,26.06002],[51.08074,26.06488],[51.09107,26.06696],[51.09564,26.0686],[51.09621,26.06812],[51.0976,26.06931],[51.1171,26.07632],[51.11877,26.07194],[51.12327,26.0705],[51.14761,26.08333],[51.15376,26.08949],[51.15796,26.11194],[51.18104,26.12723],[51.18062,26.13062],[51.18382,26.13004],[51.18498,26.13665],[51.19135,26.13453],[51.19435,26.13353],[51.21485,26.13935],[51.21989,26.14222],[51.22362,26.14012],[51.23342,26.14505],[51.2375,26.15227],[51.2474,26.15792],[51.25198,26.15903],[51.26056,26.15348],[51.26135,26.15515],[51.26293,26.15437],[51.26252,26.15116],[51.27726,26.14179],[51.30151,26.13548],[51.3228,26.12505],[51.33389,26.11797],[51.34685,26.10488],[51.34848,26.08564],[51.34636,26.0607],[51.34711,26.0409],[51.34718,26.03901],[51.35768,26.02973],[51.37664,26.02289],[51.3825,26.00617],[51.38347,25.98558],[51.38844,25.96703],[51.40398,25.95409],[51.41651,25.95209],[51.42433,25.95087],[51.43179,25.95142],[51.4406,25.94829],[51.45024,25.94785],[51.45149,25.95016],[51.45377,25.95055],[51.45086,25.94845],[51.45415,25.94844],[51.45973,25.95202],[51.45878,25.9534],[51.4598,25.95348],[51.46036,25.95213],[51.45538,25.94903]]]}},{"type":"Feature","properties":{"id":"QAT:ADM1:QAT-1107","name":"Umm Salal","countryCode":"QAT"},"geometry":{"type":"Polygon","coordinates":[[[51.44876,25.35787],[51.44851,25.36896],[51.41046,25.43535],[51.40792,25.49521],[51.41494,25.56449],[51.33753,25.56449],[51.31607,25.56078],[51.26602,25.58759],[51.26602,25.57459],[51.25445,25.57459],[51.25445,25.56987],[51.26565,25.56011],[51.26565,25.39773],[51.27087,25.39166],[51.36105,25.38455],[51.35922,25.36563],[51.394,25.36289],[51.39291,25.35168],[51.41215,25.35016],[51.41343,25.33939],[51.41977,25.34108],[51.42239,25.34513],[51.41865,25.36604],[51.43509,25.36649],[51.44067,25.36064],[51.44105,25.35423],[51.44876,25.35787]]]}},{"type":"Feature","properties":{"id":"QAT:ADM1:QAT-5487","name":"Al Daayen","countryCode":"QAT"},"geometry":{"type":"Polygon","coordinates":[[[51.49529,25.37168],[51.49945,25.35348],[51.48271,25.35418],[51.46972,25.37869],[51.49763,25.39151],[51.48559,25.42064],[51.49756,25.39148],[51.44795,25.3687],[51.41046,25.43535],[51.40792,25.49521],[51.41526,25.56315],[51.40321,25.61413],[51.40452,25.62305],[51.41254,25.62339],[51.45042,25.65114],[51.45887,25.65333],[51.49698,25.63836],[51.55063,25.63847],[51.55019,25.63566],[51.54879,25.63437],[51.54839,25.63046],[51.5359,25.62238],[51.51881,25.61872],[51.50514,25.61201],[51.4983,25.61591],[51.49138,25.61823],[51.49233,25.59654],[51.48988,25.59058],[51.49085,25.58491],[51.49284,25.58465],[51.49285,25.58449],[51.49113,25.58465],[51.48939,25.58209],[51.48827,25.57849],[51.49312,25.57827],[51.49313,25.57807],[51.48833,25.57798],[51.48992,25.56664],[51.49361,25.56696],[51.49366,25.56582],[51.49163,25.55127],[51.49097,25.5499],[51.49142,25.54964],[51.49138,25.5493],[51.48585,25.54051],[51.47755,25.53107],[51.47193,25.52139],[51.47429,25.51211],[51.47491,25.51114],[51.47649,25.50569],[51.48071,25.502],[51.49032,25.48687],[51.48949,25.48038],[51.49184,25.47546],[51.48841,25.47985],[51.48983,25.477],[51.49383,25.47332],[51.49736,25.47577],[51.50356,25.466],[51.511,25.45429],[51.51694,25.44017],[51.51881,25.42621],[51.5179,25.41346],[51.51716,25.41359],[51.51477,25.42594],[51.51069,25.42419],[51.5088,25.41867],[51.51508,25.40964],[51.51762,25.40957],[51.51572,25.38284],[51.51546,25.37927],[51.4998,25.37772],[51.49529,25.37168]]]}}]}}
