{"type":"FeatureCollection","features":[{"type":"Feature","properties":{"id":"SGP:ADM0:SGP","name":"Singapore","countryCode":"SGP","adminLevel":0,"sourceCode":"SGP","parentId":"SGP:ADM1:SGP-4871"},"geometry":{"type":"MultiPolygon","coordinates":[[[[103.65187,1.3148],[103.64978,1.31741],[103.64521,1.31304],[103.64039,1.32225],[103.64471,1.33804],[103.67457,1.38032],[103.67888,1.39924],[103.68385,1.4099],[103.69508,1.42133],[103.70834,1.42939],[103.71795,1.43098],[103.73976,1.42813],[103.76222,1.43098],[103.79005,1.44428],[103.80494,1.44863],[103.83155,1.44709],[103.85719,1.43871],[103.86469,1.43496],[103.86535,1.43413],[103.85778,1.42653],[103.86379,1.42382],[103.87518,1.42972],[103.88679,1.42392],[103.88655,1.42359],[103.88688,1.42388],[103.89704,1.4188],[103.89741,1.41491],[103.90024,1.41721],[103.9305,1.40209],[103.93018,1.40059],[103.93319,1.40085],[103.93584,1.39992],[103.93868,1.39704],[103.93644,1.393],[103.94066,1.3953],[103.94262,1.38829],[103.94924,1.38299],[103.96622,1.38061],[103.97259,1.38842],[103.98569,1.38544],[103.99952,1.38032],[104.00343,1.37417],[103.99187,1.35493],[103.97486,1.33446],[103.95436,1.3181],[103.93189,1.31147],[103.90724,1.30874],[103.88771,1.30126],[103.85271,1.27729],[103.84693,1.27192],[103.84409,1.2685],[103.84026,1.26686],[103.83945,1.26762],[103.83062,1.26501],[103.82602,1.26431],[103.8149,1.26453],[103.81154,1.26644],[103.80878,1.26465],[103.80161,1.2648],[103.80076,1.26501],[103.79399,1.26921],[103.79272,1.26708],[103.78956,1.26789],[103.78611,1.27191],[103.78663,1.27279],[103.78419,1.27426],[103.77589,1.28758],[103.76259,1.29369],[103.76306,1.29446],[103.75857,1.29929],[103.7529,1.29763],[103.74378,1.29975],[103.74343,1.30132],[103.7422,1.30012],[103.73015,1.30292],[103.72066,1.30395],[103.7122,1.30844],[103.71713,1.30434],[103.71146,1.30495],[103.71139,1.30724],[103.70839,1.30762],[103.70813,1.30523],[103.69873,1.30498],[103.69525,1.30795],[103.69674,1.30493],[103.69528,1.30489],[103.69506,1.30786],[103.69355,1.30509],[103.69356,1.30484],[103.68263,1.30456],[103.68156,1.30919],[103.6817,1.30453],[103.67411,1.30433],[103.67272,1.30681],[103.66879,1.30632],[103.66905,1.3042],[103.66529,1.3041],[103.65445,1.30675],[103.65749,1.31006],[103.65278,1.30716],[103.64763,1.30842],[103.64697,1.30969],[103.65187,1.3148]],[[103.736,1.34695],[103.73132,1.35173],[103.72814,1.35361],[103.736,1.34695]],[[103.77445,1.39029],[103.77598,1.37983],[103.77362,1.40131],[103.77168,1.40999],[103.77445,1.39029]],[[103.87029,1.42498],[103.86936,1.42647],[103.86736,1.42472],[103.87029,1.42498]]],[[[103.80304,1.46903],[103.80394,1.46914],[103.80001,1.46711],[103.80304,1.46903]]],[[[103.76905,1.45249],[103.76906,1.45247],[103.76905,1.45247],[103.76905,1.45249]]],[[[103.72835,1.45107],[103.72876,1.45072],[103.72674,1.45089],[103.72835,1.45107]]]]}}],"admin1":{"type":"FeatureCollection","features":[{"type":"Feature","properties":{"id":"SGP:ADM1:SGP-4871","name":"Central Singapore Community Development Council","countryCode":"SGP"},"geometry":{"type":"MultiPolygon","coordinates":[[[[103.64521,1.31304],[103.64039,1.32225],[103.64471,1.33804],[103.67457,1.38032],[103.67888,1.39924],[103.68385,1.4099],[103.69508,1.42133],[103.70834,1.42939],[103.71795,1.43098],[103.73976,1.42813],[103.76222,1.43098],[103.79005,1.44428],[103.80494,1.44863],[103.83155,1.44709],[103.85719,1.43871],[103.86469,1.43496],[103.86535,1.43413],[103.85778,1.42653],[103.86379,1.42382],[103.87518,1.42972],[103.88679,1.42392],[103.88655,1.42359],[103.88688,1.42388],[103.89704,1.4188],[103.89741,1.41491],[103.90024,1.41721],[103.9305,1.40209],[103.93018,1.40059],[103.93319,1.40085],[103.93584,1.39992],[103.93868,1.39704],[103.93644,1.393],[103.94066,1.3953],[103.94262,1.38829],[103.94924,1.38299],[103.96622,1.38061],[103.97259,1.38842],[103.98569,1.38544],[103.99952,1.38032],[104.00343,1.37417],[103.99187,1.35493],[103.97486,1.33446],[103.95436,1.3181],[103.93189,1.31147],[103.90724,1.30874],[103.88771,1.30126],[103.85271,1.27729],[103.84693,1.27192],[103.84409,1.2685],[103.84026,1.26686],[103.83945,1.26762],[103.83062,1.26501],[103.82602,1.26431],[103.8149,1.26453],[103.81154,1.26644],[103.80878,1.26465],[103.80161,1.2648],[103.80076,1.26501],[103.79399,1.26921],[103.79272,1.26708],[103.78956,1.26789],[103.78611,1.27191],[103.78663,1.27279],[103.78419,1.27426],[103.77589,1.28758],[103.76259,1.29369],[103.76306,1.29446],[103.75857,1.29929],[103.7529,1.29763],[103.74378,1.29975],[103.74343,1.30132],[103.7422,1.30012],[103.73015,1.30292],[103.72066,1.30395],[103.7122,1.30844],[103.71713,1.30434],[103.71146,1.30495],[103.71139,1.30724],[103.70839,1.30762],[103.70813,1.30523],[103.69873,1.30498],[103.69525,1.30795],[103.69674,1.30493],[103.69528,1.30489],[103.69506,1.30786],[103.69355,1.30509],[103.69356,1.30484],[103.68263,1.30456],[103.68156,1.30919],[103.6817,1.30453],[103.67411,1.30433],[103.67272,1.30681],[103.66879,1.30632],[103.66905,1.3042],[103.66529,1.3041],[103.65445,1.30675],[103.65749,1.31006],[103.65278,1.30716],[103.64763,1.30842],[103.64697,1.30969],[103.65187,1.3148],[103.64978,1.31741],[103.64521,1.31304]],[[103.72814,1.35361],[103.736,1.34695],[103.73132,1.35173],[103.72814,1.35361]],[[103.77362,1.40131],[103.77168,1.40999],[103.77445,1.39029],[103.77598,1.37983],[103.77362,1.40131]],[[103.86736,1.42472],[103.87029,1.42498],[103.86936,1.42647],[103.86736,1.42472]]],[[[103.72674,1.45089],[103.72835,1.45107],[103.72876,1.45072],[103.72674,1.45089]]],[[[103.76905,1.45247],[103.76905,1.45249],[103.76906,1.45247],[103.76905,1.45247]]],[[[103.80001,1.46711],[103.80304,1.46903],[103.80394,1.46914],[103.80001,1.46711]]]]}}]}}
