{"type":"FeatureCollection","features":[{"type":"Feature","properties":{"id":"SGS:ADM0:SGS","name":"South Georgia and the South Sandwich Islands","countryCode":"SGS","adminLevel":0,"sourceCode":"SGS","parentId":"SGS:ADM1:SGS+00?"},"geometry":{"type":"MultiPolygon","coordinates":[[[[-27.25292,-59.45827],[-27.23131,-59.43825],[-27.13683,-59.43719],[-27.15294,-59.4708],[-27.25292,-59.45827]]],[[[-27.3286,-59.43719],[-27.30134,-59.47194],[-27.40722,-59.43174],[-27.33092,-59.42457],[-27.3286,-59.43719]]],[[[-26.62975,-59.00596],[-26.56265,-59.00791],[-26.49938,-59.03314],[-26.62979,-59.06276],[-26.62975,-59.00596]]],[[[-26.25984,-58.4367],[-26.2462,-58.49871],[-26.45783,-58.42669],[-26.31237,-58.38209],[-26.25984,-58.4367]]],[[[-26.42431,-57.81276],[-26.47875,-57.80267],[-26.51305,-57.77256],[-26.35603,-57.78623],[-26.42431,-57.81276]]],[[[-26.73282,-57.05934],[-26.69034,-57.05055],[-26.65026,-57.07977],[-26.66389,-57.08668],[-26.73282,-57.05934]]],[[[-27.1505,-56.67571],[-27.09244,-56.70648],[-27.20759,-56.71315],[-27.20458,-56.6902],[-27.1505,-56.67571]]],[[[-27.60977,-56.29217],[-27.5725,-56.27256],[-27.5279,-56.28476],[-27.569,-56.32057],[-27.60977,-56.29217]]],[[[-37.08308,-54.46592],[-37.04874,-54.47454],[-37.01818,-54.50335],[-37.0865,-54.51084],[-37.08308,-54.46592]]],[[[-38.08703,-54.00368],[-38.06237,-53.98805],[-38.02619,-53.98944],[-38.06578,-54.00237],[-38.08703,-54.00368]]],[[[-35.9088,-54.68727],[-35.78429,-54.76474],[-36.10643,-54.76474],[-35.92203,-54.85223],[-36.11596,-54.88453],[-36.49901,-54.51051],[-36.80997,-54.44899],[-36.88451,-54.33636],[-37.15339,-54.2575],[-37.41369,-54.2553],[-37.3192,-54.2291],[-37.40925,-54.18182],[-37.23729,-54.14772],[-37.68981,-54.17441],[-37.65563,-54.0993],[-37.72452,-54.09246],[-37.61465,-54.03786],[-38.03238,-54.00994],[-37.38195,-53.9826],[-37.46386,-54.03045],[-37.12121,-54.03045],[-37.14916,-54.11354],[-37.00524,-54.05202],[-37.01818,-54.11981],[-36.6551,-54.10613],[-36.71715,-54.17441],[-36.49112,-54.18499],[-36.67565,-54.27744],[-36.49185,-54.23463],[-36.49747,-54.3458],[-36.35408,-54.35931],[-36.39444,-54.24277],[-36.26061,-54.28541],[-36.25723,-54.36989],[-36.01622,-54.49538],[-36.06981,-54.56666],[-35.88732,-54.5512],[-35.9088,-54.68727]]],[[[-28.21329,-56.71396],[-28.17146,-56.70485],[-28.16857,-56.716],[-28.18712,-56.72625],[-28.21329,-56.71396]]]]}}],"admin1":{"type":"FeatureCollection","features":[{"type":"Feature","properties":{"id":"SGS:ADM1:SGS+00?","name":"South Georgia and the South Sandwich Islands","countryCode":"SGS"},"geometry":{"type":"MultiPolygon","coordinates":[[[[-27.33092,-59.42457],[-27.3286,-59.43719],[-27.30134,-59.47194],[-27.40722,-59.43174],[-27.33092,-59.42457]]],[[[-28.21329,-56.71396],[-28.17146,-56.70485],[-28.16857,-56.716],[-28.18712,-56.72625],[-28.21329,-56.71396]]],[[[-27.60977,-56.29217],[-27.5725,-56.27256],[-27.5279,-56.28476],[-27.569,-56.32057],[-27.60977,-56.29217]]],[[[-37.0865,-54.51084],[-37.08308,-54.46592],[-37.04874,-54.47454],[-37.01818,-54.50335],[-37.0865,-54.51084]]],[[[-36.11596,-54.88453],[-36.49901,-54.51051],[-36.80997,-54.44899],[-36.88451,-54.33636],[-37.15339,-54.2575],[-37.41369,-54.2553],[-37.3192,-54.2291],[-37.40925,-54.18182],[-37.23729,-54.14772],[-37.68981,-54.17441],[-37.65563,-54.0993],[-37.72452,-54.09246],[-37.61465,-54.03786],[-38.03238,-54.00994],[-37.38195,-53.9826],[-37.46386,-54.03045],[-37.12121,-54.03045],[-37.14916,-54.11354],[-37.00524,-54.05202],[-37.01818,-54.11981],[-36.6551,-54.10613],[-36.71715,-54.17441],[-36.49112,-54.18499],[-36.67565,-54.27744],[-36.49185,-54.23463],[-36.49747,-54.3458],[-36.35408,-54.35931],[-36.39444,-54.24277],[-36.26061,-54.28541],[-36.25723,-54.36989],[-36.01622,-54.49538],[-36.06981,-54.56666],[-35.88732,-54.5512],[-35.9088,-54.68727],[-35.78429,-54.76474],[-36.10643,-54.76474],[-35.92203,-54.85223],[-36.11596,-54.88453]]],[[[-38.08703,-54.00368],[-38.06237,-53.98805],[-38.02619,-53.98944],[-38.06578,-54.00237],[-38.08703,-54.00368]]],[[[-27.15294,-59.4708],[-27.25292,-59.45827],[-27.23131,-59.43825],[-27.13683,-59.43719],[-27.15294,-59.4708]]],[[[-26.62975,-59.00596],[-26.56265,-59.00791],[-26.49938,-59.03314],[-26.62979,-59.06276],[-26.62975,-59.00596]]],[[[-26.25984,-58.4367],[-26.2462,-58.49871],[-26.45783,-58.42669],[-26.31237,-58.38209],[-26.25984,-58.4367]]],[[[-26.35603,-57.78623],[-26.42431,-57.81276],[-26.47875,-57.80267],[-26.51305,-57.77256],[-26.35603,-57.78623]]],[[[-26.73282,-57.05934],[-26.69034,-57.05055],[-26.65026,-57.07977],[-26.66389,-57.08668],[-26.73282,-57.05934]]],[[[-27.1505,-56.67571],[-27.09244,-56.70648],[-27.20759,-56.71315],[-27.20458,-56.6902],[-27.1505,-56.67571]]]]}}]}}
