{"type":"FeatureCollection","features":[{"type":"Feature","properties":{"id":"SHN:ADM0:31036641B33738317050801","name":"Saint Helena, Ascension, and Tristan da Cunha","countryCode":"SHN","adminLevel":0,"sourceCode":"31036641B33738317050801","parentId":"SHN:ADM1:SHN-4865"},"geometry":{"type":"MultiPolygon","coordinates":[[[[-9.92924,-40.36422],[-9.92575,-40.35963],[-9.93121,-40.3526],[-9.96106,-40.33968],[-9.9634,-40.33175],[-9.97181,-40.32356],[-9.98524,-40.32186],[-9.996,-40.31579],[-10.01688,-40.31427],[-10.01895,-40.31054],[-10.01405,-40.30556],[-10.00866,-40.30446],[-9.96276,-40.30185],[-9.94994,-40.30446],[-9.9431,-40.31227],[-9.93236,-40.33904],[-9.92638,-40.34881],[-9.90636,-40.36419],[-9.90316,-40.36821],[-9.92924,-40.36422]]],[[[-12.28556,-37.06494],[-12.27916,-37.06236],[-12.26001,-37.06402],[-12.23602,-37.08003],[-12.22333,-37.09699],[-12.21759,-37.11026],[-12.21822,-37.11628],[-12.24478,-37.13787],[-12.26378,-37.14902],[-12.2766,-37.14918],[-12.30411,-37.12558],[-12.33532,-37.10426],[-12.32559,-37.09466],[-12.30736,-37.07008],[-12.3024,-37.06505],[-12.28556,-37.06494]],[[-12.26479,-37.0761],[-12.26613,-37.07736],[-12.26357,-37.07769],[-12.26479,-37.0761]],[[-12.26344,-37.07314],[-12.26344,-37.07431],[-12.26142,-37.0731],[-12.26344,-37.07314]]],[[[-5.77137,-15.97095],[-5.77303,-15.9709],[-5.77284,-15.96991],[-5.77137,-15.97095]]],[[[-5.70283,-16.00308],[-5.70434,-15.99944],[-5.70775,-15.99635],[-5.71166,-15.99432],[-5.71565,-15.9909],[-5.72989,-16.00482],[-5.74649,-16.01385],[-5.75733,-16.01502],[-5.75935,-16.00763],[-5.77082,-16.0028],[-5.77493,-16.00413],[-5.77707,-16.00055],[-5.78863,-15.99656],[-5.78912,-15.99587],[-5.77596,-15.98275],[-5.77387,-15.97504],[-5.76673,-15.97037],[-5.7591,-15.94955],[-5.73829,-15.93911],[-5.72918,-15.92905],[-5.71859,-15.92411],[-5.71736,-15.9194],[-5.71167,-15.91916],[-5.70536,-15.90704],[-5.6961,-15.90714],[-5.69523,-15.90928],[-5.68598,-15.91404],[-5.67385,-15.9153],[-5.66412,-15.91052],[-5.66215,-15.91088],[-5.6577,-15.91953],[-5.65197,-15.9345],[-5.65038,-15.94891],[-5.65355,-15.96356],[-5.66275,-15.97959],[-5.67394,-15.98821],[-5.68692,-15.99481],[-5.69991,-16.00372],[-5.70283,-16.00308]]],[[[-14.30822,-7.93558],[-14.30747,-7.93446],[-14.30696,-7.93674],[-14.30822,-7.93558]]],[[[-14.31037,-7.95402],[-14.31045,-7.95438],[-14.32848,-7.96234],[-14.33947,-7.96999],[-14.35033,-7.97471],[-14.37853,-7.97601],[-14.39102,-7.97967],[-14.4064,-7.97389],[-14.411,-7.96307],[-14.41226,-7.95037],[-14.41771,-7.93922],[-14.40661,-7.92409],[-14.39288,-7.89426],[-14.38199,-7.89449],[-14.37843,-7.88966],[-14.37292,-7.891],[-14.36507,-7.89715],[-14.35163,-7.89982],[-14.35076,-7.90637],[-14.34115,-7.91482],[-14.33405,-7.91292],[-14.3264,-7.9177],[-14.31651,-7.93614],[-14.29711,-7.94695],[-14.30525,-7.95208],[-14.30936,-7.9539],[-14.31037,-7.95402]]]]}}],"admin1":{"type":"FeatureCollection","features":[{"type":"Feature","properties":{"id":"SHN:ADM1:SHN-4865","name":"Tristan da Cunha","countryCode":"SHN"},"geometry":{"type":"MultiPolygon","coordinates":[[[[-9.93121,-40.3526],[-9.96106,-40.33968],[-9.9634,-40.33175],[-9.97181,-40.32356],[-9.98524,-40.32186],[-9.996,-40.31579],[-10.01688,-40.31427],[-10.01895,-40.31054],[-10.01405,-40.30556],[-10.00866,-40.30446],[-9.96276,-40.30185],[-9.94994,-40.30446],[-9.9431,-40.31227],[-9.93236,-40.33904],[-9.92638,-40.34881],[-9.90636,-40.36419],[-9.90316,-40.36821],[-9.92924,-40.36422],[-9.92575,-40.35963],[-9.93121,-40.3526]]],[[[-12.23602,-37.08003],[-12.22333,-37.09699],[-12.21759,-37.11026],[-12.21822,-37.11628],[-12.24478,-37.13787],[-12.26378,-37.14902],[-12.2766,-37.14918],[-12.30411,-37.12558],[-12.33532,-37.10426],[-12.32559,-37.09466],[-12.30736,-37.07008],[-12.3024,-37.06505],[-12.28556,-37.06494],[-12.27916,-37.06236],[-12.26001,-37.06402],[-12.23602,-37.08003]],[[-12.26479,-37.0761],[-12.26613,-37.07736],[-12.26357,-37.07769],[-12.26479,-37.0761]],[[-12.26344,-37.07314],[-12.26344,-37.07431],[-12.26142,-37.0731],[-12.26344,-37.07314]]],[[[-5.77137,-15.97095],[-5.77303,-15.9709],[-5.77284,-15.96991],[-5.77137,-15.97095]]],[[[-5.70775,-15.99635],[-5.71166,-15.99432],[-5.71565,-15.9909],[-5.72989,-16.00482],[-5.74649,-16.01385],[-5.75733,-16.01502],[-5.75935,-16.00763],[-5.77082,-16.0028],[-5.77493,-16.00413],[-5.77707,-16.00055],[-5.78863,-15.99656],[-5.78912,-15.99587],[-5.77596,-15.98275],[-5.77387,-15.97504],[-5.76673,-15.97037],[-5.7591,-15.94955],[-5.73829,-15.93911],[-5.72918,-15.92905],[-5.71859,-15.92411],[-5.71736,-15.9194],[-5.71167,-15.91916],[-5.70536,-15.90704],[-5.6961,-15.90714],[-5.69523,-15.90928],[-5.68598,-15.91404],[-5.67385,-15.9153],[-5.66412,-15.91052],[-5.66215,-15.91088],[-5.6577,-15.91953],[-5.65197,-15.9345],[-5.65038,-15.94891],[-5.65355,-15.96356],[-5.66275,-15.97959],[-5.67394,-15.98821],[-5.68692,-15.99481],[-5.69991,-16.00372],[-5.70283,-16.00308],[-5.70434,-15.99944],[-5.70775,-15.99635]]],[[[-14.30822,-7.93558],[-14.30747,-7.93446],[-14.30696,-7.93674],[-14.30822,-7.93558]]],[[[-14.33947,-7.96999],[-14.35033,-7.97471],[-14.37853,-7.97601],[-14.39102,-7.97967],[-14.4064,-7.97389],[-14.411,-7.96307],[-14.41226,-7.95037],[-14.41771,-7.93922],[-14.40661,-7.92409],[-14.39288,-7.89426],[-14.38199,-7.89449],[-14.37843,-7.88966],[-14.37292,-7.891],[-14.36507,-7.89715],[-14.35163,-7.89982],[-14.35076,-7.90637],[-14.34115,-7.91482],[-14.33405,-7.91292],[-14.3264,-7.9177],[-14.31651,-7.93614],[-14.29711,-7.94695],[-14.30525,-7.95208],[-14.30936,-7.9539],[-14.31037,-7.95402],[-14.31045,-7.95438],[-14.32848,-7.96234],[-14.33947,-7.96999]]]]}}]}}
