{"type":"FeatureCollection","features":[{"type":"Feature","properties":{"id":"SMR:ADM0:7152903B91478728133221","name":"San Marino","countryCode":"SMR","adminLevel":0,"sourceCode":"7152903B91478728133221","parentId":"SMR:ADM1:SMR-4887"},"geometry":{"type":"Polygon","coordinates":[[[12.50959,43.99095],[12.50396,43.99108],[12.50223,43.98686],[12.49256,43.98297],[12.46933,43.97749],[12.44645,43.96565],[12.43652,43.95663],[12.41986,43.9578],[12.41171,43.9524],[12.4044,43.9557],[12.40524,43.94264],[12.41217,43.93775],[12.41537,43.93017],[12.40821,43.92116],[12.4125,43.9094],[12.40885,43.9032],[12.42038,43.90071],[12.44285,43.90598],[12.455,43.89393],[12.4874,43.89647],[12.49557,43.90933],[12.49294,43.91845],[12.50293,43.92363],[12.5073,43.93356],[12.51607,43.94076],[12.51343,43.95008],[12.50637,43.95808],[12.50927,43.96271],[12.50593,43.9711],[12.51221,43.97264],[12.51001,43.98093],[12.51593,43.9846],[12.51442,43.99083],[12.50959,43.99095]]]}}],"admin1":{"type":"FeatureCollection","features":[{"type":"Feature","properties":{"id":"SMR:ADM1:SMR-4887","name":"Domagnano","countryCode":"SMR"},"geometry":{"type":"Polygon","coordinates":[[[12.50959,43.99095],[12.50396,43.99108],[12.50223,43.98686],[12.49256,43.98297],[12.46933,43.97749],[12.44645,43.96565],[12.43652,43.95663],[12.41986,43.9578],[12.41171,43.9524],[12.4044,43.9557],[12.40524,43.94264],[12.41217,43.93775],[12.41537,43.93017],[12.40821,43.92116],[12.4125,43.9094],[12.40885,43.9032],[12.42038,43.90071],[12.44285,43.90598],[12.455,43.89393],[12.4874,43.89647],[12.49557,43.90933],[12.49294,43.91845],[12.50293,43.92363],[12.5073,43.93356],[12.51607,43.94076],[12.51343,43.95008],[12.50637,43.95808],[12.50927,43.96271],[12.50593,43.9711],[12.51221,43.97264],[12.51001,43.98093],[12.51593,43.9846],[12.51442,43.99083],[12.50959,43.99095]]]}}]}}
