{"type":"FeatureCollection","features":[{"type":"Feature","properties":{"id":"SOL:ADM0:SOL","name":"Somaliland","countryCode":"SOL","adminLevel":0,"sourceCode":"SOL","parentId":"SOL:ADM1:SOL+00?"},"geometry":{"type":"Polygon","coordinates":[[[48.93911,11.24913],[48.93911,9.45123],[47.97917,7.99657],[46.97923,7.99657],[44.02385,8.98553],[43.6215,9.3369],[43.41903,9.41302],[43.18721,9.88333],[43.06769,9.92252],[42.83628,10.20809],[42.64859,10.61103],[43.28272,11.49893],[43.48943,11.38093],[43.48813,11.23892],[43.8296,10.80297],[44.34755,10.41451],[44.58615,10.38359],[44.96201,10.4158],[45.7693,10.87812],[46.44776,10.6931],[47.40593,11.18464],[47.71046,11.10126],[48.13038,11.13666],[48.52198,11.31928],[48.93911,11.24913]]]}}],"admin1":{"type":"FeatureCollection","features":[{"type":"Feature","properties":{"id":"SOL:ADM1:SOL+00?","name":"Somaliland","countryCode":"SOL"},"geometry":{"type":"Polygon","coordinates":[[[48.93911,11.24913],[48.93911,9.45123],[47.97917,7.99657],[46.97923,7.99657],[44.02385,8.98553],[43.6215,9.3369],[43.41903,9.41302],[43.18721,9.88333],[43.06769,9.92252],[42.83628,10.20809],[42.64859,10.61103],[43.28272,11.49893],[43.48943,11.38093],[43.48813,11.23892],[43.8296,10.80297],[44.34755,10.41451],[44.58615,10.38359],[44.96201,10.4158],[45.7693,10.87812],[46.44776,10.6931],[47.40593,11.18464],[47.71046,11.10126],[48.13038,11.13666],[48.52198,11.31928],[48.93911,11.24913]]]}}]}}
