{"type":"FeatureCollection","features":[{"type":"Feature","properties":{"id":"SPM:ADM0:SPM","name":"Saint Pierre and Miquelon","countryCode":"SPM","adminLevel":0,"sourceCode":"SPM","parentId":"SPM:ADM1:SPM-4866"},"geometry":{"type":"MultiPolygon","coordinates":[[[[-56.15095,46.79365],[-56.16808,46.75727],[-56.2403,46.76569],[-56.19188,46.80663],[-56.15095,46.79365]]],[[[-56.27379,46.89545],[-56.24926,46.84227],[-56.37068,46.7862],[-56.32828,46.91494],[-56.38817,47.05183],[-56.36628,47.1402],[-56.25333,47.0537],[-56.35021,46.99462],[-56.27379,46.89545]]]]}}],"admin1":{"type":"FeatureCollection","features":[{"type":"Feature","properties":{"id":"SPM:ADM1:SPM-4866","name":"Saint Pierre and Miquelon","countryCode":"SPM"},"geometry":{"type":"MultiPolygon","coordinates":[[[[-56.16808,46.75727],[-56.2403,46.76569],[-56.19188,46.80663],[-56.15095,46.79365],[-56.16808,46.75727]]],[[[-56.24926,46.84227],[-56.37068,46.7862],[-56.32828,46.91494],[-56.38817,47.05183],[-56.36628,47.1402],[-56.25333,47.0537],[-56.35021,46.99462],[-56.27379,46.89545],[-56.24926,46.84227]]]]}}]}}
