{"type":"FeatureCollection","features":[{"type":"Feature","properties":{"id":"STP:ADM0:85558007B40794750917517","name":"Sao Tome and Principe","countryCode":"STP","adminLevel":0,"sourceCode":"85558007B40794750917517","parentId":"STP:ADM1:STP-4861"},"geometry":{"type":"MultiPolygon","coordinates":[[[[6.63856,0.40667],[6.64599,0.41041],[6.67945,0.40731],[6.68272,0.40624],[6.69194,0.39995],[6.6949,0.3908],[6.70279,0.38341],[6.71298,0.38205],[6.72005,0.37445],[6.71318,0.37184],[6.71253,0.3678],[6.71484,0.36109],[6.72576,0.35887],[6.72196,0.35141],[6.72365,0.34507],[6.73228,0.33971],[6.73742,0.34847],[6.73969,0.34623],[6.74161,0.31826],[6.74881,0.31191],[6.75202,0.30057],[6.75888,0.29653],[6.7596,0.29217],[6.75816,0.28741],[6.7512,0.28857],[6.74531,0.27633],[6.74979,0.26783],[6.74281,0.25945],[6.74543,0.25514],[6.74383,0.24909],[6.74903,0.24232],[6.74312,0.23834],[6.7455,0.23211],[6.74293,0.23352],[6.73591,0.22913],[6.73329,0.2213],[6.72556,0.2167],[6.72825,0.21321],[6.7228,0.21311],[6.72064,0.20451],[6.70536,0.20074],[6.69846,0.18907],[6.69923,0.18459],[6.68685,0.17713],[6.69103,0.171],[6.68758,0.16839],[6.67904,0.16914],[6.68246,0.15834],[6.67489,0.16139],[6.6725,0.15654],[6.67566,0.15436],[6.66765,0.153],[6.66906,0.14651],[6.67331,0.14654],[6.65517,0.13823],[6.65557,0.13137],[6.64655,0.13015],[6.64632,0.12452],[6.65433,0.12041],[6.6531,0.10939],[6.63824,0.10718],[6.63499,0.10531],[6.63635,0.10157],[6.62772,0.10158],[6.62704,0.09703],[6.62122,0.09764],[6.61482,0.08733],[6.61087,0.08598],[6.6138,0.08218],[6.60178,0.0847],[6.59796,0.08106],[6.59839,0.0777],[6.59443,0.07761],[6.58974,0.07948],[6.58783,0.07745],[6.58699,0.07743],[6.58516,0.08379],[6.57925,0.08308],[6.57848,0.08656],[6.56951,0.08464],[6.56367,0.07156],[6.5667,0.05676],[6.55813,0.04969],[6.5575,0.03551],[6.55423,0.03482],[6.55274,0.03806],[6.55044,0.03648],[6.5442,0.04393],[6.54331,0.04178],[6.54045,0.0473],[6.53707,0.04733],[6.53419,0.04469],[6.53661,0.03256],[6.53347,0.0328],[6.53021,0.02585],[6.52543,0.02522],[6.51637,0.03364],[6.5101,0.05142],[6.51076,0.05195],[6.51256,0.05171],[6.51505,0.05535],[6.51358,0.05925],[6.51392,0.06047],[6.51605,0.06144],[6.51595,0.06764],[6.51661,0.06997],[6.51685,0.07582],[6.51809,0.07741],[6.51656,0.08875],[6.51362,0.09003],[6.5163,0.1006],[6.51195,0.10755],[6.50069,0.10652],[6.49954,0.10874],[6.49618,0.11953],[6.49685,0.1261],[6.49356,0.12797],[6.4673,0.21247],[6.46421,0.2178],[6.46562,0.22011],[6.46254,0.2238],[6.46632,0.23102],[6.46811,0.23981],[6.46827,0.24795],[6.46982,0.24757],[6.46828,0.24834],[6.46852,0.25995],[6.47052,0.26669],[6.48092,0.27585],[6.48252,0.28176],[6.49024,0.29096],[6.49431,0.29999],[6.49537,0.30638],[6.49781,0.31269],[6.51674,0.33172],[6.52254,0.33202],[6.52678,0.34182],[6.53057,0.34564],[6.53929,0.34919],[6.54071,0.35184],[6.54078,0.35187],[6.5783,0.36457],[6.60955,0.39037],[6.63648,0.40739],[6.63856,0.40667]]],[[[7.4043,1.69121],[7.41685,1.68967],[7.4253,1.68362],[7.43068,1.68685],[7.43248,1.68376],[7.43709,1.68479],[7.44092,1.69201],[7.45252,1.68162],[7.46128,1.68046],[7.45874,1.6745],[7.45999,1.67221],[7.45803,1.67055],[7.44913,1.67359],[7.44466,1.66779],[7.44574,1.66524],[7.43867,1.66112],[7.43326,1.6603],[7.42075,1.64216],[7.42508,1.63993],[7.42764,1.64483],[7.43356,1.64707],[7.43967,1.64608],[7.44506,1.63814],[7.44916,1.64098],[7.45391,1.63985],[7.45448,1.63954],[7.45201,1.63238],[7.45659,1.63119],[7.45813,1.63403],[7.45977,1.63005],[7.45265,1.62735],[7.43824,1.62393],[7.43442,1.61522],[7.43467,1.61018],[7.43151,1.60592],[7.4246,1.60333],[7.42358,1.59328],[7.42948,1.58581],[7.42974,1.58065],[7.42744,1.56918],[7.4222,1.56364],[7.42313,1.56133],[7.41822,1.5585],[7.40577,1.55646],[7.40211,1.55073],[7.40232,1.54635],[7.39903,1.54403],[7.40225,1.53954],[7.40138,1.5312],[7.39882,1.53492],[7.39814,1.53939],[7.39702,1.53917],[7.39568,1.54238],[7.39405,1.5454],[7.38738,1.54247],[7.38174,1.53849],[7.37777,1.54814],[7.37554,1.54809],[7.37224,1.55415],[7.35841,1.5589],[7.35539,1.55911],[7.35446,1.56023],[7.3512,1.55939],[7.34376,1.55988],[7.3391,1.56215],[7.34131,1.56626],[7.33959,1.57491],[7.3342,1.5878],[7.33727,1.59527],[7.32952,1.60032],[7.32962,1.60298],[7.33393,1.60829],[7.33957,1.6061],[7.34187,1.60069],[7.35647,1.60096],[7.3639,1.60509],[7.36351,1.61102],[7.36901,1.61669],[7.36965,1.62288],[7.3653,1.63586],[7.36636,1.64127],[7.37232,1.64633],[7.37257,1.64994],[7.36654,1.65575],[7.36654,1.65619],[7.36948,1.66412],[7.36866,1.66572],[7.37184,1.67719],[7.37526,1.68105],[7.37869,1.6792],[7.38817,1.68024],[7.39572,1.68708],[7.39354,1.69326],[7.39917,1.69004],[7.40245,1.69419],[7.4043,1.69121]]]]}}],"admin1":{"type":"FeatureCollection","features":[{"type":"Feature","properties":{"id":"STP:ADM1:STP-4861","name":"São Tomé","countryCode":"STP"},"geometry":{"type":"MultiPolygon","coordinates":[[[[6.64599,0.41041],[6.67945,0.40731],[6.68272,0.40624],[6.69194,0.39995],[6.6949,0.3908],[6.70279,0.38341],[6.71298,0.38205],[6.72005,0.37445],[6.71318,0.37184],[6.71253,0.3678],[6.71484,0.36109],[6.72576,0.35887],[6.72196,0.35141],[6.72365,0.34507],[6.73228,0.33971],[6.73742,0.34847],[6.73969,0.34623],[6.74161,0.31826],[6.74881,0.31191],[6.75202,0.30057],[6.75888,0.29653],[6.7596,0.29217],[6.75816,0.28741],[6.7512,0.28857],[6.74531,0.27633],[6.74979,0.26783],[6.74281,0.25945],[6.74543,0.25514],[6.74383,0.24909],[6.74903,0.24232],[6.74312,0.23834],[6.7455,0.23211],[6.74293,0.23352],[6.73591,0.22913],[6.73329,0.2213],[6.72556,0.2167],[6.72825,0.21321],[6.7228,0.21311],[6.72064,0.20451],[6.70536,0.20074],[6.69846,0.18907],[6.69923,0.18459],[6.68685,0.17713],[6.69103,0.171],[6.68758,0.16839],[6.67904,0.16914],[6.68246,0.15834],[6.67489,0.16139],[6.6725,0.15654],[6.67566,0.15436],[6.66765,0.153],[6.66906,0.14651],[6.67331,0.14654],[6.65517,0.13823],[6.65557,0.13137],[6.64655,0.13015],[6.64632,0.12452],[6.65433,0.12041],[6.6531,0.10939],[6.63824,0.10718],[6.63499,0.10531],[6.63635,0.10157],[6.62772,0.10158],[6.62704,0.09703],[6.62122,0.09764],[6.61482,0.08733],[6.61087,0.08598],[6.6138,0.08218],[6.60178,0.0847],[6.59796,0.08106],[6.59839,0.0777],[6.59443,0.07761],[6.58974,0.07948],[6.58783,0.07745],[6.58699,0.07743],[6.58516,0.08379],[6.57925,0.08308],[6.57848,0.08656],[6.56951,0.08464],[6.56367,0.07156],[6.5667,0.05676],[6.55813,0.04969],[6.5575,0.03551],[6.55423,0.03482],[6.55274,0.03806],[6.55044,0.03648],[6.5442,0.04393],[6.54331,0.04178],[6.54045,0.0473],[6.53707,0.04733],[6.53419,0.04469],[6.53661,0.03256],[6.53347,0.0328],[6.53021,0.02585],[6.52543,0.02522],[6.51637,0.03364],[6.5101,0.05142],[6.51076,0.05195],[6.51256,0.05171],[6.51505,0.05535],[6.51358,0.05925],[6.51392,0.06047],[6.51605,0.06144],[6.51595,0.06764],[6.51661,0.06997],[6.51685,0.07582],[6.51809,0.07741],[6.51656,0.08875],[6.51362,0.09003],[6.5163,0.1006],[6.51195,0.10755],[6.50069,0.10652],[6.49954,0.10874],[6.49618,0.11953],[6.49685,0.1261],[6.49356,0.12797],[6.4673,0.21247],[6.46421,0.2178],[6.46562,0.22011],[6.46254,0.2238],[6.46632,0.23102],[6.46811,0.23981],[6.46827,0.24795],[6.46982,0.24757],[6.46828,0.24834],[6.46852,0.25995],[6.47052,0.26669],[6.48092,0.27585],[6.48252,0.28176],[6.49024,0.29096],[6.49431,0.29999],[6.49537,0.30638],[6.49781,0.31269],[6.51674,0.33172],[6.52254,0.33202],[6.52678,0.34182],[6.53057,0.34564],[6.53929,0.34919],[6.54071,0.35184],[6.54078,0.35187],[6.5783,0.36457],[6.60955,0.39037],[6.63648,0.40739],[6.63856,0.40667],[6.64599,0.41041]]],[[[7.41685,1.68967],[7.4253,1.68362],[7.43068,1.68685],[7.43248,1.68376],[7.43709,1.68479],[7.44092,1.69201],[7.45252,1.68162],[7.46128,1.68046],[7.45874,1.6745],[7.45999,1.67221],[7.45803,1.67055],[7.44913,1.67359],[7.44466,1.66779],[7.44574,1.66524],[7.43867,1.66112],[7.43326,1.6603],[7.42075,1.64216],[7.42508,1.63993],[7.42764,1.64483],[7.43356,1.64707],[7.43967,1.64608],[7.44506,1.63814],[7.44916,1.64098],[7.45391,1.63985],[7.45448,1.63954],[7.45201,1.63238],[7.45659,1.63119],[7.45813,1.63403],[7.45977,1.63005],[7.45265,1.62735],[7.43824,1.62393],[7.43442,1.61522],[7.43467,1.61018],[7.43151,1.60592],[7.4246,1.60333],[7.42358,1.59328],[7.42948,1.58581],[7.42974,1.58065],[7.42744,1.56918],[7.4222,1.56364],[7.42313,1.56133],[7.41822,1.5585],[7.40577,1.55646],[7.40211,1.55073],[7.40232,1.54635],[7.39903,1.54403],[7.40225,1.53954],[7.40138,1.5312],[7.39882,1.53492],[7.39814,1.53939],[7.39702,1.53917],[7.39568,1.54238],[7.39405,1.5454],[7.38738,1.54247],[7.38174,1.53849],[7.37777,1.54814],[7.37554,1.54809],[7.37224,1.55415],[7.35841,1.5589],[7.35539,1.55911],[7.35446,1.56023],[7.3512,1.55939],[7.34376,1.55988],[7.3391,1.56215],[7.34131,1.56626],[7.33959,1.57491],[7.3342,1.5878],[7.33727,1.59527],[7.32952,1.60032],[7.32962,1.60298],[7.33393,1.60829],[7.33957,1.6061],[7.34187,1.60069],[7.35647,1.60096],[7.3639,1.60509],[7.36351,1.61102],[7.36901,1.61669],[7.36965,1.62288],[7.3653,1.63586],[7.36636,1.64127],[7.37232,1.64633],[7.37257,1.64994],[7.36654,1.65575],[7.36654,1.65619],[7.36948,1.66412],[7.36866,1.66572],[7.37184,1.67719],[7.37526,1.68105],[7.37869,1.6792],[7.38817,1.68024],[7.39572,1.68708],[7.39354,1.69326],[7.39917,1.69004],[7.40245,1.69419],[7.4043,1.69121],[7.41685,1.68967]]]]}}]}}
