{"type":"FeatureCollection","features":[{"type":"Feature","properties":{"id":"SWZ:ADM2:25544865B10788448603865","name":"Inkhundla Ntfonjeni","countryCode":"SWZ","adminLevel":2,"sourceCode":"25544865B10788448603865","parentId":"SWZ:ADM1:SWZ-534"},"geometry":{"type":"Polygon","coordinates":[[[31.18457,-25.8739],[31.19137,-25.88135],[31.2026,-25.88635],[31.2103,-25.8826],[31.21646,-25.89244],[31.22493,-25.88695],[31.21987,-25.8819],[31.23944,-25.86981],[31.25033,-25.85862],[31.27725,-25.89278],[31.28469,-25.89098],[31.28925,-25.90414],[31.29849,-25.89909],[31.30157,-25.91361],[31.31166,-25.90916],[31.3216,-25.90989],[31.32272,-25.92492],[31.32705,-25.92113],[31.33091,-25.90897],[31.39423,-25.89326],[31.41266,-25.90694],[31.41492,-25.91188],[31.43916,-25.92048],[31.44979,-25.91085],[31.45842,-25.91115],[31.45874,-25.89683],[31.448,-25.86365],[31.45199,-25.85137],[31.44944,-25.83954],[31.45652,-25.82253],[31.44735,-25.82598],[31.43633,-25.82533],[31.41505,-25.83563],[31.41099,-25.82596],[31.41348,-25.81457],[31.39639,-25.80109],[31.3999,-25.78969],[31.39365,-25.78921],[31.39067,-25.78555],[31.39185,-25.7592],[31.38323,-25.75016],[31.37658,-25.72838],[31.31594,-25.74304],[31.26357,-25.80963],[31.18457,-25.8739]]]}},{"type":"Feature","properties":{"id":"SWZ:ADM2:25544865B11062726816998","name":"Inkhundla Shiselweni","countryCode":"SWZ","adminLevel":2,"sourceCode":"25544865B11062726816998","parentId":"SWZ:ADM1:SWZ-537"},"geometry":{"type":"Polygon","coordinates":[[[31.60385,-27.24762],[31.58538,-27.24818],[31.56919,-27.23623],[31.55653,-27.23914],[31.54592,-27.23043],[31.53411,-27.23513],[31.51433,-27.22963],[31.49979,-27.21175],[31.49952,-27.20674],[31.48335,-27.20447],[31.46601,-27.20653],[31.45312,-27.19967],[31.44485,-27.20008],[31.44556,-27.18808],[31.43762,-27.17648],[31.42854,-27.17291],[31.42216,-27.16566],[31.42349,-27.15189],[31.42062,-27.14948],[31.41468,-27.15062],[31.40763,-27.16681],[31.39429,-27.16625],[31.39178,-27.17017],[31.39428,-27.18074],[31.3899,-27.20571],[31.40794,-27.22613],[31.39466,-27.25081],[31.38763,-27.25509],[31.38927,-27.26995],[31.38477,-27.27475],[31.38503,-27.27932],[31.49369,-27.31516],[31.60925,-27.31589],[31.60075,-27.30798],[31.60497,-27.30218],[31.60285,-27.29615],[31.60627,-27.28991],[31.60627,-27.27577],[31.61256,-27.25923],[31.60385,-27.24762]]]}},{"type":"Feature","properties":{"id":"SWZ:ADM2:25544865B11475880596120","name":"Inkhundla Hhukwini","countryCode":"SWZ","adminLevel":2,"sourceCode":"25544865B11475880596120","parentId":"SWZ:ADM1:SWZ-534"},"geometry":{"type":"Polygon","coordinates":[[[31.17263,-26.24027],[31.18485,-26.24066],[31.1867,-26.24676],[31.1653,-26.27493],[31.16913,-26.28529],[31.18044,-26.29495],[31.17439,-26.34941],[31.16809,-26.35135],[31.16348,-26.34439],[31.15595,-26.34941],[31.1612,-26.36215],[31.15937,-26.36846],[31.18925,-26.36662],[31.21018,-26.37122],[31.21465,-26.3757],[31.21691,-26.38657],[31.25629,-26.42461],[31.26135,-26.41615],[31.26108,-26.40983],[31.26618,-26.40632],[31.26328,-26.38743],[31.28442,-26.36116],[31.27592,-26.34384],[31.28391,-26.32773],[31.28102,-26.3228],[31.28853,-26.31313],[31.28302,-26.2981],[31.26855,-26.29495],[31.26471,-26.28442],[31.25388,-26.27193],[31.24819,-26.27282],[31.23179,-26.26495],[31.22671,-26.25347],[31.21881,-26.24717],[31.22172,-26.23486],[31.21757,-26.22657],[31.2032,-26.21653],[31.19514,-26.21506],[31.19375,-26.21917],[31.18578,-26.21851],[31.17263,-26.24027]]]}},{"type":"Feature","properties":{"id":"SWZ:ADM2:25544865B14062061502324","name":"Inkhundla Timpisini","countryCode":"SWZ","adminLevel":2,"sourceCode":"25544865B14062061502324","parentId":"SWZ:ADM1:SWZ-534"},"geometry":{"type":"Polygon","coordinates":[[[31.45652,-25.82253],[31.46381,-25.81993],[31.46343,-25.81006],[31.467,-25.80647],[31.47702,-25.80197],[31.48629,-25.78197],[31.48604,-25.77422],[31.49354,-25.7665],[31.4163,-25.71876],[31.37658,-25.72838],[31.38323,-25.75016],[31.39185,-25.7592],[31.39067,-25.78555],[31.39365,-25.78921],[31.3999,-25.78969],[31.39639,-25.80109],[31.41348,-25.81457],[31.41099,-25.82596],[31.41505,-25.83563],[31.43633,-25.82533],[31.44735,-25.82598],[31.45652,-25.82253]]]}},{"type":"Feature","properties":{"id":"SWZ:ADM2:25544865B1439783352799","name":"Inkhundla Madlangempisi","countryCode":"SWZ","adminLevel":2,"sourceCode":"25544865B1439783352799","parentId":"SWZ:ADM1:SWZ-534"},"geometry":{"type":"Polygon","coordinates":[[[31.47886,-26.11826],[31.48714,-26.1315],[31.48795,-26.14498],[31.48207,-26.15352],[31.48673,-26.17375],[31.49466,-26.18332],[31.50126,-26.17884],[31.50593,-26.17982],[31.51224,-26.19012],[31.5249,-26.19435],[31.53682,-26.2033],[31.54988,-26.20413],[31.54998,-26.19142],[31.54396,-26.1841],[31.54515,-26.17988],[31.55432,-26.18011],[31.57172,-26.17187],[31.57407,-26.16997],[31.56946,-26.16503],[31.57247,-26.16374],[31.5863,-26.17265],[31.6024,-26.16915],[31.6127,-26.1732],[31.62547,-26.16909],[31.63029,-26.17254],[31.63609,-26.169],[31.6422,-26.17115],[31.6452,-26.16774],[31.65725,-26.16698],[31.66522,-26.16167],[31.67791,-26.16314],[31.67601,-26.15129],[31.68776,-26.15519],[31.68581,-26.13427],[31.6807,-26.12928],[31.67829,-26.11785],[31.67652,-26.08876],[31.67024,-26.05621],[31.65568,-26.05192],[31.6371,-26.05531],[31.62765,-26.03624],[31.60066,-26.01542],[31.58776,-26.01764],[31.58259,-26.01317],[31.57186,-26.02338],[31.56518,-26.02515],[31.56048,-26.02136],[31.53264,-26.03711],[31.52716,-26.04437],[31.52903,-26.04909],[31.52154,-26.05951],[31.51541,-26.07615],[31.51912,-26.08468],[31.51945,-26.1026],[31.50439,-26.10878],[31.48887,-26.11031],[31.47886,-26.11826]]]}},{"type":"Feature","properties":{"id":"SWZ:ADM2:25544865B16433175131284","name":"Inkhundla Ngudzeni","countryCode":"SWZ","adminLevel":2,"sourceCode":"25544865B16433175131284","parentId":"SWZ:ADM1:SWZ-537"},"geometry":{"type":"Polygon","coordinates":[[[31.53927,-26.97073],[31.52911,-26.96988],[31.52596,-26.96649],[31.52151,-26.96979],[31.5045,-26.96752],[31.5028,-26.97501],[31.4881,-26.97254],[31.48485,-26.97575],[31.48426,-26.98072],[31.50129,-26.99384],[31.50205,-26.99701],[31.49456,-27.00479],[31.49691,-27.01599],[31.50683,-27.01889],[31.5178,-27.02612],[31.5183,-27.02929],[31.51023,-27.03729],[31.50152,-27.07655],[31.50292,-27.0818],[31.49916,-27.08957],[31.51852,-27.08694],[31.53799,-27.09486],[31.56964,-27.10141],[31.57337,-27.09665],[31.60576,-27.10443],[31.6051,-27.09447],[31.61446,-27.09397],[31.61789,-27.07449],[31.6108,-27.05349],[31.61238,-27.04823],[31.59394,-27.03126],[31.59254,-27.02008],[31.58443,-27.0102],[31.58249,-27.00051],[31.56034,-26.99288],[31.57023,-26.98664],[31.57831,-26.98892],[31.58008,-26.98665],[31.57656,-26.98276],[31.58541,-26.97729],[31.5783,-26.97494],[31.58554,-26.96966],[31.57064,-26.96777],[31.57255,-26.9727],[31.56563,-26.9743],[31.56376,-26.97276],[31.56733,-26.96968],[31.5629,-26.96551],[31.55716,-26.97393],[31.55373,-26.97342],[31.55191,-26.96795],[31.54417,-26.97249],[31.53927,-26.97073]]]}},{"type":"Feature","properties":{"id":"SWZ:ADM2:25544865B19615198899380","name":"Inkhundla Maphalaleni","countryCode":"SWZ","adminLevel":2,"sourceCode":"25544865B19615198899380","parentId":"SWZ:ADM1:SWZ-534"},"geometry":{"type":"Polygon","coordinates":[[[31.28391,-26.32773],[31.30417,-26.31521],[31.35166,-26.30766],[31.3654,-26.28439],[31.37232,-26.27818],[31.37942,-26.28938],[31.38507,-26.28901],[31.38864,-26.28358],[31.396,-26.28501],[31.40213,-26.28192],[31.40488,-26.29421],[31.40955,-26.29519],[31.43752,-26.2776],[31.43564,-26.27241],[31.45131,-26.26956],[31.4594,-26.26424],[31.46475,-26.25462],[31.4705,-26.25167],[31.48486,-26.24763],[31.48562,-26.25342],[31.48959,-26.25619],[31.50962,-26.25253],[31.51569,-26.2475],[31.51498,-26.24309],[31.51022,-26.24154],[31.52739,-26.23577],[31.53011,-26.23163],[31.51157,-26.22255],[31.51132,-26.21847],[31.52183,-26.21546],[31.53824,-26.21953],[31.54324,-26.20722],[31.54988,-26.20413],[31.53682,-26.2033],[31.5249,-26.19435],[31.51224,-26.19012],[31.50593,-26.17982],[31.50126,-26.17884],[31.49466,-26.18332],[31.48673,-26.17375],[31.48254,-26.16029],[31.48207,-26.15352],[31.48795,-26.14498],[31.48549,-26.12591],[31.47886,-26.11826],[31.45832,-26.11923],[31.44899,-26.09981],[31.44087,-26.09254],[31.42227,-26.09926],[31.41305,-26.10702],[31.40067,-26.10158],[31.38795,-26.08385],[31.37345,-26.08967],[31.36906,-26.09518],[31.36155,-26.0852],[31.33719,-26.08281],[31.33078,-26.08527],[31.32573,-26.07442],[31.31853,-26.07592],[31.30983,-26.08016],[31.30649,-26.0868],[31.29936,-26.08769],[31.29403,-26.09273],[31.30149,-26.09933],[31.30585,-26.09652],[31.30903,-26.10041],[31.29772,-26.1146],[31.30226,-26.12115],[31.29474,-26.12053],[31.29122,-26.12952],[31.28339,-26.12357],[31.26468,-26.14047],[31.25926,-26.14974],[31.26312,-26.15694],[31.25819,-26.1658],[31.20425,-26.16674],[31.20432,-26.18041],[31.19624,-26.204],[31.18578,-26.21851],[31.19375,-26.21917],[31.19514,-26.21506],[31.2032,-26.21653],[31.21757,-26.22657],[31.22172,-26.23486],[31.21881,-26.24717],[31.22671,-26.25347],[31.23179,-26.26495],[31.24819,-26.27282],[31.25388,-26.27193],[31.26471,-26.28442],[31.26855,-26.29495],[31.28302,-26.2981],[31.28853,-26.31313],[31.28102,-26.3228],[31.28391,-26.32773]]]}},{"type":"Feature","properties":{"id":"SWZ:ADM2:25544865B23697894353870","name":"Inkhundla Mbangweni","countryCode":"SWZ","adminLevel":2,"sourceCode":"25544865B23697894353870","parentId":"SWZ:ADM1:SWZ-537"},"geometry":{"type":"Polygon","coordinates":[[[31.3203,-27.08863],[31.31477,-27.05455],[31.33549,-27.0583],[31.3419,-27.07578],[31.35556,-27.07634],[31.36726,-27.06778],[31.36738,-27.0429],[31.34136,-27.02646],[31.33176,-27.03196],[31.31718,-27.02695],[31.27479,-26.99174],[31.2835,-26.98094],[31.27923,-26.97286],[31.26688,-26.97066],[31.26312,-26.96237],[31.25288,-26.95699],[31.22492,-26.96414],[31.17464,-26.99929],[31.1702,-26.9931],[31.16576,-26.99291],[31.1652,-27.00096],[31.15481,-27.00066],[31.15211,-27.00322],[31.15183,-27.00793],[31.15896,-27.01507],[31.13925,-27.04818],[31.149,-27.06401],[31.15453,-27.05883],[31.14826,-27.04911],[31.16308,-27.04624],[31.17208,-27.05613],[31.17426,-27.0667],[31.16488,-27.06795],[31.1779,-27.07706],[31.15946,-27.08801],[31.17835,-27.11052],[31.16907,-27.11895],[31.18149,-27.14064],[31.22349,-27.12245],[31.25429,-27.14157],[31.29899,-27.1366],[31.30468,-27.12113],[31.3219,-27.09389],[31.3203,-27.08863]]]}},{"type":"Feature","properties":{"id":"SWZ:ADM2:25544865B2374856354731","name":"Inkhundla Manzini","countryCode":"SWZ","adminLevel":2,"sourceCode":"25544865B2374856354731","parentId":"SWZ:ADM1:SWZ-536"},"geometry":{"type":"Polygon","coordinates":[[[31.4468,-26.4777],[31.4438,-26.47494],[31.42913,-26.47738],[31.40249,-26.47132],[31.38386,-26.48494],[31.35262,-26.4783],[31.33547,-26.47878],[31.33508,-26.49218],[31.35524,-26.52109],[31.36544,-26.54246],[31.37225,-26.5505],[31.37909,-26.55154],[31.38556,-26.54529],[31.38934,-26.51284],[31.39707,-26.50415],[31.42719,-26.49018],[31.4494,-26.49302],[31.45432,-26.48974],[31.4468,-26.4777]]]}},{"type":"Feature","properties":{"id":"SWZ:ADM2:25544865B2448699584693","name":"Inkhundla Dvokodvweni","countryCode":"SWZ","adminLevel":2,"sourceCode":"25544865B2448699584693","parentId":"SWZ:ADM1:SWZ-535"},"geometry":{"type":"Polygon","coordinates":[[[31.57296,-26.52951],[31.57484,-26.53674],[31.58826,-26.54284],[31.58947,-26.5662],[31.61346,-26.5671],[31.63031,-26.56513],[31.63688,-26.55221],[31.63807,-26.54178],[31.65376,-26.53771],[31.66699,-26.53991],[31.67258,-26.53771],[31.71463,-26.54436],[31.73233,-26.54134],[31.74668,-26.53512],[31.74617,-26.52341],[31.76329,-26.52005],[31.76499,-26.52346],[31.77276,-26.5239],[31.76947,-26.53019],[31.77231,-26.53362],[31.78005,-26.53895],[31.79386,-26.54142],[31.81288,-26.53198],[31.82402,-26.53429],[31.85614,-26.52125],[31.87677,-26.51839],[31.88105,-26.51495],[31.90157,-26.4714],[31.8953,-26.42506],[31.91025,-26.4217],[31.92699,-26.40859],[31.93412,-26.38548],[31.94633,-26.36191],[31.95551,-26.32738],[31.96347,-26.31603],[31.95888,-26.2981],[31.94712,-26.29822],[31.95023,-26.29027],[31.94569,-26.28147],[31.93352,-26.29229],[31.90278,-26.30691],[31.89799,-26.31811],[31.87246,-26.32082],[31.86807,-26.32834],[31.86798,-26.34529],[31.84641,-26.36617],[31.8206,-26.36629],[31.81434,-26.37306],[31.76203,-26.37332],[31.76171,-26.35747],[31.75235,-26.3492],[31.74445,-26.35077],[31.72924,-26.35994],[31.73105,-26.3765],[31.7223,-26.38913],[31.70496,-26.39135],[31.69545,-26.39813],[31.69013,-26.40844],[31.66675,-26.41264],[31.65782,-26.41975],[31.61985,-26.41323],[31.60085,-26.41536],[31.59888,-26.42116],[31.60863,-26.44741],[31.60233,-26.46509],[31.60774,-26.46898],[31.6042,-26.48131],[31.60869,-26.49045],[31.60672,-26.50228],[31.61258,-26.51839],[31.5904,-26.52233],[31.57296,-26.52951]]]}},{"type":"Feature","properties":{"id":"SWZ:ADM2:25544865B24678717441439","name":"Inkhundla Mangcongco","countryCode":"SWZ","adminLevel":2,"sourceCode":"25544865B24678717441439","parentId":"SWZ:ADM1:SWZ-536"},"geometry":{"type":"Polygon","coordinates":[[[30.81629,-26.44266],[30.80506,-26.46667],[30.79181,-26.56911],[30.79101,-26.69518],[30.79701,-26.69523],[30.80191,-26.70338],[30.81574,-26.71022],[30.82057,-26.70843],[30.82141,-26.7029],[30.8245,-26.70196],[30.83101,-26.71059],[30.84663,-26.71014],[30.85528,-26.70458],[30.85512,-26.69557],[30.8599,-26.68608],[30.90595,-26.68701],[30.90687,-26.67618],[30.92326,-26.66009],[30.93966,-26.65238],[30.9476,-26.65396],[30.95262,-26.65005],[30.98134,-26.6733],[30.99733,-26.62526],[30.98339,-26.62078],[30.98743,-26.60425],[31.00137,-26.60471],[31.01585,-26.59831],[31.01789,-26.5928],[31.02861,-26.59202],[31.03688,-26.55308],[31.01954,-26.5449],[30.99252,-26.54562],[30.95096,-26.55579],[30.91045,-26.54754],[30.9076,-26.54193],[30.92232,-26.53323],[30.92208,-26.52375],[30.91831,-26.51735],[30.9245,-26.51415],[30.92239,-26.508],[30.9111,-26.50478],[30.90677,-26.51028],[30.90129,-26.51008],[30.88999,-26.49858],[30.89591,-26.49314],[30.89501,-26.48885],[30.88837,-26.48586],[30.88014,-26.49078],[30.86748,-26.48655],[30.86331,-26.4797],[30.85569,-26.47581],[30.855,-26.46255],[30.84923,-26.46097],[30.84306,-26.45314],[30.83074,-26.44563],[30.81629,-26.44266]]]}},{"type":"Feature","properties":{"id":"SWZ:ADM2:25544865B27395168638163","name":"Inkhundla Mthongwaneni","countryCode":"SWZ","adminLevel":2,"sourceCode":"25544865B27395168638163","parentId":"SWZ:ADM1:SWZ-536"},"geometry":{"type":"Polygon","coordinates":[[[31.45432,-26.48974],[31.4494,-26.49302],[31.42719,-26.49018],[31.39707,-26.50415],[31.38934,-26.51284],[31.38625,-26.53131],[31.38637,-26.54085],[31.39658,-26.5518],[31.41638,-26.55268],[31.42446,-26.55881],[31.42573,-26.57843],[31.43564,-26.59481],[31.44479,-26.6018],[31.44907,-26.61204],[31.44534,-26.61885],[31.43855,-26.6224],[31.4413,-26.62551],[31.43923,-26.63432],[31.44283,-26.63368],[31.45171,-26.64132],[31.44684,-26.65101],[31.45134,-26.6587],[31.46686,-26.66073],[31.4795,-26.67438],[31.48892,-26.67661],[31.49503,-26.67669],[31.50604,-26.66941],[31.52841,-26.67322],[31.53778,-26.66006],[31.60157,-26.6375],[31.59695,-26.63423],[31.58826,-26.54284],[31.57484,-26.53674],[31.57296,-26.52951],[31.54819,-26.53631],[31.51266,-26.53242],[31.49792,-26.51118],[31.48563,-26.50258],[31.46168,-26.49513],[31.45432,-26.48974]]]}},{"type":"Feature","properties":{"id":"SWZ:ADM2:25544865B29554005324446","name":"Inkhundla Ntondozi","countryCode":"SWZ","adminLevel":2,"sourceCode":"25544865B29554005324446","parentId":"SWZ:ADM1:SWZ-536"},"geometry":{"type":"Polygon","coordinates":[[[31.16664,-26.58865],[31.1618,-26.59446],[31.15706,-26.59527],[31.1529,-26.59043],[31.13606,-26.58855],[31.05668,-26.61995],[31.0527,-26.63687],[31.05999,-26.64215],[31.0866,-26.6396],[31.095,-26.63387],[31.09746,-26.6372],[31.10774,-26.63867],[31.11405,-26.63725],[31.11595,-26.63123],[31.12406,-26.63217],[31.12355,-26.63621],[31.13071,-26.63925],[31.14576,-26.6429],[31.16034,-26.62972],[31.1989,-26.64669],[31.20313,-26.64383],[31.22241,-26.64421],[31.23459,-26.6631],[31.24225,-26.66021],[31.2506,-26.66276],[31.25343,-26.6716],[31.26265,-26.67373],[31.26616,-26.67812],[31.28388,-26.67573],[31.2831,-26.68678],[31.29269,-26.69252],[31.29323,-26.6994],[31.30466,-26.71073],[31.32005,-26.71299],[31.34251,-26.71145],[31.34511,-26.70535],[31.36011,-26.70332],[31.36319,-26.69451],[31.38415,-26.69381],[31.39754,-26.68331],[31.39837,-26.67754],[31.39125,-26.68145],[31.37595,-26.66448],[31.37535,-26.64984],[31.36594,-26.63036],[31.34655,-26.61062],[31.33206,-26.60494],[31.33432,-26.59621],[31.3202,-26.59214],[31.3154,-26.60082],[31.31179,-26.59936],[31.31026,-26.59141],[31.30607,-26.58743],[31.29385,-26.58894],[31.28798,-26.58041],[31.2875,-26.5695],[31.28439,-26.56602],[31.27362,-26.57088],[31.26314,-26.5635],[31.26361,-26.5582],[31.25326,-26.55852],[31.23978,-26.56833],[31.24229,-26.57516],[31.23621,-26.57589],[31.23248,-26.58811],[31.22758,-26.5861],[31.22108,-26.59155],[31.21402,-26.59138],[31.20856,-26.59542],[31.20495,-26.59207],[31.19762,-26.59524],[31.18786,-26.58657],[31.16842,-26.59263],[31.16664,-26.58865]]]}},{"type":"Feature","properties":{"id":"SWZ:ADM2:25544865B33657580683918","name":"Inkhundla Matsanjeni","countryCode":"SWZ","adminLevel":2,"sourceCode":"25544865B33657580683918","parentId":"SWZ:ADM1:SWZ-537"},"geometry":{"type":"Polygon","coordinates":[[[31.60385,-27.24762],[31.61256,-27.25923],[31.60627,-27.27577],[31.60627,-27.28991],[31.60285,-27.29615],[31.60497,-27.30218],[31.60075,-27.30798],[31.60925,-27.31589],[31.8102,-27.3169],[31.80189,-27.30179],[31.80636,-27.29515],[31.80673,-27.28177],[31.81839,-27.26953],[31.80999,-27.19683],[31.8117,-27.17175],[31.8198,-27.13737],[31.81726,-27.12881],[31.82015,-27.12479],[31.81932,-27.11063],[31.81265,-27.1074],[31.81242,-27.10366],[31.81745,-27.09023],[31.79015,-27.08842],[31.78925,-27.07086],[31.77423,-27.06027],[31.7637,-27.05967],[31.76239,-27.06375],[31.76535,-27.06774],[31.77524,-27.07136],[31.77921,-27.07877],[31.77435,-27.08235],[31.76624,-27.07663],[31.76072,-27.07705],[31.76128,-27.08772],[31.75129,-27.09887],[31.75219,-27.10614],[31.74233,-27.10353],[31.73809,-27.09424],[31.7308,-27.09258],[31.72665,-27.10205],[31.71601,-27.10622],[31.71296,-27.11995],[31.70089,-27.12081],[31.69601,-27.13325],[31.67993,-27.12206],[31.67274,-27.12596],[31.66244,-27.13792],[31.6668,-27.16822],[31.65509,-27.18489],[31.64195,-27.18812],[31.63817,-27.20191],[31.60385,-27.24762]]]}},{"type":"Feature","properties":{"id":"SWZ:ADM2:25544865B34584477207861","name":"Inkhundla Lobamba Lomdzala","countryCode":"SWZ","adminLevel":2,"sourceCode":"25544865B34584477207861","parentId":"SWZ:ADM1:SWZ-536"},"geometry":{"type":"Polygon","coordinates":[[[31.14524,-26.56781],[31.16448,-26.58491],[31.16842,-26.59263],[31.18786,-26.58657],[31.19762,-26.59524],[31.20495,-26.59207],[31.20856,-26.59542],[31.21402,-26.59138],[31.22108,-26.59155],[31.22758,-26.5861],[31.23248,-26.58811],[31.23621,-26.57589],[31.24229,-26.57516],[31.23978,-26.56833],[31.2574,-26.55692],[31.26361,-26.5582],[31.26314,-26.5635],[31.27362,-26.57088],[31.28069,-26.5695],[31.29524,-26.55339],[31.28649,-26.54649],[31.29083,-26.52517],[31.28234,-26.51636],[31.28007,-26.50918],[31.30257,-26.49736],[31.29716,-26.48933],[31.28122,-26.50133],[31.28088,-26.49479],[31.27347,-26.49371],[31.27549,-26.48567],[31.25414,-26.48178],[31.24939,-26.47041],[31.2419,-26.46904],[31.23889,-26.47032],[31.24062,-26.4766],[31.23574,-26.48086],[31.22963,-26.4671],[31.22259,-26.46159],[31.20783,-26.4769],[31.19045,-26.48192],[31.18533,-26.47711],[31.18446,-26.46776],[31.17456,-26.46048],[31.17914,-26.45462],[31.15613,-26.45206],[31.15747,-26.47458],[31.16856,-26.47741],[31.17955,-26.50075],[31.17161,-26.50676],[31.16162,-26.50264],[31.15522,-26.50716],[31.15297,-26.51434],[31.16078,-26.5199],[31.15435,-26.5331],[31.15116,-26.56634],[31.14524,-26.56781]]]}},{"type":"Feature","properties":{"id":"SWZ:ADM2:25544865B34685739182114","name":"Inkhundla Sithobela","countryCode":"SWZ","adminLevel":2,"sourceCode":"25544865B34685739182114","parentId":"SWZ:ADM1:SWZ-535"},"geometry":{"type":"Polygon","coordinates":[[[31.48639,-26.90767],[31.50962,-26.92676],[31.51123,-26.94558],[31.53927,-26.97073],[31.54417,-26.97249],[31.55191,-26.96795],[31.55373,-26.97342],[31.55716,-26.97393],[31.5629,-26.96551],[31.56733,-26.96968],[31.56376,-26.97276],[31.56563,-26.9743],[31.57255,-26.9727],[31.57064,-26.96777],[31.58554,-26.96966],[31.5783,-26.97494],[31.60252,-26.97845],[31.61733,-27.01212],[31.69281,-27.04064],[31.6913,-27.03182],[31.69715,-27.029],[31.70692,-27.00776],[31.70195,-26.9946],[31.70406,-26.98174],[31.70969,-26.97462],[31.72202,-26.97663],[31.72431,-26.97013],[31.71974,-26.96662],[31.72446,-26.95886],[31.7221,-26.95572],[31.72528,-26.95571],[31.72441,-26.95133],[31.72995,-26.94875],[31.7289,-26.93931],[31.7379,-26.93868],[31.74299,-26.9437],[31.7459,-26.94182],[31.74485,-26.92915],[31.74911,-26.92811],[31.74984,-26.92123],[31.75565,-26.92534],[31.75795,-26.9236],[31.7558,-26.9219],[31.75763,-26.91549],[31.7542,-26.9158],[31.73439,-26.90072],[31.74537,-26.87971],[31.7639,-26.8595],[31.82355,-26.8453],[31.82489,-26.83418],[31.83882,-26.83118],[31.84384,-26.82576],[31.84224,-26.8205],[31.82653,-26.80955],[31.82179,-26.79135],[31.80511,-26.78332],[31.81061,-26.76831],[31.82537,-26.76246],[31.82618,-26.75375],[31.785,-26.74443],[31.7793,-26.74515],[31.76472,-26.75619],[31.74993,-26.75874],[31.7446,-26.75503],[31.74694,-26.73509],[31.72772,-26.73051],[31.7088,-26.74299],[31.69847,-26.74204],[31.69716,-26.74494],[31.68306,-26.73926],[31.67925,-26.74338],[31.68325,-26.75109],[31.67616,-26.75403],[31.67061,-26.74945],[31.66689,-26.75236],[31.66567,-26.7617],[31.65822,-26.76332],[31.63296,-26.75291],[31.62901,-26.76238],[31.62053,-26.76753],[31.60098,-26.77037],[31.58841,-26.76701],[31.56502,-26.78127],[31.5595,-26.78301],[31.55305,-26.78012],[31.53957,-26.81166],[31.5457,-26.83603],[31.52889,-26.84524],[31.51197,-26.86237],[31.51456,-26.87444],[31.50335,-26.89163],[31.48639,-26.90767]]]}},{"type":"Feature","properties":{"id":"SWZ:ADM2:25544865B36253147760946","name":"Inkhundla Ekukhanyeni","countryCode":"SWZ","adminLevel":2,"sourceCode":"25544865B36253147760946","parentId":"SWZ:ADM1:SWZ-536"},"geometry":{"type":"Polygon","coordinates":[[[31.52831,-26.38194],[31.51564,-26.38312],[31.51135,-26.38023],[31.50037,-26.36131],[31.49248,-26.3649],[31.48602,-26.36362],[31.48411,-26.34982],[31.46103,-26.3223],[31.42759,-26.30663],[31.42413,-26.28727],[31.40955,-26.29519],[31.40488,-26.29421],[31.40213,-26.28192],[31.396,-26.28501],[31.38864,-26.28358],[31.38507,-26.28901],[31.37942,-26.28938],[31.37232,-26.27818],[31.3624,-26.28981],[31.36259,-26.29285],[31.37881,-26.30003],[31.36538,-26.34248],[31.3629,-26.37191],[31.3663,-26.39257],[31.35184,-26.43654],[31.35257,-26.44342],[31.3392,-26.46622],[31.33547,-26.47878],[31.35262,-26.4783],[31.38386,-26.48494],[31.40249,-26.47132],[31.42913,-26.47738],[31.4438,-26.47494],[31.4468,-26.4777],[31.454,-26.46998],[31.45089,-26.45862],[31.45741,-26.42617],[31.46628,-26.42715],[31.46974,-26.41833],[31.47794,-26.42818],[31.48899,-26.42774],[31.50381,-26.42225],[31.50616,-26.41823],[31.49835,-26.40854],[31.49983,-26.40333],[31.52179,-26.39635],[31.52426,-26.38623],[31.5291,-26.38864],[31.52831,-26.38194]]]}},{"type":"Feature","properties":{"id":"SWZ:ADM2:25544865B36979951032132","name":"Inkhundla Lubuli","countryCode":"SWZ","adminLevel":2,"sourceCode":"25544865B36979951032132","parentId":"SWZ:ADM1:SWZ-535"},"geometry":{"type":"Polygon","coordinates":[[[31.69281,-27.04064],[31.70103,-27.04586],[31.76465,-27.03661],[31.77423,-27.06027],[31.78925,-27.07086],[31.79015,-27.08842],[31.81745,-27.09023],[31.84159,-27.10728],[31.86187,-27.1078],[31.86079,-27.14405],[31.90914,-27.14633],[31.90276,-27.16437],[31.97484,-27.16605],[31.97704,-27.13057],[31.97455,-27.11641],[31.9849,-27.03863],[31.98671,-27.00623],[31.98444,-27.00121],[31.99307,-26.96721],[31.97585,-26.96161],[31.97668,-26.94479],[31.9576,-26.93355],[31.95292,-26.93794],[31.93818,-26.93161],[31.9354,-26.92495],[31.94206,-26.91732],[31.93857,-26.9115],[31.93131,-26.909],[31.90286,-26.91286],[31.90258,-26.90291],[31.84758,-26.92165],[31.84452,-26.93331],[31.78732,-26.93982],[31.76721,-26.92773],[31.75944,-26.91993],[31.75824,-26.91446],[31.75343,-26.91435],[31.75763,-26.91549],[31.7558,-26.9219],[31.75795,-26.9236],[31.75565,-26.92534],[31.74984,-26.92123],[31.74911,-26.92811],[31.74485,-26.92915],[31.74346,-26.93541],[31.7459,-26.94182],[31.74299,-26.9437],[31.7379,-26.93868],[31.7289,-26.93931],[31.72995,-26.94875],[31.72441,-26.95133],[31.72528,-26.95571],[31.7221,-26.95572],[31.72446,-26.95886],[31.71974,-26.96662],[31.72431,-26.97013],[31.72202,-26.97663],[31.70969,-26.97462],[31.70406,-26.98174],[31.70195,-26.9946],[31.70692,-27.00776],[31.69715,-27.029],[31.6913,-27.03182],[31.69281,-27.04064]]]}},{"type":"Feature","properties":{"id":"SWZ:ADM2:25544865B37706944907644","name":"Inkhundla Mhlume","countryCode":"SWZ","adminLevel":2,"sourceCode":"25544865B37706944907644","parentId":"SWZ:ADM1:SWZ-535"},"geometry":{"type":"Polygon","coordinates":[[[31.87551,-25.99625],[31.86786,-25.9996],[31.76512,-25.9359],[31.7537,-25.94387],[31.75516,-25.95171],[31.75091,-25.95589],[31.7356,-25.95237],[31.72874,-25.95432],[31.72465,-25.95166],[31.72329,-25.94503],[31.6945,-25.9531],[31.67182,-25.94384],[31.66612,-25.94846],[31.67024,-26.05621],[31.67652,-26.08876],[31.67829,-26.11785],[31.6807,-26.12928],[31.68581,-26.13427],[31.68776,-26.15519],[31.67601,-26.15129],[31.67791,-26.16314],[31.68795,-26.20024],[31.70383,-26.18203],[31.70619,-26.17255],[31.71407,-26.16845],[31.73444,-26.16754],[31.73918,-26.16478],[31.74505,-26.14946],[31.75843,-26.1485],[31.78048,-26.13853],[31.78497,-26.14163],[31.78445,-26.14538],[31.76925,-26.17828],[31.78125,-26.227],[31.77717,-26.23457],[31.78993,-26.24569],[31.78905,-26.25192],[31.85053,-26.25413],[31.85144,-26.21756],[31.86045,-26.20113],[31.85672,-26.18812],[31.86515,-26.18751],[31.85853,-26.17337],[31.84911,-26.16912],[31.84856,-26.16574],[31.8573,-26.16282],[31.85894,-26.15658],[31.87798,-26.15179],[31.88278,-26.14489],[31.88121,-26.16912],[31.88983,-26.17425],[31.89825,-26.17106],[31.94569,-26.28147],[31.9586,-26.26392],[31.97036,-26.26201],[31.97994,-26.2458],[31.98894,-26.24104],[31.99631,-26.22511],[31.99755,-26.21433],[32.00295,-26.21035],[32.00139,-26.19757],[32.00453,-26.19451],[32.01691,-26.1938],[32.03406,-26.1743],[32.02716,-26.17113],[32.03291,-26.15911],[32.03088,-26.15092],[32.02205,-26.14477],[32.0181,-26.13359],[32.02665,-26.11713],[32.02428,-26.10671],[32.01605,-26.10507],[32.00409,-26.113],[32.00384,-26.12047],[32.01349,-26.13442],[32.01264,-26.13717],[32.00519,-26.13339],[31.99518,-26.13422],[31.99222,-26.13681],[31.99168,-26.14607],[31.98603,-26.14998],[31.97508,-26.14275],[31.96513,-26.09883],[31.9474,-26.07939],[31.91816,-26.06776],[31.87551,-25.99625]]]}},{"type":"Feature","properties":{"id":"SWZ:ADM2:25544865B4123625373150","name":"Inkhundla Gege","countryCode":"SWZ","adminLevel":2,"sourceCode":"25544865B4123625373150","parentId":"SWZ:ADM1:SWZ-537"},"geometry":{"type":"Polygon","coordinates":[[[31.11866,-26.85362],[31.0839,-26.86943],[31.07566,-26.87668],[31.06936,-26.89092],[31.06427,-26.89358],[31.06156,-26.89272],[31.0616,-26.88525],[31.07108,-26.85957],[31.05049,-26.84232],[31.04384,-26.8296],[31.05184,-26.82752],[31.05155,-26.81792],[31.05481,-26.81143],[31.04757,-26.80548],[31.05133,-26.78879],[31.04901,-26.7762],[30.94535,-26.79435],[30.94507,-26.78786],[30.94039,-26.78464],[30.94264,-26.77545],[30.93908,-26.77359],[30.9273,-26.77675],[30.92134,-26.78506],[30.91309,-26.78354],[30.9055,-26.78666],[30.89628,-26.78074],[30.89076,-26.78379],[30.90225,-26.8518],[30.90695,-26.85494],[30.90742,-26.85993],[30.97356,-26.90821],[30.97682,-26.92161],[30.97652,-26.95343],[30.97371,-26.96451],[30.95833,-26.99213],[30.98476,-27.03698],[31.03774,-27.07964],[31.04027,-27.07372],[31.04856,-27.0732],[31.05025,-27.06624],[31.07125,-27.06639],[31.07327,-27.06907],[31.07087,-27.07369],[31.08788,-27.07802],[31.08805,-27.08618],[31.09219,-27.08168],[31.10038,-27.08196],[31.09857,-27.0666],[31.10999,-27.05978],[31.10938,-27.05707],[31.11557,-27.05248],[31.12269,-27.04046],[31.12233,-27.03216],[31.12941,-27.03126],[31.13783,-27.02087],[31.14273,-27.00851],[31.151,-27.00988],[31.15481,-27.00066],[31.1652,-27.00096],[31.16714,-26.99841],[31.16576,-26.99291],[31.14617,-26.97722],[31.1495,-26.97326],[31.14779,-26.96837],[31.16084,-26.95631],[31.16027,-26.94862],[31.16684,-26.94592],[31.1635,-26.93589],[31.17819,-26.9341],[31.18309,-26.94178],[31.18891,-26.94237],[31.19481,-26.93428],[31.18776,-26.93217],[31.18896,-26.92381],[31.18246,-26.91721],[31.1864,-26.91519],[31.20593,-26.91823],[31.20726,-26.92388],[31.21334,-26.92474],[31.21455,-26.9208],[31.20782,-26.9096],[31.20323,-26.90758],[31.20486,-26.90111],[31.19893,-26.89861],[31.1907,-26.88862],[31.17304,-26.88178],[31.16205,-26.88685],[31.14676,-26.8712],[31.13665,-26.86812],[31.13441,-26.86313],[31.11866,-26.85362]]]}},{"type":"Feature","properties":{"id":"SWZ:ADM2:25544865B4547818203338","name":"Inkhundla Mafutseni","countryCode":"SWZ","adminLevel":2,"sourceCode":"25544865B4547818203338","parentId":"SWZ:ADM1:SWZ-536"},"geometry":{"type":"Polygon","coordinates":[[[31.4468,-26.4777],[31.45432,-26.48974],[31.46168,-26.49513],[31.48563,-26.50258],[31.49792,-26.51118],[31.51266,-26.53242],[31.54819,-26.53631],[31.5904,-26.52233],[31.61258,-26.51839],[31.60672,-26.50228],[31.60869,-26.49045],[31.6042,-26.48131],[31.60774,-26.46898],[31.60233,-26.46509],[31.60863,-26.44741],[31.59888,-26.42116],[31.60085,-26.41536],[31.62771,-26.40062],[31.6227,-26.39138],[31.63635,-26.37127],[31.66764,-26.35112],[31.65759,-26.34207],[31.63187,-26.34495],[31.6252,-26.34879],[31.61529,-26.33536],[31.60025,-26.33418],[31.60285,-26.34187],[31.60083,-26.34997],[31.59374,-26.35095],[31.58038,-26.36433],[31.57445,-26.36384],[31.5714,-26.37179],[31.56661,-26.3749],[31.55869,-26.37578],[31.5534,-26.38902],[31.54434,-26.38987],[31.53712,-26.38252],[31.52831,-26.38194],[31.5291,-26.38864],[31.52426,-26.38623],[31.52179,-26.39635],[31.49983,-26.40333],[31.49835,-26.40854],[31.50616,-26.41823],[31.50381,-26.42225],[31.48899,-26.42774],[31.47794,-26.42818],[31.46974,-26.41833],[31.46628,-26.42715],[31.45741,-26.42617],[31.45089,-26.45862],[31.454,-26.46998],[31.4468,-26.4777]]]}},{"type":"Feature","properties":{"id":"SWZ:ADM2:25544865B4564355932947","name":"Inkhundla Ludzeludze","countryCode":"SWZ","adminLevel":2,"sourceCode":"25544865B4564355932947","parentId":"SWZ:ADM1:SWZ-536"},"geometry":{"type":"Polygon","coordinates":[[[31.29716,-26.48933],[31.2969,-26.48135],[31.29928,-26.48014],[31.33547,-26.47878],[31.3392,-26.46622],[31.35257,-26.44342],[31.35184,-26.43654],[31.3663,-26.39257],[31.3629,-26.37191],[31.36538,-26.34248],[31.37881,-26.30003],[31.37503,-26.29702],[31.36259,-26.29285],[31.35166,-26.30766],[31.30417,-26.31521],[31.28391,-26.32773],[31.27878,-26.33423],[31.27592,-26.34384],[31.28442,-26.36116],[31.26328,-26.38743],[31.26618,-26.40632],[31.26108,-26.40983],[31.26135,-26.41615],[31.25629,-26.42461],[31.25842,-26.44725],[31.26424,-26.45826],[31.24939,-26.47041],[31.25414,-26.48178],[31.27549,-26.48567],[31.27347,-26.49371],[31.28088,-26.49479],[31.28122,-26.50133],[31.29716,-26.48933]]]}},{"type":"Feature","properties":{"id":"SWZ:ADM2:25544865B478936886015","name":"Inkhundla Mayiwane","countryCode":"SWZ","adminLevel":2,"sourceCode":"25544865B478936886015","parentId":"SWZ:ADM1:SWZ-534"},"geometry":{"type":"Polygon","coordinates":[[[31.45842,-25.91115],[31.46721,-25.91093],[31.47641,-25.91846],[31.49224,-25.92427],[31.53882,-25.92973],[31.54414,-25.93499],[31.56371,-25.94043],[31.58618,-25.93154],[31.58664,-25.92026],[31.57719,-25.90544],[31.58425,-25.89176],[31.58169,-25.87568],[31.58425,-25.8605],[31.58141,-25.8354],[31.58311,-25.82247],[31.49354,-25.7665],[31.48604,-25.77422],[31.48629,-25.78197],[31.47702,-25.80197],[31.46343,-25.81006],[31.46381,-25.81993],[31.45652,-25.82253],[31.44944,-25.83954],[31.45199,-25.85137],[31.448,-25.86365],[31.45874,-25.89683],[31.45842,-25.91115]]]}},{"type":"Feature","properties":{"id":"SWZ:ADM2:25544865B49995279620890","name":"Inkhundla Siphofaneni","countryCode":"SWZ","adminLevel":2,"sourceCode":"25544865B49995279620890","parentId":"SWZ:ADM1:SWZ-535"},"geometry":{"type":"Polygon","coordinates":[[[31.82618,-26.75375],[31.83666,-26.75544],[31.83898,-26.75458],[31.83858,-26.7481],[31.85106,-26.74664],[31.8534,-26.74445],[31.84748,-26.73041],[31.8497,-26.72633],[31.85862,-26.72502],[31.86024,-26.72199],[31.85463,-26.71385],[31.84061,-26.72449],[31.82062,-26.69797],[31.81154,-26.6924],[31.81064,-26.68627],[31.79492,-26.6623],[31.80584,-26.65593],[31.79198,-26.6441],[31.76005,-26.58857],[31.72636,-26.60424],[31.70654,-26.57542],[31.67009,-26.59609],[31.66315,-26.58793],[31.65239,-26.56194],[31.64627,-26.55956],[31.64439,-26.54852],[31.63762,-26.54644],[31.63031,-26.56513],[31.58947,-26.5662],[31.59695,-26.63423],[31.60157,-26.6375],[31.53778,-26.66006],[31.52841,-26.67322],[31.51115,-26.67014],[31.51206,-26.68058],[31.50805,-26.69602],[31.49875,-26.71338],[31.48644,-26.72546],[31.4874,-26.73573],[31.48163,-26.74593],[31.48113,-26.77139],[31.48871,-26.77971],[31.55647,-26.76786],[31.55169,-26.77947],[31.5595,-26.78301],[31.58841,-26.76701],[31.60098,-26.77037],[31.62053,-26.76753],[31.62901,-26.76238],[31.63296,-26.75291],[31.65822,-26.76332],[31.66567,-26.7617],[31.66689,-26.75236],[31.67061,-26.74945],[31.67616,-26.75403],[31.68325,-26.75109],[31.67925,-26.74338],[31.68306,-26.73926],[31.69716,-26.74494],[31.69847,-26.74204],[31.7088,-26.74299],[31.72772,-26.73051],[31.74694,-26.73509],[31.7446,-26.75503],[31.74993,-26.75874],[31.76472,-26.75619],[31.7793,-26.74515],[31.785,-26.74443],[31.82618,-26.75375]]]}},{"type":"Feature","properties":{"id":"SWZ:ADM2:25544865B51984486124327","name":"Inkhundla Kubuta","countryCode":"SWZ","adminLevel":2,"sourceCode":"25544865B51984486124327","parentId":"SWZ:ADM1:SWZ-537"},"geometry":{"type":"Polygon","coordinates":[[[31.55305,-26.78012],[31.55647,-26.76786],[31.48871,-26.77971],[31.47099,-26.76268],[31.4416,-26.75413],[31.39334,-26.77599],[31.38544,-26.7991],[31.35398,-26.79796],[31.35596,-26.80329],[31.36513,-26.80807],[31.37814,-26.80942],[31.38061,-26.81832],[31.38001,-26.8225],[31.3684,-26.82963],[31.36713,-26.863],[31.3605,-26.88585],[31.37153,-26.89067],[31.38174,-26.88656],[31.38886,-26.88923],[31.39769,-26.88694],[31.41611,-26.89656],[31.48639,-26.90767],[31.50335,-26.89163],[31.51456,-26.87444],[31.51197,-26.86237],[31.52889,-26.84524],[31.5457,-26.83603],[31.53957,-26.81166],[31.55305,-26.78012]]]}},{"type":"Feature","properties":{"id":"SWZ:ADM2:25544865B5702357250471","name":"Inkhundla Ndzingeni","countryCode":"SWZ","adminLevel":2,"sourceCode":"25544865B5702357250471","parentId":"SWZ:ADM1:SWZ-534"},"geometry":{"type":"Polygon","coordinates":[[[31.42777,-25.91687],[31.41751,-25.95657],[31.36501,-25.92756],[31.34412,-25.94617],[31.3875,-25.9771],[31.35609,-26.00912],[31.36204,-26.01905],[31.35853,-26.02373],[31.31147,-26.01623],[31.31552,-26.03399],[31.30879,-26.0383],[31.30748,-26.04287],[31.32842,-26.06148],[31.34472,-26.06619],[31.34576,-26.07059],[31.34248,-26.07337],[31.3486,-26.08196],[31.34545,-26.0829],[31.36155,-26.0852],[31.36906,-26.09518],[31.37345,-26.08967],[31.38795,-26.08385],[31.40067,-26.10158],[31.41305,-26.10702],[31.42227,-26.09926],[31.44087,-26.09254],[31.44899,-26.09981],[31.45832,-26.11923],[31.47329,-26.12012],[31.48887,-26.11031],[31.50439,-26.10878],[31.51945,-26.1026],[31.51912,-26.08468],[31.51541,-26.07615],[31.52154,-26.05951],[31.52903,-26.04909],[31.52716,-26.04437],[31.53264,-26.03711],[31.53758,-26.03658],[31.54774,-26.02699],[31.5463,-26.00166],[31.53745,-25.98929],[31.54516,-25.97818],[31.54337,-25.96214],[31.53623,-25.95358],[31.5155,-25.94364],[31.51267,-25.92696],[31.49224,-25.92427],[31.47641,-25.91846],[31.46721,-25.91093],[31.44979,-25.91085],[31.43916,-25.92048],[31.42777,-25.91687]]]}},{"type":"Feature","properties":{"id":"SWZ:ADM2:25544865B616938903867","name":"Inkhundla Ngwempisi","countryCode":"SWZ","adminLevel":2,"sourceCode":"25544865B616938903867","parentId":"SWZ:ADM1:SWZ-536"},"geometry":{"type":"Polygon","coordinates":[[[31.05668,-26.61995],[31.01742,-26.61741],[30.99733,-26.62526],[30.98134,-26.6733],[30.95262,-26.65005],[30.9476,-26.65396],[30.93966,-26.65238],[30.92326,-26.66009],[30.90687,-26.67618],[30.90595,-26.68701],[30.8599,-26.68608],[30.85512,-26.69557],[30.85528,-26.70458],[30.84663,-26.71014],[30.83101,-26.71059],[30.8245,-26.70196],[30.82141,-26.7029],[30.82057,-26.70843],[30.81574,-26.71022],[30.80191,-26.70338],[30.79701,-26.69523],[30.79101,-26.69518],[30.80265,-26.82402],[30.81322,-26.84448],[30.82531,-26.84015],[30.8361,-26.8269],[30.84401,-26.82508],[30.84805,-26.81897],[30.86172,-26.81867],[30.87203,-26.80928],[30.88728,-26.80359],[30.89076,-26.78379],[30.89628,-26.78074],[30.9055,-26.78666],[30.91309,-26.78354],[30.92134,-26.78506],[30.9273,-26.77675],[30.93908,-26.77359],[30.94264,-26.77545],[30.94039,-26.78464],[30.94507,-26.78786],[30.94535,-26.79435],[31.04901,-26.7762],[31.05133,-26.78879],[31.0572,-26.78743],[31.07083,-26.79422],[31.07469,-26.79361],[31.08259,-26.78433],[31.09842,-26.78055],[31.11785,-26.78576],[31.12762,-26.78523],[31.13114,-26.7506],[31.12763,-26.74236],[31.11999,-26.736],[31.1222,-26.72772],[31.12835,-26.72131],[31.14032,-26.7233],[31.1443,-26.70856],[31.14023,-26.70685],[31.14453,-26.70134],[31.15092,-26.70384],[31.15759,-26.69911],[31.16484,-26.7015],[31.16217,-26.68553],[31.16854,-26.6838],[31.17162,-26.69364],[31.18638,-26.70614],[31.19742,-26.69941],[31.20536,-26.69871],[31.21003,-26.70767],[31.21661,-26.71056],[31.22838,-26.70225],[31.24922,-26.70618],[31.263,-26.7035],[31.26927,-26.69758],[31.29323,-26.6994],[31.29269,-26.69252],[31.2831,-26.68678],[31.28388,-26.67573],[31.26616,-26.67812],[31.26265,-26.67373],[31.25343,-26.6716],[31.2506,-26.66276],[31.24225,-26.66021],[31.23459,-26.6631],[31.22241,-26.64421],[31.20313,-26.64383],[31.1989,-26.64669],[31.16034,-26.62972],[31.14576,-26.6429],[31.13071,-26.63925],[31.12355,-26.63621],[31.12406,-26.63217],[31.11595,-26.63123],[31.11405,-26.63725],[31.10774,-26.63867],[31.09746,-26.6372],[31.095,-26.63387],[31.0866,-26.6396],[31.05999,-26.64215],[31.0527,-26.63687],[31.05668,-26.61995]]]}},{"type":"Feature","properties":{"id":"SWZ:ADM2:25544865B62426569350432","name":"Inkhundla Nhlambeni","countryCode":"SWZ","adminLevel":2,"sourceCode":"25544865B62426569350432","parentId":"SWZ:ADM1:SWZ-536"},"geometry":{"type":"Polygon","coordinates":[[[31.28439,-26.56602],[31.2875,-26.5695],[31.28798,-26.58041],[31.29385,-26.58894],[31.30607,-26.58743],[31.31026,-26.59141],[31.31179,-26.59936],[31.3154,-26.60082],[31.3202,-26.59214],[31.33432,-26.59621],[31.33206,-26.60494],[31.34655,-26.61062],[31.36594,-26.63036],[31.37535,-26.64984],[31.37595,-26.66448],[31.39125,-26.68145],[31.39837,-26.67754],[31.39679,-26.67218],[31.39975,-26.66935],[31.41301,-26.67057],[31.41396,-26.67825],[31.42184,-26.68994],[31.41942,-26.70351],[31.43654,-26.71567],[31.43911,-26.73032],[31.44728,-26.73936],[31.45207,-26.75574],[31.47099,-26.76268],[31.48113,-26.77139],[31.48163,-26.74593],[31.4874,-26.73573],[31.48644,-26.72546],[31.49875,-26.71338],[31.50805,-26.69602],[31.51206,-26.68058],[31.51115,-26.67014],[31.50604,-26.66941],[31.49503,-26.67669],[31.48892,-26.67661],[31.4795,-26.67438],[31.46686,-26.66073],[31.45134,-26.6587],[31.44684,-26.65101],[31.45171,-26.64132],[31.44283,-26.63368],[31.43923,-26.63432],[31.4413,-26.62551],[31.43855,-26.6224],[31.44534,-26.61885],[31.44907,-26.61204],[31.44479,-26.6018],[31.43564,-26.59481],[31.42573,-26.57843],[31.42446,-26.55881],[31.41638,-26.55268],[31.39658,-26.5518],[31.38637,-26.54085],[31.37909,-26.55154],[31.37225,-26.5505],[31.35524,-26.52109],[31.34142,-26.52489],[31.33698,-26.51943],[31.32327,-26.52017],[31.32484,-26.52531],[31.31054,-26.53721],[31.30258,-26.5308],[31.29288,-26.53162],[31.29083,-26.52517],[31.28649,-26.54649],[31.29524,-26.55339],[31.28439,-26.56602]]]}},{"type":"Feature","properties":{"id":"SWZ:ADM2:25544865B62605108409281","name":"Inkhundla Motjane","countryCode":"SWZ","adminLevel":2,"sourceCode":"25544865B62605108409281","parentId":"SWZ:ADM1:SWZ-534"},"geometry":{"type":"Polygon","coordinates":[[[31.01816,-26.16052],[30.96144,-26.26173],[30.89835,-26.31553],[30.90379,-26.3263],[30.91573,-26.32985],[30.92077,-26.33628],[30.93662,-26.33905],[30.97618,-26.36507],[31.04361,-26.39391],[31.07029,-26.44037],[31.09029,-26.43982],[31.09959,-26.4462],[31.12542,-26.43889],[31.12235,-26.42282],[31.11748,-26.41771],[31.11849,-26.40774],[31.10934,-26.39774],[31.12522,-26.38373],[31.12361,-26.37923],[31.09276,-26.37873],[31.08541,-26.37167],[31.07218,-26.34177],[31.0593,-26.34468],[31.05644,-26.33487],[31.06614,-26.33411],[31.0722,-26.32678],[31.07626,-26.32863],[31.09537,-26.31591],[31.08193,-26.28987],[31.08536,-26.27197],[31.09842,-26.27297],[31.11227,-26.2786],[31.11716,-26.29204],[31.12482,-26.29099],[31.12991,-26.28176],[31.11615,-26.26489],[31.12019,-26.26002],[31.11932,-26.25665],[31.09454,-26.24129],[31.0897,-26.2313],[31.08188,-26.2254],[31.08344,-26.21852],[31.07402,-26.21812],[31.06967,-26.20973],[31.06517,-26.21007],[31.05979,-26.20095],[31.04885,-26.20088],[31.0465,-26.17743],[31.0248,-26.17263],[31.01816,-26.16052]]]}},{"type":"Feature","properties":{"id":"SWZ:ADM2:25544865B6295441038761","name":"Inkhundla Mpolonjeni","countryCode":"SWZ","adminLevel":2,"sourceCode":"25544865B6295441038761","parentId":"SWZ:ADM1:SWZ-535"},"geometry":{"type":"Polygon","coordinates":[[[31.94944,-26.5129],[31.92955,-26.48949],[31.91416,-26.46367],[31.91025,-26.4217],[31.89701,-26.42301],[31.8981,-26.45867],[31.90157,-26.4714],[31.88105,-26.51495],[31.87677,-26.51839],[31.85614,-26.52125],[31.82402,-26.53429],[31.81288,-26.53198],[31.79386,-26.54142],[31.78005,-26.53895],[31.77231,-26.53362],[31.76947,-26.53019],[31.77276,-26.5239],[31.76499,-26.52346],[31.76329,-26.52005],[31.74617,-26.52341],[31.74668,-26.53512],[31.73233,-26.54134],[31.71463,-26.54436],[31.67258,-26.53771],[31.66699,-26.53991],[31.65376,-26.53771],[31.63807,-26.54178],[31.63762,-26.54644],[31.64439,-26.54852],[31.64627,-26.55956],[31.65239,-26.56194],[31.66315,-26.58793],[31.67009,-26.59609],[31.70654,-26.57542],[31.72636,-26.60424],[31.76005,-26.58857],[31.79198,-26.6441],[31.80584,-26.65593],[31.79492,-26.6623],[31.81064,-26.68627],[31.81154,-26.6924],[31.82062,-26.69797],[31.84061,-26.72449],[31.85463,-26.71385],[31.86024,-26.72199],[31.85862,-26.72502],[31.8497,-26.72633],[31.84748,-26.73041],[31.8534,-26.74445],[31.83858,-26.7481],[31.83814,-26.75219],[31.8595,-26.75614],[31.87233,-26.75191],[31.91506,-26.75407],[31.9135,-26.72768],[31.91871,-26.71967],[31.92499,-26.72136],[31.93075,-26.7184],[31.93972,-26.70898],[31.94728,-26.69127],[31.9677,-26.69168],[31.97272,-26.68368],[31.97733,-26.68277],[31.97677,-26.67738],[31.98069,-26.67475],[31.99019,-26.67932],[31.98757,-26.69676],[31.98913,-26.70965],[31.99496,-26.71882],[32.01651,-26.7243],[32.01988,-26.70883],[32.0208,-26.67841],[32.01327,-26.63061],[31.99502,-26.58745],[31.98541,-26.57516],[31.97599,-26.54724],[31.94944,-26.5129]]]}},{"type":"Feature","properties":{"id":"SWZ:ADM2:25544865B64693820583012","name":"Inkhundla Mahlangatja","countryCode":"SWZ","adminLevel":2,"sourceCode":"25544865B64693820583012","parentId":"SWZ:ADM1:SWZ-536"},"geometry":{"type":"Polygon","coordinates":[[[31.29323,-26.6994],[31.26927,-26.69758],[31.263,-26.7035],[31.24922,-26.70618],[31.22838,-26.70225],[31.21661,-26.71056],[31.21003,-26.70767],[31.20536,-26.69871],[31.19742,-26.69941],[31.18638,-26.70614],[31.17162,-26.69364],[31.16854,-26.6838],[31.16217,-26.68553],[31.16484,-26.7015],[31.15759,-26.69911],[31.15092,-26.70384],[31.14453,-26.70134],[31.14023,-26.70685],[31.1443,-26.70856],[31.14032,-26.7233],[31.12835,-26.72131],[31.1222,-26.72772],[31.11999,-26.736],[31.12763,-26.74236],[31.13114,-26.7506],[31.12762,-26.78523],[31.11785,-26.78576],[31.09842,-26.78055],[31.08259,-26.78433],[31.07469,-26.79361],[31.07083,-26.79422],[31.0572,-26.78743],[31.05133,-26.78879],[31.04757,-26.80548],[31.05481,-26.81143],[31.05155,-26.81792],[31.05184,-26.82752],[31.04384,-26.8296],[31.04464,-26.83376],[31.05049,-26.84232],[31.07108,-26.85957],[31.0616,-26.88525],[31.06156,-26.89272],[31.06936,-26.89092],[31.07566,-26.87668],[31.09608,-26.86237],[31.11866,-26.85362],[31.17407,-26.82243],[31.18194,-26.82327],[31.19098,-26.83133],[31.20677,-26.81658],[31.20557,-26.81317],[31.2151,-26.80807],[31.24165,-26.82078],[31.26984,-26.84554],[31.29099,-26.85755],[31.29269,-26.85468],[31.2985,-26.85523],[31.30105,-26.8494],[31.29258,-26.84331],[31.29679,-26.83974],[31.29235,-26.83466],[31.2934,-26.82933],[31.3001,-26.82649],[31.3131,-26.83317],[31.32178,-26.83027],[31.32081,-26.82463],[31.3125,-26.82051],[31.3053,-26.8081],[31.30768,-26.80423],[31.32241,-26.80719],[31.3413,-26.79716],[31.38544,-26.7991],[31.39334,-26.77599],[31.4416,-26.75413],[31.45207,-26.75574],[31.44728,-26.73936],[31.43911,-26.73032],[31.43654,-26.71567],[31.41942,-26.70351],[31.42184,-26.68994],[31.41396,-26.67825],[31.41301,-26.67057],[31.39975,-26.66935],[31.39679,-26.67218],[31.39754,-26.68331],[31.38415,-26.69381],[31.36319,-26.69451],[31.36011,-26.70332],[31.34511,-26.70535],[31.34251,-26.71145],[31.30466,-26.71073],[31.29323,-26.6994]]]}},{"type":"Feature","properties":{"id":"SWZ:ADM2:25544865B68491225088815","name":"Inkhundla Somntongo","countryCode":"SWZ","adminLevel":2,"sourceCode":"25544865B68491225088815","parentId":"SWZ:ADM1:SWZ-537"},"geometry":{"type":"Polygon","coordinates":[[[31.8102,-27.3169],[31.97776,-27.31752],[31.97484,-27.16605],[31.90276,-27.16437],[31.90914,-27.14633],[31.86079,-27.14405],[31.86187,-27.1078],[31.84159,-27.10728],[31.81745,-27.09023],[31.81242,-27.10366],[31.81265,-27.1074],[31.81932,-27.11063],[31.82015,-27.12479],[31.81726,-27.12881],[31.8198,-27.13737],[31.8117,-27.17175],[31.80999,-27.19683],[31.81839,-27.26953],[31.80673,-27.28177],[31.80636,-27.29515],[31.80189,-27.30179],[31.8102,-27.3169]]]}},{"type":"Feature","properties":{"id":"SWZ:ADM2:25544865B71211064556638","name":"Inkhundla Lobamba","countryCode":"SWZ","adminLevel":2,"sourceCode":"25544865B71211064556638","parentId":"SWZ:ADM1:SWZ-534"},"geometry":{"type":"Polygon","coordinates":[[[31.24939,-26.47041],[31.26424,-26.45826],[31.25842,-26.44725],[31.25629,-26.42461],[31.21691,-26.38657],[31.21465,-26.3757],[31.21018,-26.37122],[31.18925,-26.36662],[31.15937,-26.36846],[31.14647,-26.37654],[31.12361,-26.37923],[31.12522,-26.38373],[31.10934,-26.39774],[31.11849,-26.40774],[31.11748,-26.41771],[31.12235,-26.42282],[31.12542,-26.43889],[31.11913,-26.44068],[31.12199,-26.44874],[31.12828,-26.44686],[31.13272,-26.45049],[31.13278,-26.45623],[31.14363,-26.45763],[31.15367,-26.45163],[31.16418,-26.45425],[31.17622,-26.4528],[31.17914,-26.45462],[31.17456,-26.46048],[31.18446,-26.46776],[31.18533,-26.47711],[31.19045,-26.48192],[31.20783,-26.4769],[31.22259,-26.46159],[31.22963,-26.4671],[31.23574,-26.48086],[31.24062,-26.4766],[31.23889,-26.47032],[31.24939,-26.47041]]]}},{"type":"Feature","properties":{"id":"SWZ:ADM2:25544865B71233313163720","name":"Inkhundla Nkilongo","countryCode":"SWZ","adminLevel":2,"sourceCode":"25544865B71233313163720","parentId":"SWZ:ADM1:SWZ-535"},"geometry":{"type":"Polygon","coordinates":[[[31.75343,-26.91435],[31.75824,-26.91446],[31.75944,-26.91993],[31.76721,-26.92773],[31.78732,-26.93982],[31.84452,-26.93331],[31.84758,-26.92165],[31.90258,-26.90291],[31.90286,-26.91286],[31.93131,-26.909],[31.93857,-26.9115],[31.94206,-26.91732],[31.9354,-26.92495],[31.93818,-26.93161],[31.95292,-26.93794],[31.9576,-26.93355],[31.97668,-26.94479],[31.97585,-26.96161],[31.99307,-26.96721],[32.00047,-26.93806],[31.99596,-26.92415],[32.01586,-26.81988],[32.01135,-26.8102],[32.02123,-26.80718],[32.01567,-26.78686],[32.01055,-26.77992],[32.01651,-26.7243],[31.99496,-26.71882],[31.98913,-26.70965],[31.98757,-26.69676],[31.99019,-26.67932],[31.98069,-26.67475],[31.97677,-26.67738],[31.97733,-26.68277],[31.97272,-26.68368],[31.9677,-26.69168],[31.94728,-26.69127],[31.93972,-26.70898],[31.93075,-26.7184],[31.92499,-26.72136],[31.91871,-26.71967],[31.9135,-26.72768],[31.91506,-26.75407],[31.87233,-26.75191],[31.8595,-26.75614],[31.83814,-26.75219],[31.83666,-26.75544],[31.82618,-26.75375],[31.82537,-26.76246],[31.81061,-26.76831],[31.80511,-26.78332],[31.82179,-26.79135],[31.82653,-26.80955],[31.84224,-26.8205],[31.84384,-26.82576],[31.83882,-26.83118],[31.82489,-26.83418],[31.82355,-26.8453],[31.7639,-26.8595],[31.74537,-26.87971],[31.73439,-26.90072],[31.75343,-26.91435]]]}},{"type":"Feature","properties":{"id":"SWZ:ADM2:25544865B71505016077226","name":"Inkhundla Hosea","countryCode":"SWZ","adminLevel":2,"sourceCode":"25544865B71505016077226","parentId":"SWZ:ADM1:SWZ-537"},"geometry":{"type":"Polygon","coordinates":[[[31.66625,-27.13388],[31.65973,-27.12864],[31.64354,-27.13396],[31.6425,-27.15206],[31.63019,-27.14218],[31.61939,-27.14635],[31.60768,-27.14152],[31.5982,-27.14834],[31.58711,-27.13461],[31.58211,-27.13317],[31.5788,-27.1182],[31.58165,-27.10739],[31.56964,-27.10141],[31.53799,-27.09486],[31.51852,-27.08694],[31.49916,-27.08957],[31.48749,-27.0865],[31.47333,-27.09116],[31.45819,-27.08574],[31.41901,-27.08858],[31.42595,-27.10498],[31.42264,-27.10779],[31.41223,-27.10144],[31.40777,-27.10198],[31.40036,-27.10586],[31.39515,-27.11426],[31.40271,-27.12033],[31.40622,-27.12798],[31.39776,-27.14782],[31.39445,-27.14798],[31.39429,-27.16625],[31.40763,-27.16681],[31.41468,-27.15062],[31.42062,-27.14948],[31.42349,-27.15189],[31.42216,-27.16566],[31.42854,-27.17291],[31.43762,-27.17648],[31.44556,-27.18808],[31.44485,-27.20008],[31.45312,-27.19967],[31.46601,-27.20653],[31.48335,-27.20447],[31.49952,-27.20674],[31.49979,-27.21175],[31.50375,-27.21349],[31.5108,-27.22823],[31.53411,-27.23513],[31.54592,-27.23043],[31.55653,-27.23914],[31.56919,-27.23623],[31.58538,-27.24818],[31.59258,-27.2499],[31.60385,-27.24762],[31.63817,-27.20191],[31.64195,-27.18812],[31.65509,-27.18489],[31.6668,-27.16822],[31.66244,-27.13792],[31.66625,-27.13388]]]}},{"type":"Feature","properties":{"id":"SWZ:ADM2:25544865B73094271858918","name":"Inkhundla Mkhiweni","countryCode":"SWZ","adminLevel":2,"sourceCode":"25544865B73094271858918","parentId":"SWZ:ADM1:SWZ-536"},"geometry":{"type":"Polygon","coordinates":[[[31.66764,-26.35112],[31.68405,-26.32302],[31.68509,-26.26869],[31.69393,-26.26106],[31.70537,-26.2571],[31.69681,-26.24594],[31.69042,-26.2057],[31.67791,-26.16314],[31.66522,-26.16167],[31.65725,-26.16698],[31.6452,-26.16774],[31.6422,-26.17115],[31.63609,-26.169],[31.63029,-26.17254],[31.62096,-26.16921],[31.6127,-26.1732],[31.6024,-26.16915],[31.5863,-26.17265],[31.57561,-26.16436],[31.56946,-26.16503],[31.57407,-26.16997],[31.57172,-26.17187],[31.55432,-26.18011],[31.54515,-26.17988],[31.54396,-26.1841],[31.54998,-26.19142],[31.55007,-26.20602],[31.54324,-26.20722],[31.53824,-26.21953],[31.52183,-26.21546],[31.51132,-26.21847],[31.51157,-26.22255],[31.53011,-26.23163],[31.52739,-26.23577],[31.51022,-26.24154],[31.51498,-26.24309],[31.51343,-26.25043],[31.48959,-26.25619],[31.48562,-26.25342],[31.48486,-26.24763],[31.4705,-26.25167],[31.45131,-26.26956],[31.43564,-26.27241],[31.43752,-26.2776],[31.42394,-26.28598],[31.42759,-26.30663],[31.46103,-26.3223],[31.48411,-26.34982],[31.48602,-26.36362],[31.49248,-26.3649],[31.50037,-26.36131],[31.50395,-26.36381],[31.50656,-26.37369],[31.51564,-26.38312],[31.53396,-26.38105],[31.54434,-26.38987],[31.5534,-26.38902],[31.55869,-26.37578],[31.56661,-26.3749],[31.5714,-26.37179],[31.57445,-26.36384],[31.58038,-26.36433],[31.59374,-26.35095],[31.60083,-26.34997],[31.60285,-26.34187],[31.60025,-26.33418],[31.61529,-26.33536],[31.6252,-26.34879],[31.63187,-26.34495],[31.65759,-26.34207],[31.66764,-26.35112]]]}},{"type":"Feature","properties":{"id":"SWZ:ADM2:25544865B73521890891897","name":"Inkhundla Nkwene","countryCode":"SWZ","adminLevel":2,"sourceCode":"25544865B73521890891897","parentId":"SWZ:ADM1:SWZ-537"},"geometry":{"type":"Polygon","coordinates":[[[31.11866,-26.85362],[31.13441,-26.86313],[31.13665,-26.86812],[31.14676,-26.8712],[31.16205,-26.88685],[31.17304,-26.88178],[31.1907,-26.88862],[31.19893,-26.89861],[31.20486,-26.90111],[31.20323,-26.90758],[31.20782,-26.9096],[31.21455,-26.9208],[31.21098,-26.9257],[31.20726,-26.92388],[31.20593,-26.91823],[31.1864,-26.91519],[31.18246,-26.91721],[31.18896,-26.92381],[31.18776,-26.93217],[31.19481,-26.93428],[31.18891,-26.94237],[31.18309,-26.94178],[31.17819,-26.9341],[31.1635,-26.93589],[31.16684,-26.94592],[31.16027,-26.94862],[31.16084,-26.95631],[31.14779,-26.96837],[31.1495,-26.97326],[31.14617,-26.97722],[31.16576,-26.99291],[31.1702,-26.9931],[31.17464,-26.99929],[31.22492,-26.96414],[31.25288,-26.95699],[31.2582,-26.94365],[31.26351,-26.93956],[31.27721,-26.93822],[31.29203,-26.94668],[31.30587,-26.93126],[31.3104,-26.91923],[31.32115,-26.91921],[31.32507,-26.91463],[31.33251,-26.8976],[31.35906,-26.89088],[31.36713,-26.863],[31.3684,-26.82963],[31.38001,-26.8225],[31.38061,-26.81832],[31.37814,-26.80942],[31.36513,-26.80807],[31.35596,-26.80329],[31.35398,-26.79796],[31.3413,-26.79716],[31.32241,-26.80719],[31.30768,-26.80423],[31.3053,-26.8081],[31.3125,-26.82051],[31.32081,-26.82463],[31.32178,-26.83027],[31.3131,-26.83317],[31.3001,-26.82649],[31.2934,-26.82933],[31.29235,-26.83466],[31.29679,-26.83974],[31.29258,-26.84331],[31.30137,-26.85141],[31.29099,-26.85755],[31.26984,-26.84554],[31.24165,-26.82078],[31.2151,-26.80807],[31.20557,-26.81317],[31.20677,-26.81658],[31.19098,-26.83133],[31.18194,-26.82327],[31.17407,-26.82243],[31.11866,-26.85362]]]}},{"type":"Feature","properties":{"id":"SWZ:ADM2:25544865B74382320525051","name":"Inkhundla Maseyisini","countryCode":"SWZ","adminLevel":2,"sourceCode":"25544865B74382320525051","parentId":"SWZ:ADM1:SWZ-537"},"geometry":{"type":"Polygon","coordinates":[[[31.25429,-27.14157],[31.22349,-27.12245],[31.18149,-27.14064],[31.16907,-27.11895],[31.17835,-27.11052],[31.15946,-27.08801],[31.1779,-27.07706],[31.16488,-27.06795],[31.17426,-27.0667],[31.17208,-27.05613],[31.16308,-27.04624],[31.14826,-27.04911],[31.15453,-27.05883],[31.149,-27.06401],[31.13925,-27.04818],[31.15896,-27.01507],[31.15183,-27.00793],[31.14273,-27.00851],[31.13783,-27.02087],[31.12941,-27.03126],[31.12233,-27.03216],[31.12269,-27.04046],[31.11557,-27.05248],[31.10938,-27.05707],[31.10999,-27.05978],[31.09857,-27.0666],[31.10038,-27.08196],[31.09219,-27.08168],[31.08805,-27.08618],[31.08788,-27.07802],[31.07087,-27.07369],[31.07327,-27.06907],[31.07125,-27.06639],[31.05025,-27.06624],[31.04856,-27.0732],[31.04027,-27.07372],[31.03774,-27.07964],[31.06133,-27.09629],[31.15055,-27.20208],[31.22966,-27.22814],[31.23429,-27.2187],[31.245,-27.21466],[31.23792,-27.1986],[31.23891,-27.19132],[31.25369,-27.19041],[31.26924,-27.18331],[31.26557,-27.15743],[31.25429,-27.14157]]]}},{"type":"Feature","properties":{"id":"SWZ:ADM2:25544865B75252057291440","name":"Inkhundla Zombodze","countryCode":"SWZ","adminLevel":2,"sourceCode":"25544865B75252057291440","parentId":"SWZ:ADM1:SWZ-537"},"geometry":{"type":"Polygon","coordinates":[[[31.22966,-27.22814],[31.38503,-27.27932],[31.38477,-27.27475],[31.38927,-27.26995],[31.38763,-27.25509],[31.39466,-27.25081],[31.40794,-27.22613],[31.40033,-27.21948],[31.38923,-27.20144],[31.39428,-27.18074],[31.39178,-27.17017],[31.39429,-27.16625],[31.39445,-27.14798],[31.39776,-27.14782],[31.40622,-27.12798],[31.40271,-27.12033],[31.38664,-27.11093],[31.37774,-27.11638],[31.36964,-27.11145],[31.36612,-27.11529],[31.36014,-27.10977],[31.34163,-27.10716],[31.34132,-27.09853],[31.33785,-27.0972],[31.33191,-27.10099],[31.32673,-27.0968],[31.32622,-27.09099],[31.3203,-27.08863],[31.3219,-27.09389],[31.30468,-27.12113],[31.29899,-27.1366],[31.25429,-27.14157],[31.26557,-27.15743],[31.26924,-27.18331],[31.25369,-27.19041],[31.23891,-27.19132],[31.23792,-27.1986],[31.245,-27.21466],[31.23429,-27.2187],[31.22966,-27.22814]]]}},{"type":"Feature","properties":{"id":"SWZ:ADM2:25544865B7556618042138","name":"Inkhundla Nkhaba","countryCode":"SWZ","adminLevel":2,"sourceCode":"25544865B7556618042138","parentId":"SWZ:ADM1:SWZ-534"},"geometry":{"type":"Polygon","coordinates":[[[31.18578,-26.21851],[31.19624,-26.204],[31.20432,-26.18041],[31.20425,-26.16674],[31.25819,-26.1658],[31.26312,-26.15694],[31.25926,-26.14974],[31.26468,-26.14047],[31.28339,-26.12357],[31.29122,-26.12952],[31.29474,-26.12053],[31.30226,-26.12115],[31.29772,-26.1146],[31.30903,-26.10041],[31.30585,-26.09652],[31.30149,-26.09933],[31.29403,-26.09273],[31.29936,-26.08769],[31.29477,-26.08433],[31.29098,-26.07327],[31.28098,-26.07461],[31.27634,-26.08639],[31.27068,-26.08832],[31.2633,-26.07448],[31.25743,-26.07158],[31.24942,-26.07362],[31.24616,-26.06715],[31.25501,-26.0598],[31.25092,-26.0572],[31.23201,-26.05233],[31.22425,-26.0601],[31.21965,-26.05918],[31.20795,-26.06493],[31.18509,-26.0659],[31.1783,-26.06027],[31.17467,-26.04829],[31.16589,-26.04018],[31.15374,-26.05392],[31.13448,-26.05567],[31.12299,-26.0525],[31.11544,-26.06074],[31.10442,-26.05613],[31.10247,-26.04491],[31.10793,-26.03483],[31.09526,-26.03819],[31.08496,-26.03647],[31.07104,-26.06731],[31.01816,-26.16052],[31.0248,-26.17263],[31.0465,-26.17743],[31.04885,-26.20088],[31.05979,-26.20095],[31.06517,-26.21007],[31.06967,-26.20973],[31.07402,-26.21812],[31.08344,-26.21852],[31.08188,-26.2254],[31.0897,-26.2313],[31.09454,-26.24129],[31.11932,-26.25665],[31.12019,-26.26002],[31.11615,-26.26489],[31.13091,-26.28279],[31.14602,-26.28029],[31.15797,-26.27442],[31.16145,-26.2679],[31.1593,-26.25865],[31.17041,-26.24642],[31.17346,-26.23646],[31.18578,-26.21851]]]}},{"type":"Feature","properties":{"id":"SWZ:ADM2:25544865B76074174917722","name":"Inkhundla Sigwe","countryCode":"SWZ","adminLevel":2,"sourceCode":"25544865B76074174917722","parentId":"SWZ:ADM1:SWZ-537"},"geometry":{"type":"Polygon","coordinates":[[[31.58541,-26.97729],[31.57656,-26.98276],[31.58008,-26.98665],[31.57831,-26.98892],[31.57023,-26.98664],[31.56034,-26.99288],[31.58249,-27.00051],[31.58443,-27.0102],[31.59254,-27.02008],[31.59394,-27.03126],[31.61238,-27.04823],[31.6108,-27.05349],[31.61789,-27.07449],[31.61446,-27.09397],[31.6051,-27.09447],[31.60576,-27.10443],[31.57337,-27.09665],[31.56964,-27.10141],[31.58165,-27.10739],[31.5788,-27.1182],[31.58211,-27.13317],[31.58711,-27.13461],[31.5982,-27.14834],[31.60768,-27.14152],[31.61939,-27.14635],[31.63019,-27.14218],[31.6425,-27.15206],[31.64354,-27.13396],[31.65973,-27.12864],[31.66625,-27.13388],[31.67993,-27.12206],[31.69601,-27.13325],[31.70089,-27.12081],[31.71296,-27.11995],[31.71601,-27.10622],[31.72665,-27.10205],[31.7308,-27.09258],[31.73809,-27.09424],[31.74233,-27.10353],[31.75219,-27.10614],[31.75129,-27.09887],[31.76128,-27.08772],[31.76072,-27.07705],[31.76624,-27.07663],[31.77435,-27.08235],[31.77921,-27.07877],[31.77524,-27.07136],[31.76239,-27.06375],[31.7637,-27.05967],[31.77423,-27.06027],[31.76465,-27.03661],[31.70103,-27.04586],[31.61733,-27.01212],[31.60252,-26.97845],[31.59536,-26.97595],[31.58541,-26.97729]]]}},{"type":"Feature","properties":{"id":"SWZ:ADM2:25544865B81777462131642","name":"Inkhundla Lamgabhi","countryCode":"SWZ","adminLevel":2,"sourceCode":"25544865B81777462131642","parentId":"SWZ:ADM1:SWZ-536"},"geometry":{"type":"Polygon","coordinates":[[[31.14524,-26.56781],[31.12771,-26.53319],[31.10599,-26.53965],[31.10628,-26.54653],[31.09898,-26.54304],[31.08952,-26.51598],[31.0807,-26.50861],[31.0863,-26.49899],[31.07844,-26.49758],[31.03754,-26.51457],[31.01659,-26.53296],[31.01954,-26.5449],[31.03688,-26.55308],[31.03099,-26.58696],[31.02861,-26.59202],[31.01789,-26.5928],[31.01143,-26.6013],[31.00137,-26.60471],[30.98743,-26.60425],[30.98339,-26.62078],[30.99733,-26.62526],[31.01742,-26.61741],[31.05668,-26.61995],[31.13606,-26.58855],[31.1618,-26.59446],[31.16664,-26.58865],[31.16448,-26.58491],[31.14524,-26.56781]]]}},{"type":"Feature","properties":{"id":"SWZ:ADM2:25544865B85200764608315","name":"Inkhundla Mhlangatane","countryCode":"SWZ","adminLevel":2,"sourceCode":"25544865B85200764608315","parentId":"SWZ:ADM1:SWZ-534"},"geometry":{"type":"Polygon","coordinates":[[[31.51267,-25.92696],[31.5155,-25.94364],[31.53623,-25.95358],[31.54337,-25.96214],[31.54516,-25.97818],[31.53745,-25.98929],[31.5463,-26.00166],[31.54819,-26.02856],[31.56048,-26.02136],[31.56518,-26.02515],[31.57186,-26.02338],[31.58259,-26.01317],[31.58776,-26.01764],[31.60066,-26.01542],[31.62765,-26.03624],[31.6371,-26.05531],[31.65568,-26.05192],[31.67024,-26.05621],[31.66612,-25.94846],[31.67182,-25.94384],[31.6945,-25.9531],[31.72329,-25.94503],[31.72465,-25.95166],[31.72874,-25.95432],[31.7356,-25.95237],[31.75091,-25.95589],[31.75516,-25.95171],[31.7537,-25.94387],[31.76512,-25.9359],[31.58311,-25.82247],[31.58141,-25.8354],[31.58425,-25.8605],[31.58169,-25.87568],[31.58425,-25.89176],[31.57719,-25.90544],[31.58664,-25.92026],[31.58618,-25.93154],[31.56371,-25.94043],[31.54414,-25.93499],[31.53882,-25.92973],[31.51267,-25.92696]]]}},{"type":"Feature","properties":{"id":"SWZ:ADM2:25544865B87308763732212","name":"Inkhundla Mtsambama","countryCode":"SWZ","adminLevel":2,"sourceCode":"25544865B87308763732212","parentId":"SWZ:ADM1:SWZ-537"},"geometry":{"type":"Polygon","coordinates":[[[31.48639,-26.90767],[31.41611,-26.89656],[31.39769,-26.88694],[31.38886,-26.88923],[31.38174,-26.88656],[31.37153,-26.89067],[31.3605,-26.88585],[31.35906,-26.89088],[31.35224,-26.89437],[31.33251,-26.8976],[31.32507,-26.91463],[31.32115,-26.91921],[31.3104,-26.91923],[31.30587,-26.93126],[31.29203,-26.94668],[31.27721,-26.93822],[31.26351,-26.93956],[31.2582,-26.94365],[31.25288,-26.95699],[31.26312,-26.96237],[31.26688,-26.97066],[31.27923,-26.97286],[31.2835,-26.98094],[31.27479,-26.99174],[31.31718,-27.02695],[31.33176,-27.03196],[31.34136,-27.02646],[31.36504,-27.04256],[31.3696,-27.03765],[31.39113,-27.03889],[31.40431,-27.03294],[31.44522,-26.98421],[31.45959,-26.97341],[31.48426,-26.98072],[31.4881,-26.97254],[31.5028,-26.97501],[31.5045,-26.96752],[31.52151,-26.96979],[31.52596,-26.96649],[31.52911,-26.96988],[31.53927,-26.97073],[31.51123,-26.94558],[31.50962,-26.92676],[31.48639,-26.90767]]]}},{"type":"Feature","properties":{"id":"SWZ:ADM2:25544865B87479074006038","name":"Inkhundla Kwaluseni","countryCode":"SWZ","adminLevel":2,"sourceCode":"25544865B87479074006038","parentId":"SWZ:ADM1:SWZ-536"},"geometry":{"type":"Polygon","coordinates":[[[31.29083,-26.52517],[31.29288,-26.53162],[31.30258,-26.5308],[31.31054,-26.53721],[31.32484,-26.52531],[31.32327,-26.52017],[31.33698,-26.51943],[31.34142,-26.52489],[31.35524,-26.52109],[31.33508,-26.49218],[31.33547,-26.47878],[31.29928,-26.48014],[31.2969,-26.48135],[31.29716,-26.48933],[31.30257,-26.49736],[31.28007,-26.50918],[31.28234,-26.51636],[31.29083,-26.52517]]]}},{"type":"Feature","properties":{"id":"SWZ:ADM2:25544865B88364100009265","name":"Inkhundla Lugongolweni","countryCode":"SWZ","adminLevel":2,"sourceCode":"25544865B88364100009265","parentId":"SWZ:ADM1:SWZ-535"},"geometry":{"type":"Polygon","coordinates":[[[32.03406,-26.1743],[32.01691,-26.1938],[32.00453,-26.19451],[32.00139,-26.19757],[32.00295,-26.21035],[31.99755,-26.21433],[31.99631,-26.22511],[31.98894,-26.24104],[31.97994,-26.2458],[31.97036,-26.26201],[31.9586,-26.26392],[31.94569,-26.28147],[31.95023,-26.29027],[31.94712,-26.29822],[31.95888,-26.2981],[31.96347,-26.31603],[31.95551,-26.32738],[31.94633,-26.36191],[31.93412,-26.38548],[31.92699,-26.40859],[31.91025,-26.4217],[31.91416,-26.46367],[31.92955,-26.48949],[31.94944,-26.5129],[31.96718,-26.49321],[31.97882,-26.49344],[31.98289,-26.48972],[31.99183,-26.49099],[32.00002,-26.48458],[32.02352,-26.48802],[32.02767,-26.48258],[32.03791,-26.48858],[32.05616,-26.47917],[32.06005,-26.47936],[32.06015,-26.48625],[32.06454,-26.48655],[32.07482,-26.48393],[32.07368,-26.48017],[32.08178,-26.4752],[32.08015,-26.47179],[32.08248,-26.46926],[32.10579,-26.46557],[32.07742,-26.40565],[32.07438,-26.30571],[32.09844,-26.19414],[32.09373,-26.19017],[32.09047,-26.17348],[32.08024,-26.16693],[32.07144,-26.16709],[32.05184,-26.1792],[32.03406,-26.1743]]]}},{"type":"Feature","properties":{"id":"SWZ:ADM2:25544865B91965971492812","name":"Inkhundla Piggs Peak","countryCode":"SWZ","adminLevel":2,"sourceCode":"25544865B91965971492812","parentId":"SWZ:ADM1:SWZ-534"},"geometry":{"type":"Polygon","coordinates":[[[31.18457,-25.8739],[31.12657,-25.92115],[31.11275,-25.98257],[31.08496,-26.03647],[31.09526,-26.03819],[31.10793,-26.03483],[31.10247,-26.04491],[31.10442,-26.05613],[31.11544,-26.06074],[31.12299,-26.0525],[31.13448,-26.05567],[31.15374,-26.05392],[31.16589,-26.04018],[31.17467,-26.04829],[31.1783,-26.06027],[31.18509,-26.0659],[31.20795,-26.06493],[31.21965,-26.05918],[31.22425,-26.0601],[31.23201,-26.05233],[31.25092,-26.0572],[31.25501,-26.0598],[31.24616,-26.06715],[31.24668,-26.07144],[31.2633,-26.07448],[31.27068,-26.08832],[31.27634,-26.08639],[31.28098,-26.07461],[31.29098,-26.07327],[31.29477,-26.08433],[31.30349,-26.08853],[31.30983,-26.08016],[31.32261,-26.07427],[31.32573,-26.07442],[31.33078,-26.08527],[31.3486,-26.08196],[31.34248,-26.07337],[31.34576,-26.07059],[31.34472,-26.06619],[31.32842,-26.06148],[31.30748,-26.04287],[31.30879,-26.0383],[31.31552,-26.03399],[31.31147,-26.01623],[31.35853,-26.02373],[31.36204,-26.01905],[31.35609,-26.00912],[31.3875,-25.9771],[31.34412,-25.94617],[31.36501,-25.92756],[31.41751,-25.95657],[31.42777,-25.91687],[31.41492,-25.91188],[31.41266,-25.90694],[31.39423,-25.89326],[31.33091,-25.90897],[31.32705,-25.92113],[31.32272,-25.92492],[31.3216,-25.90989],[31.31166,-25.90916],[31.30157,-25.91361],[31.29849,-25.89909],[31.28925,-25.90414],[31.28469,-25.89098],[31.27725,-25.89278],[31.25033,-25.85862],[31.23944,-25.86981],[31.21987,-25.8819],[31.22493,-25.88695],[31.21646,-25.89244],[31.2103,-25.8826],[31.2026,-25.88635],[31.19137,-25.88135],[31.18457,-25.8739]]]}},{"type":"Feature","properties":{"id":"SWZ:ADM2:25544865B94244502272687","name":"Inkhundla Mbabane","countryCode":"SWZ","adminLevel":2,"sourceCode":"25544865B94244502272687","parentId":"SWZ:ADM1:SWZ-534"},"geometry":{"type":"Polygon","coordinates":[[[31.17263,-26.24027],[31.1593,-26.25865],[31.16145,-26.2679],[31.15797,-26.27442],[31.14602,-26.28029],[31.12991,-26.28176],[31.12112,-26.29258],[31.11512,-26.28979],[31.11227,-26.2786],[31.09842,-26.27297],[31.08536,-26.27197],[31.08193,-26.28987],[31.09537,-26.31591],[31.07626,-26.32863],[31.0722,-26.32678],[31.06614,-26.33411],[31.05644,-26.33487],[31.0593,-26.34468],[31.07218,-26.34177],[31.08541,-26.37167],[31.09276,-26.37873],[31.11132,-26.38062],[31.14647,-26.37654],[31.15937,-26.36846],[31.1612,-26.36215],[31.15595,-26.34941],[31.16348,-26.34439],[31.16809,-26.35135],[31.17439,-26.34941],[31.18044,-26.29495],[31.16913,-26.28529],[31.1653,-26.27493],[31.1867,-26.24676],[31.18485,-26.24066],[31.17263,-26.24027]]]}},{"type":"Feature","properties":{"id":"SWZ:ADM2:25544865B94915093759021","name":"Inkhundla Mhlambanyatsi","countryCode":"SWZ","adminLevel":2,"sourceCode":"25544865B94915093759021","parentId":"SWZ:ADM1:SWZ-536"},"geometry":{"type":"Polygon","coordinates":[[[31.15613,-26.45206],[31.14363,-26.45763],[31.13278,-26.45623],[31.13272,-26.45049],[31.12828,-26.44686],[31.12199,-26.44874],[31.11913,-26.44068],[31.09959,-26.4462],[31.09029,-26.43982],[31.07029,-26.44037],[31.04361,-26.39391],[30.97618,-26.36507],[30.93662,-26.33905],[30.92077,-26.33628],[30.91573,-26.32985],[30.90379,-26.3263],[30.89835,-26.31553],[30.89186,-26.32082],[30.85756,-26.38379],[30.83101,-26.41117],[30.81629,-26.44266],[30.83074,-26.44563],[30.84306,-26.45314],[30.84923,-26.46097],[30.855,-26.46255],[30.85569,-26.47581],[30.86331,-26.4797],[30.86748,-26.48655],[30.88014,-26.49078],[30.88837,-26.48586],[30.89501,-26.48885],[30.89591,-26.49314],[30.88999,-26.49858],[30.90129,-26.51008],[30.90677,-26.51028],[30.9111,-26.50478],[30.92239,-26.508],[30.9245,-26.51415],[30.91831,-26.51735],[30.92208,-26.52375],[30.92232,-26.53323],[30.9076,-26.54193],[30.91045,-26.54754],[30.95096,-26.55579],[30.99252,-26.54562],[31.01549,-26.5462],[31.01954,-26.5449],[31.01659,-26.53296],[31.03754,-26.51457],[31.07844,-26.49758],[31.0863,-26.49899],[31.0807,-26.50861],[31.08952,-26.51598],[31.09898,-26.54304],[31.10628,-26.54653],[31.10599,-26.53965],[31.12771,-26.53319],[31.14524,-26.56781],[31.15116,-26.56634],[31.15435,-26.5331],[31.16078,-26.5199],[31.15297,-26.51434],[31.15522,-26.50716],[31.16162,-26.50264],[31.17161,-26.50676],[31.17955,-26.50075],[31.16856,-26.47741],[31.15747,-26.47458],[31.15613,-26.45206]]]}},{"type":"Feature","properties":{"id":"SWZ:ADM2:25544865B95753753422766","name":"Inkhundla Hlane","countryCode":"SWZ","adminLevel":2,"sourceCode":"25544865B95753753422766","parentId":"SWZ:ADM1:SWZ-535"},"geometry":{"type":"Polygon","coordinates":[[[31.60085,-26.41536],[31.61985,-26.41323],[31.65782,-26.41975],[31.66675,-26.41264],[31.69013,-26.40844],[31.69545,-26.39813],[31.70496,-26.39135],[31.7223,-26.38913],[31.73105,-26.3765],[31.72924,-26.35994],[31.74445,-26.35077],[31.75235,-26.3492],[31.76171,-26.35747],[31.76203,-26.37332],[31.81434,-26.37306],[31.8206,-26.36629],[31.84641,-26.36617],[31.86798,-26.34529],[31.86807,-26.32834],[31.87246,-26.32082],[31.89799,-26.31811],[31.90278,-26.30691],[31.93352,-26.29229],[31.94569,-26.28147],[31.89825,-26.17106],[31.88983,-26.17425],[31.88121,-26.16912],[31.88278,-26.14489],[31.87798,-26.15179],[31.85894,-26.15658],[31.8573,-26.16282],[31.84856,-26.16574],[31.84911,-26.16912],[31.85853,-26.17337],[31.86515,-26.18751],[31.85672,-26.18812],[31.86045,-26.20113],[31.85144,-26.21756],[31.85053,-26.25413],[31.78905,-26.25192],[31.78993,-26.24569],[31.77717,-26.23457],[31.78125,-26.227],[31.76925,-26.17828],[31.78445,-26.14538],[31.78497,-26.14163],[31.78048,-26.13853],[31.75843,-26.1485],[31.74505,-26.14946],[31.73918,-26.16478],[31.73444,-26.16754],[31.71407,-26.16845],[31.70619,-26.17255],[31.70383,-26.18203],[31.68795,-26.20024],[31.69681,-26.24594],[31.70537,-26.2571],[31.69393,-26.26106],[31.68509,-26.26869],[31.68405,-26.32302],[31.66764,-26.35112],[31.63635,-26.37127],[31.62685,-26.38208],[31.6227,-26.39138],[31.62771,-26.40062],[31.60085,-26.41536]]]}},{"type":"Feature","properties":{"id":"SWZ:ADM2:25544865B96981286977121","name":"Inkhundla Sandleni","countryCode":"SWZ","adminLevel":2,"sourceCode":"25544865B96981286977121","parentId":"SWZ:ADM1:SWZ-537"},"geometry":{"type":"Polygon","coordinates":[[[31.39515,-27.11426],[31.40036,-27.10586],[31.40777,-27.10198],[31.41223,-27.10144],[31.42264,-27.10779],[31.42595,-27.10498],[31.41901,-27.08858],[31.45819,-27.08574],[31.47333,-27.09116],[31.48749,-27.0865],[31.49916,-27.08957],[31.50292,-27.0818],[31.50152,-27.07655],[31.51023,-27.03729],[31.5183,-27.02929],[31.5178,-27.02612],[31.50683,-27.01889],[31.49691,-27.01599],[31.49456,-27.00479],[31.50205,-26.99701],[31.50129,-26.99384],[31.48844,-26.98266],[31.45959,-26.97341],[31.4536,-26.97662],[31.40431,-27.03294],[31.39113,-27.03889],[31.3696,-27.03765],[31.36726,-27.06778],[31.35556,-27.07634],[31.3419,-27.07578],[31.33549,-27.0583],[31.31477,-27.05455],[31.31694,-27.07971],[31.3203,-27.08863],[31.32622,-27.09099],[31.32673,-27.0968],[31.33191,-27.10099],[31.33785,-27.0972],[31.34132,-27.09853],[31.34163,-27.10716],[31.36014,-27.10977],[31.36612,-27.11529],[31.36964,-27.11145],[31.37774,-27.11638],[31.38664,-27.11093],[31.39515,-27.11426]]]}},{"type":"Feature","properties":{"id":"SWZ:ADM2:25544865B99062950351047","name":"Inkhundla Lomahasha","countryCode":"SWZ","adminLevel":2,"sourceCode":"25544865B99062950351047","parentId":"SWZ:ADM1:SWZ-535"},"geometry":{"type":"Polygon","coordinates":[[[31.87551,-25.99625],[31.91816,-26.06776],[31.9474,-26.07939],[31.96513,-26.09883],[31.97508,-26.14275],[31.98603,-26.14998],[31.99168,-26.14607],[31.99222,-26.13681],[31.99518,-26.13422],[32.00519,-26.13339],[32.01264,-26.13717],[32.01349,-26.13442],[32.00384,-26.12047],[32.00409,-26.113],[32.01605,-26.10507],[32.02428,-26.10671],[32.02665,-26.11713],[32.0181,-26.13359],[32.02205,-26.14477],[32.03088,-26.15092],[32.03291,-26.15911],[32.02716,-26.17113],[32.05184,-26.1792],[32.07144,-26.16709],[32.08024,-26.16693],[32.09047,-26.17348],[32.09373,-26.19017],[32.09844,-26.19414],[32.10535,-26.16168],[32.08483,-26.02907],[32.08711,-26.00893],[32.0063,-26.00041],[31.97519,-25.95265],[31.87551,-25.99625]]]}},{"type":"Feature","properties":{"id":"SWZ:ADM2:25544865B99429407754877","name":"Inkhundla Tikhuba","countryCode":"SWZ","adminLevel":2,"sourceCode":"25544865B99429407754877","parentId":"SWZ:ADM1:SWZ-535"},"geometry":{"type":"Polygon","coordinates":[[[31.94944,-26.5129],[31.97599,-26.54724],[31.98541,-26.57516],[31.99502,-26.58745],[32.01327,-26.63061],[32.0208,-26.67841],[32.01988,-26.70883],[32.01055,-26.77992],[32.01567,-26.78686],[32.02123,-26.80718],[32.03489,-26.80715],[32.04524,-26.81692],[32.054,-26.81837],[32.07156,-26.8097],[32.10014,-26.8051],[32.10551,-26.8098],[32.10839,-26.82102],[32.11942,-26.83805],[32.13462,-26.84026],[32.13499,-26.52725],[32.10579,-26.46557],[32.08248,-26.46926],[32.08015,-26.47179],[32.08178,-26.4752],[32.07368,-26.48017],[32.07482,-26.48393],[32.06454,-26.48655],[32.06015,-26.48625],[32.06005,-26.47936],[32.05616,-26.47917],[32.03791,-26.48858],[32.02767,-26.48258],[32.02352,-26.48802],[32.00002,-26.48458],[31.99183,-26.49099],[31.98289,-26.48972],[31.97882,-26.49344],[31.96718,-26.49321],[31.94944,-26.5129]]]}}],"admin1":{"type":"FeatureCollection","features":[{"type":"Feature","properties":{"id":"SWZ:ADM1:SWZ-534","name":"Hhohho","countryCode":"SWZ"},"geometry":{"type":"Polygon","coordinates":[[[31.24939,-26.47041],[31.23889,-26.47032],[31.24062,-26.4766],[31.23574,-26.48086],[31.22963,-26.4671],[31.22259,-26.46159],[31.20783,-26.4769],[31.19045,-26.48192],[31.18533,-26.47711],[31.18446,-26.46776],[31.17456,-26.46048],[31.17914,-26.45462],[31.17622,-26.4528],[31.16418,-26.45425],[31.15367,-26.45163],[31.14363,-26.45763],[31.13278,-26.45623],[31.13272,-26.45049],[31.12828,-26.44686],[31.12199,-26.44874],[31.11913,-26.44068],[31.12542,-26.43889],[31.09959,-26.4462],[31.09029,-26.43982],[31.07029,-26.44037],[31.04361,-26.39391],[30.97618,-26.36507],[30.93662,-26.33905],[30.92077,-26.33628],[30.91573,-26.32985],[30.90379,-26.3263],[30.89835,-26.31553],[30.96144,-26.26173],[31.01816,-26.16052],[31.07104,-26.06731],[31.08496,-26.03647],[31.11275,-25.98257],[31.12657,-25.92115],[31.18457,-25.8739],[31.26357,-25.80963],[31.31594,-25.74304],[31.37658,-25.72838],[31.4163,-25.71876],[31.49354,-25.7665],[31.58311,-25.82247],[31.76512,-25.9359],[31.7537,-25.94387],[31.75516,-25.95171],[31.75091,-25.95589],[31.7356,-25.95237],[31.72874,-25.95432],[31.72465,-25.95166],[31.72329,-25.94503],[31.6945,-25.9531],[31.67182,-25.94384],[31.66612,-25.94846],[31.67024,-26.05621],[31.67652,-26.08876],[31.67829,-26.11785],[31.6807,-26.12928],[31.68581,-26.13427],[31.68776,-26.15519],[31.67601,-26.15129],[31.67791,-26.16314],[31.66522,-26.16167],[31.65725,-26.16698],[31.6452,-26.16774],[31.6422,-26.17115],[31.63609,-26.169],[31.63029,-26.17254],[31.62547,-26.16909],[31.6127,-26.1732],[31.6024,-26.16915],[31.5863,-26.17265],[31.57247,-26.16374],[31.56946,-26.16503],[31.57407,-26.16997],[31.57172,-26.17187],[31.55432,-26.18011],[31.54515,-26.17988],[31.54396,-26.1841],[31.54998,-26.19142],[31.54988,-26.20413],[31.54324,-26.20722],[31.53824,-26.21953],[31.52183,-26.21546],[31.51132,-26.21847],[31.51157,-26.22255],[31.53011,-26.23163],[31.52739,-26.23577],[31.51022,-26.24154],[31.51498,-26.24309],[31.51569,-26.2475],[31.50962,-26.25253],[31.48959,-26.25619],[31.48562,-26.25342],[31.48486,-26.24763],[31.4705,-26.25167],[31.46475,-26.25462],[31.4594,-26.26424],[31.45131,-26.26956],[31.43564,-26.27241],[31.43752,-26.2776],[31.40955,-26.29519],[31.40488,-26.29421],[31.40213,-26.28192],[31.396,-26.28501],[31.38864,-26.28358],[31.38507,-26.28901],[31.37942,-26.28938],[31.37232,-26.27818],[31.3654,-26.28439],[31.35166,-26.30766],[31.30417,-26.31521],[31.28391,-26.32773],[31.27592,-26.34384],[31.28442,-26.36116],[31.26328,-26.38743],[31.26618,-26.40632],[31.26108,-26.40983],[31.26135,-26.41615],[31.25629,-26.42461],[31.25842,-26.44725],[31.26424,-26.45826],[31.24939,-26.47041]],[[31.42777,-25.91687],[31.43916,-25.92048],[31.41492,-25.91188],[31.42777,-25.91687]],[[31.34166,-26.08325],[31.36155,-26.0852],[31.34545,-26.0829],[31.3486,-26.08196],[31.34166,-26.08325]],[[31.32261,-26.07427],[31.31944,-26.07573],[31.32573,-26.07442],[31.32261,-26.07427]],[[31.30462,-26.08703],[31.30649,-26.0868],[31.30983,-26.08016],[31.30462,-26.08703]],[[31.29477,-26.08433],[31.29936,-26.08769],[31.30125,-26.08745],[31.29477,-26.08433]],[[31.17205,-26.24107],[31.17263,-26.24027],[31.18578,-26.21851],[31.17346,-26.23646],[31.17205,-26.24107]],[[31.12333,-26.37923],[31.12361,-26.37923],[31.14647,-26.37654],[31.12333,-26.37923]],[[31.11659,-26.29047],[31.11227,-26.2786],[31.11512,-26.28979],[31.11659,-26.29047]],[[31.12211,-26.29136],[31.11932,-26.29174],[31.12112,-26.29258],[31.12211,-26.29136]],[[31.11615,-26.26489],[31.12991,-26.28176],[31.13005,-26.28175],[31.11615,-26.26489]],[[31.24942,-26.07362],[31.25326,-26.07264],[31.24849,-26.07177],[31.24942,-26.07362]],[[31.48887,-26.11031],[31.47603,-26.11839],[31.47886,-26.11826],[31.48887,-26.11031]],[[31.5463,-26.00166],[31.54774,-26.02699],[31.54357,-26.03093],[31.54817,-26.02832],[31.5463,-26.00166]],[[31.48254,-26.16029],[31.48673,-26.17375],[31.48207,-26.15352],[31.48254,-26.16029]],[[31.48795,-26.14498],[31.48714,-26.1315],[31.48597,-26.12963],[31.48795,-26.14498]],[[31.49224,-25.92427],[31.51267,-25.92696],[31.53882,-25.92973],[31.49224,-25.92427]],[[31.47702,-25.80197],[31.467,-25.80647],[31.46343,-25.81006],[31.47702,-25.80197]]]}},{"type":"Feature","properties":{"id":"SWZ:ADM1:SWZ-535","name":"Lubombo","countryCode":"SWZ"},"geometry":{"type":"Polygon","coordinates":[[[31.98444,-27.00121],[31.98671,-27.00623],[31.9849,-27.03863],[31.97455,-27.11641],[31.97704,-27.13057],[31.97484,-27.16605],[31.90276,-27.16437],[31.90914,-27.14633],[31.86079,-27.14405],[31.86187,-27.1078],[31.84159,-27.10728],[31.81745,-27.09023],[31.79015,-27.08842],[31.78925,-27.07086],[31.77423,-27.06027],[31.76465,-27.03661],[31.70103,-27.04586],[31.69281,-27.04064],[31.61733,-27.01212],[31.60252,-26.97845],[31.5783,-26.97494],[31.58554,-26.96966],[31.57064,-26.96777],[31.57255,-26.9727],[31.56563,-26.9743],[31.56376,-26.97276],[31.56733,-26.96968],[31.5629,-26.96551],[31.55716,-26.97393],[31.55373,-26.97342],[31.55191,-26.96795],[31.54417,-26.97249],[31.53927,-26.97073],[31.51123,-26.94558],[31.50962,-26.92676],[31.48639,-26.90767],[31.50335,-26.89163],[31.51456,-26.87444],[31.51197,-26.86237],[31.52889,-26.84524],[31.5457,-26.83603],[31.53957,-26.81166],[31.55305,-26.78012],[31.5595,-26.78301],[31.55169,-26.77947],[31.55647,-26.76786],[31.48871,-26.77971],[31.48113,-26.77139],[31.48163,-26.74593],[31.4874,-26.73573],[31.48644,-26.72546],[31.49875,-26.71338],[31.50805,-26.69602],[31.51206,-26.68058],[31.51115,-26.67014],[31.52841,-26.67322],[31.53778,-26.66006],[31.60157,-26.6375],[31.59695,-26.63423],[31.58947,-26.5662],[31.58826,-26.54284],[31.57484,-26.53674],[31.57296,-26.52951],[31.5904,-26.52233],[31.61258,-26.51839],[31.60672,-26.50228],[31.60869,-26.49045],[31.6042,-26.48131],[31.60774,-26.46898],[31.60233,-26.46509],[31.60863,-26.44741],[31.59888,-26.42116],[31.60085,-26.41536],[31.62771,-26.40062],[31.6227,-26.39138],[31.62685,-26.38208],[31.63635,-26.37127],[31.66764,-26.35112],[31.68405,-26.32302],[31.68509,-26.26869],[31.69393,-26.26106],[31.70537,-26.2571],[31.69681,-26.24594],[31.68795,-26.20024],[31.67791,-26.16314],[31.67601,-26.15129],[31.68776,-26.15519],[31.68581,-26.13427],[31.6807,-26.12928],[31.67829,-26.11785],[31.67652,-26.08876],[31.67024,-26.05621],[31.66612,-25.94846],[31.67182,-25.94384],[31.6945,-25.9531],[31.72329,-25.94503],[31.72465,-25.95166],[31.72874,-25.95432],[31.7356,-25.95237],[31.75091,-25.95589],[31.75516,-25.95171],[31.7537,-25.94387],[31.76512,-25.9359],[31.86786,-25.9996],[31.87551,-25.99625],[31.97519,-25.95265],[32.0063,-26.00041],[32.08711,-26.00893],[32.08483,-26.02907],[32.10535,-26.16168],[32.09844,-26.19414],[32.07438,-26.30571],[32.07742,-26.40565],[32.10579,-26.46557],[32.13499,-26.52725],[32.13462,-26.84026],[32.11942,-26.83805],[32.10839,-26.82102],[32.10551,-26.8098],[32.10014,-26.8051],[32.07156,-26.8097],[32.054,-26.81837],[32.04524,-26.81692],[32.03489,-26.80715],[32.02123,-26.80718],[32.01135,-26.8102],[32.01586,-26.81988],[31.99596,-26.92415],[32.00047,-26.93806],[31.99307,-26.96721],[31.98444,-27.00121]],[[31.56502,-26.78127],[31.58841,-26.76701],[31.5595,-26.78301],[31.56502,-26.78127]],[[32.01651,-26.7243],[32.01055,-26.77992],[32.01988,-26.70883],[32.01651,-26.7243]],[[31.7542,-26.9158],[31.75763,-26.91549],[31.75343,-26.91435],[31.73439,-26.90072],[31.7542,-26.9158]],[[31.6375,-26.54673],[31.63762,-26.54644],[31.63807,-26.54178],[31.6375,-26.54673]],[[31.89706,-26.42466],[31.8953,-26.42506],[31.89759,-26.44198],[31.89706,-26.42466]],[[32.03406,-26.1743],[32.05184,-26.1792],[32.02716,-26.17113],[32.03406,-26.1743]]]}},{"type":"Feature","properties":{"id":"SWZ:ADM1:SWZ-536","name":"Manzini","countryCode":"SWZ"},"geometry":{"type":"Polygon","coordinates":[[[31.4416,-26.75413],[31.39334,-26.77599],[31.38544,-26.7991],[31.3413,-26.79716],[31.32241,-26.80719],[31.30768,-26.80423],[31.3053,-26.8081],[31.3125,-26.82051],[31.32081,-26.82463],[31.32178,-26.83027],[31.3131,-26.83317],[31.3001,-26.82649],[31.2934,-26.82933],[31.29235,-26.83466],[31.29679,-26.83974],[31.29258,-26.84331],[31.30105,-26.8494],[31.2985,-26.85523],[31.29269,-26.85468],[31.29099,-26.85755],[31.26984,-26.84554],[31.24165,-26.82078],[31.2151,-26.80807],[31.20557,-26.81317],[31.20677,-26.81658],[31.19098,-26.83133],[31.18194,-26.82327],[31.17407,-26.82243],[31.11866,-26.85362],[31.09608,-26.86237],[31.07566,-26.87668],[31.06936,-26.89092],[31.06156,-26.89272],[31.0616,-26.88525],[31.07108,-26.85957],[31.05049,-26.84232],[31.04464,-26.83376],[31.04384,-26.8296],[31.05184,-26.82752],[31.05155,-26.81792],[31.05481,-26.81143],[31.04757,-26.80548],[31.05133,-26.78879],[31.04901,-26.7762],[30.94535,-26.79435],[30.94507,-26.78786],[30.94039,-26.78464],[30.94264,-26.77545],[30.93908,-26.77359],[30.9273,-26.77675],[30.92134,-26.78506],[30.91309,-26.78354],[30.9055,-26.78666],[30.89628,-26.78074],[30.89076,-26.78379],[30.88728,-26.80359],[30.87203,-26.80928],[30.86172,-26.81867],[30.84805,-26.81897],[30.84401,-26.82508],[30.8361,-26.8269],[30.82531,-26.84015],[30.81322,-26.84448],[30.80265,-26.82402],[30.79101,-26.69518],[30.79181,-26.56911],[30.80506,-26.46667],[30.81629,-26.44266],[30.83101,-26.41117],[30.85756,-26.38379],[30.89186,-26.32082],[30.89835,-26.31553],[30.90379,-26.3263],[30.91573,-26.32985],[30.92077,-26.33628],[30.93662,-26.33905],[30.97618,-26.36507],[31.04361,-26.39391],[31.07029,-26.44037],[31.09029,-26.43982],[31.09959,-26.4462],[31.11913,-26.44068],[31.12199,-26.44874],[31.12828,-26.44686],[31.13272,-26.45049],[31.13278,-26.45623],[31.14363,-26.45763],[31.15613,-26.45206],[31.17914,-26.45462],[31.17456,-26.46048],[31.18446,-26.46776],[31.18533,-26.47711],[31.19045,-26.48192],[31.20783,-26.4769],[31.22259,-26.46159],[31.22963,-26.4671],[31.23574,-26.48086],[31.24062,-26.4766],[31.23889,-26.47032],[31.2419,-26.46904],[31.24939,-26.47041],[31.26424,-26.45826],[31.25842,-26.44725],[31.25629,-26.42461],[31.26135,-26.41615],[31.26108,-26.40983],[31.26618,-26.40632],[31.26328,-26.38743],[31.28442,-26.36116],[31.27592,-26.34384],[31.27878,-26.33423],[31.28391,-26.32773],[31.30417,-26.31521],[31.35166,-26.30766],[31.36259,-26.29285],[31.3624,-26.28981],[31.37232,-26.27818],[31.37942,-26.28938],[31.38507,-26.28901],[31.38864,-26.28358],[31.396,-26.28501],[31.40213,-26.28192],[31.40488,-26.29421],[31.40955,-26.29519],[31.42413,-26.28727],[31.42759,-26.30663],[31.42394,-26.28598],[31.43752,-26.2776],[31.43564,-26.27241],[31.45131,-26.26956],[31.4705,-26.25167],[31.48486,-26.24763],[31.48562,-26.25342],[31.48959,-26.25619],[31.51343,-26.25043],[31.51498,-26.24309],[31.51022,-26.24154],[31.52739,-26.23577],[31.53011,-26.23163],[31.51157,-26.22255],[31.51132,-26.21847],[31.52183,-26.21546],[31.53824,-26.21953],[31.54324,-26.20722],[31.55007,-26.20602],[31.54998,-26.19142],[31.54396,-26.1841],[31.54515,-26.17988],[31.55432,-26.18011],[31.57172,-26.17187],[31.57407,-26.16997],[31.56946,-26.16503],[31.57561,-26.16436],[31.5863,-26.17265],[31.6024,-26.16915],[31.6127,-26.1732],[31.62096,-26.16921],[31.63029,-26.17254],[31.63609,-26.169],[31.6422,-26.17115],[31.6452,-26.16774],[31.65725,-26.16698],[31.66522,-26.16167],[31.67791,-26.16314],[31.69042,-26.2057],[31.69681,-26.24594],[31.70537,-26.2571],[31.69393,-26.26106],[31.68509,-26.26869],[31.68405,-26.32302],[31.66764,-26.35112],[31.63635,-26.37127],[31.6227,-26.39138],[31.62771,-26.40062],[31.60085,-26.41536],[31.59888,-26.42116],[31.60863,-26.44741],[31.60233,-26.46509],[31.60774,-26.46898],[31.6042,-26.48131],[31.60869,-26.49045],[31.60672,-26.50228],[31.61258,-26.51839],[31.5904,-26.52233],[31.54819,-26.53631],[31.57296,-26.52951],[31.57484,-26.53674],[31.58826,-26.54284],[31.59695,-26.63423],[31.60157,-26.6375],[31.53778,-26.66006],[31.52841,-26.67322],[31.51116,-26.67028],[31.51206,-26.68058],[31.50805,-26.69602],[31.49875,-26.71338],[31.48644,-26.72546],[31.4874,-26.73573],[31.48163,-26.74593],[31.48113,-26.77139],[31.47099,-26.76268],[31.45207,-26.75574],[31.4416,-26.75413]],[[31.28345,-26.56644],[31.28439,-26.56602],[31.29524,-26.55339],[31.28345,-26.56644]],[[31.1618,-26.59446],[31.15503,-26.5929],[31.15706,-26.59527],[31.1618,-26.59446]],[[31.2574,-26.55692],[31.25501,-26.55847],[31.26361,-26.5582],[31.2574,-26.55692]],[[31.00137,-26.60471],[31.01143,-26.6013],[31.01262,-26.59974],[31.00137,-26.60471]],[[31.02861,-26.59202],[31.03099,-26.58696],[31.03688,-26.55308],[31.02861,-26.59202]],[[31.38602,-26.54137],[31.38637,-26.54085],[31.38634,-26.53858],[31.38602,-26.54137]],[[31.51564,-26.38312],[31.52831,-26.38194],[31.53557,-26.38242],[31.53396,-26.38105],[31.51564,-26.38312]],[[31.50906,-26.37629],[31.51135,-26.38023],[31.51564,-26.38312],[31.50906,-26.37629]],[[31.50573,-26.37054],[31.50395,-26.36381],[31.50037,-26.36131],[31.50573,-26.37054]]]}},{"type":"Feature","properties":{"id":"SWZ:ADM1:SWZ-537","name":"Shiselweni","countryCode":"SWZ"},"geometry":{"type":"Polygon","coordinates":[[[31.22966,-27.22814],[31.15055,-27.20208],[31.06133,-27.09629],[31.03774,-27.07964],[30.98476,-27.03698],[30.95833,-26.99213],[30.97371,-26.96451],[30.97652,-26.95343],[30.97682,-26.92161],[30.97356,-26.90821],[30.90742,-26.85993],[30.90695,-26.85494],[30.90225,-26.8518],[30.89076,-26.78379],[30.89628,-26.78074],[30.9055,-26.78666],[30.91309,-26.78354],[30.92134,-26.78506],[30.9273,-26.77675],[30.93908,-26.77359],[30.94264,-26.77545],[30.94039,-26.78464],[30.94507,-26.78786],[30.94535,-26.79435],[31.04901,-26.7762],[31.05133,-26.78879],[31.04757,-26.80548],[31.05481,-26.81143],[31.05155,-26.81792],[31.05184,-26.82752],[31.04384,-26.8296],[31.05049,-26.84232],[31.07108,-26.85957],[31.0616,-26.88525],[31.06156,-26.89272],[31.06427,-26.89358],[31.06936,-26.89092],[31.07566,-26.87668],[31.0839,-26.86943],[31.11866,-26.85362],[31.17407,-26.82243],[31.18194,-26.82327],[31.19098,-26.83133],[31.20677,-26.81658],[31.20557,-26.81317],[31.2151,-26.80807],[31.24165,-26.82078],[31.26984,-26.84554],[31.29099,-26.85755],[31.30137,-26.85141],[31.29258,-26.84331],[31.29679,-26.83974],[31.29235,-26.83466],[31.2934,-26.82933],[31.3001,-26.82649],[31.3131,-26.83317],[31.32178,-26.83027],[31.32081,-26.82463],[31.3125,-26.82051],[31.3053,-26.8081],[31.30768,-26.80423],[31.32241,-26.80719],[31.3413,-26.79716],[31.35398,-26.79796],[31.38544,-26.7991],[31.39334,-26.77599],[31.4416,-26.75413],[31.47099,-26.76268],[31.48871,-26.77971],[31.55647,-26.76786],[31.55305,-26.78012],[31.53957,-26.81166],[31.5457,-26.83603],[31.52889,-26.84524],[31.51197,-26.86237],[31.51456,-26.87444],[31.50335,-26.89163],[31.48639,-26.90767],[31.50962,-26.92676],[31.51123,-26.94558],[31.53927,-26.97073],[31.54417,-26.97249],[31.55191,-26.96795],[31.55373,-26.97342],[31.55716,-26.97393],[31.5629,-26.96551],[31.56733,-26.96968],[31.56376,-26.97276],[31.56563,-26.9743],[31.57255,-26.9727],[31.57064,-26.96777],[31.58554,-26.96966],[31.5783,-26.97494],[31.58541,-26.97729],[31.59536,-26.97595],[31.60252,-26.97845],[31.61733,-27.01212],[31.70103,-27.04586],[31.76465,-27.03661],[31.77423,-27.06027],[31.78925,-27.07086],[31.79015,-27.08842],[31.81745,-27.09023],[31.84159,-27.10728],[31.86187,-27.1078],[31.86079,-27.14405],[31.90914,-27.14633],[31.90276,-27.16437],[31.97484,-27.16605],[31.97776,-27.31752],[31.8102,-27.3169],[31.60925,-27.31589],[31.49369,-27.31516],[31.38503,-27.27932],[31.22966,-27.22814]],[[31.38923,-27.20144],[31.39033,-27.20323],[31.39428,-27.18074],[31.38923,-27.20144]],[[31.40033,-27.21948],[31.40794,-27.22613],[31.39635,-27.21301],[31.40033,-27.21948]],[[31.45959,-26.97341],[31.48559,-26.98175],[31.48426,-26.98072],[31.45959,-26.97341]],[[31.38664,-27.11093],[31.40271,-27.12033],[31.39515,-27.11426],[31.38664,-27.11093]],[[31.15183,-27.00786],[31.15181,-27.00793],[31.15183,-27.00793],[31.15183,-27.00786]],[[31.36726,-27.06778],[31.3696,-27.03765],[31.36571,-27.04184],[31.36738,-27.0429],[31.36726,-27.06778]],[[31.33251,-26.8976],[31.35224,-26.89437],[31.35906,-26.89088],[31.33251,-26.8976]],[[31.4503,-26.98039],[31.44522,-26.98421],[31.40431,-27.03294],[31.4503,-26.98039]],[[31.20726,-26.92388],[31.21098,-26.9257],[31.21183,-26.92453],[31.20726,-26.92388]],[[31.50375,-27.21349],[31.49979,-27.21175],[31.50738,-27.22109],[31.50375,-27.21349]],[[31.53411,-27.23513],[31.51395,-27.22916],[31.51433,-27.22963],[31.53411,-27.23513]]]}}]}}
