{"type":"FeatureCollection","features":[{"type":"Feature","properties":{"id":"SXM:ADM0:SXM","name":"Sint Maarten","countryCode":"SXM","adminLevel":0,"sourceCode":"SXM","parentId":"SXM:ADM1:SXM-5146"},"geometry":{"type":"Polygon","coordinates":[[[-63.107,18.06212],[-63.08589,18.05851],[-63.01757,18.03339],[-63.03063,18.01911],[-63.09765,18.03596],[-63.11217,18.04304],[-63.11889,18.0515],[-63.107,18.05947],[-63.107,18.06212]]]}}],"admin1":{"type":"FeatureCollection","features":[{"type":"Feature","properties":{"id":"SXM:ADM1:SXM-5146","name":"Sint Maarten","countryCode":"SXM"},"geometry":{"type":"Polygon","coordinates":[[[-63.107,18.06212],[-63.08589,18.05851],[-63.01757,18.03339],[-63.03063,18.01911],[-63.09765,18.03596],[-63.11217,18.04304],[-63.11889,18.0515],[-63.107,18.05947],[-63.107,18.06212]]]}}]}}
