{"type":"FeatureCollection","features":[{"type":"Feature","properties":{"id":"SYC:ADM0:56145704B89763856057018","name":"Seychelles","countryCode":"SYC","adminLevel":0,"sourceCode":"56145704B89763856057018","parentId":"SYC:ADM1:SYC-5204"},"geometry":{"type":"MultiPolygon","coordinates":[[[[46.49307,-9.753],[46.49161,-9.74036],[46.50847,-9.72705],[46.50758,-9.73187],[46.50066,-9.74652],[46.49338,-9.75298],[46.49307,-9.753]]],[[[47.51228,-9.70444],[47.513,-9.70441],[47.50733,-9.71307],[47.50733,-9.70902],[47.51228,-9.70444]]],[[[56.26948,-7.15527],[56.2586,-7.1742],[56.28057,-7.11376],[56.28745,-7.11004],[56.28297,-7.13193],[56.275,-7.14836],[56.26948,-7.15527]]],[[[46.23795,-9.44779],[46.23713,-9.45092],[46.23921,-9.4521],[46.23439,-9.45233],[46.2291,-9.43926],[46.23795,-9.44779]]],[[[46.49017,-9.38298],[46.50688,-9.39088],[46.47443,-9.41529],[46.47105,-9.4132],[46.4648,-9.38838],[46.46018,-9.38678],[46.46099,-9.38952],[46.45838,-9.38929],[46.45873,-9.38393],[46.44664,-9.37942],[46.4466,-9.37934],[46.44776,-9.37811],[46.45769,-9.38299],[46.46876,-9.38551],[46.46876,-9.37884],[46.49017,-9.38298]]],[[[46.42784,-9.41932],[46.44655,-9.42052],[46.45751,-9.41514],[46.46722,-9.41955],[46.4546,-9.42645],[46.42734,-9.42576],[46.42784,-9.41932]]],[[[46.21406,-9.39839],[46.2133,-9.40019],[46.21228,-9.39765],[46.21406,-9.39839]]],[[[46.21457,-9.39582],[46.21203,-9.39704],[46.20737,-9.38551],[46.217,-9.39725],[46.21457,-9.39582]]],[[[46.4221,-9.38654],[46.42209,-9.38654],[46.4221,-9.38653],[46.4221,-9.38654]]],[[[46.4273,-9.38334],[46.42701,-9.38322],[46.42741,-9.38295],[46.4273,-9.38334]]],[[[46.43505,-9.38186],[46.43111,-9.38045],[46.43458,-9.37811],[46.43624,-9.38009],[46.43505,-9.38186]]],[[[55.94884,-4.58923],[55.94845,-4.59156],[55.9449,-4.59274],[55.94441,-4.59272],[55.93907,-4.59225],[55.93726,-4.59045],[55.93278,-4.58436],[55.93257,-4.58284],[55.94065,-4.57883],[55.94099,-4.57893],[55.94767,-4.58422],[55.94838,-4.58515],[55.94708,-4.58656],[55.94862,-4.58546],[55.94939,-4.58646],[55.94978,-4.58882],[55.94884,-4.58923]]],[[[55.22963,-4.46381],[55.24394,-4.47109],[55.25074,-4.48367],[55.25536,-4.484],[55.25592,-4.48983],[55.25183,-4.49221],[55.24926,-4.50244],[55.24195,-4.504],[55.22804,-4.48748],[55.22184,-4.46493],[55.22963,-4.46381]]],[[[55.52599,-4.73091],[55.52748,-4.7319],[55.52783,-4.73476],[55.51832,-4.73979],[55.51563,-4.75297],[55.52502,-4.77214],[55.52389,-4.78357],[55.53491,-4.79089],[55.53786,-4.80352],[55.53742,-4.80377],[55.53259,-4.80377],[55.52441,-4.80117],[55.52036,-4.80366],[55.52043,-4.80377],[55.51966,-4.80377],[55.51472,-4.80122],[55.51437,-4.80065],[55.50981,-4.79869],[55.50421,-4.79581],[55.50126,-4.79064],[55.50053,-4.78525],[55.49715,-4.78344],[55.49299,-4.77616],[55.49369,-4.7742],[55.49095,-4.77248],[55.48689,-4.76211],[55.48478,-4.76133],[55.48171,-4.7571],[55.47409,-4.75767],[55.47028,-4.76316],[55.46349,-4.75977],[55.46817,-4.74151],[55.48478,-4.7416],[55.48498,-4.74144],[55.48526,-4.74144],[55.49099,-4.73733],[55.49091,-4.73688],[55.49158,-4.73636],[55.49052,-4.73494],[55.48985,-4.7315],[55.48528,-4.72782],[55.48502,-4.72747],[55.48034,-4.72138],[55.48142,-4.71489],[55.48223,-4.71317],[55.47985,-4.70709],[55.47384,-4.70377],[55.4734,-4.70597],[55.46817,-4.70547],[55.45834,-4.69096],[55.45655,-4.68845],[55.45683,-4.68629],[55.45459,-4.68571],[55.45022,-4.67959],[55.45011,-4.6791],[55.44977,-4.67897],[55.44898,-4.67785],[55.44635,-4.67758],[55.44235,-4.67596],[55.43881,-4.6768],[55.43541,-4.67645],[55.41809,-4.66615],[55.41706,-4.66553],[55.40255,-4.6505],[55.4037,-4.65433],[55.40999,-4.65885],[55.40455,-4.65967],[55.40435,-4.66062],[55.4017,-4.66053],[55.39443,-4.65786],[55.39487,-4.65408],[55.39789,-4.65333],[55.40008,-4.65294],[55.39998,-4.65281],[55.40027,-4.65274],[55.39878,-4.65137],[55.39753,-4.64984],[55.39693,-4.64965],[55.3956,-4.64843],[55.38487,-4.64468],[55.38636,-4.64799],[55.37966,-4.64948],[55.37321,-4.64751],[55.36566,-4.64263],[55.36726,-4.63926],[55.36829,-4.63936],[55.37937,-4.64324],[55.38085,-4.63966],[55.37474,-4.63269],[55.38124,-4.62645],[55.38569,-4.62617],[55.38544,-4.6228],[55.39073,-4.61994],[55.42232,-4.6158],[55.42907,-4.61199],[55.43158,-4.60779],[55.43278,-4.58651],[55.43434,-4.57952],[55.43387,-4.56712],[55.43414,-4.56242],[55.43981,-4.56075],[55.44728,-4.56448],[55.45042,-4.56239],[55.45726,-4.56678],[55.46515,-4.5802],[55.46615,-4.58427],[55.46135,-4.58574],[55.45656,-4.5941],[55.45994,-4.60251],[55.45994,-4.60634],[55.45823,-4.6077],[55.45659,-4.62198],[55.45773,-4.61764],[55.46036,-4.62041],[55.46143,-4.62204],[55.45528,-4.62465],[55.45687,-4.62513],[55.45668,-4.6258],[55.45875,-4.62569],[55.46639,-4.62798],[55.4633,-4.63317],[55.46544,-4.63082],[55.46957,-4.63207],[55.47133,-4.63433],[55.47187,-4.64059],[55.4664,-4.63982],[55.47491,-4.6501],[55.48329,-4.65688],[55.48599,-4.65567],[55.47167,-4.64416],[55.47213,-4.64081],[55.48001,-4.64918],[55.49018,-4.65313],[55.48904,-4.65095],[55.49105,-4.65239],[55.4907,-4.65664],[55.49369,-4.65489],[55.50049,-4.66102],[55.49946,-4.66344],[55.49545,-4.66224],[55.49919,-4.66807],[55.50159,-4.66455],[55.50718,-4.66789],[55.50933,-4.66472],[55.52168,-4.67332],[55.52855,-4.68019],[55.52513,-4.69365],[55.52158,-4.70113],[55.52219,-4.70524],[55.52153,-4.70781],[55.52289,-4.71002],[55.52599,-4.73091]]],[[[55.50248,-4.63989],[55.49853,-4.63848],[55.49561,-4.63571],[55.493,-4.63467],[55.49193,-4.63377],[55.49183,-4.63224],[55.49373,-4.62827],[55.49819,-4.62882],[55.49969,-4.62988],[55.50101,-4.62916],[55.50238,-4.62933],[55.50606,-4.63592],[55.50348,-4.63986],[55.50264,-4.63994],[55.50248,-4.63989]]],[[[55.49666,-4.61394],[55.49634,-4.61179],[55.49736,-4.60654],[55.49678,-4.60303],[55.49753,-4.60161],[55.49936,-4.59971],[55.4994,-4.59968],[55.50374,-4.59838],[55.51266,-4.60097],[55.51301,-4.6036],[55.51253,-4.60464],[55.50937,-4.60895],[55.50929,-4.60903],[55.50276,-4.61164],[55.50201,-4.61215],[55.49666,-4.61394]]],[[[55.8811,-4.33759],[55.87868,-4.3382],[55.87347,-4.33262],[55.86678,-4.32332],[55.86864,-4.31737],[55.87347,-4.31849],[55.87985,-4.32536],[55.8841,-4.33393],[55.88443,-4.33569],[55.8811,-4.33759]]],[[[55.8292,-4.3746],[55.82421,-4.36286],[55.82496,-4.35578],[55.82848,-4.34749],[55.83094,-4.3401],[55.83209,-4.33757],[55.8352,-4.33889],[55.84408,-4.3452],[55.85646,-4.36477],[55.85166,-4.36547],[55.85177,-4.36764],[55.85042,-4.36832],[55.84438,-4.374],[55.8429,-4.37486],[55.84104,-4.3827],[55.83763,-4.3818],[55.83352,-4.38006],[55.83042,-4.37695],[55.8292,-4.3746]]],[[[55.66414,-3.80718],[55.65994,-3.80203],[55.66248,-3.80047],[55.66586,-3.81178],[55.66423,-3.81176],[55.66414,-3.80718]]],[[[55.7219,-4.31145],[55.73378,-4.30972],[55.73424,-4.30919],[55.74014,-4.31025],[55.74126,-4.31243],[55.75247,-4.3186],[55.75448,-4.32109],[55.75586,-4.32048],[55.75724,-4.32123],[55.76138,-4.32074],[55.76349,-4.31709],[55.76452,-4.31663],[55.77716,-4.31849],[55.77803,-4.31955],[55.7803,-4.32606],[55.7868,-4.3303],[55.78704,-4.33059],[55.77374,-4.3312],[55.77259,-4.32723],[55.76285,-4.32949],[55.7589,-4.33944],[55.76356,-4.33979],[55.76509,-4.34487],[55.76171,-4.34532],[55.75906,-4.33982],[55.7582,-4.3422],[55.76092,-4.3468],[55.7645,-4.34746],[55.76694,-4.3454],[55.76556,-4.34768],[55.768,-4.35003],[55.76799,-4.35029],[55.76226,-4.35555],[55.76046,-4.35549],[55.76039,-4.35727],[55.75912,-4.35843],[55.75003,-4.35819],[55.74176,-4.3515],[55.73052,-4.34995],[55.72332,-4.34255],[55.72202,-4.33972],[55.72194,-4.33562],[55.71771,-4.33029],[55.71764,-4.33012],[55.71757,-4.3301],[55.71635,-4.32856],[55.69206,-4.3257],[55.688,-4.32229],[55.68466,-4.31895],[55.68373,-4.30941],[55.68137,-4.30604],[55.6781,-4.29853],[55.68157,-4.29484],[55.68732,-4.29278],[55.70009,-4.29528],[55.70248,-4.29209],[55.70122,-4.29037],[55.70427,-4.29024],[55.70458,-4.29036],[55.714,-4.29897],[55.7219,-4.31145]]],[[[55.73364,-4.27892],[55.74291,-4.27848],[55.74236,-4.28024],[55.73872,-4.28309],[55.73765,-4.28316],[55.73217,-4.28316],[55.73224,-4.28353],[55.72805,-4.28381],[55.72935,-4.28894],[55.73326,-4.28918],[55.73036,-4.29158],[55.72073,-4.28827],[55.71263,-4.28086],[55.7181,-4.27684],[55.72122,-4.27684],[55.73364,-4.27892]]]]}}],"admin1":{"type":"FeatureCollection","features":[{"type":"Feature","properties":{"id":"SYC:ADM1:SYC-5204","name":"Baie Sainte Anne","countryCode":"SYC"},"geometry":{"type":"MultiPolygon","coordinates":[[[[46.50066,-9.74652],[46.49338,-9.75298],[46.49307,-9.753],[46.49161,-9.74036],[46.50847,-9.72705],[46.50758,-9.73187],[46.50066,-9.74652]]],[[[47.51228,-9.70444],[47.513,-9.70441],[47.50733,-9.71307],[47.50733,-9.70902],[47.51228,-9.70444]]],[[[46.2291,-9.43926],[46.23795,-9.44779],[46.23713,-9.45092],[46.23921,-9.4521],[46.23439,-9.45233],[46.2291,-9.43926]]],[[[46.42734,-9.42576],[46.42784,-9.41932],[46.44655,-9.42052],[46.45751,-9.41514],[46.46722,-9.41955],[46.4546,-9.42645],[46.42734,-9.42576]]],[[[46.21228,-9.39765],[46.21406,-9.39839],[46.2133,-9.40019],[46.21228,-9.39765]]],[[[46.4648,-9.38838],[46.46018,-9.38678],[46.46099,-9.38952],[46.45838,-9.38929],[46.45873,-9.38393],[46.44664,-9.37942],[46.4466,-9.37934],[46.44776,-9.37811],[46.45769,-9.38299],[46.46876,-9.38551],[46.46876,-9.37884],[46.49017,-9.38298],[46.50688,-9.39088],[46.47443,-9.41529],[46.47105,-9.4132],[46.4648,-9.38838]]],[[[46.21457,-9.39582],[46.21203,-9.39704],[46.20737,-9.38551],[46.217,-9.39725],[46.21457,-9.39582]]],[[[46.42209,-9.38654],[46.4221,-9.38653],[46.4221,-9.38654],[46.42209,-9.38654]]],[[[46.42741,-9.38295],[46.4273,-9.38334],[46.42701,-9.38322],[46.42741,-9.38295]]],[[[46.43111,-9.38045],[46.43458,-9.37811],[46.43624,-9.38009],[46.43505,-9.38186],[46.43111,-9.38045]]],[[[55.25592,-4.48983],[55.25183,-4.49221],[55.24926,-4.50244],[55.24195,-4.504],[55.22804,-4.48748],[55.22184,-4.46493],[55.22963,-4.46381],[55.24394,-4.47109],[55.25074,-4.48367],[55.25536,-4.484],[55.25592,-4.48983]]],[[[56.28297,-7.13193],[56.275,-7.14836],[56.26948,-7.15527],[56.2586,-7.1742],[56.28057,-7.11376],[56.28745,-7.11004],[56.28297,-7.13193]]],[[[55.51563,-4.75297],[55.52502,-4.77214],[55.52389,-4.78357],[55.53491,-4.79089],[55.53786,-4.80352],[55.53742,-4.80377],[55.53259,-4.80377],[55.52441,-4.80117],[55.52036,-4.80366],[55.52043,-4.80377],[55.51966,-4.80377],[55.51472,-4.80122],[55.51437,-4.80065],[55.50981,-4.79869],[55.50421,-4.79581],[55.50126,-4.79064],[55.50053,-4.78525],[55.49715,-4.78344],[55.49299,-4.77616],[55.49369,-4.7742],[55.49095,-4.77248],[55.48689,-4.76211],[55.48478,-4.76133],[55.48171,-4.7571],[55.47409,-4.75767],[55.47028,-4.76316],[55.46349,-4.75977],[55.46817,-4.74151],[55.48478,-4.7416],[55.48498,-4.74144],[55.48526,-4.74144],[55.49099,-4.73733],[55.49091,-4.73688],[55.49158,-4.73636],[55.49052,-4.73494],[55.48985,-4.7315],[55.48528,-4.72782],[55.48502,-4.72747],[55.48034,-4.72138],[55.48142,-4.71489],[55.48223,-4.71317],[55.47985,-4.70709],[55.47384,-4.70377],[55.4734,-4.70597],[55.46817,-4.70547],[55.45834,-4.69096],[55.45655,-4.68845],[55.45683,-4.68629],[55.45459,-4.68571],[55.45022,-4.67959],[55.45011,-4.6791],[55.44977,-4.67897],[55.44898,-4.67785],[55.44635,-4.67758],[55.44235,-4.67596],[55.43881,-4.6768],[55.43541,-4.67645],[55.41809,-4.66615],[55.41706,-4.66553],[55.40255,-4.6505],[55.4037,-4.65433],[55.40999,-4.65885],[55.40455,-4.65967],[55.40435,-4.66062],[55.4017,-4.66053],[55.39443,-4.65786],[55.39487,-4.65408],[55.39789,-4.65333],[55.40008,-4.65294],[55.39998,-4.65281],[55.40027,-4.65274],[55.39878,-4.65137],[55.39753,-4.64984],[55.39693,-4.64965],[55.3956,-4.64843],[55.38487,-4.64468],[55.38636,-4.64799],[55.37966,-4.64948],[55.37321,-4.64751],[55.36566,-4.64263],[55.36726,-4.63926],[55.36829,-4.63936],[55.37937,-4.64324],[55.38085,-4.63966],[55.37474,-4.63269],[55.38124,-4.62645],[55.38569,-4.62617],[55.38544,-4.6228],[55.39073,-4.61994],[55.42232,-4.6158],[55.42907,-4.61199],[55.43158,-4.60779],[55.43278,-4.58651],[55.43434,-4.57952],[55.43387,-4.56712],[55.43414,-4.56242],[55.43981,-4.56075],[55.44728,-4.56448],[55.45042,-4.56239],[55.45726,-4.56678],[55.46515,-4.5802],[55.46615,-4.58427],[55.46135,-4.58574],[55.45656,-4.5941],[55.45994,-4.60251],[55.45994,-4.60634],[55.45823,-4.6077],[55.45659,-4.62198],[55.45773,-4.61764],[55.46036,-4.62041],[55.46143,-4.62204],[55.45528,-4.62465],[55.45687,-4.62513],[55.45668,-4.6258],[55.45875,-4.62569],[55.46639,-4.62798],[55.4633,-4.63317],[55.46544,-4.63082],[55.46957,-4.63207],[55.47133,-4.63433],[55.47187,-4.64059],[55.4664,-4.63982],[55.47491,-4.6501],[55.48329,-4.65688],[55.48599,-4.65567],[55.47167,-4.64416],[55.47213,-4.64081],[55.48001,-4.64918],[55.49018,-4.65313],[55.48904,-4.65095],[55.49105,-4.65239],[55.4907,-4.65664],[55.49369,-4.65489],[55.50049,-4.66102],[55.49946,-4.66344],[55.49545,-4.66224],[55.49919,-4.66807],[55.50159,-4.66455],[55.50718,-4.66789],[55.50933,-4.66472],[55.52168,-4.67332],[55.52855,-4.68019],[55.52513,-4.69365],[55.52158,-4.70113],[55.52219,-4.70524],[55.52153,-4.70781],[55.52289,-4.71002],[55.52599,-4.73091],[55.52748,-4.7319],[55.52783,-4.73476],[55.51832,-4.73979],[55.51563,-4.75297]]],[[[55.49183,-4.63224],[55.49373,-4.62827],[55.49819,-4.62882],[55.49969,-4.62988],[55.50101,-4.62916],[55.50238,-4.62933],[55.50606,-4.63592],[55.50348,-4.63986],[55.50264,-4.63994],[55.50248,-4.63989],[55.49853,-4.63848],[55.49561,-4.63571],[55.493,-4.63467],[55.49193,-4.63377],[55.49183,-4.63224]]],[[[55.49936,-4.59971],[55.4994,-4.59968],[55.50374,-4.59838],[55.51266,-4.60097],[55.51301,-4.6036],[55.51253,-4.60464],[55.50937,-4.60895],[55.50929,-4.60903],[55.50276,-4.61164],[55.50201,-4.61215],[55.49666,-4.61394],[55.49634,-4.61179],[55.49736,-4.60654],[55.49678,-4.60303],[55.49753,-4.60161],[55.49936,-4.59971]]],[[[55.93907,-4.59225],[55.93726,-4.59045],[55.93278,-4.58436],[55.93257,-4.58284],[55.94065,-4.57883],[55.94099,-4.57893],[55.94767,-4.58422],[55.94838,-4.58515],[55.94708,-4.58656],[55.94862,-4.58546],[55.94939,-4.58646],[55.94978,-4.58882],[55.94884,-4.58923],[55.94845,-4.59156],[55.9449,-4.59274],[55.94441,-4.59272],[55.93907,-4.59225]]],[[[55.83209,-4.33757],[55.8352,-4.33889],[55.84408,-4.3452],[55.85646,-4.36477],[55.85166,-4.36547],[55.85177,-4.36764],[55.85042,-4.36832],[55.84438,-4.374],[55.8429,-4.37486],[55.84104,-4.3827],[55.83763,-4.3818],[55.83352,-4.38006],[55.83042,-4.37695],[55.8292,-4.3746],[55.82421,-4.36286],[55.82496,-4.35578],[55.82848,-4.34749],[55.83094,-4.3401],[55.83209,-4.33757]]],[[[55.87347,-4.31849],[55.87985,-4.32536],[55.8841,-4.33393],[55.88443,-4.33569],[55.8811,-4.33759],[55.87868,-4.3382],[55.87347,-4.33262],[55.86678,-4.32332],[55.86864,-4.31737],[55.87347,-4.31849]]],[[[55.74126,-4.31243],[55.75247,-4.3186],[55.75448,-4.32109],[55.75586,-4.32048],[55.75724,-4.32123],[55.76138,-4.32074],[55.76349,-4.31709],[55.76452,-4.31663],[55.77716,-4.31849],[55.77803,-4.31955],[55.7803,-4.32606],[55.7868,-4.3303],[55.78704,-4.33059],[55.77374,-4.3312],[55.77259,-4.32723],[55.76285,-4.32949],[55.7589,-4.33944],[55.76356,-4.33979],[55.76509,-4.34487],[55.76171,-4.34532],[55.75906,-4.33982],[55.7582,-4.3422],[55.76092,-4.3468],[55.7645,-4.34746],[55.76694,-4.3454],[55.76556,-4.34768],[55.768,-4.35003],[55.76799,-4.35029],[55.76226,-4.35555],[55.76046,-4.35549],[55.76039,-4.35727],[55.75912,-4.35843],[55.75003,-4.35819],[55.74176,-4.3515],[55.73052,-4.34995],[55.72332,-4.34255],[55.72202,-4.33972],[55.72194,-4.33562],[55.71771,-4.33029],[55.71764,-4.33012],[55.71757,-4.3301],[55.71635,-4.32856],[55.69206,-4.3257],[55.688,-4.32229],[55.68466,-4.31895],[55.68373,-4.30941],[55.68137,-4.30604],[55.6781,-4.29853],[55.68157,-4.29484],[55.68732,-4.29278],[55.70009,-4.29528],[55.70248,-4.29209],[55.70122,-4.29037],[55.70427,-4.29024],[55.70458,-4.29036],[55.714,-4.29897],[55.7219,-4.31145],[55.73378,-4.30972],[55.73424,-4.30919],[55.74014,-4.31025],[55.74126,-4.31243]]],[[[55.73217,-4.28316],[55.73224,-4.28353],[55.72805,-4.28381],[55.72935,-4.28894],[55.73326,-4.28918],[55.73036,-4.29158],[55.72073,-4.28827],[55.71263,-4.28086],[55.7181,-4.27684],[55.72122,-4.27684],[55.73364,-4.27892],[55.74291,-4.27848],[55.74236,-4.28024],[55.73872,-4.28309],[55.73765,-4.28316],[55.73217,-4.28316]]],[[[55.66414,-3.80718],[55.65994,-3.80203],[55.66248,-3.80047],[55.66586,-3.81178],[55.66423,-3.81176],[55.66414,-3.80718]]]]}}]}}
