{"type":"FeatureCollection","features":[{"type":"Feature","properties":{"id":"TCA:ADM0:98428071B41708065111777","name":"Turks and Caicos","countryCode":"TCA","adminLevel":0,"sourceCode":"98428071B41708065111777","parentId":"TCA:ADM1:TCA-5003"},"geometry":{"type":"MultiPolygon","coordinates":[[[[-71.63649,21.29996],[-71.63705,21.29776],[-71.63765,21.29857],[-71.63649,21.29996]]],[[[-71.67436,21.30605],[-71.67862,21.2989],[-71.68615,21.29506],[-71.68857,21.29439],[-71.68983,21.29565],[-71.69396,21.29521],[-71.69057,21.29472],[-71.69256,21.29255],[-71.6867,21.29478],[-71.69587,21.29011],[-71.69909,21.29194],[-71.68782,21.29979],[-71.68033,21.30443],[-71.67559,21.30603],[-71.67436,21.30605]],[[-71.69551,21.29286],[-71.69564,21.29126],[-71.69315,21.29286],[-71.69551,21.29286]]],[[[-71.63516,21.30549],[-71.63195,21.31737],[-71.63408,21.31897],[-71.63087,21.31888],[-71.63164,21.32152],[-71.62893,21.32425],[-71.62881,21.32416],[-71.62851,21.31681],[-71.62851,21.31681],[-71.62851,21.3168],[-71.62825,21.31025],[-71.63467,21.2945],[-71.63517,21.29518],[-71.63543,21.30163],[-71.63896,21.30036],[-71.64036,21.30228],[-71.63516,21.30549]]],[[[-71.20675,21.3387],[-71.19879,21.34004],[-71.19249,21.33503],[-71.20124,21.32306],[-71.20239,21.32192],[-71.20309,21.32198],[-71.20291,21.32139],[-71.20654,21.31777],[-71.20868,21.31758],[-71.20866,21.31564],[-71.20976,21.31454],[-71.21052,21.31609],[-71.21204,21.31295],[-71.21114,21.31317],[-71.21224,21.31207],[-71.21358,21.31241],[-71.21383,21.31071],[-71.21772,21.31334],[-71.21323,21.33483],[-71.21041,21.34026],[-71.20675,21.3387]],[[-71.21323,21.33005],[-71.21454,21.32172],[-71.20531,21.32651],[-71.20469,21.33167],[-71.20861,21.33157],[-71.21323,21.33005]]],[[[-71.13828,21.50673],[-71.1427,21.49845],[-71.13927,21.47828],[-71.13587,21.49225],[-71.13686,21.50923],[-71.13616,21.50975],[-71.13065,21.49869],[-71.13116,21.47235],[-71.12994,21.46652],[-71.13362,21.44648],[-71.14489,21.43163],[-71.15112,21.44903],[-71.15106,21.44913],[-71.1512,21.44924],[-71.15168,21.45059],[-71.15162,21.45272],[-71.14642,21.46484],[-71.14852,21.48286],[-71.1455,21.49506],[-71.14099,21.50635],[-71.13828,21.50673]],[[-71.14757,21.48238],[-71.14723,21.47406],[-71.14579,21.47915],[-71.14757,21.48238]],[[-71.13951,21.47013],[-71.14471,21.47064],[-71.14526,21.46341],[-71.14437,21.46876],[-71.1352,21.46548],[-71.13638,21.47435],[-71.14162,21.47303],[-71.13951,21.47013]],[[-71.13777,21.45164],[-71.13593,21.45128],[-71.13738,21.45316],[-71.13777,21.45164]]],[[[-71.51161,21.52537],[-71.51065,21.5166],[-71.504,21.51309],[-71.49935,21.53656],[-71.50011,21.54004],[-71.50835,21.54157],[-71.50548,21.54792],[-71.50172,21.54802],[-71.50818,21.5494],[-71.49754,21.56723],[-71.49625,21.56342],[-71.49668,21.54799],[-71.4969,21.54737],[-71.49698,21.53731],[-71.49718,21.53026],[-71.49706,21.5271],[-71.49709,21.52414],[-71.49692,21.52315],[-71.49633,21.50739],[-71.50426,21.49404],[-71.51346,21.49145],[-71.51463,21.49227],[-71.51874,21.48996],[-71.52098,21.48933],[-71.53759,21.49946],[-71.53778,21.50099],[-71.53679,21.50051],[-71.53734,21.50377],[-71.53816,21.5041],[-71.5397,21.51655],[-71.52811,21.52413],[-71.52455,21.52222],[-71.52016,21.52329],[-71.51574,21.52269],[-71.51246,21.52516],[-71.51161,21.52537]],[[-71.52435,21.51204],[-71.52974,21.51193],[-71.52655,21.51004],[-71.52642,21.51161],[-71.52435,21.51204]],[[-71.50494,21.50963],[-71.50284,21.50707],[-71.503,21.51107],[-71.50494,21.50963]],[[-71.52604,21.5064],[-71.52909,21.50963],[-71.53075,21.50752],[-71.52898,21.50599],[-71.52604,21.5064]],[[-71.53175,21.51358],[-71.53243,21.51074],[-71.53082,21.50973],[-71.53175,21.51358]],[[-71.52647,21.49876],[-71.51523,21.50042],[-71.51511,21.49533],[-71.51133,21.49881],[-71.51243,21.50471],[-71.52646,21.50447],[-71.52647,21.49876]],[[-71.5231,21.4981],[-71.52617,21.49843],[-71.52848,21.49425],[-71.52556,21.4936],[-71.52398,21.49544],[-71.5231,21.4981]]],[[[-72.4603,21.69911],[-72.44984,21.70183],[-72.44516,21.70757],[-72.43342,21.70922],[-72.43338,21.70185],[-72.43848,21.69047],[-72.44561,21.65697],[-72.45202,21.64496],[-72.45413,21.64391],[-72.45143,21.64786],[-72.44963,21.65909],[-72.45325,21.65404],[-72.45206,21.64944],[-72.45472,21.64361],[-72.48131,21.63032],[-72.48131,21.63077],[-72.4765,21.64102],[-72.4702,21.64688],[-72.46427,21.66256],[-72.46444,21.66199],[-72.46455,21.65356],[-72.4608,21.64672],[-72.45232,21.67768],[-72.45546,21.6773],[-72.45616,21.67367],[-72.46065,21.67459],[-72.46321,21.66609],[-72.46044,21.68602],[-72.46065,21.69872],[-72.4603,21.69911]],[[-72.44266,21.69325],[-72.44018,21.69648],[-72.44159,21.6951],[-72.44266,21.69325]],[[-72.44736,21.67664],[-72.44178,21.68538],[-72.44346,21.68709],[-72.44736,21.67664]],[[-72.44831,21.66041],[-72.44768,21.66446],[-72.44828,21.66355],[-72.44831,21.66041]],[[-72.46583,21.64248],[-72.46647,21.6409],[-72.46489,21.64195],[-72.46583,21.64248]],[[-72.45327,21.68202],[-72.45681,21.68211],[-72.45618,21.67959],[-72.45426,21.68002],[-72.45327,21.68202]]],[[[-71.46177,21.70013],[-71.46565,21.69069],[-71.46314,21.66936],[-71.46425,21.66354],[-71.47126,21.66218],[-71.48534,21.67544],[-71.50796,21.70539],[-71.52445,21.71487],[-71.52437,21.71527],[-71.5252,21.7153],[-71.52892,21.71743],[-71.57323,21.7353],[-71.59057,21.75381],[-71.58593,21.75682],[-71.58296,21.75793],[-71.58333,21.75447],[-71.57371,21.74549],[-71.57246,21.74719],[-71.58235,21.75815],[-71.58178,21.75837],[-71.58126,21.75877],[-71.57434,21.74987],[-71.53122,21.72384],[-71.51937,21.72249],[-71.51695,21.72487],[-71.50643,21.72069],[-71.47825,21.71706],[-71.47328,21.71863],[-71.47307,21.71947],[-71.46856,21.71602],[-71.46177,21.70013]],[[-71.53293,21.7216],[-71.53185,21.71997],[-71.52894,21.72062],[-71.53293,21.7216]],[[-71.54591,21.73073],[-71.55217,21.73064],[-71.54959,21.72811],[-71.54591,21.73073]],[[-71.5587,21.73514],[-71.55934,21.73722],[-71.55861,21.73467],[-71.55574,21.73396],[-71.5587,21.73514]],[[-71.56714,21.74268],[-71.56815,21.74418],[-71.56953,21.74353],[-71.56869,21.74244],[-71.56714,21.74268]],[[-71.51154,21.7125],[-71.51034,21.71286],[-71.51211,21.71401],[-71.51154,21.7125]],[[-71.48259,21.71168],[-71.48486,21.71283],[-71.48442,21.71189],[-71.48259,21.71168]],[[-71.47908,21.71052],[-71.48125,21.71112],[-71.48096,21.71023],[-71.47908,21.71052]],[[-71.5042,21.70658],[-71.50882,21.70915],[-71.50806,21.70736],[-71.5042,21.70658]],[[-71.50088,21.70825],[-71.50218,21.70805],[-71.50186,21.70686],[-71.50088,21.70825]],[[-71.48235,21.70057],[-71.47982,21.69956],[-71.48205,21.70206],[-71.48235,21.70057]],[[-71.47095,21.69015],[-71.4734,21.68244],[-71.46924,21.68009],[-71.46813,21.68102],[-71.46987,21.68674],[-71.47095,21.69015]],[[-71.47072,21.66675],[-71.4716,21.66885],[-71.47301,21.66868],[-71.47072,21.66675]]],[[[-71.65134,21.75394],[-71.65456,21.75851],[-71.65289,21.76074],[-71.64912,21.75653],[-71.64748,21.75233],[-71.65134,21.75394]]],[[[-72.20095,21.77235],[-72.19832,21.77072],[-72.19932,21.76757],[-72.20287,21.76805],[-72.20095,21.77235]]],[[[-72.24596,21.77387],[-72.24388,21.77452],[-72.24439,21.77353],[-72.24493,21.77312],[-72.24596,21.77387]]],[[[-72.32073,21.77945],[-72.32403,21.77928],[-72.32303,21.78053],[-72.32224,21.78029],[-72.32073,21.77945]]],[[[-72.31484,21.77824],[-72.31701,21.78336],[-72.31649,21.78531],[-72.31662,21.78321],[-72.31484,21.77824]]],[[[-71.66678,21.77567],[-71.66952,21.77744],[-71.66922,21.77428],[-71.67301,21.7822],[-71.67078,21.78397],[-71.66678,21.77567]]],[[[-71.66357,21.77706],[-71.66036,21.77662],[-71.66193,21.77468],[-71.65669,21.77132],[-71.65963,21.77627],[-71.65848,21.77619],[-71.6557,21.77105],[-71.65468,21.76342],[-71.66633,21.77486],[-71.66753,21.79294],[-71.66694,21.79183],[-71.66357,21.77706]]],[[[-71.66863,21.79497],[-71.66841,21.79456],[-71.66876,21.79354],[-71.66952,21.79438],[-71.66863,21.79497]]],[[[-71.87354,21.83924],[-71.86928,21.84111],[-71.86307,21.83894],[-71.86898,21.83453],[-71.87354,21.83924]]],[[[-71.87456,21.83365],[-71.86963,21.83404],[-71.87424,21.8306],[-71.87456,21.83365]]],[[[-71.94786,21.95488],[-71.92005,21.94674],[-71.91218,21.942],[-71.92395,21.94639],[-71.91735,21.93597],[-71.92071,21.92886],[-71.92088,21.90865],[-71.91552,21.88041],[-71.9096,21.86624],[-71.89928,21.85275],[-71.88564,21.84207],[-71.87447,21.83784],[-71.88431,21.83297],[-71.88198,21.82937],[-71.87896,21.83145],[-71.8761,21.82921],[-71.87731,21.82831],[-71.89464,21.83218],[-71.90966,21.84317],[-71.92268,21.84935],[-71.93106,21.85187],[-71.94298,21.85814],[-71.95425,21.86693],[-71.96052,21.8767],[-71.95922,21.8898],[-71.94384,21.91315],[-71.94001,21.92512],[-71.94758,21.94245],[-71.95505,21.93834],[-71.95443,21.94112],[-71.95837,21.94482],[-71.96504,21.93982],[-71.96037,21.93542],[-71.96402,21.93342],[-71.96695,21.93026],[-71.96697,21.93027],[-71.96619,21.93611],[-71.96745,21.93027],[-71.96737,21.92982],[-71.98786,21.90778],[-71.99193,21.89989],[-72.00162,21.89777],[-72.01083,21.89948],[-72.01074,21.9],[-72.01121,21.89955],[-72.01301,21.89989],[-72.01473,21.9008],[-72.01459,21.90318],[-72.01595,21.90144],[-72.01692,21.90195],[-72.01529,21.90443],[-72.01761,21.90392],[-72.012,21.9053],[-72.02286,21.90665],[-72.02611,21.91401],[-72.02448,21.92377],[-72.02501,21.93256],[-72.03265,21.93679],[-72.03309,21.9375],[-72.03384,21.93746],[-72.03624,21.93879],[-72.03181,21.94648],[-72.02961,21.94859],[-72.02222,21.94708],[-72.01627,21.9507],[-72.01649,21.95533],[-72.01939,21.95588],[-72.01744,21.95694],[-72.00829,21.95922],[-71.98945,21.95922],[-71.9905,21.95766],[-71.99359,21.95722],[-71.99754,21.95353],[-71.99628,21.95255],[-71.99044,21.9572],[-71.9893,21.95922],[-71.97327,21.95922],[-71.94786,21.95488]],[[-71.99802,21.94676],[-71.99606,21.95189],[-71.99859,21.94969],[-72.01146,21.95138],[-72.00898,21.9459],[-72.00217,21.94325],[-71.99623,21.94531],[-71.99125,21.95327],[-71.99576,21.94631],[-71.99484,21.95048],[-71.99802,21.94676]],[[-71.97899,21.95475],[-71.98331,21.95872],[-71.97877,21.95225],[-71.97203,21.95434],[-71.97899,21.95475]],[[-71.92636,21.94681],[-71.93146,21.94862],[-71.92955,21.94768],[-71.92636,21.94681]],[[-71.93101,21.94697],[-71.92843,21.9455],[-71.92918,21.94676],[-71.93101,21.94697]],[[-72.0172,21.94347],[-72.01856,21.94293],[-72.0158,21.94186],[-72.0172,21.94347]],[[-72.01095,21.90018],[-72.01012,21.90242],[-72.01102,21.90141],[-72.01095,21.90018]],[[-72.01406,21.95444],[-72.01529,21.94813],[-72.01222,21.95151],[-72.01406,21.95444]]],[[[-72.01806,21.90353],[-72.01804,21.90254],[-72.01914,21.90312],[-72.01806,21.90353]]],[[[-72.02206,21.90521],[-72.0222,21.90514],[-72.02223,21.90521],[-72.02206,21.90521]]],[[[-72.02784,21.9503],[-72.02546,21.95258],[-72.02242,21.95423],[-72.02784,21.9503]]],[[[-72.13991,21.81749],[-72.14724,21.82237],[-72.1449,21.82637],[-72.13811,21.82269],[-72.13991,21.81749]]],[[[-71.84301,21.83501],[-71.84248,21.83597],[-71.84137,21.83491],[-71.84301,21.83501]]],[[[-71.69929,21.76675],[-71.70084,21.76179],[-71.71544,21.7873],[-71.7205,21.7888],[-71.71849,21.79099],[-71.71957,21.79797],[-71.72313,21.78958],[-71.74112,21.79491],[-71.80285,21.78791],[-71.82771,21.78579],[-71.83552,21.79149],[-71.84101,21.80159],[-71.83802,21.80928],[-71.83472,21.81024],[-71.84874,21.8295],[-71.84913,21.83497],[-71.84903,21.83508],[-71.8459,21.83002],[-71.84409,21.83454],[-71.84015,21.83379],[-71.84294,21.83747],[-71.84909,21.84001],[-71.84752,21.84376],[-71.84997,21.84676],[-71.85032,21.85154],[-71.83908,21.85271],[-71.83892,21.8549],[-71.83482,21.85404],[-71.82364,21.8412],[-71.80162,21.83174],[-71.78244,21.83241],[-71.76533,21.83739],[-71.7238,21.82773],[-71.71147,21.82777],[-71.70142,21.83172],[-71.70096,21.83716],[-71.68762,21.83065],[-71.67317,21.833],[-71.6701,21.82687],[-71.65856,21.81868],[-71.66017,21.81603],[-71.65335,21.79134],[-71.64342,21.77818],[-71.64806,21.77961],[-71.65905,21.79352],[-71.66485,21.80396],[-71.66362,21.80586],[-71.66545,21.80503],[-71.66769,21.80906],[-71.66719,21.81],[-71.66791,21.81167],[-71.66898,21.81075],[-71.67633,21.81881],[-71.67778,21.82293],[-71.67338,21.8265],[-71.67828,21.82378],[-71.6825,21.82496],[-71.68304,21.8293],[-71.68955,21.82963],[-71.68672,21.82624],[-71.68363,21.82732],[-71.68323,21.82489],[-71.67962,21.82319],[-71.68475,21.80549],[-71.68097,21.79669],[-71.67419,21.79189],[-71.67612,21.78124],[-71.6719,21.76794],[-71.66326,21.75983],[-71.66688,21.77104],[-71.65986,21.75564],[-71.64534,21.74684],[-71.64517,21.7464],[-71.6586,21.74388],[-71.66853,21.75043],[-71.67588,21.76041],[-71.67446,21.76278],[-71.67653,21.76128],[-71.68615,21.77432],[-71.69099,21.76585],[-71.69929,21.76675]],[[-71.71086,21.82021],[-71.71286,21.82373],[-71.71439,21.81942],[-71.7063,21.81954],[-71.70244,21.82184],[-71.69876,21.8257],[-71.71086,21.82021]],[[-71.69453,21.82889],[-71.68924,21.82669],[-71.69497,21.83022],[-71.69867,21.82579],[-71.69453,21.82889]],[[-71.77098,21.82633],[-71.77278,21.82589],[-71.77106,21.82498],[-71.77098,21.82633]],[[-71.83255,21.83123],[-71.82719,21.82928],[-71.82647,21.83557],[-71.81917,21.83638],[-71.82522,21.83764],[-71.83297,21.84717],[-71.83503,21.84673],[-71.83212,21.84609],[-71.83143,21.84132],[-71.82706,21.83882],[-71.82923,21.83562],[-71.83755,21.84331],[-71.83249,21.83402],[-71.83952,21.82463],[-71.837,21.826],[-71.83255,21.83123]],[[-71.72866,21.8212],[-71.72562,21.8204],[-71.73123,21.82477],[-71.72866,21.8212]],[[-71.74308,21.81885],[-71.73882,21.82247],[-71.74179,21.82328],[-71.74556,21.82157],[-71.74308,21.81885]],[[-71.69615,21.83298],[-71.69738,21.83213],[-71.69535,21.83163],[-71.69615,21.83298]],[[-71.76525,21.83552],[-71.76757,21.83442],[-71.76482,21.83379],[-71.76525,21.83552]],[[-71.68906,21.78223],[-71.68564,21.78241],[-71.68286,21.78564],[-71.68906,21.78223]],[[-71.68622,21.77817],[-71.68122,21.7817],[-71.68301,21.78119],[-71.68622,21.77817]],[[-71.65645,21.74842],[-71.65606,21.74997],[-71.6584,21.75073],[-71.6578,21.74908],[-71.65645,21.74842]]],[[[-71.67525,21.79951],[-71.67402,21.8075],[-71.67121,21.79975],[-71.67083,21.79903],[-71.67525,21.79951]]],[[[-71.842,21.80688],[-71.84386,21.80683],[-71.84438,21.80778],[-71.842,21.80688]]],[[[-71.84376,21.81424],[-71.84374,21.82094],[-71.83715,21.81327],[-71.84175,21.81468],[-71.84092,21.80981],[-71.84441,21.80788],[-71.84541,21.81108],[-71.84474,21.81106],[-71.84505,21.81227],[-71.84557,21.81159],[-71.84672,21.81527],[-71.84376,21.81424]],[[-71.84271,21.81365],[-71.84536,21.81452],[-71.84553,21.81323],[-71.84371,21.8129],[-71.84271,21.81365]]],[[[-72.11866,21.85682],[-72.11628,21.85375],[-72.12438,21.84687],[-72.13225,21.84757],[-72.11866,21.85682]]],[[[-72.32174,21.77549],[-72.32015,21.77875],[-72.32006,21.77645],[-72.31774,21.77667],[-72.31517,21.77183],[-72.31542,21.77082],[-72.31792,21.76869],[-72.32174,21.77549]],[[-72.31644,21.77396],[-72.3194,21.77612],[-72.31794,21.77354],[-72.31644,21.77396]]],[[[-72.25621,21.76574],[-72.25873,21.76276],[-72.27383,21.75141],[-72.27728,21.75094],[-72.27521,21.75831],[-72.27696,21.76281],[-72.27424,21.76362],[-72.27514,21.77432],[-72.28124,21.77961],[-72.31615,21.79483],[-72.31374,21.7847],[-72.3154,21.78587],[-72.3224,21.78661],[-72.32203,21.78238],[-72.32426,21.78456],[-72.32518,21.78077],[-72.3286,21.78047],[-72.32833,21.78136],[-72.32641,21.78115],[-72.32746,21.78253],[-72.32811,21.78212],[-72.32653,21.78742],[-72.31395,21.80907],[-72.30993,21.82209],[-72.318,21.81626],[-72.31988,21.81802],[-72.32501,21.81502],[-72.32045,21.82026],[-72.32659,21.81413],[-72.32663,21.81004],[-72.33141,21.80659],[-72.33723,21.80097],[-72.3402,21.81403],[-72.32974,21.8454],[-72.33043,21.86245],[-72.3303,21.86239],[-72.32039,21.85526],[-72.31653,21.84673],[-72.30215,21.83945],[-72.30207,21.83621],[-72.29183,21.82957],[-72.27214,21.80394],[-72.25494,21.78994],[-72.22925,21.78398],[-72.22548,21.78515],[-72.22988,21.78634],[-72.226,21.78865],[-72.21539,21.78377],[-72.20586,21.78465],[-72.18603,21.79787],[-72.17179,21.80097],[-72.15387,21.82531],[-72.15087,21.82604],[-72.14605,21.81647],[-72.12974,21.81029],[-72.14207,21.79911],[-72.14851,21.79802],[-72.16038,21.7779],[-72.1643,21.7888],[-72.16527,21.79483],[-72.19327,21.78115],[-72.18952,21.77993],[-72.18665,21.77935],[-72.18843,21.77864],[-72.19971,21.77833],[-72.20475,21.77269],[-72.21185,21.76927],[-72.21972,21.77033],[-72.22527,21.76899],[-72.22878,21.7703],[-72.22991,21.76788],[-72.23424,21.76683],[-72.23424,21.78115],[-72.24308,21.77451],[-72.24459,21.77523],[-72.24674,21.77366],[-72.24554,21.77606],[-72.25156,21.77498],[-72.24801,21.77081],[-72.25356,21.76664],[-72.25621,21.76574]],[[-72.27528,21.76211],[-72.27379,21.76108],[-72.27442,21.76316],[-72.27528,21.76211]],[[-72.27054,21.7692],[-72.27078,21.76555],[-72.26924,21.76682],[-72.27054,21.7692]],[[-72.15545,21.80419],[-72.15977,21.8019],[-72.15816,21.80205],[-72.15545,21.80419]],[[-72.15005,21.80659],[-72.15445,21.80449],[-72.15318,21.80472],[-72.15005,21.80659]],[[-72.32717,21.82188],[-72.32661,21.81925],[-72.32524,21.82018],[-72.32717,21.82188]],[[-72.32932,21.84951],[-72.32677,21.84825],[-72.3273,21.8494],[-72.32932,21.84951]]],[[[-72.33698,21.77507],[-72.33427,21.76979],[-72.33427,21.77619],[-72.3341,21.77619],[-72.33043,21.77432],[-72.32976,21.7766],[-72.32956,21.77639],[-72.32955,21.77727],[-72.32885,21.77964],[-72.32484,21.77319],[-72.32645,21.77165],[-72.32726,21.77414],[-72.32895,21.76907],[-72.32424,21.76907],[-72.32057,21.76643],[-72.32287,21.76447],[-72.3265,21.76695],[-72.32801,21.76259],[-72.33723,21.76],[-72.33795,21.7621],[-72.33593,21.76462],[-72.33728,21.76893],[-72.33959,21.76742],[-72.34,21.77123],[-72.33918,21.77546],[-72.33902,21.77593],[-72.33698,21.77507]]],[[[-72.28785,21.74948],[-72.29186,21.74893],[-72.2941,21.75399],[-72.28785,21.74948]]],[[[-72.19693,21.7685],[-72.19885,21.77245],[-72.19661,21.77181],[-72.19351,21.76738],[-72.19445,21.76691],[-72.1977,21.76735],[-72.19693,21.7685]]],[[[-72.19121,21.77229],[-72.18023,21.775],[-72.1796,21.77432],[-72.18089,21.77367],[-72.18094,21.7737],[-72.18097,21.77364],[-72.19142,21.76842],[-72.19121,21.77229]]],[[[-72.09928,21.87283],[-72.09813,21.87715],[-72.0948,21.88251],[-72.08951,21.88544],[-72.08703,21.88093],[-72.08707,21.87275],[-72.09301,21.86717],[-72.09968,21.86457],[-72.10126,21.87054],[-72.09928,21.87283]]],[[[-71.91074,21.91409],[-71.91064,21.91532],[-71.9105,21.91434],[-71.91074,21.91409]]],[[[-71.90927,21.94214],[-71.90923,21.94214],[-71.90919,21.94198],[-71.90927,21.94214]]],[[[-71.91834,21.92583],[-71.91675,21.92771],[-71.91705,21.92632],[-71.91834,21.92583]]],[[[-71.91936,21.91959],[-71.91705,21.92632],[-71.91601,21.92951],[-71.91799,21.93115],[-71.91494,21.94155],[-71.90986,21.93907],[-71.90957,21.93677],[-71.9109,21.93064],[-71.91936,21.91959]]]]}}],"admin1":{"type":"FeatureCollection","features":[{"type":"Feature","properties":{"id":"TCA:ADM1:TCA-5003","name":"Middle Caicos","countryCode":"TCA"},"geometry":{"type":"MultiPolygon","coordinates":[[[[-72.43848,21.69047],[-72.44561,21.65697],[-72.45202,21.64496],[-72.45413,21.64391],[-72.45143,21.64786],[-72.44963,21.65909],[-72.45325,21.65404],[-72.45206,21.64944],[-72.45472,21.64361],[-72.48131,21.63032],[-72.48131,21.63077],[-72.4765,21.64102],[-72.4702,21.64688],[-72.46427,21.66256],[-72.46444,21.66199],[-72.46455,21.65356],[-72.4608,21.64672],[-72.45232,21.67768],[-72.45546,21.6773],[-72.45616,21.67367],[-72.46065,21.67459],[-72.46321,21.66609],[-72.46044,21.68602],[-72.46065,21.69872],[-72.4603,21.69911],[-72.44984,21.70183],[-72.44516,21.70757],[-72.43342,21.70922],[-72.43338,21.70185],[-72.43848,21.69047]],[[-72.44159,21.6951],[-72.44266,21.69325],[-72.44018,21.69648],[-72.44159,21.6951]],[[-72.44346,21.68709],[-72.44736,21.67664],[-72.44178,21.68538],[-72.44346,21.68709]],[[-72.44828,21.66355],[-72.44831,21.66041],[-72.44768,21.66446],[-72.44828,21.66355]],[[-72.46489,21.64195],[-72.46583,21.64248],[-72.46647,21.6409],[-72.46489,21.64195]],[[-72.45681,21.68211],[-72.45618,21.67959],[-72.45426,21.68002],[-72.45327,21.68202],[-72.45681,21.68211]]],[[[-72.2941,21.75399],[-72.28785,21.74948],[-72.29186,21.74893],[-72.2941,21.75399]]],[[[-72.1977,21.76735],[-72.19693,21.7685],[-72.19885,21.77245],[-72.19661,21.77181],[-72.19351,21.76738],[-72.19445,21.76691],[-72.1977,21.76735]]],[[[-72.32956,21.77639],[-72.32955,21.77727],[-72.32885,21.77964],[-72.32484,21.77319],[-72.32645,21.77165],[-72.32726,21.77414],[-72.32895,21.76907],[-72.32424,21.76907],[-72.32057,21.76643],[-72.32287,21.76447],[-72.3265,21.76695],[-72.32801,21.76259],[-72.33723,21.76],[-72.33795,21.7621],[-72.33593,21.76462],[-72.33728,21.76893],[-72.33959,21.76742],[-72.34,21.77123],[-72.33918,21.77546],[-72.33902,21.77593],[-72.33698,21.77507],[-72.33427,21.76979],[-72.33427,21.77619],[-72.3341,21.77619],[-72.33043,21.77432],[-72.32976,21.7766],[-72.32956,21.77639]]],[[[-72.19932,21.76757],[-72.20287,21.76805],[-72.20095,21.77235],[-72.19832,21.77072],[-72.19932,21.76757]]],[[[-72.18097,21.77364],[-72.19142,21.76842],[-72.19121,21.77229],[-72.18023,21.775],[-72.1796,21.77432],[-72.18089,21.77367],[-72.18094,21.7737],[-72.18097,21.77364]]],[[[-72.31542,21.77082],[-72.31792,21.76869],[-72.32174,21.77549],[-72.32015,21.77875],[-72.32006,21.77645],[-72.31774,21.77667],[-72.31517,21.77183],[-72.31542,21.77082]],[[-72.31794,21.77354],[-72.31644,21.77396],[-72.3194,21.77612],[-72.31794,21.77354]]],[[[-72.24388,21.77452],[-72.24439,21.77353],[-72.24493,21.77312],[-72.24596,21.77387],[-72.24388,21.77452]]],[[[-72.32303,21.78053],[-72.32224,21.78029],[-72.32073,21.77945],[-72.32403,21.77928],[-72.32303,21.78053]]],[[[-72.31649,21.78531],[-72.31662,21.78321],[-72.31484,21.77824],[-72.31701,21.78336],[-72.31649,21.78531]]],[[[-72.27696,21.76281],[-72.27424,21.76362],[-72.27514,21.77432],[-72.28124,21.77961],[-72.31615,21.79483],[-72.31374,21.7847],[-72.3154,21.78587],[-72.3224,21.78661],[-72.32203,21.78238],[-72.32426,21.78456],[-72.32518,21.78077],[-72.3286,21.78047],[-72.32833,21.78136],[-72.32641,21.78115],[-72.32746,21.78253],[-72.32811,21.78212],[-72.32653,21.78742],[-72.31395,21.80907],[-72.30993,21.82209],[-72.318,21.81626],[-72.31988,21.81802],[-72.32501,21.81502],[-72.32045,21.82026],[-72.32659,21.81413],[-72.32663,21.81004],[-72.33141,21.80659],[-72.33723,21.80097],[-72.3402,21.81403],[-72.32974,21.8454],[-72.33043,21.86245],[-72.3303,21.86239],[-72.32039,21.85526],[-72.31653,21.84673],[-72.30215,21.83945],[-72.30207,21.83621],[-72.29183,21.82957],[-72.27214,21.80394],[-72.25494,21.78994],[-72.22925,21.78398],[-72.22548,21.78515],[-72.22988,21.78634],[-72.226,21.78865],[-72.21539,21.78377],[-72.20586,21.78465],[-72.18603,21.79787],[-72.17179,21.80097],[-72.15387,21.82531],[-72.15087,21.82604],[-72.14605,21.81647],[-72.12974,21.81029],[-72.14207,21.79911],[-72.14851,21.79802],[-72.16038,21.7779],[-72.1643,21.7888],[-72.16527,21.79483],[-72.19327,21.78115],[-72.18952,21.77993],[-72.18665,21.77935],[-72.18843,21.77864],[-72.19971,21.77833],[-72.20475,21.77269],[-72.21185,21.76927],[-72.21972,21.77033],[-72.22527,21.76899],[-72.22878,21.7703],[-72.22991,21.76788],[-72.23424,21.76683],[-72.23424,21.78115],[-72.24308,21.77451],[-72.24459,21.77523],[-72.24674,21.77366],[-72.24554,21.77606],[-72.25156,21.77498],[-72.24801,21.77081],[-72.25356,21.76664],[-72.25621,21.76574],[-72.25873,21.76276],[-72.27383,21.75141],[-72.27728,21.75094],[-72.27521,21.75831],[-72.27696,21.76281]],[[-72.27442,21.76316],[-72.27528,21.76211],[-72.27379,21.76108],[-72.27442,21.76316]],[[-72.26924,21.76682],[-72.27054,21.7692],[-72.27078,21.76555],[-72.26924,21.76682]],[[-72.15816,21.80205],[-72.15545,21.80419],[-72.15977,21.8019],[-72.15816,21.80205]],[[-72.15318,21.80472],[-72.15005,21.80659],[-72.15445,21.80449],[-72.15318,21.80472]],[[-72.32524,21.82018],[-72.32717,21.82188],[-72.32661,21.81925],[-72.32524,21.82018]],[[-72.3273,21.8494],[-72.32932,21.84951],[-72.32677,21.84825],[-72.3273,21.8494]]],[[[-72.14724,21.82237],[-72.1449,21.82637],[-72.13811,21.82269],[-72.13991,21.81749],[-72.14724,21.82237]]],[[[-72.11628,21.85375],[-72.12438,21.84687],[-72.13225,21.84757],[-72.11866,21.85682],[-72.11628,21.85375]]],[[[-72.09301,21.86717],[-72.09968,21.86457],[-72.10126,21.87054],[-72.09928,21.87283],[-72.09813,21.87715],[-72.0948,21.88251],[-72.08951,21.88544],[-72.08703,21.88093],[-72.08707,21.87275],[-72.09301,21.86717]]],[[[-71.92088,21.90865],[-71.91552,21.88041],[-71.9096,21.86624],[-71.89928,21.85275],[-71.88564,21.84207],[-71.87447,21.83784],[-71.88431,21.83297],[-71.88198,21.82937],[-71.87896,21.83145],[-71.8761,21.82921],[-71.87731,21.82831],[-71.89464,21.83218],[-71.90966,21.84317],[-71.92268,21.84935],[-71.93106,21.85187],[-71.94298,21.85814],[-71.95425,21.86693],[-71.96052,21.8767],[-71.95922,21.8898],[-71.94384,21.91315],[-71.94001,21.92512],[-71.94758,21.94245],[-71.95505,21.93834],[-71.95443,21.94112],[-71.95837,21.94482],[-71.96504,21.93982],[-71.96037,21.93542],[-71.96402,21.93342],[-71.96695,21.93026],[-71.96697,21.93027],[-71.96619,21.93611],[-71.96745,21.93027],[-71.96737,21.92982],[-71.98786,21.90778],[-71.99193,21.89989],[-72.00162,21.89777],[-72.01083,21.89948],[-72.01074,21.9],[-72.01121,21.89955],[-72.01301,21.89989],[-72.01473,21.9008],[-72.01459,21.90318],[-72.01595,21.90144],[-72.01692,21.90195],[-72.01529,21.90443],[-72.01761,21.90392],[-72.012,21.9053],[-72.02286,21.90665],[-72.02611,21.91401],[-72.02448,21.92377],[-72.02501,21.93256],[-72.03265,21.93679],[-72.03309,21.9375],[-72.03384,21.93746],[-72.03624,21.93879],[-72.03181,21.94648],[-72.02961,21.94859],[-72.02222,21.94708],[-72.01627,21.9507],[-72.01649,21.95533],[-72.01939,21.95588],[-72.01744,21.95694],[-72.00829,21.95922],[-71.98945,21.95922],[-71.9905,21.95766],[-71.99359,21.95722],[-71.99754,21.95353],[-71.99628,21.95255],[-71.99044,21.9572],[-71.9893,21.95922],[-71.97327,21.95922],[-71.94786,21.95488],[-71.92005,21.94674],[-71.91218,21.942],[-71.92395,21.94639],[-71.91735,21.93597],[-71.92071,21.92886],[-71.92088,21.90865]],[[-71.99623,21.94531],[-71.99125,21.95327],[-71.99576,21.94631],[-71.99484,21.95048],[-71.99802,21.94676],[-71.99606,21.95189],[-71.99859,21.94969],[-72.01146,21.95138],[-72.00898,21.9459],[-72.00217,21.94325],[-71.99623,21.94531]],[[-71.97877,21.95225],[-71.97203,21.95434],[-71.97899,21.95475],[-71.98331,21.95872],[-71.97877,21.95225]],[[-71.92636,21.94681],[-71.93146,21.94862],[-71.92955,21.94768],[-71.92636,21.94681]],[[-71.93101,21.94697],[-71.92843,21.9455],[-71.92918,21.94676],[-71.93101,21.94697]],[[-72.0172,21.94347],[-72.01856,21.94293],[-72.0158,21.94186],[-72.0172,21.94347]],[[-72.01095,21.90018],[-72.01012,21.90242],[-72.01102,21.90141],[-72.01095,21.90018]],[[-72.01406,21.95444],[-72.01529,21.94813],[-72.01222,21.95151],[-72.01406,21.95444]]],[[[-72.01914,21.90312],[-72.01806,21.90353],[-72.01804,21.90254],[-72.01914,21.90312]]],[[[-72.02223,21.90521],[-72.02206,21.90521],[-72.0222,21.90514],[-72.02223,21.90521]]],[[[-71.91705,21.92632],[-71.91834,21.92583],[-71.91675,21.92771],[-71.91705,21.92632]]],[[[-71.90957,21.93677],[-71.9109,21.93064],[-71.91936,21.91959],[-71.91705,21.92632],[-71.91601,21.92951],[-71.91799,21.93115],[-71.91494,21.94155],[-71.90986,21.93907],[-71.90957,21.93677]]],[[[-72.02784,21.9503],[-72.02546,21.95258],[-72.02242,21.95423],[-72.02784,21.9503]]],[[[-71.69396,21.29521],[-71.69057,21.29472],[-71.69256,21.29255],[-71.6867,21.29478],[-71.69587,21.29011],[-71.69909,21.29194],[-71.68782,21.29979],[-71.68033,21.30443],[-71.67559,21.30603],[-71.67436,21.30605],[-71.67862,21.2989],[-71.68615,21.29506],[-71.68857,21.29439],[-71.68983,21.29565],[-71.69396,21.29521]],[[-71.69315,21.29286],[-71.69551,21.29286],[-71.69564,21.29126],[-71.69315,21.29286]]],[[[-71.63765,21.29857],[-71.63649,21.29996],[-71.63705,21.29776],[-71.63765,21.29857]]],[[[-71.62893,21.32425],[-71.62881,21.32416],[-71.62851,21.31681],[-71.62851,21.3168],[-71.62825,21.31025],[-71.63467,21.2945],[-71.63517,21.29518],[-71.63543,21.30163],[-71.63896,21.30036],[-71.64036,21.30228],[-71.63516,21.30549],[-71.63195,21.31737],[-71.63408,21.31897],[-71.63087,21.31888],[-71.63164,21.32152],[-71.62893,21.32425]]],[[[-71.20291,21.32139],[-71.20654,21.31777],[-71.20868,21.31758],[-71.20866,21.31564],[-71.20976,21.31454],[-71.21052,21.31609],[-71.21204,21.31295],[-71.21114,21.31317],[-71.21224,21.31207],[-71.21358,21.31241],[-71.21383,21.31071],[-71.21772,21.31334],[-71.21323,21.33483],[-71.21041,21.34026],[-71.20675,21.3387],[-71.19879,21.34004],[-71.19249,21.33503],[-71.20124,21.32306],[-71.20239,21.32192],[-71.20309,21.32198],[-71.20291,21.32139]],[[-71.21454,21.32172],[-71.20531,21.32651],[-71.20469,21.33167],[-71.20861,21.33157],[-71.21323,21.33005],[-71.21454,21.32172]]],[[[-71.13065,21.49869],[-71.13116,21.47235],[-71.12994,21.46652],[-71.13362,21.44648],[-71.14489,21.43163],[-71.15112,21.44903],[-71.15106,21.44913],[-71.1512,21.44924],[-71.15168,21.45059],[-71.15162,21.45272],[-71.14642,21.46484],[-71.14852,21.48286],[-71.1455,21.49506],[-71.14099,21.50635],[-71.13828,21.50673],[-71.1427,21.49845],[-71.13927,21.47828],[-71.13587,21.49225],[-71.13686,21.50923],[-71.13616,21.50975],[-71.13065,21.49869]],[[-71.14757,21.48238],[-71.14723,21.47406],[-71.14579,21.47915],[-71.14757,21.48238]],[[-71.14162,21.47303],[-71.13951,21.47013],[-71.14471,21.47064],[-71.14526,21.46341],[-71.14437,21.46876],[-71.1352,21.46548],[-71.13638,21.47435],[-71.14162,21.47303]],[[-71.13777,21.45164],[-71.13593,21.45128],[-71.13738,21.45316],[-71.13777,21.45164]]],[[[-71.50835,21.54157],[-71.50548,21.54792],[-71.50172,21.54802],[-71.50818,21.5494],[-71.49754,21.56723],[-71.49625,21.56342],[-71.49668,21.54799],[-71.4969,21.54737],[-71.49698,21.53731],[-71.49718,21.53026],[-71.49706,21.5271],[-71.49709,21.52414],[-71.49692,21.52315],[-71.49633,21.50739],[-71.50426,21.49404],[-71.51346,21.49145],[-71.51463,21.49227],[-71.51874,21.48996],[-71.52098,21.48933],[-71.53759,21.49946],[-71.53778,21.50099],[-71.53679,21.50051],[-71.53734,21.50377],[-71.53816,21.5041],[-71.5397,21.51655],[-71.52811,21.52413],[-71.52455,21.52222],[-71.52016,21.52329],[-71.51574,21.52269],[-71.51246,21.52516],[-71.51161,21.52537],[-71.51065,21.5166],[-71.504,21.51309],[-71.49935,21.53656],[-71.50011,21.54004],[-71.50835,21.54157]],[[-71.52974,21.51193],[-71.52655,21.51004],[-71.52642,21.51161],[-71.52435,21.51204],[-71.52974,21.51193]],[[-71.503,21.51107],[-71.50494,21.50963],[-71.50284,21.50707],[-71.503,21.51107]],[[-71.52909,21.50963],[-71.53075,21.50752],[-71.52898,21.50599],[-71.52604,21.5064],[-71.52909,21.50963]],[[-71.53082,21.50973],[-71.53175,21.51358],[-71.53243,21.51074],[-71.53082,21.50973]],[[-71.52646,21.50447],[-71.52647,21.49876],[-71.51523,21.50042],[-71.51511,21.49533],[-71.51133,21.49881],[-71.51243,21.50471],[-71.52646,21.50447]],[[-71.5231,21.4981],[-71.52617,21.49843],[-71.52848,21.49425],[-71.52556,21.4936],[-71.52398,21.49544],[-71.5231,21.4981]]],[[[-71.48534,21.67544],[-71.50796,21.70539],[-71.52445,21.71487],[-71.52437,21.71527],[-71.5252,21.7153],[-71.52892,21.71743],[-71.57323,21.7353],[-71.59057,21.75381],[-71.58593,21.75682],[-71.58296,21.75793],[-71.58333,21.75447],[-71.57371,21.74549],[-71.57246,21.74719],[-71.58235,21.75815],[-71.58178,21.75837],[-71.58126,21.75877],[-71.57434,21.74987],[-71.53122,21.72384],[-71.51937,21.72249],[-71.51695,21.72487],[-71.50643,21.72069],[-71.47825,21.71706],[-71.47328,21.71863],[-71.47307,21.71947],[-71.46856,21.71602],[-71.46177,21.70013],[-71.46565,21.69069],[-71.46314,21.66936],[-71.46425,21.66354],[-71.47126,21.66218],[-71.48534,21.67544]],[[-71.52894,21.72062],[-71.53293,21.7216],[-71.53185,21.71997],[-71.52894,21.72062]],[[-71.54959,21.72811],[-71.54591,21.73073],[-71.55217,21.73064],[-71.54959,21.72811]],[[-71.55934,21.73722],[-71.55861,21.73467],[-71.55574,21.73396],[-71.5587,21.73514],[-71.55934,21.73722]],[[-71.56815,21.74418],[-71.56953,21.74353],[-71.56869,21.74244],[-71.56714,21.74268],[-71.56815,21.74418]],[[-71.51211,21.71401],[-71.51154,21.7125],[-71.51034,21.71286],[-71.51211,21.71401]],[[-71.48442,21.71189],[-71.48259,21.71168],[-71.48486,21.71283],[-71.48442,21.71189]],[[-71.48096,21.71023],[-71.47908,21.71052],[-71.48125,21.71112],[-71.48096,21.71023]],[[-71.50806,21.70736],[-71.5042,21.70658],[-71.50882,21.70915],[-71.50806,21.70736]],[[-71.50186,21.70686],[-71.50088,21.70825],[-71.50218,21.70805],[-71.50186,21.70686]],[[-71.48205,21.70206],[-71.48235,21.70057],[-71.47982,21.69956],[-71.48205,21.70206]],[[-71.47095,21.69015],[-71.4734,21.68244],[-71.46924,21.68009],[-71.46813,21.68102],[-71.46987,21.68674],[-71.47095,21.69015]],[[-71.47301,21.66868],[-71.47072,21.66675],[-71.4716,21.66885],[-71.47301,21.66868]]],[[[-71.65134,21.75394],[-71.65456,21.75851],[-71.65289,21.76074],[-71.64912,21.75653],[-71.64748,21.75233],[-71.65134,21.75394]]],[[[-71.6557,21.77105],[-71.65468,21.76342],[-71.66633,21.77486],[-71.66753,21.79294],[-71.66694,21.79183],[-71.66357,21.77706],[-71.66036,21.77662],[-71.66193,21.77468],[-71.65669,21.77132],[-71.65963,21.77627],[-71.65848,21.77619],[-71.6557,21.77105]]],[[[-71.66952,21.77744],[-71.66922,21.77428],[-71.67301,21.7822],[-71.67078,21.78397],[-71.66678,21.77567],[-71.66952,21.77744]]],[[[-71.66841,21.79456],[-71.66876,21.79354],[-71.66952,21.79438],[-71.66863,21.79497],[-71.66841,21.79456]]],[[[-71.71957,21.79797],[-71.72313,21.78958],[-71.74112,21.79491],[-71.80285,21.78791],[-71.82771,21.78579],[-71.83552,21.79149],[-71.84101,21.80159],[-71.83802,21.80928],[-71.83472,21.81024],[-71.84874,21.8295],[-71.84913,21.83497],[-71.84903,21.83508],[-71.8459,21.83002],[-71.84409,21.83454],[-71.84015,21.83379],[-71.84294,21.83747],[-71.84909,21.84001],[-71.84752,21.84376],[-71.84997,21.84676],[-71.85032,21.85154],[-71.83908,21.85271],[-71.83892,21.8549],[-71.83482,21.85404],[-71.82364,21.8412],[-71.80162,21.83174],[-71.78244,21.83241],[-71.76533,21.83739],[-71.7238,21.82773],[-71.71147,21.82777],[-71.70142,21.83172],[-71.70096,21.83716],[-71.68762,21.83065],[-71.67317,21.833],[-71.6701,21.82687],[-71.65856,21.81868],[-71.66017,21.81603],[-71.65335,21.79134],[-71.64342,21.77818],[-71.64806,21.77961],[-71.65905,21.79352],[-71.66485,21.80396],[-71.66362,21.80586],[-71.66545,21.80503],[-71.66769,21.80906],[-71.66719,21.81],[-71.66791,21.81167],[-71.66898,21.81075],[-71.67633,21.81881],[-71.67778,21.82293],[-71.67338,21.8265],[-71.67828,21.82378],[-71.6825,21.82496],[-71.68304,21.8293],[-71.68955,21.82963],[-71.68672,21.82624],[-71.68363,21.82732],[-71.68323,21.82489],[-71.67962,21.82319],[-71.68475,21.80549],[-71.68097,21.79669],[-71.67419,21.79189],[-71.67612,21.78124],[-71.6719,21.76794],[-71.66326,21.75983],[-71.66688,21.77104],[-71.65986,21.75564],[-71.64534,21.74684],[-71.64517,21.7464],[-71.6586,21.74388],[-71.66853,21.75043],[-71.67588,21.76041],[-71.67446,21.76278],[-71.67653,21.76128],[-71.68615,21.77432],[-71.69099,21.76585],[-71.69929,21.76675],[-71.70084,21.76179],[-71.71544,21.7873],[-71.7205,21.7888],[-71.71849,21.79099],[-71.71957,21.79797]],[[-71.69876,21.8257],[-71.71086,21.82021],[-71.71286,21.82373],[-71.71439,21.81942],[-71.7063,21.81954],[-71.70244,21.82184],[-71.69876,21.8257]],[[-71.68924,21.82669],[-71.69497,21.83022],[-71.69867,21.82579],[-71.69453,21.82889],[-71.68924,21.82669]],[[-71.77106,21.82498],[-71.77098,21.82633],[-71.77278,21.82589],[-71.77106,21.82498]],[[-71.83297,21.84717],[-71.83503,21.84673],[-71.83212,21.84609],[-71.83143,21.84132],[-71.82706,21.83882],[-71.82923,21.83562],[-71.83755,21.84331],[-71.83249,21.83402],[-71.83952,21.82463],[-71.837,21.826],[-71.83255,21.83123],[-71.82719,21.82928],[-71.82647,21.83557],[-71.81917,21.83638],[-71.82522,21.83764],[-71.83297,21.84717]],[[-71.73123,21.82477],[-71.72866,21.8212],[-71.72562,21.8204],[-71.73123,21.82477]],[[-71.73882,21.82247],[-71.74179,21.82328],[-71.74556,21.82157],[-71.74308,21.81885],[-71.73882,21.82247]],[[-71.69535,21.83163],[-71.69615,21.83298],[-71.69738,21.83213],[-71.69535,21.83163]],[[-71.76482,21.83379],[-71.76525,21.83552],[-71.76757,21.83442],[-71.76482,21.83379]],[[-71.68286,21.78564],[-71.68906,21.78223],[-71.68564,21.78241],[-71.68286,21.78564]],[[-71.68301,21.78119],[-71.68622,21.77817],[-71.68122,21.7817],[-71.68301,21.78119]],[[-71.65606,21.74997],[-71.6584,21.75073],[-71.6578,21.74908],[-71.65645,21.74842],[-71.65606,21.74997]]],[[[-71.67402,21.8075],[-71.67121,21.79975],[-71.67083,21.79903],[-71.67525,21.79951],[-71.67402,21.8075]]],[[[-71.842,21.80688],[-71.84386,21.80683],[-71.84438,21.80778],[-71.842,21.80688]]],[[[-71.84541,21.81108],[-71.84474,21.81106],[-71.84505,21.81227],[-71.84557,21.81159],[-71.84672,21.81527],[-71.84376,21.81424],[-71.84374,21.82094],[-71.83715,21.81327],[-71.84175,21.81468],[-71.84092,21.80981],[-71.84441,21.80788],[-71.84541,21.81108]],[[-71.84553,21.81323],[-71.84371,21.8129],[-71.84271,21.81365],[-71.84536,21.81452],[-71.84553,21.81323]]],[[[-71.87424,21.8306],[-71.87456,21.83365],[-71.86963,21.83404],[-71.87424,21.8306]]],[[[-71.84137,21.83491],[-71.84301,21.83501],[-71.84248,21.83597],[-71.84137,21.83491]]],[[[-71.86928,21.84111],[-71.86307,21.83894],[-71.86898,21.83453],[-71.87354,21.83924],[-71.86928,21.84111]]],[[[-71.91074,21.91409],[-71.91064,21.91532],[-71.9105,21.91434],[-71.91074,21.91409]]],[[[-71.90927,21.94214],[-71.90923,21.94214],[-71.90919,21.94198],[-71.90927,21.94214]]]]}}]}}
