{"type":"FeatureCollection","features":[{"type":"Feature","properties":{"id":"TGO:ADM2:56601680B12249670822801","name":"Dankpen","countryCode":"TGO","adminLevel":2,"sourceCode":"56601680B12249670822801","parentId":"TGO:ADM1:TGO-88"},"geometry":{"type":"Polygon","coordinates":[[[0.84861,9.85194],[0.84417,9.86139],[0.84889,9.87833],[0.84639,9.88194],[0.84083,9.88333],[0.83,9.87333],[0.81722,9.87278],[0.80611,9.87528],[0.79778,9.8875],[0.77806,9.8875],[0.76722,9.89167],[0.76389,9.87583],[0.75611,9.86917],[0.75472,9.85695],[0.73917,9.84472],[0.72361,9.84917],[0.68944,9.84556],[0.68222,9.85167],[0.67722,9.88083],[0.66611,9.88333],[0.65528,9.87361],[0.63833,9.89139],[0.63194,9.89194],[0.62611,9.88361],[0.59444,9.88306],[0.58278,9.88083],[0.56417,9.87167],[0.55806,9.87306],[0.54944,9.87889],[0.53861,9.89528],[0.52389,9.90194],[0.51778,9.90944],[0.51528,9.925],[0.52444,9.93722],[0.50806,9.9425],[0.49111,9.94222],[0.48333,9.94806],[0.47694,9.94806],[0.46806,9.94278],[0.45722,9.94667],[0.44639,9.95694],[0.4275,9.9575],[0.42056,9.96472],[0.41889,9.97667],[0.4225,9.99417],[0.40761,10.01987],[0.40177,10.01882],[0.39216,10.02453],[0.37391,10.02574],[0.3648,10.03195],[0.36085,10.03079],[0.36311,10.01075],[0.35702,9.996],[0.35935,9.98355],[0.36734,9.96537],[0.38555,9.94784],[0.38685,9.93696],[0.37474,9.93063],[0.36196,9.92849],[0.35497,9.91883],[0.3514,9.8967],[0.35773,9.84547],[0.35161,9.82506],[0.34255,9.81449],[0.34122,9.80312],[0.33196,9.7937],[0.33608,9.77621],[0.32751,9.77052],[0.33018,9.75517],[0.32049,9.7246],[0.32489,9.72024],[0.33922,9.719],[0.34524,9.71515],[0.35247,9.69121],[0.3519,9.67418],[0.36254,9.67206],[0.36996,9.65036],[0.3828,9.64031],[0.37401,9.60641],[0.38407,9.58609],[0.3735,9.57616],[0.3583,9.56921],[0.34974,9.56893],[0.33775,9.57454],[0.32255,9.57143],[0.29079,9.57315],[0.26792,9.56375],[0.2517,9.5721],[0.24288,9.57172],[0.23819,9.5417],[0.24552,9.52248],[0.25722,9.51851],[0.28359,9.5241],[0.29472,9.52273],[0.31021,9.51388],[0.31436,9.50531],[0.31135,9.50024],[0.288,9.48612],[0.27889,9.48688],[0.27023,9.47711],[0.25405,9.47714],[0.23254,9.48596],[0.22972,9.48101],[0.23356,9.45922],[0.24723,9.44511],[0.24906,9.43652],[0.26029,9.4335],[0.26515,9.42805],[0.28537,9.42898],[0.31019,9.44233],[0.33741,9.45044],[0.34455,9.46779],[0.35036,9.47312],[0.3451,9.48566],[0.35997,9.49863],[0.38624,9.49068],[0.40787,9.49306],[0.41372,9.49949],[0.43659,9.49499],[0.44832,9.49794],[0.45603,9.49725],[0.46367,9.48935],[0.47535,9.4884],[0.47923,9.48442],[0.48446,9.48752],[0.48796,9.48614],[0.50043,9.47372],[0.50407,9.46501],[0.49331,9.44925],[0.49876,9.43695],[0.51799,9.43924],[0.52415,9.43015],[0.5325,9.42943],[0.54274,9.42251],[0.55104,9.42272],[0.5529,9.41263],[0.56235,9.40535],[0.60398,9.42684],[0.63218,9.4359],[0.65433,9.45101],[0.68455,9.48424],[0.67145,9.54266],[0.68858,9.55273],[0.75001,9.57186],[0.78325,9.57086],[0.81548,9.57791],[0.8326,9.61618],[0.85576,9.59805],[0.85979,9.61215],[0.88799,9.62927],[0.91354,9.65407],[0.9025,9.65583],[0.89417,9.66778],[0.87861,9.67361],[0.87028,9.69278],[0.86111,9.70333],[0.85944,9.71472],[0.87167,9.73],[0.86806,9.74],[0.85944,9.74583],[0.85639,9.75611],[0.86167,9.77055],[0.85806,9.78695],[0.86083,9.80472],[0.85917,9.80972],[0.84611,9.8175],[0.83972,9.82528],[0.83694,9.83583],[0.84861,9.85194]]]}},{"type":"Feature","properties":{"id":"TGO:ADM2:56601680B12598387573686","name":"Bassar","countryCode":"TGO","adminLevel":2,"sourceCode":"56601680B12598387573686","parentId":"TGO:ADM1:TGO-88"},"geometry":{"type":"Polygon","coordinates":[[[1.01866,9.2136],[1.02556,9.21917],[1.03361,9.24028],[1.03306,9.26611],[1.02917,9.28028],[1.02306,9.28861],[1.00667,9.29389],[0.98472,9.32056],[0.96139,9.33222],[0.95611,9.3475],[0.95472,9.37111],[0.95694,9.38417],[0.97194,9.40389],[0.98389,9.45389],[0.99556,9.46861],[0.99639,9.49944],[1.00583,9.52],[1.00806,9.59389],[0.97083,9.60722],[0.95944,9.62306],[0.95472,9.625],[0.94139,9.625],[0.93083,9.62056],[0.91472,9.63222],[0.91667,9.64861],[0.91354,9.65407],[0.88799,9.62927],[0.85979,9.61215],[0.85576,9.59805],[0.8326,9.61618],[0.81548,9.57791],[0.78325,9.57086],[0.75001,9.57186],[0.68858,9.55273],[0.67145,9.54266],[0.68455,9.48424],[0.65433,9.45101],[0.63218,9.4359],[0.60398,9.42684],[0.56235,9.40535],[0.5645,9.40369],[0.55066,9.35272],[0.54445,9.34375],[0.54926,9.3221],[0.55525,9.31767],[0.55463,9.30746],[0.55216,9.30175],[0.5376,9.30325],[0.52665,9.284],[0.51233,9.26989],[0.50326,9.25219],[0.53093,9.20657],[0.51951,9.19118],[0.50933,9.16303],[0.50331,9.15975],[0.50143,9.15351],[0.49089,9.15596],[0.47456,9.14449],[0.48463,9.11332],[0.48301,9.10162],[0.48097,9.09864],[0.47254,9.09781],[0.46582,9.09124],[0.45915,9.06728],[0.46336,9.06678],[0.46317,9.05538],[0.45581,9.05576],[0.45503,9.03556],[0.46042,9.03396],[0.46079,9.02747],[0.46812,9.01876],[0.46646,9.00624],[0.49277,8.95418],[0.49793,8.95423],[0.50621,8.94814],[0.51145,8.93679],[0.50709,8.91892],[0.50921,8.90255],[0.51863,8.89275],[0.52422,8.88023],[0.51816,8.86955],[0.51999,8.85625],[0.51637,8.85156],[0.5098,8.85318],[0.5069,8.84725],[0.50163,8.84557],[0.51417,8.84305],[0.53583,8.84889],[0.55472,8.8725],[0.57389,8.87028],[0.58472,8.87333],[0.59194,8.88],[0.5925,8.88611],[0.59111,8.89194],[0.57861,8.89944],[0.57861,8.90639],[0.58389,8.91555],[0.61278,8.92833],[0.63083,8.94556],[0.63694,8.97417],[0.64333,8.98167],[0.67167,8.98333],[0.68583,9.00389],[0.69806,9.01222],[0.71083,9.01361],[0.72639,9.04639],[0.73472,9.0525],[0.74861,9.04528],[0.755,9.04528],[0.76778,9.05361],[0.77361,9.05361],[0.78028,9.04667],[0.78556,9.02528],[0.79333,9.025],[0.81861,9.01389],[0.845,9.01222],[0.86028,9.005],[0.88556,9.005],[0.91667,9.0125],[0.94139,9.01472],[0.96306,9.02528],[0.97722,9.04667],[0.99972,9.05917],[1.0025,9.06389],[1.00306,9.06917],[0.98722,9.10695],[0.98583,9.17445],[0.99528,9.20167],[1.01866,9.2136]]]}},{"type":"Feature","properties":{"id":"TGO:ADM2:56601680B13855645397073","name":"Yoto","countryCode":"TGO","adminLevel":2,"sourceCode":"56601680B13855645397073","parentId":"TGO:ADM1:TGO-87"},"geometry":{"type":"Polygon","coordinates":[[[1.66301,6.58387],[1.65543,6.57767],[1.65129,6.57836],[1.64083,6.58254],[1.6344,6.59682],[1.61715,6.59684],[1.6098,6.60582],[1.60913,6.61962],[1.60247,6.62745],[1.60294,6.63688],[1.61123,6.64192],[1.60284,6.66628],[1.58957,6.68388],[1.57392,6.68824],[1.59209,6.70642],[1.59253,6.7255],[1.60012,6.7262],[1.6084,6.73655],[1.61691,6.74],[1.62036,6.74369],[1.6169,6.7492],[1.61874,6.75334],[1.6261,6.76024],[1.60838,6.77127],[1.60791,6.78162],[1.61274,6.79243],[1.60721,6.80024],[1.59893,6.79978],[1.59662,6.80644],[1.59846,6.81219],[1.61479,6.82508],[1.61317,6.82876],[1.60397,6.82714],[1.5996,6.83013],[1.60142,6.85289],[1.5945,6.86898],[1.60669,6.88347],[1.60416,6.8906],[1.60507,6.90577],[1.58761,6.91304],[1.5575,6.90083],[1.55056,6.89389],[1.53028,6.85722],[1.51556,6.845],[1.49806,6.83611],[1.47722,6.83028],[1.46472,6.83111],[1.41111,6.84445],[1.37583,6.83389],[1.30806,6.78694],[1.24071,6.7218],[1.24972,6.71389],[1.24972,6.70778],[1.24139,6.695],[1.24222,6.69],[1.27,6.67444],[1.29194,6.66722],[1.30333,6.65833],[1.30472,6.64028],[1.29389,6.60722],[1.29167,6.58139],[1.30278,6.55278],[1.30639,6.51861],[1.31528,6.50111],[1.34028,6.47778],[1.34778,6.4475],[1.36611,6.4225],[1.38306,6.43083],[1.39333,6.44222],[1.42778,6.49972],[1.44639,6.52306],[1.46278,6.53417],[1.5025,6.53778],[1.57694,6.56944],[1.59472,6.56944],[1.63944,6.56222],[1.65083,6.56417],[1.65633,6.5773],[1.66301,6.58387]]]}},{"type":"Feature","properties":{"id":"TGO:ADM2:56601680B14222633765071","name":"Tchaoudjo","countryCode":"TGO","adminLevel":2,"sourceCode":"56601680B14222633765071","parentId":"TGO:ADM1:TGO-89"},"geometry":{"type":"Polygon","coordinates":[[[1.45008,9.27894],[1.43123,9.29781],[1.3675,9.25139],[1.33306,9.25028],[1.28083,9.23639],[1.22306,9.21583],[1.17472,9.2125],[1.11944,9.22583],[1.08778,9.23],[1.07056,9.22778],[1.03806,9.21278],[1.01866,9.2136],[0.99528,9.20167],[0.98583,9.17445],[0.98722,9.10695],[1.00306,9.06917],[0.99972,9.05917],[0.98139,9.05028],[0.96306,9.02528],[0.95083,9.01778],[0.87361,9.00417],[0.88333,8.99222],[0.88722,8.98194],[0.89333,8.95028],[0.90389,8.92056],[0.91083,8.91417],[0.92167,8.91028],[0.94639,8.90694],[0.9625,8.89389],[0.97028,8.87583],[0.97528,8.83583],[0.98,8.82056],[0.98833,8.80944],[1.01583,8.79306],[1.02722,8.77722],[1.045,8.76694],[1.06555,8.74583],[1.09667,8.74722],[1.11944,8.73417],[1.12639,8.73333],[1.1525,8.74028],[1.17583,8.74222],[1.18778,8.73806],[1.20028,8.72444],[1.20861,8.69917],[1.21528,8.69139],[1.24,8.68167],[1.24833,8.68139],[1.24389,8.69028],[1.24444,8.69639],[1.27528,8.71444],[1.27667,8.71972],[1.27222,8.73528],[1.27861,8.74306],[1.30389,8.75944],[1.30639,8.76889],[1.30194,8.77833],[1.3025,8.78444],[1.30833,8.79222],[1.32639,8.80194],[1.32333,8.81806],[1.30972,8.84583],[1.31361,8.8675],[1.30139,8.87667],[1.30361,8.88194],[1.32528,8.88722],[1.34472,8.91667],[1.34889,8.93278],[1.35861,8.92139],[1.36417,8.92139],[1.36667,8.92528],[1.3675,8.93611],[1.35972,8.94944],[1.37972,8.99222],[1.37889,9.00472],[1.37306,9.01944],[1.37194,9.04583],[1.37583,9.05556],[1.39028,9.06917],[1.39694,9.0975],[1.40806,9.11417],[1.41139,9.125],[1.39667,9.1725],[1.39667,9.19583],[1.4325,9.23139],[1.43806,9.25972],[1.45008,9.27894]]]}},{"type":"Feature","properties":{"id":"TGO:ADM2:56601680B17532793096074","name":"Tchamba","countryCode":"TGO","adminLevel":2,"sourceCode":"56601680B17532793096074","parentId":"TGO:ADM1:TGO-89"},"geometry":{"type":"Polygon","coordinates":[[[1.6215,8.36596],[1.61974,8.3741],[1.62775,8.41428],[1.62658,8.42897],[1.63303,8.43954],[1.6302,8.44951],[1.65019,8.47767],[1.64899,8.49075],[1.63112,8.51869],[1.62857,8.64771],[1.63311,8.79376],[1.62929,8.82934],[1.62967,8.90897],[1.62241,8.95456],[1.62974,8.99912],[1.62483,9.04229],[1.61602,9.06341],[1.6176,9.07092],[1.60564,9.09728],[1.59773,9.11149],[1.57915,9.13164],[1.55912,9.17015],[1.52597,9.1907],[1.47767,9.23691],[1.4621,9.25477],[1.45008,9.27894],[1.43806,9.25972],[1.4325,9.23139],[1.39667,9.19583],[1.39667,9.1725],[1.41139,9.125],[1.40806,9.11417],[1.39694,9.0975],[1.39028,9.06917],[1.37583,9.05556],[1.37194,9.04583],[1.37306,9.01944],[1.37889,9.00472],[1.37972,8.99222],[1.35972,8.94944],[1.3675,8.93611],[1.36667,8.92528],[1.36417,8.92139],[1.35861,8.92139],[1.34889,8.93278],[1.34472,8.91667],[1.32528,8.88722],[1.30361,8.88194],[1.30139,8.87667],[1.31361,8.8675],[1.30972,8.84583],[1.32333,8.81806],[1.32639,8.80194],[1.30833,8.79222],[1.3025,8.78444],[1.30194,8.77833],[1.30639,8.76889],[1.30389,8.75944],[1.27861,8.74306],[1.27222,8.73528],[1.27667,8.71972],[1.27528,8.71444],[1.24444,8.69639],[1.24389,8.69028],[1.24833,8.68139],[1.25833,8.67694],[1.26056,8.67167],[1.24833,8.62194],[1.25139,8.58722],[1.2425,8.56056],[1.2525,8.55583],[1.26389,8.55806],[1.26917,8.55583],[1.26861,8.54917],[1.26222,8.54222],[1.25361,8.53639],[1.235,8.53167],[1.22778,8.51861],[1.22694,8.51167],[1.23833,8.48278],[1.22722,8.46],[1.22639,8.44056],[1.22111,8.42472],[1.22222,8.41222],[1.23278,8.38806],[1.22757,8.37354],[1.6215,8.36596]]]}},{"type":"Feature","properties":{"id":"TGO:ADM2:56601680B17683608517106","name":"Oti","countryCode":"TGO","adminLevel":2,"sourceCode":"56601680B17683608517106","parentId":"TGO:ADM1:TGO-90"},"geometry":{"type":"Polygon","coordinates":[[[0.99834,10.22083],[0.77457,10.38476],[0.78323,10.51218],[0.80082,10.55781],[0.80757,10.59096],[0.80582,10.64336],[0.79693,10.68492],[0.80461,10.72418],[0.75383,10.727],[0.67127,10.71548],[0.60216,10.70204],[0.54072,10.67708],[0.51576,10.69052],[0.49272,10.69436],[0.4716,10.70396],[0.37944,10.69244],[0.34104,10.69436],[0.31325,10.69191],[0.32691,10.66621],[0.32525,10.62097],[0.3034,10.60866],[0.29524,10.57743],[0.27731,10.57258],[0.24606,10.55562],[0.23625,10.53951],[0.20608,10.42813],[0.20033,10.41995],[0.20302,10.41118],[0.21953,10.42363],[0.23804,10.40931],[0.2393,10.4125],[0.24413,10.41278],[0.25565,10.4055],[0.2665,10.40776],[0.27509,10.41849],[0.28675,10.41902],[0.29141,10.40791],[0.29817,10.40817],[0.30093,10.40289],[0.30257,10.39142],[0.29363,10.38004],[0.29482,10.37348],[0.30774,10.36886],[0.31426,10.36132],[0.31952,10.33526],[0.32306,10.33429],[0.3272,10.33828],[0.33424,10.33521],[0.33891,10.32508],[0.337,10.32087],[0.32582,10.31718],[0.32144,10.30752],[0.33141,10.30921],[0.34757,10.30538],[0.3534,10.31213],[0.36318,10.30878],[0.38976,10.31463],[0.39632,10.31228],[0.39685,10.30388],[0.38823,10.30273],[0.37584,10.28772],[0.36953,10.28444],[0.37234,10.27961],[0.37936,10.27853],[0.3825,10.27261],[0.36242,10.26012],[0.3608,10.22247],[0.35185,10.19128],[0.35423,10.18169],[0.35121,10.16739],[0.36304,10.14371],[0.36375,10.13382],[0.35323,10.10888],[0.35316,10.10179],[0.35509,10.09194],[0.36125,10.08523],[0.39433,10.08004],[0.4166,10.05948],[0.41253,10.04542],[0.41136,10.02189],[0.40761,10.01987],[0.4225,9.99417],[0.41889,9.97667],[0.42056,9.96472],[0.4275,9.9575],[0.44639,9.95694],[0.45722,9.94667],[0.46806,9.94278],[0.47694,9.94806],[0.48333,9.94806],[0.49583,9.94111],[0.52056,9.94028],[0.52444,9.93722],[0.51528,9.925],[0.51778,9.90944],[0.52389,9.90194],[0.53861,9.89528],[0.54944,9.87889],[0.55806,9.87306],[0.56417,9.87167],[0.58278,9.88083],[0.59444,9.88306],[0.62611,9.88361],[0.63194,9.89194],[0.63833,9.89139],[0.65528,9.87361],[0.66611,9.88333],[0.67333,9.88333],[0.67929,9.87591],[0.68278,9.88722],[0.66667,9.94222],[0.67444,9.95611],[0.67583,9.97472],[0.68778,9.99056],[0.68694,10.03389],[0.69472,10.06417],[0.70389,10.08333],[0.73389,10.12361],[0.74278,10.145],[0.73806,10.15306],[0.73889,10.16055],[0.73278,10.16833],[0.73667,10.17278],[0.75417,10.1825],[0.7675,10.17472],[0.77639,10.18],[0.78194,10.17944],[0.79444,10.17194],[0.80361,10.15333],[0.80917,10.15222],[0.82278,10.16583],[0.83833,10.17111],[0.84944,10.18167],[0.855,10.1825],[0.85833,10.17917],[0.88111,10.17667],[0.89139,10.16639],[0.89694,10.16528],[0.90472,10.1725],[0.90861,10.1825],[0.91639,10.18806],[0.96056,10.18028],[0.97722,10.18389],[0.99028,10.19917],[0.99834,10.22083]]]}},{"type":"Feature","properties":{"id":"TGO:ADM2:56601680B24632394959352","name":"Sotouboua","countryCode":"TGO","adminLevel":2,"sourceCode":"56601680B24632394959352","parentId":"TGO:ADM1:TGO-89"},"geometry":{"type":"Polygon","coordinates":[[[1.24833,8.68139],[1.24,8.68167],[1.21528,8.69139],[1.20861,8.69917],[1.20028,8.72444],[1.18778,8.73806],[1.17583,8.74222],[1.1525,8.74028],[1.12639,8.73333],[1.11944,8.73417],[1.09667,8.74722],[1.06555,8.74583],[1.045,8.76694],[1.02722,8.77722],[1.01583,8.79306],[0.98833,8.80944],[0.98,8.82056],[0.96833,8.88361],[0.95944,8.89778],[0.94639,8.90694],[0.92167,8.91028],[0.91083,8.91417],[0.90389,8.92056],[0.89333,8.95028],[0.88722,8.98194],[0.88333,8.99222],[0.87361,9.00417],[0.86028,9.005],[0.845,9.01222],[0.81861,9.01389],[0.79333,9.025],[0.78556,9.02528],[0.78028,9.04667],[0.77361,9.05361],[0.76778,9.05361],[0.755,9.04528],[0.74861,9.04528],[0.73472,9.0525],[0.72639,9.04639],[0.71083,9.01361],[0.69424,9.01031],[0.708,8.98141],[0.7154,8.9037],[0.74315,8.87225],[0.73575,8.86485],[0.72095,8.86115],[0.7006,8.84635],[0.70615,8.72055],[0.7524,8.69095],[0.7783,8.65765],[0.782,8.63914],[0.75425,8.61509],[0.72095,8.57439],[0.68765,8.55219],[0.63029,8.53739],[0.6114,8.51352],[0.61759,8.51396],[0.62761,8.50846],[0.62373,8.50311],[0.62728,8.49821],[0.63789,8.49906],[0.64377,8.4949],[0.64267,8.47948],[0.65414,8.46033],[0.65038,8.45607],[0.65017,8.42782],[0.66335,8.42561],[0.67827,8.41619],[0.68517,8.41738],[0.69271,8.40677],[0.69298,8.40098],[0.70573,8.40101],[0.69809,8.39572],[0.70778,8.39175],[0.73219,8.36615],[0.75117,8.374],[0.78149,8.40423],[0.9537,8.37047],[1.00525,8.38931],[1.04516,8.37623],[1.13113,8.36052],[1.16018,8.39324],[1.20624,8.38434],[1.22273,8.37335],[1.22757,8.37354],[1.23278,8.38806],[1.22222,8.41222],[1.22111,8.42472],[1.22639,8.44056],[1.22722,8.46],[1.23833,8.48278],[1.22694,8.51167],[1.22778,8.51861],[1.235,8.53167],[1.25361,8.53639],[1.26222,8.54222],[1.26861,8.54917],[1.26917,8.55583],[1.26389,8.55806],[1.2525,8.55583],[1.2425,8.56056],[1.25139,8.58722],[1.24833,8.62194],[1.26056,8.67167],[1.25833,8.67694],[1.24833,8.68139]]]}},{"type":"Feature","properties":{"id":"TGO:ADM2:56601680B28886338508193","name":"Danyi","countryCode":"TGO","adminLevel":2,"sourceCode":"56601680B28886338508193","parentId":"TGO:ADM1:TGO-86"},"geometry":{"type":"Polygon","coordinates":[[[0.79278,7.40333],[0.77389,7.39639],[0.74972,7.39639],[0.71889,7.38139],[0.70139,7.38583],[0.69028,7.38528],[0.64684,7.36748],[0.65883,7.31818],[0.65717,7.30878],[0.65046,7.29022],[0.64546,7.29036],[0.63782,7.2264],[0.63218,7.21859],[0.6293,7.19615],[0.62433,7.18442],[0.61669,7.18342],[0.61466,7.17602],[0.61726,7.16201],[0.61367,7.15658],[0.6061,7.15922],[0.60605,7.14219],[0.59734,7.13429],[0.5964,7.1203],[0.59235,7.11113],[0.73035,7.17577],[0.75537,7.22499],[0.76455,7.2792],[0.79086,7.29097],[0.78,7.30278],[0.78222,7.33361],[0.77528,7.36528],[0.79139,7.39111],[0.79278,7.40333]]]}},{"type":"Feature","properties":{"id":"TGO:ADM2:56601680B30245465113687","name":"Keran","countryCode":"TGO","adminLevel":2,"sourceCode":"56601680B30245465113687","parentId":"TGO:ADM1:TGO-88"},"geometry":{"type":"Polygon","coordinates":[[[1.17331,10.10765],[1.08803,10.15884],[0.99834,10.22083],[0.99028,10.19917],[0.97722,10.18389],[0.96056,10.18028],[0.91639,10.18806],[0.90861,10.1825],[0.90472,10.1725],[0.89694,10.16528],[0.89139,10.16639],[0.88111,10.17667],[0.85833,10.17917],[0.855,10.1825],[0.84944,10.18167],[0.83833,10.17111],[0.82278,10.16583],[0.80917,10.15222],[0.80361,10.15333],[0.79444,10.17194],[0.78194,10.17944],[0.77639,10.18],[0.7675,10.17472],[0.75417,10.1825],[0.73278,10.16833],[0.73889,10.16055],[0.73806,10.15306],[0.74278,10.145],[0.73389,10.12361],[0.70389,10.08333],[0.69056,10.05278],[0.68694,10.03389],[0.68778,9.99056],[0.67583,9.97472],[0.67444,9.95611],[0.66667,9.94222],[0.68278,9.88722],[0.67929,9.87591],[0.68222,9.85167],[0.68944,9.84556],[0.72361,9.84917],[0.73917,9.84472],[0.74444,9.84694],[0.75472,9.85695],[0.75611,9.86917],[0.76389,9.87583],[0.76722,9.89167],[0.77806,9.8875],[0.79778,9.8875],[0.80611,9.87528],[0.81722,9.87278],[0.83,9.87333],[0.84083,9.88333],[0.84639,9.88194],[0.84889,9.87833],[0.84417,9.86139],[0.84861,9.85194],[0.88389,9.87083],[0.89,9.87028],[0.90861,9.85361],[0.92972,9.85889],[0.93528,9.8575],[0.94583,9.84722],[0.98611,9.85389],[1.00278,9.86444],[1.01472,9.8625],[1.03083,9.85083],[1.05611,9.85],[1.07361,9.86056],[1.08194,9.87278],[1.08361,9.89889],[1.08639,9.90417],[1.11056,9.9175],[1.1275,9.935],[1.13889,9.9725],[1.15444,9.99083],[1.17111,10.025],[1.17417,10.045],[1.17331,10.10765]]]}},{"type":"Feature","properties":{"id":"TGO:ADM2:56601680B4042875560778","name":"Kloto","countryCode":"TGO","adminLevel":2,"sourceCode":"56601680B4042875560778","parentId":"TGO:ADM1:TGO-86"},"geometry":{"type":"Polygon","coordinates":[[[0.75092,6.99429],[0.74045,7.02622],[0.7157,7.03764],[0.68525,7.03764],[0.6624,7.05668],[0.65479,7.08333],[0.66076,7.14281],[0.59543,7.11207],[0.59817,7.1129],[0.60358,7.10616],[0.61276,7.10428],[0.61369,7.09255],[0.59591,7.061],[0.60172,7.03649],[0.59939,7.03268],[0.60105,7.02417],[0.5912,7.01136],[0.59518,7.00799],[0.57831,6.99442],[0.56965,6.99728],[0.54809,6.99164],[0.53935,6.98595],[0.53433,6.97762],[0.52665,6.97372],[0.52322,6.97496],[0.52184,6.97125],[0.52534,6.96585],[0.52184,6.96254],[0.52408,6.95578],[0.52037,6.94881],[0.52279,6.94117],[0.54537,6.93496],[0.54752,6.9372],[0.54984,6.92956],[0.55793,6.92899],[0.56329,6.92523],[0.56554,6.91891],[0.55861,6.88776],[0.55137,6.88111],[0.53481,6.87742],[0.54365,6.86406],[0.53248,6.85601],[0.53217,6.8324],[0.53525,6.83291],[0.53283,6.82898],[0.53952,6.82529],[0.54599,6.82819],[0.54549,6.8326],[0.54887,6.834],[0.56063,6.82348],[0.56631,6.82343],[0.56869,6.81947],[0.5666,6.81483],[0.57024,6.8105],[0.58059,6.80788],[0.57652,6.79913],[0.56707,6.80348],[0.57058,6.7942],[0.56623,6.78447],[0.57772,6.77559],[0.57263,6.77479],[0.58005,6.76374],[0.60211,6.75656],[0.60811,6.74761],[0.62164,6.75413],[0.62638,6.74664],[0.63395,6.74792],[0.63952,6.74499],[0.64447,6.75358],[0.64568,6.7814],[0.64447,6.78987],[0.63238,6.80438],[0.6348,6.81769],[0.72068,6.90115],[0.7364,6.92534],[0.74124,6.94953],[0.74003,6.98824],[0.75092,6.99429]]]}},{"type":"Feature","properties":{"id":"TGO:ADM2:56601680B41562196478781","name":"Ave","countryCode":"TGO","adminLevel":2,"sourceCode":"56601680B41562196478781","parentId":"TGO:ADM1:TGO-87"},"geometry":{"type":"Polygon","coordinates":[[[1.11501,6.25948],[1.08724,6.25771],[1.02982,6.32314],[1.03783,6.3612],[1.07055,6.38524],[1.06721,6.44533],[1.01647,6.50543],[0.93133,6.61894],[0.92499,6.64965],[0.91097,6.67703],[0.89892,6.68521],[0.88278,6.64139],[0.84583,6.60917],[0.82028,6.57222],[0.80889,6.56333],[0.76111,6.53833],[0.73306,6.53417],[0.71817,6.53762],[0.71233,6.52843],[0.71913,6.50158],[0.72715,6.48832],[0.7443,6.48135],[0.74816,6.44292],[0.78134,6.43233],[0.78814,6.40899],[0.82826,6.40011],[0.85681,6.3836],[0.88456,6.35492],[0.89387,6.33325],[1.00531,6.33271],[1.00943,6.32512],[1.00639,6.30947],[1.00853,6.29193],[1.0166,6.28465],[1.02431,6.25417],[1.03887,6.23575],[1.05493,6.2314],[1.06583,6.21905],[1.06899,6.20739],[1.08342,6.18768],[1.08544,6.16808],[1.10574,6.16816],[1.11501,6.25948]]]}},{"type":"Feature","properties":{"id":"TGO:ADM2:56601680B43007755983133","name":"Vo","countryCode":"TGO","adminLevel":2,"sourceCode":"56601680B43007755983133","parentId":"TGO:ADM1:TGO-87"},"geometry":{"type":"Polygon","coordinates":[[[1.5375,6.55139],[1.5025,6.53778],[1.46278,6.53417],[1.44639,6.52306],[1.42778,6.49972],[1.39333,6.44222],[1.38306,6.43083],[1.36611,6.4225],[1.38694,6.30639],[1.40333,6.26944],[1.40528,6.25139],[1.47361,6.21194],[1.49694,6.21056],[1.51389,6.22028],[1.53389,6.22611],[1.585,6.23111],[1.58306,6.25611],[1.58583,6.2675],[1.60361,6.29056],[1.60611,6.30389],[1.59583,6.35194],[1.59972,6.36167],[1.62361,6.37111],[1.62694,6.38167],[1.62111,6.4025],[1.6075,6.41028],[1.59778,6.42028],[1.56222,6.515],[1.5375,6.55139]]]}},{"type":"Feature","properties":{"id":"TGO:ADM2:56601680B43372711183576","name":"Est-Mono","countryCode":"TGO","adminLevel":2,"sourceCode":"56601680B43372711183576","parentId":"TGO:ADM1:TGO-86"},"geometry":{"type":"Polygon","coordinates":[[[1.22757,8.37354],[1.23139,8.36972],[1.23639,8.37056],[1.23861,8.36528],[1.22917,8.34639],[1.22917,8.30417],[1.23139,8.29222],[1.23889,8.27972],[1.24083,8.25528],[1.24528,8.245],[1.24333,8.21694],[1.25167,8.20417],[1.26028,8.19917],[1.26444,8.18278],[1.26361,8.15667],[1.25694,8.13611],[1.25583,8.11],[1.25,8.08778],[1.25111,8.05722],[1.23278,8.02028],[1.23583,8.01083],[1.245,8.00556],[1.20167,7.97333],[1.16485,7.96564],[1.17019,7.93507],[1.19422,7.92038],[1.21425,7.91638],[1.27299,7.91504],[1.2997,7.91905],[1.31572,7.91638],[1.33842,7.87365],[1.3491,7.86163],[1.36779,7.84828],[1.45057,7.81624],[1.48929,7.8149],[1.49597,7.82158],[1.49196,7.85763],[1.49864,7.88967],[1.51199,7.91638],[1.57074,7.94041],[1.58943,7.94041],[1.63368,7.93156],[1.63626,7.98842],[1.63347,8.31899],[1.63177,8.34125],[1.62428,8.35315],[1.6215,8.36596],[1.22757,8.37354]]]}},{"type":"Feature","properties":{"id":"TGO:ADM2:56601680B44378348729827","name":"Kozah","countryCode":"TGO","adminLevel":2,"sourceCode":"56601680B44378348729827","parentId":"TGO:ADM1:TGO-88"},"geometry":{"type":"Polygon","coordinates":[[[1.40134,9.42541],[1.39021,9.4973],[1.36239,9.48598],[1.36144,9.48325],[1.26972,9.535],[1.2975,9.60389],[1.30556,9.6475],[1.30472,9.66555],[1.29639,9.67694],[1.26111,9.69417],[1.24639,9.70694],[1.24167,9.71583],[1.24389,9.73417],[1.23944,9.74944],[1.23333,9.75778],[1.21111,9.77139],[1.18972,9.73972],[1.16889,9.71917],[1.15639,9.695],[1.13194,9.69639],[1.10833,9.67056],[1.09611,9.66222],[1.08472,9.66028],[1.05889,9.6625],[1.035,9.645],[0.99639,9.63889],[0.95222,9.64667],[0.91621,9.64528],[0.91472,9.63222],[0.93083,9.62056],[0.94139,9.625],[0.95472,9.625],[0.95944,9.62306],[0.97083,9.60722],[1.00806,9.59389],[1.00583,9.52],[0.99639,9.49944],[0.99556,9.46861],[0.98389,9.45389],[1.00083,9.42278],[1.01139,9.4125],[1.03389,9.40583],[1.06639,9.41333],[1.0825,9.40806],[1.09389,9.40944],[1.11861,9.40444],[1.13222,9.41194],[1.14222,9.43028],[1.14778,9.43111],[1.16694,9.41972],[1.17917,9.41778],[1.20028,9.42222],[1.22583,9.43806],[1.23611,9.44111],[1.29167,9.42917],[1.34972,9.44472],[1.37167,9.44694],[1.40134,9.42541]]]}},{"type":"Feature","properties":{"id":"TGO:ADM2:56601680B44610096966608","name":"Zio","countryCode":"TGO","adminLevel":2,"sourceCode":"56601680B44610096966608","parentId":"TGO:ADM1:TGO-87"},"geometry":{"type":"Polygon","coordinates":[[[1.25912,6.20015],[1.28306,6.19028],[1.30111,6.19083],[1.34361,6.20722],[1.39278,6.21528],[1.39814,6.21386],[1.40472,6.24055],[1.40556,6.25972],[1.38694,6.30639],[1.36611,6.4225],[1.34778,6.4475],[1.34028,6.47778],[1.31528,6.50111],[1.30639,6.51861],[1.30278,6.55278],[1.29167,6.58139],[1.29389,6.60722],[1.30472,6.64028],[1.30333,6.65833],[1.29194,6.66722],[1.24583,6.68694],[1.24139,6.695],[1.24972,6.70778],[1.24667,6.71778],[1.19611,6.73861],[1.18083,6.76389],[1.15611,6.77556],[1.14917,6.78861],[1.12,6.79333],[1.11778,6.79778],[1.125,6.80528],[1.12194,6.80889],[0.89222,6.82555],[0.89361,6.78917],[0.90167,6.74694],[0.90222,6.71389],[0.89892,6.68521],[0.91097,6.67703],[0.91831,6.66501],[0.92499,6.64965],[0.93133,6.61894],[1.01647,6.50543],[1.06721,6.44533],[1.07055,6.38524],[1.03783,6.3612],[1.02982,6.32314],[1.08724,6.25771],[1.11501,6.25948],[1.12444,6.27778],[1.14111,6.28611],[1.16555,6.28278],[1.19945,6.27194],[1.21389,6.26417],[1.23111,6.24778],[1.25194,6.20833],[1.25912,6.20015]]]}},{"type":"Feature","properties":{"id":"TGO:ADM2:56601680B44914344892125","name":"Binah","countryCode":"TGO","adminLevel":2,"sourceCode":"56601680B44914344892125","parentId":"TGO:ADM1:TGO-88"},"geometry":{"type":"Polygon","coordinates":[[[1.36239,9.48598],[1.35852,9.49119],[1.3589,9.50866],[1.34159,9.54626],[1.36606,9.61139],[1.3693,9.6615],[1.36311,9.69847],[1.36455,9.78833],[1.35872,9.91389],[1.33889,9.90028],[1.31611,9.89667],[1.29806,9.88833],[1.25806,9.85889],[1.24889,9.8475],[1.21111,9.77139],[1.23333,9.75778],[1.23944,9.74944],[1.24389,9.73417],[1.24167,9.71583],[1.24639,9.70694],[1.26111,9.69417],[1.29639,9.67694],[1.30472,9.66555],[1.30556,9.6475],[1.2975,9.60389],[1.26972,9.535],[1.36144,9.48325],[1.36239,9.48598]]]}},{"type":"Feature","properties":{"id":"TGO:ADM2:56601680B47682688566924","name":"Plaine de Mô","countryCode":"TGO","adminLevel":2,"sourceCode":"56601680B47682688566924","parentId":"TGO:ADM1:TGO-89"},"geometry":{"type":"Polygon","coordinates":[[[0.69424,9.01031],[0.68583,9.00389],[0.67167,8.98333],[0.64333,8.98167],[0.63694,8.97417],[0.63083,8.94556],[0.61278,8.92833],[0.58389,8.91555],[0.57861,8.90639],[0.57861,8.89944],[0.59111,8.89194],[0.5925,8.88611],[0.59194,8.88],[0.58472,8.87333],[0.57389,8.87028],[0.55472,8.8725],[0.53583,8.84889],[0.51417,8.84305],[0.50163,8.84557],[0.49519,8.83964],[0.49986,8.82952],[0.49455,8.82115],[0.49798,8.81491],[0.48982,8.80092],[0.47837,8.79759],[0.47138,8.79933],[0.46633,8.79271],[0.45779,8.80183],[0.45579,8.81156],[0.45058,8.81296],[0.44456,8.80366],[0.43121,8.79795],[0.43078,8.79359],[0.43676,8.79645],[0.44225,8.78905],[0.42771,8.78034],[0.42381,8.78184],[0.42248,8.78957],[0.41865,8.79248],[0.39749,8.79121],[0.39178,8.79447],[0.38008,8.79041],[0.38117,8.77085],[0.38469,8.76683],[0.40028,8.76314],[0.40104,8.75755],[0.39569,8.75445],[0.37575,8.7549],[0.38474,8.74596],[0.38108,8.73977],[0.47123,8.59539],[0.47809,8.59289],[0.48097,8.5966],[0.49022,8.59719],[0.49486,8.59194],[0.499,8.57409],[0.51057,8.56348],[0.51832,8.56207],[0.52801,8.56973],[0.532,8.56776],[0.53396,8.55898],[0.5386,8.55562],[0.55863,8.55018],[0.56915,8.53378],[0.56824,8.52533],[0.58419,8.52502],[0.58856,8.51682],[0.6011,8.51843],[0.6114,8.51352],[0.63029,8.53739],[0.68765,8.55219],[0.72095,8.57439],[0.75425,8.61509],[0.782,8.63914],[0.7783,8.65765],[0.7524,8.69095],[0.70615,8.72055],[0.7006,8.84635],[0.72095,8.86115],[0.73575,8.86485],[0.74315,8.87225],[0.7154,8.9037],[0.708,8.98141],[0.69424,9.01031]]]}},{"type":"Feature","properties":{"id":"TGO:ADM2:56601680B4810153335262","name":"Tone","countryCode":"TGO","adminLevel":2,"sourceCode":"56601680B4810153335262","parentId":"TGO:ADM1:TGO-90"},"geometry":{"type":"Polygon","coordinates":[[[0.4088,11.02799],[0.2283,11.06456],[0.2234,11.04548],[0.23724,11.01779],[0.2434,10.98856],[0.23724,10.96856],[0.22494,10.96395],[0.18494,10.99471],[0.15571,11.00548],[0.13109,11.00548],[0.11571,11.02087],[0.07879,11.03317],[0.02684,11.01867],[0.0272,11.0063],[0.03469,10.9898],[0.03239,10.97741],[0.01433,10.96965],[0.00945,10.96394],[-0.00319,10.96225],[-0.00695,10.9544],[-0.00602,10.945],[-0.0108,10.94083],[-0.00726,10.9139],[-0.0134,10.90552],[-0.01956,10.88608],[-0.0251,10.87999],[-0.02881,10.85969],[-0.02934,10.8493],[-0.02346,10.83462],[-0.02194,10.81984],[-0.02877,10.81487],[-0.03065,10.80687],[-0.0429,10.79992],[-0.04545,10.79267],[-0.05706,10.78562],[-0.07486,10.75765],[-0.03911,10.76732],[0.00505,10.76348],[0.01657,10.74428],[0.03193,10.73084],[0.05305,10.75964],[0.04345,10.78652],[0.06265,10.80188],[0.07801,10.80188],[0.12216,10.79036],[0.24888,10.71164],[0.27576,10.6886],[0.31335,10.69192],[0.31033,10.70129],[0.3134,10.71771],[0.33495,10.769],[0.33084,10.78439],[0.32058,10.769],[0.3052,10.76387],[0.29596,10.78233],[0.30622,10.80798],[0.35546,10.88389],[0.38624,10.9239],[0.39342,10.96185],[0.40983,10.98647],[0.4088,11.02799]]]}},{"type":"Feature","properties":{"id":"TGO:ADM2:56601680B48376088277440","name":"Wawa","countryCode":"TGO","adminLevel":2,"sourceCode":"56601680B48376088277440","parentId":"TGO:ADM1:TGO-86"},"geometry":{"type":"Polygon","coordinates":[[[0.90263,7.69131],[0.82792,7.68489],[0.80711,7.63289],[0.79482,7.63572],[0.77875,7.66598],[0.75605,7.65558],[0.7135,7.62627],[0.69364,7.61965],[0.67095,7.62721],[0.65582,7.64802],[0.65015,7.67922],[0.65015,7.70097],[0.63206,7.70649],[0.62345,7.70494],[0.61117,7.71079],[0.59457,7.70325],[0.58935,7.66725],[0.58842,7.62734],[0.56093,7.61606],[0.55337,7.60964],[0.5386,7.60802],[0.53527,7.60248],[0.52132,7.59453],[0.53072,7.58887],[0.52565,7.52317],[0.52037,7.51553],[0.52803,7.48377],[0.52058,7.47227],[0.52406,7.46951],[0.51994,7.4629],[0.52123,7.4565],[0.5268,7.45964],[0.53296,7.45866],[0.53339,7.43937],[0.53924,7.43189],[0.53812,7.42461],[0.55806,7.40291],[0.57358,7.39343],[0.59692,7.3988],[0.60182,7.40704],[0.60577,7.40422],[0.61871,7.41265],[0.62526,7.4106],[0.63044,7.40205],[0.63416,7.4037],[0.64429,7.39873],[0.64812,7.37833],[0.64567,7.3754],[0.64684,7.36748],[0.69028,7.38528],[0.70139,7.38583],[0.71889,7.38139],[0.74972,7.39639],[0.77389,7.39639],[0.8025,7.40778],[0.84333,7.4375],[0.89028,7.48389],[0.94972,7.52945],[0.99,7.555],[0.99917,7.56722],[0.99694,7.57833],[0.98944,7.58417],[0.945,7.59111],[0.91972,7.60222],[0.91306,7.60917],[0.90389,7.62695],[0.90263,7.69131]]]}},{"type":"Feature","properties":{"id":"TGO:ADM2:56601680B48471181858151","name":"Ogou","countryCode":"TGO","adminLevel":2,"sourceCode":"56601680B48471181858151","parentId":"TGO:ADM1:TGO-86"},"geometry":{"type":"Polygon","coordinates":[[[0.98497,7.21994],[0.98722,7.16944],[0.99306,7.13028],[0.99222,7.08222],[1.00361,7.08306],[1.0525,7.09944],[1.1275,7.16083],[1.15361,7.17583],[1.175,7.18028],[1.21917,7.17917],[1.275,7.18861],[1.30333,7.19917],[1.32417,7.21111],[1.38389,7.25445],[1.41667,7.27389],[1.4325,7.27778],[1.51306,7.28472],[1.54389,7.29278],[1.59472,7.34611],[1.63589,7.40091],[1.64363,7.48323],[1.60784,7.4882],[1.60094,7.49597],[1.60008,7.50719],[1.58886,7.51927],[1.55779,7.53049],[1.53708,7.53221],[1.52846,7.52099],[1.52759,7.50374],[1.51983,7.49683],[1.5112,7.49424],[1.49221,7.49597],[1.47237,7.4882],[1.44821,7.48475],[1.4413,7.42176],[1.4344,7.41572],[1.40333,7.45455],[1.39988,7.46922],[1.37917,7.47699],[1.37658,7.48734],[1.38004,7.49597],[1.37917,7.5046],[1.35501,7.51582],[1.34207,7.51582],[1.33603,7.51927],[1.33689,7.53049],[1.34293,7.53307],[1.34466,7.54516],[1.33603,7.55206],[1.31446,7.55637],[1.30669,7.565],[1.31618,7.5883],[1.3041,7.59348],[1.29202,7.58916],[1.28339,7.59434],[1.28425,7.6047],[1.29633,7.62368],[1.29633,7.63662],[1.28167,7.66596],[1.2506,7.67718],[1.20055,7.67977],[1.19279,7.69357],[1.19537,7.72895],[1.19106,7.74362],[1.18416,7.74449],[1.16776,7.73672],[1.15611,7.72139],[1.15056,7.66694],[1.16167,7.62639],[1.1325,7.58361],[1.12167,7.55806],[1.11861,7.50111],[1.12167,7.47944],[1.14278,7.43917],[1.13861,7.41611],[1.12306,7.38917],[1.12,7.37695],[1.11361,7.32],[1.10139,7.30417],[0.98889,7.22639],[0.98497,7.21994]]]}},{"type":"Feature","properties":{"id":"TGO:ADM2:56601680B49010054481747","name":"Akébou","countryCode":"TGO","adminLevel":2,"sourceCode":"56601680B49010054481747","parentId":"TGO:ADM1:TGO-86"},"geometry":{"type":"Polygon","coordinates":[[[1.05016,7.90407],[1.04028,7.94556],[1.03417,7.95389],[1.03323,7.96269],[0.98556,7.9725],[0.96278,7.98056],[0.92944,7.96778],[0.87944,7.95889],[0.85417,7.96194],[0.84028,7.96972],[0.83417,7.96972],[0.825,7.95083],[0.80806,7.94222],[0.75389,7.93055],[0.72361,7.93444],[0.70139,7.92306],[0.68139,7.90056],[0.6173,7.89669],[0.62423,7.86481],[0.62233,7.84354],[0.61779,7.84264],[0.61724,7.80166],[0.61807,7.79674],[0.62814,7.79629],[0.6328,7.77708],[0.63023,7.76809],[0.62204,7.76431],[0.61136,7.75131],[0.62002,7.74639],[0.63206,7.70649],[0.65015,7.70097],[0.65015,7.67922],[0.65582,7.64802],[0.67095,7.62721],[0.69364,7.61965],[0.7135,7.62627],[0.75605,7.65558],[0.77875,7.66598],[0.79482,7.63572],[0.80711,7.63289],[0.82792,7.68489],[0.90263,7.69131],[0.91167,7.77889],[0.92639,7.82278],[0.94417,7.85528],[0.95306,7.86528],[0.96639,7.87278],[0.99861,7.8875],[1.05016,7.90407]]]}},{"type":"Feature","properties":{"id":"TGO:ADM2:56601680B59402294179516","name":"Golfe","countryCode":"TGO","adminLevel":2,"sourceCode":"56601680B59402294179516","parentId":"TGO:ADM1:TGO-87"},"geometry":{"type":"Polygon","coordinates":[[[1.25912,6.20015],[1.25194,6.20833],[1.23111,6.24778],[1.21389,6.26417],[1.18445,6.27778],[1.14111,6.28611],[1.12444,6.27778],[1.11501,6.25948],[1.10574,6.16816],[1.17569,6.16845],[1.17568,6.17958],[1.18973,6.18894],[1.23068,6.19246],[1.25912,6.20015]]]}},{"type":"Feature","properties":{"id":"TGO:ADM2:56601680B59731994726086","name":"Assoli","countryCode":"TGO","adminLevel":2,"sourceCode":"56601680B59731994726086","parentId":"TGO:ADM1:TGO-88"},"geometry":{"type":"Polygon","coordinates":[[[1.43123,9.29781],[1.42092,9.30743],[1.40807,9.33449],[1.40312,9.35491],[1.40134,9.42541],[1.37167,9.44694],[1.34972,9.44472],[1.29167,9.42917],[1.23611,9.44111],[1.22583,9.43806],[1.20028,9.42222],[1.17917,9.41778],[1.16694,9.41972],[1.14778,9.43111],[1.14222,9.43028],[1.13222,9.41194],[1.11861,9.40444],[1.09389,9.40944],[1.0825,9.40806],[1.06639,9.41333],[1.03389,9.40583],[1.01139,9.4125],[1.00083,9.42278],[0.98389,9.45389],[0.97194,9.40389],[0.95694,9.38417],[0.95472,9.37111],[0.95611,9.3475],[0.96139,9.33222],[0.98472,9.32056],[1.00667,9.29389],[1.02306,9.28861],[1.02917,9.28028],[1.03306,9.26611],[1.03361,9.24028],[1.02556,9.21917],[1.01866,9.2136],[1.03806,9.21278],[1.07056,9.22778],[1.08778,9.23],[1.11944,9.22583],[1.17472,9.2125],[1.22306,9.21583],[1.28083,9.23639],[1.33306,9.25028],[1.3675,9.25139],[1.43123,9.29781]]]}},{"type":"Feature","properties":{"id":"TGO:ADM2:56601680B61332506890313","name":"Lacs","countryCode":"TGO","adminLevel":2,"sourceCode":"56601680B61332506890313","parentId":"TGO:ADM1:TGO-87"},"geometry":{"type":"Polygon","coordinates":[[[1.59972,6.36167],[1.59556,6.345],[1.60611,6.30389],[1.60361,6.29056],[1.58583,6.2675],[1.58306,6.25611],[1.585,6.23111],[1.53389,6.22611],[1.51389,6.22028],[1.49694,6.21056],[1.48528,6.21],[1.4625,6.21611],[1.40528,6.25139],[1.39556,6.19695],[1.39792,6.1812],[1.4863,6.20452],[1.53005,6.21149],[1.55862,6.22044],[1.62787,6.23429],[1.62956,6.24237],[1.64567,6.24809],[1.6682,6.2476],[1.6804,6.25448],[1.68983,6.25332],[1.6942,6.25699],[1.70984,6.25719],[1.74898,6.27111],[1.76392,6.27181],[1.76898,6.2748],[1.7699,6.28216],[1.79933,6.28056],[1.80669,6.28424],[1.80186,6.29068],[1.79542,6.29321],[1.78921,6.30287],[1.79748,6.30724],[1.79794,6.31276],[1.78275,6.33898],[1.78781,6.34381],[1.78919,6.35048],[1.78016,6.37233],[1.77234,6.3774],[1.77075,6.39167],[1.77421,6.39442],[1.76953,6.39822],[1.75377,6.39403],[1.74758,6.38165],[1.71661,6.38113],[1.69752,6.3672],[1.66604,6.3672],[1.64798,6.35275],[1.64282,6.33572],[1.62217,6.35378],[1.59972,6.36167]]]}},{"type":"Feature","properties":{"id":"TGO:ADM2:56601680B64184766281932","name":"Haho","countryCode":"TGO","adminLevel":2,"sourceCode":"56601680B64184766281932","parentId":"TGO:ADM1:TGO-86"},"geometry":{"type":"Polygon","coordinates":[[[1.58761,6.91304],[1.5779,6.923],[1.57411,6.94711],[1.55918,6.97219],[1.55783,6.99749],[1.55367,7.011],[1.53989,7.01592],[1.53694,7.02871],[1.54481,7.04249],[1.55859,7.04445],[1.5763,7.06216],[1.53793,7.08479],[1.5212,7.08578],[1.5094,7.09365],[1.50349,7.10939],[1.4848,7.11136],[1.46414,7.10349],[1.46315,7.12021],[1.44741,7.13005],[1.43954,7.14284],[1.43856,7.17235],[1.44249,7.18613],[1.4543,7.19105],[1.4789,7.194],[1.48086,7.20285],[1.47201,7.21171],[1.46807,7.22745],[1.45627,7.23729],[1.45233,7.25697],[1.46567,7.27905],[1.4325,7.27778],[1.41667,7.27389],[1.38389,7.25445],[1.34806,7.22694],[1.30333,7.19917],[1.275,7.18861],[1.21917,7.17917],[1.16306,7.17889],[1.14472,7.17194],[1.0525,7.09944],[1.025,7.08861],[0.99222,7.08222],[0.98917,7.07778],[0.93917,7.0525],[0.92,7.03139],[0.90806,7.00722],[0.89611,6.96806],[0.89017,6.92006],[0.89222,6.82555],[1.12194,6.80889],[1.125,6.80528],[1.11778,6.79778],[1.12,6.79333],[1.14917,6.78861],[1.15611,6.77556],[1.18083,6.76389],[1.19611,6.73861],[1.24071,6.7218],[1.30806,6.78694],[1.37583,6.83389],[1.41111,6.84445],[1.46472,6.83111],[1.47722,6.83028],[1.49806,6.83611],[1.51556,6.845],[1.53028,6.85722],[1.55056,6.89389],[1.5575,6.90083],[1.58761,6.91304]]]}},{"type":"Feature","properties":{"id":"TGO:ADM2:56601680B64387003159978","name":"Cinkassé","countryCode":"TGO","adminLevel":2,"sourceCode":"56601680B64387003159978","parentId":"TGO:ADM1:TGO-90"},"geometry":{"type":"Polygon","coordinates":[[[0.2283,11.06456],[-0.14201,11.13898],[-0.14732,11.11248],[-0.14302,11.10149],[-0.12787,11.10095],[-0.1117,11.09007],[-0.09375,11.08863],[-0.035,11.10528],[-0.00219,11.10512],[0.00987,11.10144],[0.02275,11.08191],[0.02684,11.01867],[0.07879,11.03317],[0.11571,11.02087],[0.13109,11.00548],[0.15571,11.00548],[0.18494,10.99471],[0.22494,10.96395],[0.23724,10.96856],[0.2434,10.98856],[0.23724,11.01779],[0.2234,11.04548],[0.2283,11.06456]]]}},{"type":"Feature","properties":{"id":"TGO:ADM2:56601680B67578860005589","name":"Moyen-Mono","countryCode":"TGO","adminLevel":2,"sourceCode":"56601680B67578860005589","parentId":"TGO:ADM1:TGO-86"},"geometry":{"type":"Polygon","coordinates":[[[1.55783,6.99749],[1.58637,6.99791],[1.5935,6.99353],[1.60663,6.9965],[1.64203,6.99457],[1.63566,7.2698],[1.63589,7.40091],[1.59472,7.34611],[1.54389,7.29278],[1.51306,7.28472],[1.46567,7.27905],[1.45233,7.25697],[1.45627,7.23729],[1.46807,7.22745],[1.47201,7.21171],[1.48086,7.20285],[1.4789,7.194],[1.4543,7.19105],[1.44249,7.18613],[1.43856,7.17235],[1.43954,7.14284],[1.44741,7.13005],[1.46315,7.12021],[1.46414,7.10349],[1.4848,7.11136],[1.50349,7.10939],[1.5094,7.09365],[1.5212,7.08578],[1.53793,7.08479],[1.5763,7.06216],[1.55859,7.04445],[1.54481,7.04249],[1.53694,7.02871],[1.53989,7.01592],[1.55367,7.011],[1.55783,6.99749]]]}},{"type":"Feature","properties":{"id":"TGO:ADM2:56601680B83789166363061","name":"Blitta","countryCode":"TGO","adminLevel":2,"sourceCode":"56601680B83789166363061","parentId":"TGO:ADM1:TGO-89"},"geometry":{"type":"Polygon","coordinates":[[[1.22757,8.37354],[1.22273,8.37335],[1.20624,8.38434],[1.16018,8.39324],[1.13113,8.36052],[1.04516,8.37623],[1.00525,8.38931],[0.9537,8.37047],[0.78149,8.40423],[0.75117,8.374],[0.73219,8.36615],[0.70994,8.38667],[0.71044,8.35718],[0.7207,8.35515],[0.73107,8.34628],[0.73338,8.31856],[0.73093,8.31616],[0.73114,8.29024],[0.7216,8.28266],[0.68443,8.28291],[0.67801,8.27899],[0.67246,8.26447],[0.6605,8.25941],[0.6378,8.25895],[0.63732,8.24727],[0.62402,8.23825],[0.62557,8.22964],[0.61871,8.2161],[0.58768,8.20789],[0.58707,8.19704],[0.5904,8.19157],[0.60129,8.18126],[0.61145,8.18369],[0.61057,8.17729],[0.60603,8.17258],[0.60582,8.14479],[0.59102,8.13831],[0.58973,8.10481],[0.58414,8.10322],[0.58345,8.09505],[0.59535,8.0453],[0.59385,8.03609],[0.59899,8.02443],[0.59451,7.99212],[0.59794,7.98778],[0.59616,7.9767],[0.60056,7.95471],[0.60544,7.95224],[0.60953,7.94455],[0.6091,7.9346],[0.61529,7.9189],[0.61386,7.90948],[0.6173,7.89669],[0.68139,7.90056],[0.70139,7.92306],[0.72361,7.93444],[0.75389,7.93055],[0.80806,7.94222],[0.825,7.95083],[0.83417,7.96972],[0.84028,7.96972],[0.85417,7.96194],[0.87944,7.95889],[0.92944,7.96778],[0.96278,7.98056],[0.98556,7.9725],[1.03323,7.96269],[1.05889,7.95028],[1.07139,7.94889],[1.20167,7.97333],[1.24167,8.00111],[1.245,8.00556],[1.23583,8.01083],[1.23278,8.02028],[1.25111,8.05722],[1.25,8.08778],[1.25583,8.11],[1.25694,8.13611],[1.26361,8.15667],[1.26444,8.18278],[1.26028,8.19917],[1.25167,8.20417],[1.24333,8.21694],[1.24528,8.245],[1.24083,8.25528],[1.23889,8.27972],[1.23139,8.29222],[1.22917,8.30417],[1.22917,8.34639],[1.23861,8.36528],[1.23639,8.37056],[1.23139,8.36972],[1.22757,8.37354]]]}},{"type":"Feature","properties":{"id":"TGO:ADM2:56601680B89112535430785","name":"Tandjouare","countryCode":"TGO","adminLevel":2,"sourceCode":"56601680B89112535430785","parentId":"TGO:ADM1:TGO-90"},"geometry":{"type":"Polygon","coordinates":[[[0.31325,10.69191],[0.27576,10.6886],[0.24888,10.71164],[0.12216,10.79036],[0.07801,10.80188],[0.06265,10.80188],[0.04345,10.78652],[0.05305,10.75964],[0.03193,10.73084],[0.01657,10.74428],[0.00505,10.76348],[-0.03911,10.76732],[-0.07486,10.75765],[-0.07081,10.7402],[-0.07433,10.73028],[-0.07272,10.72],[-0.08921,10.71269],[-0.09068,10.70727],[-0.07137,10.67168],[-0.0705,10.65949],[-0.05956,10.63105],[-0.01542,10.62161],[-0.01175,10.61423],[0.04065,10.60002],[0.04369,10.59217],[0.05628,10.58251],[0.06141,10.56051],[0.1185,10.53923],[0.1304,10.5294],[0.14346,10.52538],[0.14922,10.49894],[0.15326,10.49504],[0.153,10.48467],[0.16233,10.47256],[0.15774,10.46266],[0.16702,10.4504],[0.17515,10.44619],[0.17047,10.43863],[0.17334,10.42559],[0.18517,10.41987],[0.19333,10.40158],[0.19673,10.40013],[0.21011,10.40358],[0.20786,10.41306],[0.20302,10.41118],[0.20033,10.41995],[0.20608,10.42813],[0.23625,10.53951],[0.24606,10.55562],[0.27731,10.57258],[0.29524,10.57743],[0.3034,10.60866],[0.32525,10.62097],[0.32691,10.66621],[0.31325,10.69191]]]}},{"type":"Feature","properties":{"id":"TGO:ADM2:56601680B89390870579143","name":"Doufelgou","countryCode":"TGO","adminLevel":2,"sourceCode":"56601680B89390870579143","parentId":"TGO:ADM1:TGO-88"},"geometry":{"type":"Polygon","coordinates":[[[1.35872,9.91389],[1.3552,10],[1.17331,10.10765],[1.17417,10.045],[1.17111,10.025],[1.15444,9.99083],[1.13889,9.9725],[1.1275,9.935],[1.11056,9.9175],[1.08639,9.90417],[1.08361,9.89889],[1.08194,9.87278],[1.07361,9.86056],[1.05611,9.85],[1.03639,9.84944],[1.01472,9.8625],[1.00278,9.86444],[0.98611,9.85389],[0.95222,9.84667],[0.94583,9.84722],[0.93528,9.8575],[0.92972,9.85889],[0.90861,9.85361],[0.89,9.87028],[0.88389,9.87083],[0.84861,9.85194],[0.83889,9.84056],[0.83694,9.83583],[0.83972,9.82528],[0.84611,9.8175],[0.85917,9.80972],[0.86083,9.80472],[0.85806,9.78695],[0.86167,9.77055],[0.85639,9.75611],[0.85944,9.74583],[0.86806,9.74],[0.87167,9.73],[0.85944,9.71472],[0.86111,9.70333],[0.87028,9.69278],[0.87861,9.67361],[0.89417,9.66778],[0.9025,9.65583],[0.91354,9.65407],[0.91621,9.64528],[0.95222,9.64667],[0.99639,9.63889],[1.035,9.645],[1.05889,9.6625],[1.08472,9.66028],[1.09611,9.66222],[1.10833,9.67056],[1.13194,9.69639],[1.15639,9.695],[1.16889,9.71917],[1.18972,9.73972],[1.21083,9.76861],[1.24889,9.8475],[1.25806,9.85889],[1.29806,9.88833],[1.31611,9.89667],[1.33889,9.90028],[1.35872,9.91389]]]}},{"type":"Feature","properties":{"id":"TGO:ADM2:56601680B89691125732498","name":"Lome Commune","countryCode":"TGO","adminLevel":2,"sourceCode":"56601680B89691125732498","parentId":"TGO:ADM1:TGO-87"},"geometry":{"type":"Polygon","coordinates":[[[1.20032,6.16855],[1.17569,6.16845],[1.17568,6.17958],[1.18973,6.18894],[1.23068,6.19246],[1.25912,6.20015],[1.28306,6.19028],[1.30111,6.19083],[1.34361,6.20722],[1.39278,6.21528],[1.39814,6.21386],[1.39556,6.19695],[1.39792,6.1812],[1.2971,6.14954],[1.28456,6.14349],[1.2853,6.14089],[1.28133,6.14193],[1.28305,6.13929],[1.28058,6.14127],[1.28344,6.13751],[1.27389,6.13461],[1.26244,6.13399],[1.19961,6.11242],[1.20032,6.16855]]]}},{"type":"Feature","properties":{"id":"TGO:ADM2:56601680B91306020007274","name":"Kpélé","countryCode":"TGO","adminLevel":2,"sourceCode":"56601680B91306020007274","parentId":"TGO:ADM1:TGO-86"},"geometry":{"type":"Polygon","coordinates":[[[0.79086,7.29097],[0.76455,7.2792],[0.75537,7.22499],[0.73035,7.17577],[0.66076,7.14281],[0.65479,7.08333],[0.6624,7.05668],[0.68525,7.03764],[0.7157,7.03764],[0.74045,7.02622],[0.75092,6.99429],[0.76906,6.99308],[0.77753,6.9834],[0.79446,6.94832],[0.81865,6.91687],[0.84647,6.90115],[0.86341,6.91204],[0.89017,6.92006],[0.89611,6.96806],[0.90806,7.00722],[0.92889,7.04333],[0.93917,7.0525],[0.98917,7.07778],[0.99222,7.08222],[0.99306,7.13028],[0.98722,7.16944],[0.98497,7.21994],[0.98167,7.23528],[0.96889,7.26305],[0.95361,7.28195],[0.94,7.28972],[0.9225,7.29361],[0.87944,7.29445],[0.80806,7.28861],[0.79086,7.29097]]]}},{"type":"Feature","properties":{"id":"TGO:ADM2:56601680B9516770320708","name":"Kpendjal","countryCode":"TGO","adminLevel":2,"sourceCode":"56601680B9516770320708","parentId":"TGO:ADM1:TGO-90"},"geometry":{"type":"Polygon","coordinates":[[[0.80461,10.72418],[0.85163,10.78297],[0.86784,10.79527],[0.87382,10.80496],[0.88508,10.86182],[0.90098,10.88674],[0.89052,10.92094],[0.91216,10.99649],[0.65631,10.99735],[0.59506,10.96956],[0.589,10.96975],[0.49468,10.931],[0.50634,10.97321],[0.50584,10.98011],[0.49372,10.98234],[0.48997,10.98623],[0.50285,11.00908],[0.4088,11.02799],[0.40983,10.98647],[0.39342,10.96185],[0.38624,10.9239],[0.35546,10.88389],[0.30622,10.80798],[0.29596,10.78233],[0.3052,10.76387],[0.32058,10.769],[0.33084,10.78439],[0.33495,10.769],[0.3134,10.71771],[0.31033,10.70129],[0.31335,10.69192],[0.34104,10.69436],[0.37944,10.69244],[0.4716,10.70396],[0.49272,10.69436],[0.51576,10.69052],[0.54072,10.67708],[0.60216,10.70204],[0.67127,10.71548],[0.75383,10.727],[0.80461,10.72418]]]}},{"type":"Feature","properties":{"id":"TGO:ADM2:56601680B95177776630805","name":"Anié","countryCode":"TGO","adminLevel":2,"sourceCode":"56601680B95177776630805","parentId":"TGO:ADM1:TGO-86"},"geometry":{"type":"Polygon","coordinates":[[[1.15611,7.72139],[1.16776,7.73672],[1.18416,7.74449],[1.19106,7.74362],[1.19537,7.72895],[1.19279,7.69357],[1.20055,7.67977],[1.2506,7.67718],[1.28167,7.66596],[1.29633,7.63662],[1.29633,7.62368],[1.28425,7.6047],[1.28339,7.59434],[1.29202,7.58916],[1.3041,7.59348],[1.31618,7.5883],[1.30669,7.565],[1.31446,7.55637],[1.33603,7.55206],[1.34466,7.54516],[1.34293,7.53307],[1.33689,7.53049],[1.33603,7.51927],[1.34207,7.51582],[1.35501,7.51582],[1.37917,7.5046],[1.38004,7.49597],[1.37658,7.48734],[1.37917,7.47699],[1.39988,7.46922],[1.40333,7.45455],[1.4344,7.41572],[1.4413,7.42176],[1.44821,7.48475],[1.47237,7.4882],[1.49221,7.49597],[1.5112,7.49424],[1.51983,7.49683],[1.52759,7.50374],[1.52846,7.52099],[1.53708,7.53221],[1.55779,7.53049],[1.58886,7.51927],[1.60008,7.50719],[1.60094,7.49597],[1.60784,7.4882],[1.64363,7.48323],[1.64827,7.49244],[1.67568,7.4947],[1.67753,7.49791],[1.66834,7.51769],[1.65982,7.52068],[1.65293,7.53402],[1.64837,7.56757],[1.65051,7.61399],[1.63741,7.64042],[1.63145,7.66111],[1.63625,7.80307],[1.63052,7.82697],[1.63368,7.93156],[1.58943,7.94041],[1.57074,7.94041],[1.51199,7.91638],[1.49864,7.88967],[1.49196,7.85763],[1.49597,7.82158],[1.48929,7.8149],[1.47327,7.81357],[1.45057,7.81624],[1.36779,7.84828],[1.3491,7.86163],[1.33842,7.87365],[1.31572,7.91638],[1.2997,7.91905],[1.27299,7.91504],[1.23695,7.91504],[1.19422,7.92038],[1.17019,7.93507],[1.16485,7.96564],[1.07139,7.94889],[1.05889,7.95028],[1.03323,7.96269],[1.03417,7.95389],[1.04028,7.94556],[1.05361,7.89167],[1.06028,7.88472],[1.07028,7.88083],[1.0875,7.85],[1.09194,7.82722],[1.10389,7.79917],[1.12778,7.79361],[1.14361,7.78083],[1.15167,7.75972],[1.15611,7.72139]]]}},{"type":"Feature","properties":{"id":"TGO:ADM2:56601680B95494992900514","name":"Bas-Mono","countryCode":"TGO","adminLevel":2,"sourceCode":"56601680B95494992900514","parentId":"TGO:ADM1:TGO-87"},"geometry":{"type":"Polygon","coordinates":[[[1.76953,6.39822],[1.76941,6.41168],[1.77608,6.41604],[1.75518,6.43678],[1.7529,6.45081],[1.74716,6.45404],[1.75062,6.46392],[1.74037,6.47398],[1.73393,6.47582],[1.73715,6.48111],[1.73485,6.48547],[1.73024,6.48639],[1.72794,6.49835],[1.71759,6.49329],[1.71276,6.4995],[1.70631,6.49582],[1.69573,6.50041],[1.69435,6.50961],[1.70193,6.51536],[1.70077,6.53675],[1.69571,6.54319],[1.69801,6.54802],[1.69639,6.55262],[1.68858,6.55193],[1.68397,6.56043],[1.67017,6.55606],[1.66602,6.56295],[1.67361,6.57285],[1.67429,6.5832],[1.66301,6.58387],[1.65633,6.5773],[1.65083,6.56417],[1.63944,6.56222],[1.59472,6.56944],[1.57694,6.56944],[1.5375,6.55139],[1.56222,6.515],[1.59778,6.42028],[1.6075,6.41028],[1.62111,6.4025],[1.62556,6.39361],[1.62694,6.38167],[1.62361,6.37111],[1.59972,6.36167],[1.62217,6.35378],[1.64282,6.33572],[1.64798,6.35275],[1.66604,6.3672],[1.69752,6.3672],[1.71661,6.38113],[1.74758,6.38165],[1.75377,6.39403],[1.76953,6.39822]]]}},{"type":"Feature","properties":{"id":"TGO:ADM2:56601680B97066679611380","name":"Amou","countryCode":"TGO","adminLevel":2,"sourceCode":"56601680B97066679611380","parentId":"TGO:ADM1:TGO-86"},"geometry":{"type":"Polygon","coordinates":[[[0.98497,7.21994],[0.98889,7.22639],[1.10139,7.30417],[1.11361,7.32],[1.12,7.37695],[1.12306,7.38917],[1.13861,7.41611],[1.14278,7.43917],[1.12167,7.47944],[1.11861,7.50111],[1.12167,7.55806],[1.1325,7.58361],[1.16167,7.62639],[1.15056,7.66694],[1.15611,7.72139],[1.14806,7.77194],[1.1375,7.78778],[1.12778,7.79361],[1.10389,7.79917],[1.09194,7.82722],[1.0875,7.85],[1.07028,7.88083],[1.06028,7.88472],[1.05361,7.89167],[1.05016,7.90407],[0.99861,7.8875],[0.95306,7.86528],[0.94417,7.85528],[0.92639,7.82278],[0.90889,7.76611],[0.9025,7.69389],[0.90389,7.62695],[0.90694,7.6175],[0.91972,7.60222],[0.945,7.59111],[0.98944,7.58417],[0.99694,7.57833],[0.99917,7.56722],[0.99,7.555],[0.94972,7.52945],[0.89028,7.48389],[0.84333,7.4375],[0.79278,7.40333],[0.79139,7.39111],[0.77528,7.36528],[0.78222,7.33361],[0.78,7.30278],[0.79086,7.29097],[0.80806,7.28861],[0.87944,7.29445],[0.9225,7.29361],[0.94,7.28972],[0.95361,7.28195],[0.96889,7.26305],[0.98167,7.23528],[0.98497,7.21994]]]}},{"type":"Feature","properties":{"id":"TGO:ADM2:56601680B98633254865748","name":"Agou","countryCode":"TGO","adminLevel":2,"sourceCode":"56601680B98633254865748","parentId":"TGO:ADM1:TGO-86"},"geometry":{"type":"Polygon","coordinates":[[[0.89892,6.68521],[0.90222,6.71389],[0.90167,6.74694],[0.89361,6.78917],[0.89017,6.92006],[0.86341,6.91204],[0.84647,6.90115],[0.81865,6.91687],[0.79446,6.94832],[0.77753,6.9834],[0.76906,6.99308],[0.75092,6.99429],[0.74003,6.98824],[0.74124,6.94953],[0.7364,6.92534],[0.72068,6.90115],[0.6348,6.81769],[0.63238,6.80438],[0.64447,6.78987],[0.64568,6.7814],[0.64447,6.75358],[0.63952,6.74499],[0.65096,6.73717],[0.64216,6.72053],[0.64846,6.71099],[0.6432,6.69574],[0.64442,6.67813],[0.64116,6.66976],[0.64375,6.6596],[0.63832,6.653],[0.63811,6.6353],[0.64715,6.62788],[0.6566,6.60865],[0.6639,6.6068],[0.66969,6.6091],[0.67259,6.61465],[0.69086,6.5988],[0.68936,6.59647],[0.68435,6.59774],[0.68782,6.59245],[0.7103,6.58676],[0.72708,6.59173],[0.74097,6.58267],[0.7441,6.55871],[0.71817,6.53762],[0.73306,6.53417],[0.76111,6.53833],[0.77111,6.54139],[0.82028,6.57222],[0.84583,6.60917],[0.88278,6.64139],[0.89892,6.68521]]]}}],"admin1":{"type":"FeatureCollection","features":[{"type":"Feature","properties":{"id":"TGO:ADM1:TGO-86","name":"Plateaux","countryCode":"TGO"},"geometry":{"type":"Polygon","coordinates":[[[0.90222,6.71389],[0.89892,6.68521],[0.88278,6.64139],[0.84583,6.60917],[0.82028,6.57222],[0.77111,6.54139],[0.76111,6.53833],[0.73306,6.53417],[0.71817,6.53762],[0.7441,6.55871],[0.74097,6.58267],[0.72708,6.59173],[0.7103,6.58676],[0.68782,6.59245],[0.68435,6.59774],[0.68936,6.59647],[0.69086,6.5988],[0.67259,6.61465],[0.66969,6.6091],[0.6639,6.6068],[0.6566,6.60865],[0.64715,6.62788],[0.63811,6.6353],[0.63832,6.653],[0.64375,6.6596],[0.64116,6.66976],[0.64442,6.67813],[0.6432,6.69574],[0.64846,6.71099],[0.64216,6.72053],[0.65096,6.73717],[0.63952,6.74499],[0.63395,6.74792],[0.62638,6.74664],[0.62164,6.75413],[0.60811,6.74761],[0.60211,6.75656],[0.58005,6.76374],[0.57263,6.77479],[0.57772,6.77559],[0.56623,6.78447],[0.57058,6.7942],[0.56707,6.80348],[0.57652,6.79913],[0.58059,6.80788],[0.57024,6.8105],[0.5666,6.81483],[0.56869,6.81947],[0.56631,6.82343],[0.56063,6.82348],[0.54887,6.834],[0.54549,6.8326],[0.54599,6.82819],[0.53952,6.82529],[0.53283,6.82898],[0.53525,6.83291],[0.53217,6.8324],[0.53248,6.85601],[0.54365,6.86406],[0.53481,6.87742],[0.55137,6.88111],[0.55861,6.88776],[0.56554,6.91891],[0.56329,6.92523],[0.55793,6.92899],[0.54984,6.92956],[0.54752,6.9372],[0.54537,6.93496],[0.52279,6.94117],[0.52037,6.94881],[0.52408,6.95578],[0.52184,6.96254],[0.52534,6.96585],[0.52184,6.97125],[0.52322,6.97496],[0.52665,6.97372],[0.53433,6.97762],[0.53935,6.98595],[0.54809,6.99164],[0.56965,6.99728],[0.57831,6.99442],[0.59518,7.00799],[0.5912,7.01136],[0.60105,7.02417],[0.59939,7.03268],[0.60172,7.03649],[0.59591,7.061],[0.61369,7.09255],[0.61276,7.10428],[0.60358,7.10616],[0.59817,7.1129],[0.59543,7.11207],[0.66076,7.14281],[0.73035,7.17577],[0.59235,7.11113],[0.5964,7.1203],[0.59734,7.13429],[0.60605,7.14219],[0.6061,7.15922],[0.61367,7.15658],[0.61726,7.16201],[0.61466,7.17602],[0.61669,7.18342],[0.62433,7.18442],[0.6293,7.19615],[0.63218,7.21859],[0.63782,7.2264],[0.64546,7.29036],[0.65046,7.29022],[0.65717,7.30878],[0.65883,7.31818],[0.64684,7.36748],[0.64567,7.3754],[0.64812,7.37833],[0.64429,7.39873],[0.63416,7.4037],[0.63044,7.40205],[0.62526,7.4106],[0.61871,7.41265],[0.60577,7.40422],[0.60182,7.40704],[0.59692,7.3988],[0.57358,7.39343],[0.55806,7.40291],[0.53812,7.42461],[0.53924,7.43189],[0.53339,7.43937],[0.53296,7.45866],[0.5268,7.45964],[0.52123,7.4565],[0.51994,7.4629],[0.52406,7.46951],[0.52058,7.47227],[0.52803,7.48377],[0.52037,7.51553],[0.52565,7.52317],[0.53072,7.58887],[0.52132,7.59453],[0.53527,7.60248],[0.5386,7.60802],[0.55337,7.60964],[0.56093,7.61606],[0.58842,7.62734],[0.58935,7.66725],[0.59457,7.70325],[0.61117,7.71079],[0.62345,7.70494],[0.63206,7.70649],[0.62002,7.74639],[0.61136,7.75131],[0.62204,7.76431],[0.63023,7.76809],[0.6328,7.77708],[0.62814,7.79629],[0.61807,7.79674],[0.61724,7.80166],[0.61779,7.84264],[0.62233,7.84354],[0.62423,7.86481],[0.6173,7.89669],[0.68139,7.90056],[0.70139,7.92306],[0.72361,7.93444],[0.75389,7.93055],[0.80806,7.94222],[0.825,7.95083],[0.83417,7.96972],[0.84028,7.96972],[0.85417,7.96194],[0.87944,7.95889],[0.92944,7.96778],[0.96278,7.98056],[0.98556,7.9725],[1.03323,7.96269],[1.05889,7.95028],[1.07139,7.94889],[1.16485,7.96564],[1.20167,7.97333],[1.245,8.00556],[1.23583,8.01083],[1.23278,8.02028],[1.25111,8.05722],[1.25,8.08778],[1.25583,8.11],[1.25694,8.13611],[1.26361,8.15667],[1.26444,8.18278],[1.26028,8.19917],[1.25167,8.20417],[1.24333,8.21694],[1.24528,8.245],[1.24083,8.25528],[1.23889,8.27972],[1.23139,8.29222],[1.22917,8.30417],[1.22917,8.34639],[1.23861,8.36528],[1.23639,8.37056],[1.23139,8.36972],[1.22757,8.37354],[1.6215,8.36596],[1.62428,8.35315],[1.63177,8.34125],[1.63347,8.31899],[1.63626,7.98842],[1.63368,7.93156],[1.63052,7.82697],[1.63625,7.80307],[1.63145,7.66111],[1.63741,7.64042],[1.65051,7.61399],[1.64837,7.56757],[1.65293,7.53402],[1.65982,7.52068],[1.66834,7.51769],[1.67753,7.49791],[1.67568,7.4947],[1.64827,7.49244],[1.64363,7.48323],[1.63589,7.40091],[1.63566,7.2698],[1.64203,6.99457],[1.60663,6.9965],[1.5935,6.99353],[1.58637,6.99791],[1.55783,6.99749],[1.55918,6.97219],[1.57411,6.94711],[1.5779,6.923],[1.58761,6.91304],[1.5575,6.90083],[1.55056,6.89389],[1.53028,6.85722],[1.51556,6.845],[1.49806,6.83611],[1.47722,6.83028],[1.46472,6.83111],[1.41111,6.84445],[1.37583,6.83389],[1.30806,6.78694],[1.24071,6.7218],[1.19611,6.73861],[1.18083,6.76389],[1.15611,6.77556],[1.14917,6.78861],[1.12,6.79333],[1.11778,6.79778],[1.125,6.80528],[1.12194,6.80889],[0.89265,6.82552],[0.89361,6.78917],[0.90167,6.74694],[0.90222,6.71389]],[[1.05016,7.90407],[1.05361,7.89167],[1.04028,7.94556],[1.05016,7.90407]],[[0.96639,7.87278],[0.95306,7.86528],[0.99861,7.8875],[0.96639,7.87278]],[[0.91167,7.77889],[0.91108,7.77322],[0.92639,7.82278],[0.91167,7.77889]],[[0.91306,7.60917],[0.91972,7.60222],[0.9117,7.61181],[0.91306,7.60917]],[[0.77389,7.39639],[0.79278,7.40333],[0.79487,7.40474],[0.77389,7.39639]],[[0.92889,7.04333],[0.92549,7.03744],[0.93917,7.0525],[0.92889,7.04333]],[[1.4325,7.27778],[1.46567,7.27905],[1.51306,7.28472],[1.4325,7.27778]],[[1.33369,7.21802],[1.34806,7.22694],[1.38389,7.25445],[1.33369,7.21802]],[[1.16845,7.17892],[1.21917,7.17917],[1.175,7.18028],[1.16845,7.17892]],[[1.15095,7.1743],[1.15666,7.17646],[1.15361,7.17583],[1.15095,7.1743]],[[1.0525,7.09944],[1.13897,7.16742],[1.1275,7.16083],[1.0525,7.09944]],[[1.01346,7.08636],[1.025,7.08861],[1.0525,7.09944],[1.01346,7.08636]],[[1.15611,7.72139],[1.15167,7.75972],[1.14882,7.7672],[1.15611,7.72139]],[[1.14041,7.78341],[1.14559,7.77565],[1.14361,7.78083],[1.14041,7.78341]],[[1.47327,7.81357],[1.48929,7.8149],[1.45057,7.81624],[1.47327,7.81357]],[[1.23695,7.91504],[1.27299,7.91504],[1.2289,7.91605],[1.23695,7.91504]]]}},{"type":"Feature","properties":{"id":"TGO:ADM1:TGO-87","name":"Maritime","countryCode":"TGO"},"geometry":{"type":"Polygon","coordinates":[[[1.77421,6.39442],[1.77075,6.39167],[1.77234,6.3774],[1.78016,6.37233],[1.78919,6.35048],[1.78781,6.34381],[1.78275,6.33898],[1.79794,6.31276],[1.79748,6.30724],[1.78921,6.30287],[1.79542,6.29321],[1.80186,6.29068],[1.80669,6.28424],[1.79933,6.28056],[1.7699,6.28216],[1.76898,6.2748],[1.76392,6.27181],[1.74898,6.27111],[1.70984,6.25719],[1.6942,6.25699],[1.68983,6.25332],[1.6804,6.25448],[1.6682,6.2476],[1.64567,6.24809],[1.62956,6.24237],[1.62787,6.23429],[1.55862,6.22044],[1.53005,6.21149],[1.4863,6.20452],[1.39792,6.1812],[1.2971,6.14954],[1.28456,6.14349],[1.2853,6.14089],[1.28133,6.14193],[1.28305,6.13929],[1.28058,6.14127],[1.28344,6.13751],[1.27389,6.13461],[1.26244,6.13399],[1.19961,6.11242],[1.20032,6.16855],[1.17569,6.16845],[1.10574,6.16816],[1.08544,6.16808],[1.08342,6.18768],[1.06899,6.20739],[1.06583,6.21905],[1.05493,6.2314],[1.03887,6.23575],[1.02431,6.25417],[1.0166,6.28465],[1.00853,6.29193],[1.00639,6.30947],[1.00943,6.32512],[1.00531,6.33271],[0.89387,6.33325],[0.88456,6.35492],[0.85681,6.3836],[0.82826,6.40011],[0.78814,6.40899],[0.78134,6.43233],[0.74816,6.44292],[0.7443,6.48135],[0.72715,6.48832],[0.71913,6.50158],[0.71233,6.52843],[0.71817,6.53762],[0.73306,6.53417],[0.76111,6.53833],[0.80889,6.56333],[0.82028,6.57222],[0.84583,6.60917],[0.88278,6.64139],[0.89892,6.68521],[0.90222,6.71389],[0.90167,6.74694],[0.89361,6.78917],[0.89222,6.82555],[1.12194,6.80889],[1.125,6.80528],[1.11778,6.79778],[1.12,6.79333],[1.14917,6.78861],[1.15611,6.77556],[1.18083,6.76389],[1.19611,6.73861],[1.24407,6.71885],[1.24071,6.7218],[1.30806,6.78694],[1.37583,6.83389],[1.41111,6.84445],[1.46472,6.83111],[1.47722,6.83028],[1.49806,6.83611],[1.51556,6.845],[1.53028,6.85722],[1.55056,6.89389],[1.5575,6.90083],[1.58761,6.91304],[1.60507,6.90577],[1.60416,6.8906],[1.60669,6.88347],[1.5945,6.86898],[1.60142,6.85289],[1.5996,6.83013],[1.60397,6.82714],[1.61317,6.82876],[1.61479,6.82508],[1.59846,6.81219],[1.59662,6.80644],[1.59893,6.79978],[1.60721,6.80024],[1.61274,6.79243],[1.60791,6.78162],[1.60838,6.77127],[1.6261,6.76024],[1.61874,6.75334],[1.6169,6.7492],[1.62036,6.74369],[1.61691,6.74],[1.6084,6.73655],[1.60012,6.7262],[1.59253,6.7255],[1.59209,6.70642],[1.57392,6.68824],[1.58957,6.68388],[1.60284,6.66628],[1.61123,6.64192],[1.60294,6.63688],[1.60247,6.62745],[1.60913,6.61962],[1.6098,6.60582],[1.61715,6.59684],[1.6344,6.59682],[1.64083,6.58254],[1.65129,6.57836],[1.65543,6.57767],[1.66301,6.58387],[1.67429,6.5832],[1.67361,6.57285],[1.66602,6.56295],[1.67017,6.55606],[1.68397,6.56043],[1.68858,6.55193],[1.69639,6.55262],[1.69801,6.54802],[1.69571,6.54319],[1.70077,6.53675],[1.70193,6.51536],[1.69435,6.50961],[1.69573,6.50041],[1.70631,6.49582],[1.71276,6.4995],[1.71759,6.49329],[1.72794,6.49835],[1.73024,6.48639],[1.73485,6.48547],[1.73715,6.48111],[1.73393,6.47582],[1.74037,6.47398],[1.75062,6.46392],[1.74716,6.45404],[1.7529,6.45081],[1.75518,6.43678],[1.77608,6.41604],[1.76941,6.41168],[1.76953,6.39822],[1.77421,6.39442]],[[1.17627,6.27935],[1.16555,6.28278],[1.14111,6.28611],[1.17627,6.27935]],[[1.21389,6.26417],[1.19945,6.27194],[1.19177,6.2744],[1.21389,6.26417]],[[1.39556,6.19695],[1.39973,6.22032],[1.39814,6.21386],[1.39556,6.19695]],[[1.40528,6.25139],[1.40522,6.25195],[1.40517,6.25076],[1.40528,6.25139]],[[1.4625,6.21611],[1.46976,6.21416],[1.40528,6.25139],[1.4625,6.21611]],[[1.40333,6.26944],[1.38694,6.30639],[1.40394,6.26378],[1.40333,6.26944]],[[1.5375,6.55139],[1.57694,6.56944],[1.5025,6.53778],[1.5375,6.55139]],[[1.62694,6.38167],[1.62556,6.39361],[1.62111,6.4025],[1.62694,6.38167]],[[1.5965,6.34879],[1.59972,6.36167],[1.59583,6.35194],[1.5965,6.34879]],[[1.4793,6.2116],[1.48528,6.21],[1.49694,6.21056],[1.4793,6.2116]],[[0.91831,6.66501],[0.91097,6.67703],[0.92499,6.64965],[0.91831,6.66501]],[[1.245,6.68844],[1.24583,6.68694],[1.25367,6.68359],[1.245,6.68844]],[[1.24717,6.71612],[1.24972,6.70778],[1.24972,6.71389],[1.24717,6.71612]]]}},{"type":"Feature","properties":{"id":"TGO:ADM1:TGO-88","name":"Kara","countryCode":"TGO"},"geometry":{"type":"Polygon","coordinates":[[[0.98583,9.17445],[0.98722,9.10695],[1.00306,9.06917],[1.0025,9.06389],[0.99972,9.05917],[0.97722,9.04667],[0.96306,9.02528],[0.94139,9.01472],[0.91667,9.0125],[0.88556,9.005],[0.86028,9.005],[0.845,9.01222],[0.81861,9.01389],[0.79333,9.025],[0.78556,9.02528],[0.78028,9.04667],[0.77361,9.05361],[0.76778,9.05361],[0.755,9.04528],[0.74861,9.04528],[0.73472,9.0525],[0.72639,9.04639],[0.71083,9.01361],[0.69806,9.01222],[0.68583,9.00389],[0.67167,8.98333],[0.64333,8.98167],[0.63694,8.97417],[0.63083,8.94556],[0.61278,8.92833],[0.58389,8.91555],[0.57861,8.90639],[0.57861,8.89944],[0.59111,8.89194],[0.5925,8.88611],[0.59194,8.88],[0.58472,8.87333],[0.57389,8.87028],[0.55472,8.8725],[0.53583,8.84889],[0.51417,8.84305],[0.50163,8.84557],[0.5069,8.84725],[0.5098,8.85318],[0.51637,8.85156],[0.51999,8.85625],[0.51816,8.86955],[0.52422,8.88023],[0.51863,8.89275],[0.50921,8.90255],[0.50709,8.91892],[0.51145,8.93679],[0.50621,8.94814],[0.49793,8.95423],[0.49277,8.95418],[0.46646,9.00624],[0.46812,9.01876],[0.46079,9.02747],[0.46042,9.03396],[0.45503,9.03556],[0.45581,9.05576],[0.46317,9.05538],[0.46336,9.06678],[0.45915,9.06728],[0.46582,9.09124],[0.47254,9.09781],[0.48097,9.09864],[0.48301,9.10162],[0.48463,9.11332],[0.47456,9.14449],[0.49089,9.15596],[0.50143,9.15351],[0.50331,9.15975],[0.50933,9.16303],[0.51951,9.19118],[0.53093,9.20657],[0.50326,9.25219],[0.51233,9.26989],[0.52665,9.284],[0.5376,9.30325],[0.55216,9.30175],[0.55463,9.30746],[0.55525,9.31767],[0.54926,9.3221],[0.54445,9.34375],[0.55066,9.35272],[0.5645,9.40369],[0.56235,9.40535],[0.5529,9.41263],[0.55104,9.42272],[0.54274,9.42251],[0.5325,9.42943],[0.52415,9.43015],[0.51799,9.43924],[0.49876,9.43695],[0.49331,9.44925],[0.50407,9.46501],[0.50043,9.47372],[0.48796,9.48614],[0.48446,9.48752],[0.47923,9.48442],[0.47535,9.4884],[0.46367,9.48935],[0.45603,9.49725],[0.44832,9.49794],[0.43659,9.49499],[0.41372,9.49949],[0.40787,9.49306],[0.38624,9.49068],[0.35997,9.49863],[0.3451,9.48566],[0.35036,9.47312],[0.34455,9.46779],[0.33741,9.45044],[0.31019,9.44233],[0.28537,9.42898],[0.26515,9.42805],[0.26029,9.4335],[0.24906,9.43652],[0.24723,9.44511],[0.23356,9.45922],[0.22972,9.48101],[0.23254,9.48596],[0.25405,9.47714],[0.27023,9.47711],[0.27889,9.48688],[0.288,9.48612],[0.31135,9.50024],[0.31436,9.50531],[0.31021,9.51388],[0.29472,9.52273],[0.28359,9.5241],[0.25722,9.51851],[0.24552,9.52248],[0.23819,9.5417],[0.24288,9.57172],[0.2517,9.5721],[0.26792,9.56375],[0.29079,9.57315],[0.32255,9.57143],[0.33775,9.57454],[0.34974,9.56893],[0.3583,9.56921],[0.3735,9.57616],[0.38407,9.58609],[0.37401,9.60641],[0.3828,9.64031],[0.36996,9.65036],[0.36254,9.67206],[0.3519,9.67418],[0.35247,9.69121],[0.34524,9.71515],[0.33922,9.719],[0.32489,9.72024],[0.32049,9.7246],[0.33018,9.75517],[0.32751,9.77052],[0.33608,9.77621],[0.33196,9.7937],[0.34122,9.80312],[0.34255,9.81449],[0.35161,9.82506],[0.35773,9.84547],[0.3514,9.8967],[0.35497,9.91883],[0.36196,9.92849],[0.37474,9.93063],[0.38685,9.93696],[0.38555,9.94784],[0.36734,9.96537],[0.35935,9.98355],[0.35702,9.996],[0.36311,10.01075],[0.36085,10.03079],[0.3648,10.03195],[0.37391,10.02574],[0.39216,10.02453],[0.40177,10.01882],[0.40761,10.01987],[0.4225,9.99417],[0.41889,9.97667],[0.42056,9.96472],[0.4275,9.9575],[0.44639,9.95694],[0.45722,9.94667],[0.46806,9.94278],[0.47694,9.94806],[0.48333,9.94806],[0.49111,9.94222],[0.50806,9.9425],[0.52444,9.93722],[0.51528,9.925],[0.51778,9.90944],[0.52389,9.90194],[0.53861,9.89528],[0.54944,9.87889],[0.55806,9.87306],[0.56417,9.87167],[0.58278,9.88083],[0.59444,9.88306],[0.62611,9.88361],[0.63194,9.89194],[0.63833,9.89139],[0.65528,9.87361],[0.66611,9.88333],[0.67722,9.88083],[0.68222,9.85167],[0.67929,9.87591],[0.68278,9.88722],[0.66667,9.94222],[0.67444,9.95611],[0.67583,9.97472],[0.68778,9.99056],[0.68694,10.03389],[0.69056,10.05278],[0.70389,10.08333],[0.73389,10.12361],[0.74278,10.145],[0.73806,10.15306],[0.73889,10.16055],[0.73278,10.16833],[0.75417,10.1825],[0.7675,10.17472],[0.77639,10.18],[0.78194,10.17944],[0.79444,10.17194],[0.80361,10.15333],[0.80917,10.15222],[0.82278,10.16583],[0.83833,10.17111],[0.84944,10.18167],[0.855,10.1825],[0.85833,10.17917],[0.88111,10.17667],[0.89139,10.16639],[0.89694,10.16528],[0.90472,10.1725],[0.90861,10.1825],[0.91639,10.18806],[0.96056,10.18028],[0.97722,10.18389],[0.99028,10.19917],[0.99834,10.22083],[1.08803,10.15884],[1.17331,10.10765],[1.3552,10.0],[1.35872,9.91389],[1.36455,9.78833],[1.36311,9.69847],[1.3693,9.6615],[1.36606,9.61139],[1.34159,9.54626],[1.3589,9.50866],[1.35852,9.49119],[1.36239,9.48598],[1.39021,9.4973],[1.40134,9.42541],[1.40312,9.35491],[1.40807,9.33449],[1.42092,9.30743],[1.43123,9.29781],[1.3675,9.25139],[1.33306,9.25028],[1.28083,9.23639],[1.22306,9.21583],[1.17472,9.2125],[1.11944,9.22583],[1.08778,9.23],[1.07056,9.22778],[1.03806,9.21278],[1.01866,9.2136],[0.99528,9.20167],[0.98583,9.17445]],[[1.03427,9.85072],[1.03639,9.84944],[1.05611,9.85],[1.03427,9.85072]],[[0.94583,9.84722],[0.95222,9.84667],[0.98611,9.85389],[0.94583,9.84722]]]}},{"type":"Feature","properties":{"id":"TGO:ADM1:TGO-89","name":"Centre","countryCode":"TGO"},"geometry":{"type":"Polygon","coordinates":[[[1.23639,8.37056],[1.23861,8.36528],[1.22917,8.34639],[1.22917,8.30417],[1.23139,8.29222],[1.23889,8.27972],[1.24083,8.25528],[1.24528,8.245],[1.24333,8.21694],[1.25167,8.20417],[1.26028,8.19917],[1.26444,8.18278],[1.26361,8.15667],[1.25694,8.13611],[1.25583,8.11],[1.25,8.08778],[1.25111,8.05722],[1.23278,8.02028],[1.23583,8.01083],[1.245,8.00556],[1.24167,8.00111],[1.20167,7.97333],[1.07139,7.94889],[1.05889,7.95028],[1.03323,7.96269],[0.98556,7.9725],[0.96278,7.98056],[0.92944,7.96778],[0.87944,7.95889],[0.85417,7.96194],[0.84028,7.96972],[0.83417,7.96972],[0.825,7.95083],[0.80806,7.94222],[0.75389,7.93055],[0.72361,7.93444],[0.70139,7.92306],[0.68139,7.90056],[0.6173,7.89669],[0.61386,7.90948],[0.61529,7.9189],[0.6091,7.9346],[0.60953,7.94455],[0.60544,7.95224],[0.60056,7.95471],[0.59616,7.9767],[0.59794,7.98778],[0.59451,7.99212],[0.59899,8.02443],[0.59385,8.03609],[0.59535,8.0453],[0.58345,8.09505],[0.58414,8.10322],[0.58973,8.10481],[0.59102,8.13831],[0.60582,8.14479],[0.60603,8.17258],[0.61057,8.17729],[0.61145,8.18369],[0.60129,8.18126],[0.5904,8.19157],[0.58707,8.19704],[0.58768,8.20789],[0.61871,8.2161],[0.62557,8.22964],[0.62402,8.23825],[0.63732,8.24727],[0.6378,8.25895],[0.6605,8.25941],[0.67246,8.26447],[0.67801,8.27899],[0.68443,8.28291],[0.7216,8.28266],[0.73114,8.29024],[0.73093,8.31616],[0.73338,8.31856],[0.73107,8.34628],[0.7207,8.35515],[0.71044,8.35718],[0.70994,8.38667],[0.73219,8.36615],[0.70778,8.39175],[0.69809,8.39572],[0.70573,8.40101],[0.69298,8.40098],[0.69271,8.40677],[0.68517,8.41738],[0.67827,8.41619],[0.66335,8.42561],[0.65017,8.42782],[0.65038,8.45607],[0.65414,8.46033],[0.64267,8.47948],[0.64377,8.4949],[0.63789,8.49906],[0.62728,8.49821],[0.62373,8.50311],[0.62761,8.50846],[0.61759,8.51396],[0.6114,8.51352],[0.6011,8.51843],[0.58856,8.51682],[0.58419,8.52502],[0.56824,8.52533],[0.56915,8.53378],[0.55863,8.55018],[0.5386,8.55562],[0.53396,8.55898],[0.532,8.56776],[0.52801,8.56973],[0.51832,8.56207],[0.51057,8.56348],[0.499,8.57409],[0.49486,8.59194],[0.49022,8.59719],[0.48097,8.5966],[0.47809,8.59289],[0.47123,8.59539],[0.38108,8.73977],[0.38474,8.74596],[0.37575,8.7549],[0.39569,8.75445],[0.40104,8.75755],[0.40028,8.76314],[0.38469,8.76683],[0.38117,8.77085],[0.38008,8.79041],[0.39178,8.79447],[0.39749,8.79121],[0.41865,8.79248],[0.42248,8.78957],[0.42381,8.78184],[0.42771,8.78034],[0.44225,8.78905],[0.43676,8.79645],[0.43078,8.79359],[0.43121,8.79795],[0.44456,8.80366],[0.45058,8.81296],[0.45579,8.81156],[0.45779,8.80183],[0.46633,8.79271],[0.47138,8.79933],[0.47837,8.79759],[0.48982,8.80092],[0.49798,8.81491],[0.49455,8.82115],[0.49986,8.82952],[0.49519,8.83964],[0.50163,8.84557],[0.51417,8.84305],[0.53583,8.84889],[0.55472,8.8725],[0.57389,8.87028],[0.58472,8.87333],[0.59194,8.88],[0.5925,8.88611],[0.59111,8.89194],[0.57861,8.89944],[0.57861,8.90639],[0.58389,8.91555],[0.61278,8.92833],[0.63083,8.94556],[0.63694,8.97417],[0.64333,8.98167],[0.67167,8.98333],[0.68583,9.00389],[0.69424,9.01031],[0.71083,9.01361],[0.72639,9.04639],[0.73472,9.0525],[0.74861,9.04528],[0.755,9.04528],[0.76778,9.05361],[0.77361,9.05361],[0.78028,9.04667],[0.78556,9.02528],[0.79333,9.025],[0.81861,9.01389],[0.845,9.01222],[0.86028,9.005],[0.87361,9.00417],[0.95083,9.01778],[0.96306,9.02528],[0.98139,9.05028],[0.99972,9.05917],[1.00306,9.06917],[0.98722,9.10695],[0.98583,9.17445],[0.99528,9.20167],[1.01866,9.2136],[1.03806,9.21278],[1.07056,9.22778],[1.08778,9.23],[1.11944,9.22583],[1.17472,9.2125],[1.22306,9.21583],[1.28083,9.23639],[1.33306,9.25028],[1.3675,9.25139],[1.43123,9.29781],[1.45008,9.27894],[1.4621,9.25477],[1.47767,9.23691],[1.52597,9.1907],[1.55912,9.17015],[1.57915,9.13164],[1.59773,9.11149],[1.60564,9.09728],[1.6176,9.07092],[1.61602,9.06341],[1.62483,9.04229],[1.62974,8.99912],[1.62241,8.95456],[1.62967,8.90897],[1.62929,8.82934],[1.63311,8.79376],[1.62857,8.64771],[1.63112,8.51869],[1.64899,8.49075],[1.65019,8.47767],[1.6302,8.44951],[1.63303,8.43954],[1.62658,8.42897],[1.62775,8.41428],[1.61974,8.3741],[1.6215,8.36596],[1.22757,8.37354],[1.23139,8.36972],[1.23639,8.37056]],[[0.96386,8.89074],[0.9625,8.89389],[0.96124,8.89491],[0.96386,8.89074]],[[0.97134,8.86734],[0.97028,8.87583],[0.96939,8.87791],[0.97134,8.86734]]]}},{"type":"Feature","properties":{"id":"TGO:ADM1:TGO-90","name":"Savanes","countryCode":"TGO"},"geometry":{"type":"Polygon","coordinates":[[[0.79693,10.68492],[0.80582,10.64336],[0.80757,10.59096],[0.80082,10.55781],[0.78323,10.51218],[0.77457,10.38476],[0.99834,10.22083],[0.99028,10.19917],[0.97722,10.18389],[0.96056,10.18028],[0.91639,10.18806],[0.90861,10.1825],[0.90472,10.1725],[0.89694,10.16528],[0.89139,10.16639],[0.88111,10.17667],[0.85833,10.17917],[0.855,10.1825],[0.84944,10.18167],[0.83833,10.17111],[0.82278,10.16583],[0.80917,10.15222],[0.80361,10.15333],[0.79444,10.17194],[0.78194,10.17944],[0.77639,10.18],[0.7675,10.17472],[0.75417,10.1825],[0.73667,10.17278],[0.73278,10.16833],[0.73889,10.16055],[0.73806,10.15306],[0.74278,10.145],[0.73389,10.12361],[0.70389,10.08333],[0.69472,10.06417],[0.68694,10.03389],[0.68778,9.99056],[0.67583,9.97472],[0.67444,9.95611],[0.66667,9.94222],[0.68278,9.88722],[0.67929,9.87591],[0.67333,9.88333],[0.66611,9.88333],[0.65528,9.87361],[0.63833,9.89139],[0.63194,9.89194],[0.62611,9.88361],[0.59444,9.88306],[0.58278,9.88083],[0.56417,9.87167],[0.55806,9.87306],[0.54944,9.87889],[0.53861,9.89528],[0.52389,9.90194],[0.51778,9.90944],[0.51528,9.925],[0.52444,9.93722],[0.52056,9.94028],[0.49583,9.94111],[0.48333,9.94806],[0.47694,9.94806],[0.46806,9.94278],[0.45722,9.94667],[0.44639,9.95694],[0.4275,9.9575],[0.42056,9.96472],[0.41889,9.97667],[0.4225,9.99417],[0.40761,10.01987],[0.41136,10.02189],[0.41253,10.04542],[0.4166,10.05948],[0.39433,10.08004],[0.36125,10.08523],[0.35509,10.09194],[0.35316,10.10179],[0.35323,10.10888],[0.36375,10.13382],[0.36304,10.14371],[0.35121,10.16739],[0.35423,10.18169],[0.35185,10.19128],[0.3608,10.22247],[0.36242,10.26012],[0.3825,10.27261],[0.37936,10.27853],[0.37234,10.27961],[0.36953,10.28444],[0.37584,10.28772],[0.38823,10.30273],[0.39685,10.30388],[0.39632,10.31228],[0.38976,10.31463],[0.36318,10.30878],[0.3534,10.31213],[0.34757,10.30538],[0.33141,10.30921],[0.32144,10.30752],[0.32582,10.31718],[0.337,10.32087],[0.33891,10.32508],[0.33424,10.33521],[0.3272,10.33828],[0.32306,10.33429],[0.31952,10.33526],[0.31426,10.36132],[0.30774,10.36886],[0.29482,10.37348],[0.29363,10.38004],[0.30257,10.39142],[0.30093,10.40289],[0.29817,10.40817],[0.29141,10.40791],[0.28675,10.41902],[0.27509,10.41849],[0.2665,10.40776],[0.25565,10.4055],[0.24413,10.41278],[0.2393,10.4125],[0.23804,10.40931],[0.21953,10.42363],[0.20302,10.41118],[0.20786,10.41306],[0.21011,10.40358],[0.19673,10.40013],[0.19333,10.40158],[0.18517,10.41987],[0.17334,10.42559],[0.17047,10.43863],[0.17515,10.44619],[0.16702,10.4504],[0.15774,10.46266],[0.16233,10.47256],[0.153,10.48467],[0.15326,10.49504],[0.14922,10.49894],[0.14346,10.52538],[0.1304,10.5294],[0.1185,10.53923],[0.06141,10.56051],[0.05628,10.58251],[0.04369,10.59217],[0.04065,10.60002],[-0.01175,10.61423],[-0.01542,10.62161],[-0.05956,10.63105],[-0.0705,10.65949],[-0.07137,10.67168],[-0.09068,10.70727],[-0.08921,10.71269],[-0.07272,10.72],[-0.07433,10.73028],[-0.07081,10.7402],[-0.07486,10.75765],[-0.05706,10.78562],[-0.04545,10.79267],[-0.0429,10.79992],[-0.03065,10.80687],[-0.02877,10.81487],[-0.02194,10.81984],[-0.02346,10.83462],[-0.02934,10.8493],[-0.02881,10.85969],[-0.0251,10.87999],[-0.01956,10.88608],[-0.0134,10.90552],[-0.00726,10.9139],[-0.0108,10.94083],[-0.00602,10.945],[-0.00695,10.9544],[-0.00319,10.96225],[0.00945,10.96394],[0.01433,10.96965],[0.03239,10.97741],[0.03469,10.9898],[0.0272,11.0063],[0.02684,11.01867],[0.02275,11.08191],[0.00987,11.10144],[-0.00219,11.10512],[-0.035,11.10528],[-0.09375,11.08863],[-0.1117,11.09007],[-0.12787,11.10095],[-0.14302,11.10149],[-0.14732,11.11248],[-0.14201,11.13898],[0.2283,11.06456],[0.4088,11.02799],[0.50285,11.00908],[0.48997,10.98623],[0.49372,10.98234],[0.50584,10.98011],[0.50634,10.97321],[0.49468,10.931],[0.589,10.96975],[0.59506,10.96956],[0.65631,10.99735],[0.91216,10.99649],[0.89052,10.92094],[0.90098,10.88674],[0.88508,10.86182],[0.87382,10.80496],[0.86784,10.79527],[0.85163,10.78297],[0.80461,10.72418],[0.79693,10.68492]],[[0.31325,10.69191],[0.34104,10.69436],[0.31335,10.69192],[0.27576,10.6886],[0.31325,10.69191]]]}}]}}
