{"type":"FeatureCollection","features":[{"type":"Feature","properties":{"id":"TKL:ADM0:11190911B60025350532660","name":"Tokelau","countryCode":"TKL","adminLevel":0,"sourceCode":"11190911B60025350532660"},"geometry":{"type":"MultiPolygon","coordinates":[[[[-171.26935,-9.37337],[-171.26669,-9.37314],[-171.26631,-9.37355],[-171.26883,-9.3764],[-171.26991,-9.37514],[-171.26935,-9.37337]]],[[[-171.18671,-9.36034],[-171.18606,-9.35898],[-171.18566,-9.36126],[-171.1883,-9.36175],[-171.18876,-9.36083],[-171.18671,-9.36034]]],[[[-171.1895,-9.34722],[-171.1877,-9.35095],[-171.20091,-9.33423],[-171.20086,-9.33426],[-171.1895,-9.34722]]],[[[-172.48089,-8.57655],[-172.48078,-8.57495],[-172.48003,-8.57578],[-172.48089,-8.57655]]],[[[-172.48154,-8.57674],[-172.48262,-8.57701],[-172.48208,-8.57505],[-172.48154,-8.57674]]]]}}],"admin1":{"type":"FeatureCollection","features":[]}}
