{"type":"FeatureCollection","features":[{"type":"Feature","properties":{"id":"TON:ADM0:98642404B38738626891126","name":"Tonga","countryCode":"TON","adminLevel":0,"sourceCode":"98642404B38738626891126","parentId":"TON:ADM1:TON-4945"},"geometry":{"type":"MultiPolygon","coordinates":[[[[-176.2049,-22.33289],[-176.20171,-22.33596],[-176.20185,-22.33611],[-176.20702,-22.3388],[-176.21019,-22.3388],[-176.21325,-22.33683],[-176.2143,-22.33457],[-176.2049,-22.33289]]],[[[-174.97236,-21.36697],[-174.96341,-21.34763],[-174.9587,-21.34258],[-174.95185,-21.33978],[-174.9455,-21.33213],[-174.93586,-21.31569],[-174.93354,-21.3095],[-174.92614,-21.29461],[-174.91841,-21.28444],[-174.91474,-21.29217],[-174.91393,-21.29701],[-174.91658,-21.3034],[-174.9097,-21.32231],[-174.90852,-21.32936],[-174.909,-21.34322],[-174.90919,-21.34368],[-174.90904,-21.34419],[-174.90905,-21.3445],[-174.91474,-21.38144],[-174.91393,-21.44411],[-174.91756,-21.44988],[-174.94009,-21.43064],[-174.94285,-21.42966],[-174.9549,-21.41806],[-174.95602,-21.41728],[-174.97019,-21.40368],[-174.97451,-21.38652],[-174.96996,-21.38397],[-174.97406,-21.37638],[-174.97236,-21.36697]]],[[[-175.3496,-21.08509],[-175.33214,-21.07122],[-175.325,-21.06889],[-175.33393,-21.0806],[-175.33848,-21.09376],[-175.33788,-21.09698],[-175.34081,-21.10263],[-175.3359,-21.10751],[-175.33505,-21.11208],[-175.32901,-21.11843],[-175.32121,-21.11909],[-175.31542,-21.12135],[-175.30651,-21.12168],[-175.30586,-21.12156],[-175.27682,-21.12962],[-175.27622,-21.1267],[-175.26973,-21.1296],[-175.27171,-21.12684],[-175.24262,-21.12561],[-175.2345,-21.12239],[-175.22678,-21.12923],[-175.22503,-21.12397],[-175.21886,-21.13006],[-175.21638,-21.14105],[-175.23131,-21.15008],[-175.23823,-21.15838],[-175.23408,-21.16863],[-175.232,-21.16941],[-175.23439,-21.17174],[-175.22658,-21.179],[-175.19825,-21.18283],[-175.19379,-21.17781],[-175.20121,-21.17507],[-175.20429,-21.17013],[-175.19904,-21.17118],[-175.19853,-21.15991],[-175.19372,-21.15834],[-175.18553,-21.16694],[-175.17648,-21.16234],[-175.16307,-21.16937],[-175.15641,-21.17138],[-175.15617,-21.17191],[-175.15579,-21.17156],[-175.15498,-21.17181],[-175.14187,-21.16879],[-175.14057,-21.16887],[-175.13828,-21.17246],[-175.14489,-21.17941],[-175.15192,-21.18256],[-175.1582,-21.17993],[-175.17159,-21.18323],[-175.17307,-21.19313],[-175.17048,-21.19776],[-175.15919,-21.20024],[-175.15628,-21.19263],[-175.15143,-21.19917],[-175.14819,-21.18716],[-175.14009,-21.19116],[-175.12651,-21.18988],[-175.12527,-21.18566],[-175.12887,-21.18165],[-175.12155,-21.17967],[-175.11894,-21.17388],[-175.11433,-21.17374],[-175.11244,-21.17016],[-175.11353,-21.16413],[-175.11994,-21.16064],[-175.11769,-21.15449],[-175.12198,-21.1466],[-175.12437,-21.15765],[-175.12952,-21.15536],[-175.12222,-21.1428],[-175.12237,-21.13856],[-175.11396,-21.13079],[-175.10371,-21.12624],[-175.09081,-21.12273],[-175.08409,-21.12212],[-175.05736,-21.12963],[-175.05464,-21.13152],[-175.05089,-21.13934],[-175.05187,-21.15496],[-175.0605,-21.16375],[-175.06655,-21.16793],[-175.06843,-21.16812],[-175.08174,-21.17785],[-175.08202,-21.17862],[-175.11738,-21.20306],[-175.12096,-21.21168],[-175.11933,-21.22235],[-175.11592,-21.23357],[-175.11396,-21.24407],[-175.11762,-21.25596],[-175.12654,-21.26279],[-175.13781,-21.26621],[-175.14652,-21.26763],[-175.18006,-21.25109],[-175.19074,-21.23323],[-175.19038,-21.22925],[-175.195,-21.22557],[-175.19399,-21.22194],[-175.20033,-21.21742],[-175.22252,-21.20843],[-175.25731,-21.19215],[-175.26456,-21.19936],[-175.26547,-21.19929],[-175.28962,-21.18597],[-175.29541,-21.18384],[-175.30466,-21.17762],[-175.31161,-21.16949],[-175.33112,-21.16052],[-175.34021,-21.15266],[-175.35639,-21.09242],[-175.35635,-21.09232],[-175.3496,-21.08509]]],[[[-175.22888,-21.12483],[-175.22811,-21.12215],[-175.22521,-21.12379],[-175.22514,-21.12386],[-175.22888,-21.12483]]],[[[-174.79036,-20.24159],[-174.78716,-20.24433],[-174.78179,-20.24157],[-174.78071,-20.24562],[-174.78409,-20.25945],[-174.78909,-20.2671],[-174.79097,-20.26673],[-174.8104,-20.25366],[-174.80688,-20.24536],[-174.80529,-20.24424],[-174.79813,-20.24318],[-174.79321,-20.24193],[-174.79036,-20.24159]]],[[[-174.34875,-19.79722],[-174.34752,-19.79681],[-174.33698,-19.78777],[-174.33551,-19.7852],[-174.34088,-19.79984],[-174.34016,-19.8162],[-174.33615,-19.82144],[-174.33935,-19.82187],[-174.34699,-19.81813],[-174.35314,-19.81374],[-174.3544,-19.8123],[-174.34875,-19.79722]]],[[[-174.295,-19.73595],[-174.29161,-19.7273],[-174.28127,-19.71865],[-174.27579,-19.72665],[-174.2828,-19.75015],[-174.28755,-19.75058],[-174.3022,-19.74407],[-174.30437,-19.73742],[-174.295,-19.73595]]],[[[-174.32607,-19.76121],[-174.32567,-19.7597],[-174.32075,-19.76067],[-174.32026,-19.76086],[-174.32607,-19.76121]]],[[[-175.09654,-19.72063],[-175.09065,-19.71266],[-175.08165,-19.71136],[-175.06929,-19.71201],[-175.05333,-19.72381],[-175.04601,-19.75115],[-175.04784,-19.78118],[-175.05103,-19.78679],[-175.06336,-19.78866],[-175.0757,-19.78694],[-175.09246,-19.76764],[-175.09948,-19.74977],[-175.10033,-19.73984],[-175.09669,-19.72089],[-175.09654,-19.72063]]],[[[-175.0316,-19.68393],[-175.03061,-19.66538],[-175.02411,-19.65469],[-175.01399,-19.66343],[-175.01989,-19.68483],[-175.02913,-19.687],[-175.0316,-19.68393]]],[[[-174.26526,-19.69382],[-174.26779,-19.69621],[-174.26932,-19.69625],[-174.26547,-19.69249],[-174.26526,-19.69382]]],[[[-174.64689,-18.78199],[-174.63083,-18.79059],[-174.62682,-18.79754],[-174.63024,-18.80901],[-174.64045,-18.81658],[-174.6538,-18.81748],[-174.66413,-18.80137],[-174.66127,-18.787],[-174.64689,-18.78199]]],[[[-174.01441,-18.6664],[-174.01093,-18.66748],[-174.01607,-18.66718],[-174.01645,-18.66594],[-174.01441,-18.6664]]],[[[-174.012,-18.67642],[-174.0071,-18.663],[-173.99431,-18.65337],[-173.98839,-18.6675],[-173.99963,-18.67845],[-173.98911,-18.67704],[-173.98784,-18.67797],[-173.99037,-18.68727],[-173.99571,-18.69149],[-173.99201,-18.69435],[-173.99058,-18.69352],[-173.99055,-18.70306],[-173.99399,-18.70333],[-174.00136,-18.6994],[-173.99759,-18.69847],[-173.99747,-18.69459],[-174.01168,-18.68149],[-174.01328,-18.6763],[-174.012,-18.67642]]],[[[-174.05036,-18.61934],[-174.03787,-18.6211],[-174.03589,-18.62568],[-174.03066,-18.6268],[-174.0212,-18.6186],[-174.01453,-18.60663],[-174.00531,-18.5999],[-174.00229,-18.58835],[-174.00507,-18.57396],[-173.99467,-18.57637],[-173.97427,-18.56645],[-173.97203,-18.56631],[-173.96082,-18.57566],[-173.95503,-18.57671],[-173.95216,-18.57229],[-173.94617,-18.5757],[-173.94496,-18.57204],[-173.93898,-18.57495],[-173.93428,-18.57928],[-173.92797,-18.58668],[-173.92386,-18.5895],[-173.92756,-18.59715],[-173.91837,-18.60152],[-173.92369,-18.61086],[-173.91469,-18.61619],[-173.91515,-18.62689],[-173.92,-18.63315],[-173.92424,-18.62536],[-173.92293,-18.62103],[-173.92538,-18.62143],[-173.93239,-18.60999],[-173.9369,-18.61034],[-173.93802,-18.61474],[-173.93478,-18.6145],[-173.93842,-18.61955],[-173.93617,-18.62237],[-173.94209,-18.61582],[-173.95295,-18.6207],[-173.95861,-18.62672],[-173.95793,-18.63188],[-173.9581,-18.63442],[-173.95745,-18.63439],[-173.95164,-18.6404],[-173.95231,-18.64329],[-173.95026,-18.6447],[-173.95322,-18.64823],[-173.95501,-18.64634],[-173.96259,-18.6493],[-173.9614,-18.66117],[-173.96259,-18.66351],[-173.96541,-18.66292],[-173.96429,-18.65495],[-173.9768,-18.65221],[-173.9757,-18.66077],[-173.97663,-18.66058],[-173.98047,-18.66487],[-173.98285,-18.65337],[-173.99454,-18.648],[-174.00071,-18.65085],[-174.00041,-18.64644],[-173.99241,-18.64403],[-173.9902,-18.6403],[-173.98331,-18.63998],[-173.97324,-18.62952],[-173.97221,-18.61452],[-173.99071,-18.60463],[-173.99987,-18.61167],[-174.00546,-18.62092],[-173.98766,-18.61543],[-173.97773,-18.62061],[-173.9787,-18.62909],[-173.99624,-18.64157],[-173.99852,-18.63966],[-173.99573,-18.63378],[-174.00353,-18.6398],[-174.00646,-18.63437],[-174.01098,-18.62949],[-174.01831,-18.63554],[-174.02506,-18.63728],[-174.02716,-18.64867],[-174.02462,-18.64922],[-174.02515,-18.65162],[-174.02792,-18.65407],[-174.02578,-18.65407],[-174.03014,-18.66334],[-174.04515,-18.65683],[-174.04613,-18.66237],[-174.04906,-18.66351],[-174.05358,-18.66318],[-174.05819,-18.66344],[-174.05825,-18.66327],[-174.05671,-18.65105],[-174.06596,-18.64875],[-174.06641,-18.64773],[-174.06361,-18.64412],[-174.0688,-18.63105],[-174.05559,-18.62066],[-174.05036,-18.61934]]],[[[-173.74983,-15.94768],[-173.76512,-15.96472],[-173.76472,-15.95859],[-173.7543,-15.94956],[-173.74979,-15.94743],[-173.74983,-15.94768]]],[[[-175.67979,-15.6004],[-175.67347,-15.58585],[-175.66523,-15.57823],[-175.63235,-15.56654],[-175.62063,-15.56912],[-175.6128,-15.57434],[-175.61779,-15.60149],[-175.63915,-15.62428],[-175.66889,-15.62152],[-175.67913,-15.6102],[-175.67979,-15.6004]]],[[[-173.76366,-15.95208],[-173.76598,-15.95713],[-173.76948,-15.9542],[-173.76879,-15.9485],[-173.76452,-15.94858],[-173.76366,-15.95208]]]]}}],"admin1":{"type":"FeatureCollection","features":[{"type":"Feature","properties":{"id":"TON:ADM1:TON-4945","name":"Tongatapu","countryCode":"TON"},"geometry":{"type":"MultiPolygon","coordinates":[[[[-176.21019,-22.3388],[-176.21325,-22.33683],[-176.2143,-22.33457],[-176.2049,-22.33289],[-176.20171,-22.33596],[-176.20185,-22.33611],[-176.20702,-22.3388],[-176.21019,-22.3388]]],[[[-174.9455,-21.33213],[-174.93586,-21.31569],[-174.93354,-21.3095],[-174.92614,-21.29461],[-174.91841,-21.28444],[-174.91474,-21.29217],[-174.91393,-21.29701],[-174.91658,-21.3034],[-174.9097,-21.32231],[-174.90852,-21.32936],[-174.909,-21.34322],[-174.90919,-21.34368],[-174.90904,-21.34419],[-174.90905,-21.3445],[-174.91474,-21.38144],[-174.91393,-21.44411],[-174.91756,-21.44988],[-174.94009,-21.43064],[-174.94285,-21.42966],[-174.9549,-21.41806],[-174.95602,-21.41728],[-174.97019,-21.40368],[-174.97451,-21.38652],[-174.96996,-21.38397],[-174.97406,-21.37638],[-174.97236,-21.36697],[-174.96341,-21.34763],[-174.9587,-21.34258],[-174.95185,-21.33978],[-174.9455,-21.33213]]],[[[-175.33848,-21.09376],[-175.33788,-21.09698],[-175.34081,-21.10263],[-175.3359,-21.10751],[-175.33505,-21.11208],[-175.32901,-21.11843],[-175.32121,-21.11909],[-175.31542,-21.12135],[-175.30651,-21.12168],[-175.30586,-21.12156],[-175.27682,-21.12962],[-175.27622,-21.1267],[-175.26973,-21.1296],[-175.27171,-21.12684],[-175.24262,-21.12561],[-175.2345,-21.12239],[-175.22678,-21.12923],[-175.22503,-21.12397],[-175.21886,-21.13006],[-175.21638,-21.14105],[-175.23131,-21.15008],[-175.23823,-21.15838],[-175.23408,-21.16863],[-175.232,-21.16941],[-175.23439,-21.17174],[-175.22658,-21.179],[-175.19825,-21.18283],[-175.19379,-21.17781],[-175.20121,-21.17507],[-175.20429,-21.17013],[-175.19904,-21.17118],[-175.19853,-21.15991],[-175.19372,-21.15834],[-175.18553,-21.16694],[-175.17648,-21.16234],[-175.16307,-21.16937],[-175.15641,-21.17138],[-175.15617,-21.17191],[-175.15579,-21.17156],[-175.15498,-21.17181],[-175.14187,-21.16879],[-175.14057,-21.16887],[-175.13828,-21.17246],[-175.14489,-21.17941],[-175.15192,-21.18256],[-175.1582,-21.17993],[-175.17159,-21.18323],[-175.17307,-21.19313],[-175.17048,-21.19776],[-175.15919,-21.20024],[-175.15628,-21.19263],[-175.15143,-21.19917],[-175.14819,-21.18716],[-175.14009,-21.19116],[-175.12651,-21.18988],[-175.12527,-21.18566],[-175.12887,-21.18165],[-175.12155,-21.17967],[-175.11894,-21.17388],[-175.11433,-21.17374],[-175.11244,-21.17016],[-175.11353,-21.16413],[-175.11994,-21.16064],[-175.11769,-21.15449],[-175.12198,-21.1466],[-175.12437,-21.15765],[-175.12952,-21.15536],[-175.12222,-21.1428],[-175.12237,-21.13856],[-175.11396,-21.13079],[-175.10371,-21.12624],[-175.09081,-21.12273],[-175.08409,-21.12212],[-175.05736,-21.12963],[-175.05464,-21.13152],[-175.05089,-21.13934],[-175.05187,-21.15496],[-175.0605,-21.16375],[-175.06655,-21.16793],[-175.06843,-21.16812],[-175.08174,-21.17785],[-175.08202,-21.17862],[-175.11738,-21.20306],[-175.12096,-21.21168],[-175.11933,-21.22235],[-175.11592,-21.23357],[-175.11396,-21.24407],[-175.11762,-21.25596],[-175.12654,-21.26279],[-175.13781,-21.26621],[-175.14652,-21.26763],[-175.18006,-21.25109],[-175.19074,-21.23323],[-175.19038,-21.22925],[-175.195,-21.22557],[-175.19399,-21.22194],[-175.20033,-21.21742],[-175.22252,-21.20843],[-175.25731,-21.19215],[-175.26456,-21.19936],[-175.26547,-21.19929],[-175.28962,-21.18597],[-175.29541,-21.18384],[-175.30466,-21.17762],[-175.31161,-21.16949],[-175.33112,-21.16052],[-175.34021,-21.15266],[-175.35639,-21.09242],[-175.35635,-21.09232],[-175.3496,-21.08509],[-175.33214,-21.07122],[-175.325,-21.06889],[-175.33393,-21.0806],[-175.33848,-21.09376]]],[[[-175.22888,-21.12483],[-175.22811,-21.12215],[-175.22521,-21.12379],[-175.22514,-21.12386],[-175.22888,-21.12483]]],[[[-174.78409,-20.25945],[-174.78909,-20.2671],[-174.79097,-20.26673],[-174.8104,-20.25366],[-174.80688,-20.24536],[-174.80529,-20.24424],[-174.79813,-20.24318],[-174.79321,-20.24193],[-174.79036,-20.24159],[-174.78716,-20.24433],[-174.78179,-20.24157],[-174.78071,-20.24562],[-174.78409,-20.25945]]],[[[-175.05333,-19.72381],[-175.04601,-19.75115],[-175.04784,-19.78118],[-175.05103,-19.78679],[-175.06336,-19.78866],[-175.0757,-19.78694],[-175.09246,-19.76764],[-175.09948,-19.74977],[-175.10033,-19.73984],[-175.09669,-19.72089],[-175.09654,-19.72063],[-175.09065,-19.71266],[-175.08165,-19.71136],[-175.06929,-19.71201],[-175.05333,-19.72381]]],[[[-175.01989,-19.68483],[-175.02913,-19.687],[-175.0316,-19.68393],[-175.03061,-19.66538],[-175.02411,-19.65469],[-175.01399,-19.66343],[-175.01989,-19.68483]]],[[[-174.6538,-18.81748],[-174.66413,-18.80137],[-174.66127,-18.787],[-174.64689,-18.78199],[-174.63083,-18.79059],[-174.62682,-18.79754],[-174.63024,-18.80901],[-174.64045,-18.81658],[-174.6538,-18.81748]]],[[[-175.6128,-15.57434],[-175.61779,-15.60149],[-175.63915,-15.62428],[-175.66889,-15.62152],[-175.67913,-15.6102],[-175.67979,-15.6004],[-175.67347,-15.58585],[-175.66523,-15.57823],[-175.63235,-15.56654],[-175.62063,-15.56912],[-175.6128,-15.57434]]],[[[-174.34088,-19.79984],[-174.34016,-19.8162],[-174.33615,-19.82144],[-174.33935,-19.82187],[-174.34699,-19.81813],[-174.35314,-19.81374],[-174.3544,-19.8123],[-174.34875,-19.79722],[-174.34752,-19.79681],[-174.33698,-19.78777],[-174.33551,-19.7852],[-174.34088,-19.79984]]],[[[-174.32607,-19.76121],[-174.32567,-19.7597],[-174.32075,-19.76067],[-174.32026,-19.76086],[-174.32607,-19.76121]]],[[[-174.2828,-19.75015],[-174.28755,-19.75058],[-174.3022,-19.74407],[-174.30437,-19.73742],[-174.295,-19.73595],[-174.29161,-19.7273],[-174.28127,-19.71865],[-174.27579,-19.72665],[-174.2828,-19.75015]]],[[[-174.26526,-19.69382],[-174.26779,-19.69621],[-174.26932,-19.69625],[-174.26547,-19.69249],[-174.26526,-19.69382]]],[[[-173.99963,-18.67845],[-173.98911,-18.67704],[-173.98784,-18.67797],[-173.99037,-18.68727],[-173.99571,-18.69149],[-173.99201,-18.69435],[-173.99058,-18.69352],[-173.99055,-18.70306],[-173.99399,-18.70333],[-174.00136,-18.6994],[-173.99759,-18.69847],[-173.99747,-18.69459],[-174.01168,-18.68149],[-174.01328,-18.6763],[-174.012,-18.67642],[-174.0071,-18.663],[-173.99431,-18.65337],[-173.98839,-18.6675],[-173.99963,-18.67845]]],[[[-174.01441,-18.6664],[-174.01093,-18.66748],[-174.01607,-18.66718],[-174.01645,-18.66594],[-174.01441,-18.6664]]],[[[-174.0212,-18.6186],[-174.01453,-18.60663],[-174.00531,-18.5999],[-174.00229,-18.58835],[-174.00507,-18.57396],[-173.99467,-18.57637],[-173.97427,-18.56645],[-173.97203,-18.56631],[-173.96082,-18.57566],[-173.95503,-18.57671],[-173.95216,-18.57229],[-173.94617,-18.5757],[-173.94496,-18.57204],[-173.93898,-18.57495],[-173.93428,-18.57928],[-173.92797,-18.58668],[-173.92386,-18.5895],[-173.92756,-18.59715],[-173.91837,-18.60152],[-173.92369,-18.61086],[-173.91469,-18.61619],[-173.91515,-18.62689],[-173.92,-18.63315],[-173.92424,-18.62536],[-173.92293,-18.62103],[-173.92538,-18.62143],[-173.93239,-18.60999],[-173.9369,-18.61034],[-173.93802,-18.61474],[-173.93478,-18.6145],[-173.93842,-18.61955],[-173.93617,-18.62237],[-173.94209,-18.61582],[-173.95295,-18.6207],[-173.95861,-18.62672],[-173.95793,-18.63188],[-173.9581,-18.63442],[-173.95745,-18.63439],[-173.95164,-18.6404],[-173.95231,-18.64329],[-173.95026,-18.6447],[-173.95322,-18.64823],[-173.95501,-18.64634],[-173.96259,-18.6493],[-173.9614,-18.66117],[-173.96259,-18.66351],[-173.96541,-18.66292],[-173.96429,-18.65495],[-173.9768,-18.65221],[-173.9757,-18.66077],[-173.97663,-18.66058],[-173.98047,-18.66487],[-173.98285,-18.65337],[-173.99454,-18.648],[-174.00071,-18.65085],[-174.00041,-18.64644],[-173.99241,-18.64403],[-173.9902,-18.6403],[-173.98331,-18.63998],[-173.97324,-18.62952],[-173.97221,-18.61452],[-173.99071,-18.60463],[-173.99987,-18.61167],[-174.00546,-18.62092],[-173.98766,-18.61543],[-173.97773,-18.62061],[-173.9787,-18.62909],[-173.99624,-18.64157],[-173.99852,-18.63966],[-173.99573,-18.63378],[-174.00353,-18.6398],[-174.00646,-18.63437],[-174.01098,-18.62949],[-174.01831,-18.63554],[-174.02506,-18.63728],[-174.02716,-18.64867],[-174.02462,-18.64922],[-174.02515,-18.65162],[-174.02792,-18.65407],[-174.02578,-18.65407],[-174.03014,-18.66334],[-174.04515,-18.65683],[-174.04613,-18.66237],[-174.04906,-18.66351],[-174.05358,-18.66318],[-174.05819,-18.66344],[-174.05825,-18.66327],[-174.05671,-18.65105],[-174.06596,-18.64875],[-174.06641,-18.64773],[-174.06361,-18.64412],[-174.0688,-18.63105],[-174.05559,-18.62066],[-174.05036,-18.61934],[-174.03787,-18.6211],[-174.03589,-18.62568],[-174.03066,-18.6268],[-174.0212,-18.6186]]],[[[-173.74983,-15.94768],[-173.76512,-15.96472],[-173.76472,-15.95859],[-173.7543,-15.94956],[-173.74979,-15.94743],[-173.74983,-15.94768]]],[[[-173.76366,-15.95208],[-173.76598,-15.95713],[-173.76948,-15.9542],[-173.76879,-15.9485],[-173.76452,-15.94858],[-173.76366,-15.95208]]]]}}]}}
