{"type":"FeatureCollection","features":[{"type":"Feature","properties":{"id":"TTO:ADM0:71565481B61107784328107","name":"Trinidad and Tobago","countryCode":"TTO","adminLevel":0,"sourceCode":"71565481B61107784328107","parentId":"TTO:ADM1:TTO-58"},"geometry":{"type":"MultiPolygon","coordinates":[[[[-61.75543,10.67619],[-61.76451,10.67136],[-61.75811,10.6774],[-61.75795,10.68183],[-61.75617,10.68417],[-61.76018,10.68687],[-61.7569,10.68926],[-61.75761,10.6936],[-61.75719,10.69396],[-61.74775,10.6929],[-61.74407,10.68856],[-61.74761,10.69053],[-61.74864,10.68782],[-61.75587,10.68659],[-61.75452,10.68341],[-61.75665,10.68306],[-61.75589,10.68164],[-61.7567,10.68065],[-61.75524,10.67727],[-61.75269,10.67559],[-61.75543,10.67619]]],[[[-61.693,10.6805],[-61.6974,10.6849],[-61.70379,10.68128],[-61.69573,10.68976],[-61.69454,10.6986],[-61.68928,10.70071],[-61.68208,10.70059],[-61.68033,10.69668],[-61.68159,10.69196],[-61.68139,10.68533],[-61.68151,10.68527],[-61.68822,10.68879],[-61.68793,10.68355],[-61.68662,10.68268],[-61.68879,10.68159],[-61.68922,10.68046],[-61.693,10.6805]]],[[[-61.0019,10.8376],[-60.99744,10.83847],[-60.99277,10.83492],[-60.96462,10.83645],[-60.95031,10.83326],[-60.93843,10.84324],[-60.9364,10.84284],[-60.9243,10.83582],[-60.90905,10.83487],[-60.91623,10.82569],[-60.9154,10.8231],[-60.92394,10.80829],[-60.92648,10.80592],[-60.9375,10.80405],[-60.94473,10.78919],[-60.94785,10.76684],[-60.94912,10.76464],[-60.96265,10.75586],[-60.97142,10.74246],[-60.98054,10.73608],[-60.98569,10.7253],[-60.98509,10.72036],[-60.9859,10.71936],[-60.98817,10.72168],[-60.99145,10.72016],[-60.99592,10.71378],[-60.9962,10.70678],[-60.99724,10.70551],[-61.00824,10.70239],[-61.01687,10.70676],[-61.02586,10.70359],[-61.03216,10.68979],[-61.03723,10.68769],[-61.03805,10.68176],[-61.03671,10.66122],[-61.03807,10.65363],[-61.03698,10.62491],[-61.02047,10.5732],[-61.02161,10.56368],[-61.01421,10.53392],[-61.03705,10.51455],[-61.04091,10.51393],[-61.04151,10.51077],[-61.04247,10.50995],[-61.04239,10.50612],[-61.04379,10.49871],[-61.04186,10.48194],[-61.04186,10.48188],[-61.04185,10.48181],[-61.0399,10.46487],[-61.0359,10.45004],[-61.02815,10.40851],[-61.02302,10.39484],[-61.01635,10.38215],[-61.01528,10.38058],[-61.00486,10.35651],[-60.99236,10.33841],[-60.98588,10.33515],[-60.98132,10.33576],[-60.97981,10.33935],[-60.97528,10.33978],[-60.96865,10.33516],[-60.97046,10.32878],[-60.98519,10.32883],[-60.99633,10.30554],[-60.99808,10.2947],[-61.0006,10.2566],[-61.0028,10.24755],[-61.00305,10.21936],[-61.00348,10.2128],[-61.00314,10.20983],[-61.00333,10.18911],[-60.996,10.13825],[-61.00108,10.13935],[-60.99852,10.14252],[-61.00253,10.15198],[-61.02001,10.15319],[-61.05052,10.13247],[-61.05281,10.12881],[-61.06432,10.12181],[-61.07774,10.11049],[-61.09574,10.10652],[-61.10645,10.09782],[-61.11816,10.09609],[-61.12521,10.08956],[-61.14442,10.08159],[-61.16735,10.07616],[-61.17502,10.07543],[-61.18769,10.07638],[-61.18949,10.07909],[-61.20108,10.07531],[-61.24884,10.08298],[-61.2503,10.08367],[-61.25162,10.08342],[-61.253,10.08365],[-61.26207,10.08286],[-61.26104,10.08686],[-61.2711,10.08417],[-61.28027,10.08613],[-61.30137,10.08343],[-61.31394,10.07846],[-61.32373,10.0792],[-61.33381,10.07368],[-61.37641,10.07259],[-61.4039,10.07498],[-61.41112,10.07699],[-61.41517,10.07596],[-61.41747,10.07616],[-61.44996,10.07356],[-61.4537,10.07386],[-61.46258,10.07256],[-61.5015,10.06945],[-61.50763,10.07293],[-61.51493,10.07132],[-61.52657,10.07325],[-61.52936,10.07456],[-61.53243,10.07422],[-61.5441,10.07616],[-61.55346,10.07388],[-61.55922,10.07159],[-61.5716,10.07396],[-61.58509,10.07179],[-61.59914,10.06512],[-61.60322,10.06706],[-61.62601,10.05612],[-61.62843,10.05649],[-61.6329,10.05985],[-61.64113,10.05994],[-61.64696,10.06297],[-61.65608,10.06965],[-61.66307,10.0736],[-61.66844,10.07931],[-61.68793,10.08248],[-61.69415,10.08663],[-61.75059,10.08492],[-61.75317,10.08406],[-61.79332,10.08413],[-61.7936,10.0841],[-61.79636,10.08599],[-61.8065,10.08706],[-61.82185,10.08363],[-61.84375,10.07108],[-61.86588,10.06317],[-61.89689,10.04394],[-61.9097,10.04373],[-61.9287,10.05646],[-61.9195,10.06923],[-61.91843,10.07027],[-61.88671,10.08674],[-61.88195,10.09048],[-61.87581,10.09235],[-61.85202,10.09581],[-61.84867,10.09796],[-61.83853,10.09984],[-61.83194,10.10615],[-61.82152,10.12116],[-61.8059,10.13288],[-61.78917,10.14094],[-61.75077,10.15225],[-61.72509,10.1553],[-61.69756,10.16653],[-61.69552,10.1715],[-61.66906,10.18403],[-61.65079,10.20002],[-61.64686,10.20215],[-61.63694,10.21216],[-61.63151,10.22135],[-61.63654,10.22687],[-61.63852,10.23587],[-61.63767,10.24169],[-61.62694,10.24726],[-61.61181,10.2475],[-61.60702,10.24669],[-61.57089,10.23182],[-61.54624,10.22929],[-61.52866,10.23198],[-61.51345,10.24042],[-61.50658,10.24067],[-61.49527,10.24502],[-61.48192,10.25568],[-61.46984,10.26927],[-61.46215,10.28221],[-61.45955,10.29591],[-61.45644,10.29909],[-61.45833,10.30663],[-61.45918,10.30704],[-61.45963,10.30972],[-61.46124,10.31894],[-61.45952,10.31893],[-61.46158,10.32006],[-61.46343,10.32599],[-61.45987,10.33157],[-61.46594,10.36001],[-61.48021,10.37222],[-61.48283,10.37336],[-61.48306,10.37645],[-61.48034,10.37792],[-61.47692,10.37861],[-61.47521,10.38154],[-61.47619,10.38931],[-61.482,10.40888],[-61.48575,10.41572],[-61.48795,10.43012],[-61.48225,10.44986],[-61.46898,10.48086],[-61.46231,10.51887],[-61.46215,10.55817],[-61.47228,10.59488],[-61.48921,10.61609],[-61.48992,10.61767],[-61.49092,10.61823],[-61.49625,10.62491],[-61.48888,10.63105],[-61.49709,10.63657],[-61.49684,10.64199],[-61.50317,10.64066],[-61.50835,10.64414],[-61.50804,10.64686],[-61.51251,10.64695],[-61.5288,10.6579],[-61.53752,10.66185],[-61.53767,10.66863],[-61.55025,10.67753],[-61.55877,10.67436],[-61.55756,10.68267],[-61.56034,10.67336],[-61.56389,10.67834],[-61.57192,10.67735],[-61.57763,10.67992],[-61.57809,10.68002],[-61.58412,10.68315],[-61.59445,10.68481],[-61.5956,10.68368],[-61.59903,10.68439],[-61.59929,10.68441],[-61.60327,10.69171],[-61.61152,10.68523],[-61.65001,10.68781],[-61.65636,10.68976],[-61.66128,10.69514],[-61.66373,10.69965],[-61.66192,10.70259],[-61.66366,10.70503],[-61.66562,10.70313],[-61.66759,10.70677],[-61.65391,10.71609],[-61.65196,10.7149],[-61.64455,10.71889],[-61.64053,10.72521],[-61.63268,10.73056],[-61.63255,10.73055],[-61.63225,10.73085],[-61.62306,10.73712],[-61.62089,10.73664],[-61.62085,10.73862],[-61.61563,10.74217],[-61.60279,10.74747],[-61.59776,10.74738],[-61.58233,10.7461],[-61.57685,10.74426],[-61.57445,10.74544],[-61.56115,10.74433],[-61.5491,10.74711],[-61.54694,10.74637],[-61.54291,10.74854],[-61.52716,10.75217],[-61.52324,10.75046],[-61.51606,10.75382],[-61.51528,10.75491],[-61.51513,10.75495],[-61.4901,10.75463],[-61.48952,10.75462],[-61.48933,10.75407],[-61.48351,10.75345],[-61.47937,10.75746],[-61.47322,10.76024],[-61.46557,10.77025],[-61.46229,10.77288],[-61.46368,10.76668],[-61.45743,10.76295],[-61.45588,10.76339],[-61.45531,10.76203],[-61.44787,10.76203],[-61.44758,10.76537],[-61.44782,10.77395],[-61.44373,10.7757],[-61.44202,10.7757],[-61.44163,10.77502],[-61.44136,10.77305],[-61.44455,10.7698],[-61.4407,10.76615],[-61.44301,10.76211],[-61.43609,10.76018],[-61.44172,10.75458],[-61.43342,10.75654],[-61.43072,10.75868],[-61.42904,10.75821],[-61.42404,10.76398],[-61.42441,10.76501],[-61.42365,10.76594],[-61.42121,10.76826],[-61.40193,10.76887],[-61.40005,10.76826],[-61.39184,10.77562],[-61.37865,10.79087],[-61.37179,10.79451],[-61.3648,10.80311],[-61.35261,10.8041],[-61.34911,10.80439],[-61.33571,10.80278],[-61.3302,10.80103],[-61.30109,10.79643],[-61.2881,10.79801],[-61.28588,10.798],[-61.27421,10.79351],[-61.25326,10.79267],[-61.25022,10.79595],[-61.24451,10.79334],[-61.22053,10.79449],[-61.21825,10.79771],[-61.21781,10.79771],[-61.20854,10.79468],[-61.20244,10.79765],[-61.18008,10.79755],[-61.17158,10.80394],[-61.16088,10.81196],[-61.15397,10.81161],[-61.1473,10.81738],[-61.11792,10.82088],[-61.11303,10.81976],[-61.10109,10.82289],[-61.09655,10.82343],[-61.09239,10.82517],[-61.06425,10.83253],[-61.06205,10.83278],[-61.04912,10.82875],[-61.0462,10.83453],[-61.00331,10.83927],[-61.0019,10.8376]]],[[[-61.26617,10.08311],[-61.26446,10.08265],[-61.26567,10.08254],[-61.26617,10.08311]]],[[[-60.53972,11.34269],[-60.53666,11.33991],[-60.52842,11.34648],[-60.53066,11.34409],[-60.52992,11.34055],[-60.52697,11.34051],[-60.52877,11.33754],[-60.52281,11.33725],[-60.52256,11.33089],[-60.52273,11.3305],[-60.52254,11.33048],[-60.52208,11.31883],[-60.52208,11.31883],[-60.5221,11.31883],[-60.52209,11.31878],[-60.52284,11.31216],[-60.52707,11.31289],[-60.52555,11.30709],[-60.53358,11.30154],[-60.53223,11.29347],[-60.5251,11.2921],[-60.52554,11.28815],[-60.52705,11.28379],[-60.5282,11.28387],[-60.52788,11.2814],[-60.53303,11.26651],[-60.54418,11.26911],[-60.55036,11.26911],[-60.5517,11.26585],[-60.55505,11.26211],[-60.55416,11.25983],[-60.55651,11.2541],[-60.5653,11.25243],[-60.57527,11.25576],[-60.58511,11.25552],[-60.58707,11.25113],[-60.60204,11.23143],[-60.60558,11.23066],[-60.62877,11.21654],[-60.63606,11.21076],[-60.64713,11.20417],[-60.65978,11.20429],[-60.67186,11.20673],[-60.6813,11.2071],[-60.73609,11.17989],[-60.73871,11.18222],[-60.74445,11.17644],[-60.75951,11.17292],[-60.78645,11.14997],[-60.80203,11.14377],[-60.80382,11.14435],[-60.81041,11.15925],[-60.82543,11.1518],[-60.83935,11.15412],[-60.84093,11.15603],[-60.83848,11.15808],[-60.84136,11.16786],[-60.83935,11.17278],[-60.83469,11.16696],[-60.81684,11.16713],[-60.81777,11.17079],[-60.82472,11.16916],[-60.82455,11.17188],[-60.8109,11.17398],[-60.80678,11.17909],[-60.8111,11.18357],[-60.79638,11.18802],[-60.79543,11.19442],[-60.79843,11.19773],[-60.78605,11.20312],[-60.78606,11.20768],[-60.77755,11.21505],[-60.78075,11.22231],[-60.7655,11.22727],[-60.74911,11.24585],[-60.74577,11.248],[-60.72767,11.25414],[-60.72391,11.26019],[-60.71772,11.26068],[-60.71598,11.26669],[-60.69777,11.27577],[-60.69782,11.28287],[-60.6935,11.28708],[-60.68856,11.28734],[-60.68469,11.29196],[-60.6805,11.29128],[-60.68067,11.28864],[-60.67664,11.29195],[-60.67142,11.28986],[-60.67129,11.29753],[-60.65151,11.29865],[-60.65162,11.30195],[-60.64582,11.30587],[-60.63054,11.3022],[-60.63252,11.30842],[-60.6234,11.31525],[-60.61532,11.31652],[-60.61319,11.31954],[-60.60757,11.32071],[-60.60533,11.32196],[-60.6014,11.32062],[-60.58401,11.32938],[-60.58274,11.32901],[-60.5771,11.32573],[-60.57321,11.31908],[-60.56991,11.31987],[-60.5703,11.31565],[-60.56412,11.31514],[-60.54878,11.32326],[-60.54964,11.33037],[-60.55174,11.33126],[-60.54351,11.34087],[-60.53972,11.34269]]]]}}],"admin1":{"type":"FeatureCollection","features":[{"type":"Feature","properties":{"id":"TTO:ADM1:TTO-58","name":"Couva-Tabaquite-Talparo","countryCode":"TTO"},"geometry":{"type":"MultiPolygon","coordinates":[[[[-61.26567,10.08254],[-61.26617,10.08311],[-61.26446,10.08265],[-61.26567,10.08254]]],[[[-60.99277,10.83492],[-60.96462,10.83645],[-60.95031,10.83326],[-60.93843,10.84324],[-60.9364,10.84284],[-60.9243,10.83582],[-60.90905,10.83487],[-60.91623,10.82569],[-60.9154,10.8231],[-60.92394,10.80829],[-60.92648,10.80592],[-60.9375,10.80405],[-60.94473,10.78919],[-60.94785,10.76684],[-60.94912,10.76464],[-60.96265,10.75586],[-60.97142,10.74246],[-60.98054,10.73608],[-60.98569,10.7253],[-60.98509,10.72036],[-60.9859,10.71936],[-60.98817,10.72168],[-60.99145,10.72016],[-60.99592,10.71378],[-60.9962,10.70678],[-60.99724,10.70551],[-61.00824,10.70239],[-61.01687,10.70676],[-61.02586,10.70359],[-61.03216,10.68979],[-61.03723,10.68769],[-61.03805,10.68176],[-61.03671,10.66122],[-61.03807,10.65363],[-61.03698,10.62491],[-61.02047,10.5732],[-61.02161,10.56368],[-61.01421,10.53392],[-61.03705,10.51455],[-61.04091,10.51393],[-61.04151,10.51077],[-61.04247,10.50995],[-61.04239,10.50612],[-61.04379,10.49871],[-61.04186,10.48194],[-61.04186,10.48188],[-61.04185,10.48181],[-61.0399,10.46487],[-61.0359,10.45004],[-61.02815,10.40851],[-61.02302,10.39484],[-61.01635,10.38215],[-61.01528,10.38058],[-61.00486,10.35651],[-60.99236,10.33841],[-60.98588,10.33515],[-60.98132,10.33576],[-60.97981,10.33935],[-60.97528,10.33978],[-60.96865,10.33516],[-60.97046,10.32878],[-60.98519,10.32883],[-60.99633,10.30554],[-60.99808,10.2947],[-61.0006,10.2566],[-61.0028,10.24755],[-61.00305,10.21936],[-61.00348,10.2128],[-61.00314,10.20983],[-61.00333,10.18911],[-60.996,10.13825],[-61.00108,10.13935],[-60.99852,10.14252],[-61.00253,10.15198],[-61.02001,10.15319],[-61.05052,10.13247],[-61.05281,10.12881],[-61.06432,10.12181],[-61.07774,10.11049],[-61.09574,10.10652],[-61.10645,10.09782],[-61.11816,10.09609],[-61.12521,10.08956],[-61.14442,10.08159],[-61.16735,10.07616],[-61.17502,10.07543],[-61.18769,10.07638],[-61.18949,10.07909],[-61.20108,10.07531],[-61.24884,10.08298],[-61.2503,10.08367],[-61.25162,10.08342],[-61.253,10.08365],[-61.26207,10.08286],[-61.26104,10.08686],[-61.2711,10.08417],[-61.28027,10.08613],[-61.30137,10.08343],[-61.31394,10.07846],[-61.32373,10.0792],[-61.33381,10.07368],[-61.37641,10.07259],[-61.4039,10.07498],[-61.41112,10.07699],[-61.41517,10.07596],[-61.41747,10.07616],[-61.44996,10.07356],[-61.4537,10.07386],[-61.46258,10.07256],[-61.5015,10.06945],[-61.50763,10.07293],[-61.51493,10.07132],[-61.52657,10.07325],[-61.52936,10.07456],[-61.53243,10.07422],[-61.5441,10.07616],[-61.55346,10.07388],[-61.55922,10.07159],[-61.5716,10.07396],[-61.58509,10.07179],[-61.59914,10.06512],[-61.60322,10.06706],[-61.62601,10.05612],[-61.62843,10.05649],[-61.6329,10.05985],[-61.64113,10.05994],[-61.64696,10.06297],[-61.65608,10.06965],[-61.66307,10.0736],[-61.66844,10.07931],[-61.68793,10.08248],[-61.69415,10.08663],[-61.75059,10.08492],[-61.75317,10.08406],[-61.79332,10.08413],[-61.7936,10.0841],[-61.79636,10.08599],[-61.8065,10.08706],[-61.82185,10.08363],[-61.84375,10.07108],[-61.86588,10.06317],[-61.89689,10.04394],[-61.9097,10.04373],[-61.9287,10.05646],[-61.9195,10.06923],[-61.91843,10.07027],[-61.88671,10.08674],[-61.88195,10.09048],[-61.87581,10.09235],[-61.85202,10.09581],[-61.84867,10.09796],[-61.83853,10.09984],[-61.83194,10.10615],[-61.82152,10.12116],[-61.8059,10.13288],[-61.78917,10.14094],[-61.75077,10.15225],[-61.72509,10.1553],[-61.69756,10.16653],[-61.69552,10.1715],[-61.66906,10.18403],[-61.65079,10.20002],[-61.64686,10.20215],[-61.63694,10.21216],[-61.63151,10.22135],[-61.63654,10.22687],[-61.63852,10.23587],[-61.63767,10.24169],[-61.62694,10.24726],[-61.61181,10.2475],[-61.60702,10.24669],[-61.57089,10.23182],[-61.54624,10.22929],[-61.52866,10.23198],[-61.51345,10.24042],[-61.50658,10.24067],[-61.49527,10.24502],[-61.48192,10.25568],[-61.46984,10.26927],[-61.46215,10.28221],[-61.45955,10.29591],[-61.45644,10.29909],[-61.45833,10.30663],[-61.45918,10.30704],[-61.45963,10.30972],[-61.46124,10.31894],[-61.45952,10.31893],[-61.46158,10.32006],[-61.46343,10.32599],[-61.45987,10.33157],[-61.46594,10.36001],[-61.48021,10.37222],[-61.48283,10.37336],[-61.48306,10.37645],[-61.48034,10.37792],[-61.47692,10.37861],[-61.47521,10.38154],[-61.47619,10.38931],[-61.482,10.40888],[-61.48575,10.41572],[-61.48795,10.43012],[-61.48225,10.44986],[-61.46898,10.48086],[-61.46231,10.51887],[-61.46215,10.55817],[-61.47228,10.59488],[-61.48921,10.61609],[-61.48992,10.61767],[-61.49092,10.61823],[-61.49625,10.62491],[-61.48888,10.63105],[-61.49709,10.63657],[-61.49684,10.64199],[-61.50317,10.64066],[-61.50835,10.64414],[-61.50804,10.64686],[-61.51251,10.64695],[-61.5288,10.6579],[-61.53752,10.66185],[-61.53767,10.66863],[-61.55025,10.67753],[-61.55877,10.67436],[-61.55756,10.68267],[-61.56034,10.67336],[-61.56389,10.67834],[-61.57192,10.67735],[-61.57763,10.67992],[-61.57809,10.68002],[-61.58412,10.68315],[-61.59445,10.68481],[-61.5956,10.68368],[-61.59903,10.68439],[-61.59929,10.68441],[-61.60327,10.69171],[-61.61152,10.68523],[-61.65001,10.68781],[-61.65636,10.68976],[-61.66128,10.69514],[-61.66373,10.69965],[-61.66192,10.70259],[-61.66366,10.70503],[-61.66562,10.70313],[-61.66759,10.70677],[-61.65391,10.71609],[-61.65196,10.7149],[-61.64455,10.71889],[-61.64053,10.72521],[-61.63268,10.73056],[-61.63255,10.73055],[-61.63225,10.73085],[-61.62306,10.73712],[-61.62089,10.73664],[-61.62085,10.73862],[-61.61563,10.74217],[-61.60279,10.74747],[-61.59776,10.74738],[-61.58233,10.7461],[-61.57685,10.74426],[-61.57445,10.74544],[-61.56115,10.74433],[-61.5491,10.74711],[-61.54694,10.74637],[-61.54291,10.74854],[-61.52716,10.75217],[-61.52324,10.75046],[-61.51606,10.75382],[-61.51528,10.75491],[-61.51513,10.75495],[-61.4901,10.75463],[-61.48952,10.75462],[-61.48933,10.75407],[-61.48351,10.75345],[-61.47937,10.75746],[-61.47322,10.76024],[-61.46557,10.77025],[-61.46229,10.77288],[-61.46368,10.76668],[-61.45743,10.76295],[-61.45588,10.76339],[-61.45531,10.76203],[-61.44787,10.76203],[-61.44758,10.76537],[-61.44782,10.77395],[-61.44373,10.7757],[-61.44202,10.7757],[-61.44163,10.77502],[-61.44136,10.77305],[-61.44455,10.7698],[-61.4407,10.76615],[-61.44301,10.76211],[-61.43609,10.76018],[-61.44172,10.75458],[-61.43342,10.75654],[-61.43072,10.75868],[-61.42904,10.75821],[-61.42404,10.76398],[-61.42441,10.76501],[-61.42365,10.76594],[-61.42121,10.76826],[-61.40193,10.76887],[-61.40005,10.76826],[-61.39184,10.77562],[-61.37865,10.79087],[-61.37179,10.79451],[-61.3648,10.80311],[-61.35261,10.8041],[-61.34911,10.80439],[-61.33571,10.80278],[-61.3302,10.80103],[-61.30109,10.79643],[-61.2881,10.79801],[-61.28588,10.798],[-61.27421,10.79351],[-61.25326,10.79267],[-61.25022,10.79595],[-61.24451,10.79334],[-61.22053,10.79449],[-61.21825,10.79771],[-61.21781,10.79771],[-61.20854,10.79468],[-61.20244,10.79765],[-61.18008,10.79755],[-61.17158,10.80394],[-61.16088,10.81196],[-61.15397,10.81161],[-61.1473,10.81738],[-61.11792,10.82088],[-61.11303,10.81976],[-61.10109,10.82289],[-61.09655,10.82343],[-61.09239,10.82517],[-61.06425,10.83253],[-61.06205,10.83278],[-61.04912,10.82875],[-61.0462,10.83453],[-61.00331,10.83927],[-61.0019,10.8376],[-60.99744,10.83847],[-60.99277,10.83492]]],[[[-61.75811,10.6774],[-61.75795,10.68183],[-61.75617,10.68417],[-61.76018,10.68687],[-61.7569,10.68926],[-61.75761,10.6936],[-61.75719,10.69396],[-61.74775,10.6929],[-61.74407,10.68856],[-61.74761,10.69053],[-61.74864,10.68782],[-61.75587,10.68659],[-61.75452,10.68341],[-61.75665,10.68306],[-61.75589,10.68164],[-61.7567,10.68065],[-61.75524,10.67727],[-61.75269,10.67559],[-61.75543,10.67619],[-61.76451,10.67136],[-61.75811,10.6774]]],[[[-61.69573,10.68976],[-61.69454,10.6986],[-61.68928,10.70071],[-61.68208,10.70059],[-61.68033,10.69668],[-61.68159,10.69196],[-61.68139,10.68533],[-61.68151,10.68527],[-61.68822,10.68879],[-61.68793,10.68355],[-61.68662,10.68268],[-61.68879,10.68159],[-61.68922,10.68046],[-61.693,10.6805],[-61.6974,10.6849],[-61.70379,10.68128],[-61.69573,10.68976]]],[[[-60.53066,11.34409],[-60.52992,11.34055],[-60.52697,11.34051],[-60.52877,11.33754],[-60.52281,11.33725],[-60.52256,11.33089],[-60.52273,11.3305],[-60.52254,11.33048],[-60.52208,11.31883],[-60.5221,11.31883],[-60.52209,11.31878],[-60.52284,11.31216],[-60.52707,11.31289],[-60.52555,11.30709],[-60.53358,11.30154],[-60.53223,11.29347],[-60.5251,11.2921],[-60.52554,11.28815],[-60.52705,11.28379],[-60.5282,11.28387],[-60.52788,11.2814],[-60.53303,11.26651],[-60.54418,11.26911],[-60.55036,11.26911],[-60.5517,11.26585],[-60.55505,11.26211],[-60.55416,11.25983],[-60.55651,11.2541],[-60.5653,11.25243],[-60.57527,11.25576],[-60.58511,11.25552],[-60.58707,11.25113],[-60.60204,11.23143],[-60.60558,11.23066],[-60.62877,11.21654],[-60.63606,11.21076],[-60.64713,11.20417],[-60.65978,11.20429],[-60.67186,11.20673],[-60.6813,11.2071],[-60.73609,11.17989],[-60.73871,11.18222],[-60.74445,11.17644],[-60.75951,11.17292],[-60.78645,11.14997],[-60.80203,11.14377],[-60.80382,11.14435],[-60.81041,11.15925],[-60.82543,11.1518],[-60.83935,11.15412],[-60.84093,11.15603],[-60.83848,11.15808],[-60.84136,11.16786],[-60.83935,11.17278],[-60.83469,11.16696],[-60.81684,11.16713],[-60.81777,11.17079],[-60.82472,11.16916],[-60.82455,11.17188],[-60.8109,11.17398],[-60.80678,11.17909],[-60.8111,11.18357],[-60.79638,11.18802],[-60.79543,11.19442],[-60.79843,11.19773],[-60.78605,11.20312],[-60.78606,11.20768],[-60.77755,11.21505],[-60.78075,11.22231],[-60.7655,11.22727],[-60.74911,11.24585],[-60.74577,11.248],[-60.72767,11.25414],[-60.72391,11.26019],[-60.71772,11.26068],[-60.71598,11.26669],[-60.69777,11.27577],[-60.69782,11.28287],[-60.6935,11.28708],[-60.68856,11.28734],[-60.68469,11.29196],[-60.6805,11.29128],[-60.68067,11.28864],[-60.67664,11.29195],[-60.67142,11.28986],[-60.67129,11.29753],[-60.65151,11.29865],[-60.65162,11.30195],[-60.64582,11.30587],[-60.63054,11.3022],[-60.63252,11.30842],[-60.6234,11.31525],[-60.61532,11.31652],[-60.61319,11.31954],[-60.60757,11.32071],[-60.60533,11.32196],[-60.6014,11.32062],[-60.58401,11.32938],[-60.58274,11.32901],[-60.5771,11.32573],[-60.57321,11.31908],[-60.56991,11.31987],[-60.5703,11.31565],[-60.56412,11.31514],[-60.54878,11.32326],[-60.54964,11.33037],[-60.55174,11.33126],[-60.54351,11.34087],[-60.53972,11.34269],[-60.53666,11.33991],[-60.52842,11.34648],[-60.53066,11.34409]]]]}}]}}
