{"type":"FeatureCollection","features":[{"type":"Feature","properties":{"id":"TUV:ADM0:95523829B53315132220716","name":"Tuvalu","countryCode":"TUV","adminLevel":0,"sourceCode":"95523829B53315132220716","parentId":"TUV:ADM1:TUV+00?"},"geometry":{"type":"MultiPolygon","coordinates":[[[[178.38646,-8.03792],[178.38547,-8.04795],[178.38317,-8.05103],[178.38001,-8.05764],[178.37996,-8.06992],[178.37441,-8.06917],[178.37354,-8.06762],[178.37446,-8.06219],[178.37888,-8.0595],[178.38568,-8.03815],[178.3894,-8.03187],[178.38875,-8.03467],[178.38646,-8.03792]]],[[[178.66859,-7.45856],[178.6667,-7.4592],[178.6664,-7.45816],[178.66859,-7.45856]]],[[[178.68944,-7.49699],[178.68279,-7.49147],[178.68189,-7.48977],[178.68737,-7.48642],[178.68279,-7.47842],[178.6883,-7.47779],[178.69272,-7.48151],[178.69337,-7.48398],[178.69398,-7.49222],[178.68944,-7.49699]]],[[[178.6704,-7.45965],[178.68076,-7.4715],[178.68093,-7.4777],[178.67719,-7.48062],[178.67861,-7.48362],[178.66798,-7.46364],[178.66753,-7.46209],[178.6704,-7.45965]]],[[[176.31692,-6.2953],[176.31918,-6.28924],[176.32293,-6.28883],[176.32244,-6.2951],[176.31902,-6.29814],[176.31692,-6.2953]]],[[[177.33967,-6.11415],[177.33814,-6.11102],[177.33717,-6.10817],[177.34881,-6.11053],[177.35105,-6.11167],[177.33967,-6.11415]]],[[[176.12925,-5.67917],[176.13226,-5.6887],[176.12526,-5.67913],[176.12863,-5.67795],[176.12925,-5.67917]]]]}}],"admin1":{"type":"FeatureCollection","features":[{"type":"Feature","properties":{"id":"TUV:ADM1:TUV+00?","name":"Tuvalu","countryCode":"TUV"},"geometry":{"type":"MultiPolygon","coordinates":[[[[178.38317,-8.05103],[178.38001,-8.05764],[178.37996,-8.06992],[178.37441,-8.06917],[178.37354,-8.06762],[178.37446,-8.06219],[178.37888,-8.0595],[178.38568,-8.03815],[178.3894,-8.03187],[178.38875,-8.03467],[178.38646,-8.03792],[178.38547,-8.04795],[178.38317,-8.05103]]],[[[178.68737,-7.48642],[178.68279,-7.47842],[178.6883,-7.47779],[178.69272,-7.48151],[178.69337,-7.48398],[178.69398,-7.49222],[178.68944,-7.49699],[178.68279,-7.49147],[178.68189,-7.48977],[178.68737,-7.48642]]],[[[178.67719,-7.48062],[178.67861,-7.48362],[178.66798,-7.46364],[178.66753,-7.46209],[178.6704,-7.45965],[178.68076,-7.4715],[178.68093,-7.4777],[178.67719,-7.48062]]],[[[178.66859,-7.45856],[178.6667,-7.4592],[178.6664,-7.45816],[178.66859,-7.45856]]],[[[176.32244,-6.2951],[176.31902,-6.29814],[176.31692,-6.2953],[176.31918,-6.28924],[176.32293,-6.28883],[176.32244,-6.2951]]],[[[177.34881,-6.11053],[177.35105,-6.11167],[177.33967,-6.11415],[177.33814,-6.11102],[177.33717,-6.10817],[177.34881,-6.11053]]],[[[176.12863,-5.67795],[176.12925,-5.67917],[176.13226,-5.6887],[176.12526,-5.67913],[176.12863,-5.67795]]]]}}]}}
