{"type":"FeatureCollection","features":[{"type":"Feature","properties":{"id":"UMI:ADM0:UMI","name":"United States Minor Outlying Islands","countryCode":"UMI","adminLevel":0,"sourceCode":"UMI","parentId":"UMI:ADM1:UMI-5178"},"geometry":{"type":"MultiPolygon","coordinates":[[[[-169.53026,16.7602],[-169.52082,16.7626],[-169.5174,16.76244],[-169.52351,16.75849],[-169.52839,16.75605],[-169.53327,16.75479],[-169.53917,16.75446],[-169.53722,16.7565],[-169.53258,16.75849],[-169.53026,16.7602]]],[[[-160.02998,-0.37615],[-160.0089,-0.37249],[-160.01244,-0.38209],[-160.02477,-0.38877],[-160.02998,-0.37615]]],[[[-176.48583,0.19652],[-176.48213,0.19668],[-176.47912,0.1979],[-176.47688,0.19745],[-176.47529,0.1931],[-176.47932,0.19033],[-176.48127,0.19147],[-176.4829,0.19432],[-176.48583,0.19652]]],[[[-176.45954,0.2259],[-176.45918,0.21922],[-176.46394,0.22187],[-176.45954,0.2259]]],[[[-176.63618,0.79019],[-176.64049,0.80199],[-176.64004,0.80353],[-176.63964,0.80496],[-176.63903,0.80695],[-176.6361,0.80341],[-176.63618,0.79019]]],[[[166.61939,19.28164],[166.62973,19.28242],[166.63819,19.28644],[166.64088,19.29401],[166.63478,19.30573],[166.64812,19.29776],[166.65235,19.28425],[166.64422,19.27558],[166.61939,19.28164]]],[[[-177.32893,28.21109],[-177.32287,28.20767],[-177.32116,28.20588],[-177.3249,28.20498],[-177.33528,28.20429],[-177.32893,28.21109]]],[[[-177.35765,28.21442],[-177.36445,28.20759],[-177.37218,28.20234],[-177.38073,28.19892],[-177.3896,28.19766],[-177.38524,28.20698],[-177.378,28.21284],[-177.36864,28.21532],[-177.35765,28.21442]]],[[[-169.53234,16.73306],[-169.52241,16.73216],[-169.5417,16.72191],[-169.54735,16.72102],[-169.54951,16.72346],[-169.54768,16.72736],[-169.53234,16.73306]]],[[[-169.51366,16.74396],[-169.51366,16.74559],[-169.51277,16.74433],[-169.51366,16.74396]]],[[[-75.02432,18.41726],[-75.02107,18.41564],[-75.01073,18.41564],[-75.01024,18.41515],[-75.00699,18.41515],[-75.00373,18.41079],[-75.00263,18.41022],[-75.00263,18.40644],[-75.00263,18.40477],[-75.00316,18.40371],[-75.00316,18.39773],[-75.00532,18.3961],[-75.00699,18.3961],[-75.00805,18.39501],[-75.01073,18.39501],[-75.01183,18.3961],[-75.01508,18.3961],[-75.01618,18.39667],[-75.01781,18.39667],[-75.01891,18.39773],[-75.01891,18.39883],[-75.0205,18.40042],[-75.0205,18.40262],[-75.02375,18.40644],[-75.02375,18.40697],[-75.02595,18.40803],[-75.03083,18.41348],[-75.03026,18.41726],[-75.02432,18.41726]]],[[[-162.06086,5.88719],[-162.05761,5.88247],[-162.06111,5.87344],[-162.07307,5.86937],[-162.09114,5.87165],[-162.09435,5.87535],[-162.09077,5.87482],[-162.08707,5.87824],[-162.07506,5.88553],[-162.0782,5.8854],[-162.08271,5.88418],[-162.08731,5.88386],[-162.09386,5.88581],[-162.10029,5.88642],[-162.10363,5.88858],[-162.10172,5.89025],[-162.07136,5.89016],[-162.06086,5.88719]]],[[[-162.40018,6.44514],[-162.38528,6.44514],[-162.38528,6.43024],[-162.40018,6.43024],[-162.40018,6.44514]]]]}}],"admin1":{"type":"FeatureCollection","features":[{"type":"Feature","properties":{"id":"UMI:ADM1:UMI-5178","name":"Palmyra Atoll","countryCode":"UMI"},"geometry":{"type":"MultiPolygon","coordinates":[[[[-176.47688,0.19745],[-176.47529,0.1931],[-176.47932,0.19033],[-176.48127,0.19147],[-176.4829,0.19432],[-176.48583,0.19652],[-176.48213,0.19668],[-176.47912,0.1979],[-176.47688,0.19745]]],[[[-176.45918,0.21922],[-176.46394,0.22187],[-176.45954,0.2259],[-176.45918,0.21922]]],[[[-176.63903,0.80695],[-176.6361,0.80341],[-176.63618,0.79019],[-176.64049,0.80199],[-176.64004,0.80353],[-176.63964,0.80496],[-176.63903,0.80695]]],[[[-169.54735,16.72102],[-169.54951,16.72346],[-169.54768,16.72736],[-169.53234,16.73306],[-169.52241,16.73216],[-169.5417,16.72191],[-169.54735,16.72102]]],[[[-169.52839,16.75605],[-169.53327,16.75479],[-169.53917,16.75446],[-169.53722,16.7565],[-169.53258,16.75849],[-169.53026,16.7602],[-169.52082,16.7626],[-169.5174,16.76244],[-169.52351,16.75849],[-169.52839,16.75605]]],[[[-177.3896,28.19766],[-177.38524,28.20698],[-177.378,28.21284],[-177.36864,28.21532],[-177.35765,28.21442],[-177.36445,28.20759],[-177.37218,28.20234],[-177.38073,28.19892],[-177.3896,28.19766]]],[[[-177.3249,28.20498],[-177.33528,28.20429],[-177.32893,28.21109],[-177.32287,28.20767],[-177.32116,28.20588],[-177.3249,28.20498]]],[[[-160.02998,-0.37615],[-160.0089,-0.37249],[-160.01244,-0.38209],[-160.02477,-0.38877],[-160.02998,-0.37615]]],[[[-162.09114,5.87165],[-162.09435,5.87535],[-162.09077,5.87482],[-162.08707,5.87824],[-162.07506,5.88553],[-162.0782,5.8854],[-162.08271,5.88418],[-162.08731,5.88386],[-162.09386,5.88581],[-162.10029,5.88642],[-162.10363,5.88858],[-162.10172,5.89025],[-162.07136,5.89016],[-162.06086,5.88719],[-162.05761,5.88247],[-162.06111,5.87344],[-162.07307,5.86937],[-162.09114,5.87165]]],[[[-162.40018,6.44514],[-162.38528,6.44514],[-162.38528,6.43024],[-162.40018,6.43024],[-162.40018,6.44514]]],[[[-169.51366,16.74559],[-169.51277,16.74433],[-169.51366,16.74396],[-169.51366,16.74559]]],[[[-75.00699,18.41515],[-75.00373,18.41079],[-75.00263,18.41022],[-75.00263,18.40644],[-75.00263,18.40477],[-75.00316,18.40371],[-75.00316,18.39773],[-75.00532,18.3961],[-75.00699,18.3961],[-75.00805,18.39501],[-75.01073,18.39501],[-75.01183,18.3961],[-75.01508,18.3961],[-75.01618,18.39667],[-75.01781,18.39667],[-75.01891,18.39773],[-75.01891,18.39883],[-75.0205,18.40042],[-75.0205,18.40262],[-75.02375,18.40644],[-75.02375,18.40697],[-75.02595,18.40803],[-75.03083,18.41348],[-75.03026,18.41726],[-75.02432,18.41726],[-75.02107,18.41564],[-75.01073,18.41564],[-75.01024,18.41515],[-75.00699,18.41515]]],[[[166.63478,19.30573],[166.64812,19.29776],[166.65235,19.28425],[166.64422,19.27558],[166.61939,19.28164],[166.62973,19.28242],[166.63819,19.28644],[166.64088,19.29401],[166.63478,19.30573]]]]}}]}}
