{"type":"FeatureCollection","features":[{"type":"Feature","properties":{"id":"VAT:ADM0:52476719B53484862947726","name":"Vatican City","countryCode":"VAT","adminLevel":0,"sourceCode":"52476719B53484862947726","parentId":"VAT:ADM1:VAT+00?"},"geometry":{"type":"Polygon","coordinates":[[[12.4555,41.90746],[12.45041,41.90645],[12.44574,41.90186],[12.458,41.90122],[12.4555,41.90746]]]}}],"admin1":{"type":"FeatureCollection","features":[{"type":"Feature","properties":{"id":"VAT:ADM1:VAT+00?","name":"Vatican City","countryCode":"VAT"},"geometry":{"type":"Polygon","coordinates":[[[12.4555,41.90746],[12.45041,41.90645],[12.44574,41.90186],[12.458,41.90122],[12.4555,41.90746]]]}}]}}
