{"type":"FeatureCollection","features":[{"type":"Feature","properties":{"id":"VCT:ADM0:27863697B18121365135507","name":"Saint Vincent and the Grenadines","countryCode":"VCT","adminLevel":0,"sourceCode":"27863697B18121365135507","parentId":"VCT:ADM1:VCT-5068"},"geometry":{"type":"MultiPolygon","coordinates":[[[[-61.44776,12.60018],[-61.44755,12.60551],[-61.45358,12.60668],[-61.45357,12.60786],[-61.44831,12.60993],[-61.4414,12.6079],[-61.42935,12.60049],[-61.42681,12.59244],[-61.42929,12.5901],[-61.43172,12.5885],[-61.43209,12.5895],[-61.43517,12.5894],[-61.43515,12.59103],[-61.43482,12.58971],[-61.43346,12.59019],[-61.43201,12.58967],[-61.43163,12.58872],[-61.43335,12.59363],[-61.44334,12.58516],[-61.44987,12.58564],[-61.45784,12.58872],[-61.45983,12.59146],[-61.45658,12.59547],[-61.44776,12.60018]]],[[[-61.43645,12.58837],[-61.43217,12.5882],[-61.43273,12.58784],[-61.43649,12.58687],[-61.43645,12.58837]]],[[[-61.39938,12.62844],[-61.3962,12.63537],[-61.39942,12.63822],[-61.39578,12.64104],[-61.39519,12.64615],[-61.39143,12.64387],[-61.38736,12.64045],[-61.38924,12.63731],[-61.39071,12.63672],[-61.39219,12.63314],[-61.39717,12.62979],[-61.39782,12.6287],[-61.39938,12.62844]]],[[[-61.33281,12.70191],[-61.32638,12.70624],[-61.32869,12.72122],[-61.33427,12.72623],[-61.33369,12.7283],[-61.32632,12.73314],[-61.32352,12.7334],[-61.32082,12.73131],[-61.31902,12.73332],[-61.31631,12.73005],[-61.31436,12.72089],[-61.31606,12.71867],[-61.32193,12.71826],[-61.32208,12.71158],[-61.32551,12.7082],[-61.32836,12.69945],[-61.33138,12.69624],[-61.33354,12.69737],[-61.34115,12.69321],[-61.34319,12.69311],[-61.34988,12.6997],[-61.34516,12.70071],[-61.34149,12.69931],[-61.33947,12.70193],[-61.33926,12.70197],[-61.33692,12.70489],[-61.33281,12.70191]]],[[[-61.18801,12.86259],[-61.19038,12.86025],[-61.19071,12.86614],[-61.19165,12.86675],[-61.19176,12.86823],[-61.18318,12.88349],[-61.17496,12.88178],[-61.17519,12.88125],[-61.17585,12.88111],[-61.17871,12.87318],[-61.18358,12.86201],[-61.18563,12.85915],[-61.18801,12.86259]]],[[[-61.14547,12.93989],[-61.14435,12.94341],[-61.14933,12.95417],[-61.14919,12.95461],[-61.147,12.95592],[-61.14615,12.95234],[-61.14696,12.94977],[-61.14289,12.94538],[-61.14134,12.94012],[-61.14547,12.93989]]],[[[-61.21368,13.03754],[-61.21118,13.04338],[-61.20565,13.04783],[-61.20429,13.0401],[-61.20718,13.03533],[-61.20478,13.02971],[-61.20926,13.03062],[-61.21012,13.02717],[-61.22281,13.02029],[-61.21549,13.01654],[-61.21572,13.01095],[-61.21753,13.00795],[-61.2204,13.00689],[-61.21964,13.00445],[-61.22393,12.9973],[-61.22999,12.99429],[-61.23012,12.99064],[-61.23288,12.98875],[-61.23241,12.99006],[-61.23542,12.99261],[-61.24344,12.9845],[-61.27256,12.99135],[-61.27721,12.9908],[-61.27721,12.99179],[-61.27591,12.99208],[-61.27411,12.99497],[-61.26232,12.99136],[-61.23961,12.99579],[-61.23957,13.00385],[-61.24023,13.00459],[-61.23596,13.01023],[-61.24018,13.01269],[-61.24567,13.01063],[-61.24621,13.01122],[-61.24759,13.01354],[-61.24845,13.01711],[-61.24671,13.01876],[-61.23651,13.02366],[-61.22402,13.03493],[-61.22086,13.03693],[-61.21368,13.03754]]],[[[-61.22578,13.31894],[-61.22229,13.33259],[-61.21426,13.3408],[-61.21534,13.34677],[-61.21132,13.34823],[-61.20493,13.36764],[-61.20154,13.37149],[-61.19495,13.37019],[-61.1862,13.37984],[-61.17935,13.3785],[-61.17655,13.38076],[-61.17638,13.38076],[-61.15158,13.37683],[-61.14988,13.37459],[-61.14803,13.37558],[-61.14403,13.37409],[-61.14005,13.36738],[-61.13378,13.35277],[-61.12393,13.30825],[-61.12442,13.24698],[-61.13707,13.19105],[-61.13796,13.18765],[-61.14109,13.18552],[-61.14161,13.1819],[-61.16735,13.14606],[-61.18521,13.13251],[-61.21019,13.14419],[-61.24855,13.17073],[-61.24897,13.17138],[-61.24938,13.17131],[-61.25757,13.17697],[-61.25732,13.17814],[-61.26209,13.1801],[-61.26868,13.18466],[-61.26561,13.19256],[-61.27264,13.19387],[-61.27023,13.19892],[-61.27213,13.20261],[-61.27572,13.20253],[-61.27736,13.20852],[-61.27519,13.21778],[-61.27781,13.22287],[-61.27387,13.23467],[-61.27685,13.23971],[-61.27568,13.2466],[-61.27032,13.24791],[-61.27303,13.25518],[-61.26763,13.2572],[-61.26384,13.26434],[-61.25859,13.26551],[-61.26454,13.27062],[-61.25868,13.27914],[-61.26229,13.28285],[-61.26095,13.28711],[-61.24964,13.28805],[-61.24537,13.28995],[-61.24542,13.29406],[-61.24501,13.29412],[-61.24133,13.291],[-61.23443,13.29564],[-61.23485,13.31108],[-61.23455,13.31166],[-61.22578,13.31894]]]]}}],"admin1":{"type":"FeatureCollection","features":[{"type":"Feature","properties":{"id":"VCT:ADM1:VCT-5068","name":"Saint Patrick","countryCode":"VCT"},"geometry":{"type":"MultiPolygon","coordinates":[[[[-61.43649,12.58687],[-61.43645,12.58837],[-61.43217,12.5882],[-61.43273,12.58784],[-61.43649,12.58687]]],[[[-61.45357,12.60786],[-61.44831,12.60993],[-61.4414,12.6079],[-61.42935,12.60049],[-61.42681,12.59244],[-61.42929,12.5901],[-61.43172,12.5885],[-61.43209,12.5895],[-61.43517,12.5894],[-61.43515,12.59103],[-61.43482,12.58971],[-61.43346,12.59019],[-61.43201,12.58967],[-61.43163,12.58872],[-61.43335,12.59363],[-61.44334,12.58516],[-61.44987,12.58564],[-61.45784,12.58872],[-61.45983,12.59146],[-61.45658,12.59547],[-61.44776,12.60018],[-61.44755,12.60551],[-61.45358,12.60668],[-61.45357,12.60786]]],[[[-61.39578,12.64104],[-61.39519,12.64615],[-61.39143,12.64387],[-61.38736,12.64045],[-61.38924,12.63731],[-61.39071,12.63672],[-61.39219,12.63314],[-61.39717,12.62979],[-61.39782,12.6287],[-61.39938,12.62844],[-61.3962,12.63537],[-61.39942,12.63822],[-61.39578,12.64104]]],[[[-61.33427,12.72623],[-61.33369,12.7283],[-61.32632,12.73314],[-61.32352,12.7334],[-61.32082,12.73131],[-61.31902,12.73332],[-61.31631,12.73005],[-61.31436,12.72089],[-61.31606,12.71867],[-61.32193,12.71826],[-61.32208,12.71158],[-61.32551,12.7082],[-61.32836,12.69945],[-61.33138,12.69624],[-61.33354,12.69737],[-61.34115,12.69321],[-61.34319,12.69311],[-61.34988,12.6997],[-61.34516,12.70071],[-61.34149,12.69931],[-61.33947,12.70193],[-61.33926,12.70197],[-61.33692,12.70489],[-61.33281,12.70191],[-61.32638,12.70624],[-61.32869,12.72122],[-61.33427,12.72623]]],[[[-61.19165,12.86675],[-61.19176,12.86823],[-61.18318,12.88349],[-61.17496,12.88178],[-61.17519,12.88125],[-61.17585,12.88111],[-61.17871,12.87318],[-61.18358,12.86201],[-61.18563,12.85915],[-61.18801,12.86259],[-61.19038,12.86025],[-61.19071,12.86614],[-61.19165,12.86675]]],[[[-61.14919,12.95461],[-61.147,12.95592],[-61.14615,12.95234],[-61.14696,12.94977],[-61.14289,12.94538],[-61.14134,12.94012],[-61.14547,12.93989],[-61.14435,12.94341],[-61.14933,12.95417],[-61.14919,12.95461]]],[[[-61.20429,13.0401],[-61.20718,13.03533],[-61.20478,13.02971],[-61.20926,13.03062],[-61.21012,13.02717],[-61.22281,13.02029],[-61.21549,13.01654],[-61.21572,13.01095],[-61.21753,13.00795],[-61.2204,13.00689],[-61.21964,13.00445],[-61.22393,12.9973],[-61.22999,12.99429],[-61.23012,12.99064],[-61.23288,12.98875],[-61.23241,12.99006],[-61.23542,12.99261],[-61.24344,12.9845],[-61.27256,12.99135],[-61.27721,12.9908],[-61.27721,12.99179],[-61.27591,12.99208],[-61.27411,12.99497],[-61.26232,12.99136],[-61.23961,12.99579],[-61.23957,13.00385],[-61.24023,13.00459],[-61.23596,13.01023],[-61.24018,13.01269],[-61.24567,13.01063],[-61.24621,13.01122],[-61.24759,13.01354],[-61.24845,13.01711],[-61.24671,13.01876],[-61.23651,13.02366],[-61.22402,13.03493],[-61.22086,13.03693],[-61.21368,13.03754],[-61.21118,13.04338],[-61.20565,13.04783],[-61.20429,13.0401]]],[[[-61.21534,13.34677],[-61.21132,13.34823],[-61.20493,13.36764],[-61.20154,13.37149],[-61.19495,13.37019],[-61.1862,13.37984],[-61.17935,13.3785],[-61.17655,13.38076],[-61.17638,13.38076],[-61.15158,13.37683],[-61.14988,13.37459],[-61.14803,13.37558],[-61.14403,13.37409],[-61.14005,13.36738],[-61.13378,13.35277],[-61.12393,13.30825],[-61.12442,13.24698],[-61.13707,13.19105],[-61.13796,13.18765],[-61.14109,13.18552],[-61.14161,13.1819],[-61.16735,13.14606],[-61.18521,13.13251],[-61.21019,13.14419],[-61.24855,13.17073],[-61.24897,13.17138],[-61.24938,13.17131],[-61.25757,13.17697],[-61.25732,13.17814],[-61.26209,13.1801],[-61.26868,13.18466],[-61.26561,13.19256],[-61.27264,13.19387],[-61.27023,13.19892],[-61.27213,13.20261],[-61.27572,13.20253],[-61.27736,13.20852],[-61.27519,13.21778],[-61.27781,13.22287],[-61.27387,13.23467],[-61.27685,13.23971],[-61.27568,13.2466],[-61.27032,13.24791],[-61.27303,13.25518],[-61.26763,13.2572],[-61.26384,13.26434],[-61.25859,13.26551],[-61.26454,13.27062],[-61.25868,13.27914],[-61.26229,13.28285],[-61.26095,13.28711],[-61.24964,13.28805],[-61.24537,13.28995],[-61.24542,13.29406],[-61.24501,13.29412],[-61.24133,13.291],[-61.23443,13.29564],[-61.23485,13.31108],[-61.23455,13.31166],[-61.22578,13.31894],[-61.22229,13.33259],[-61.21426,13.3408],[-61.21534,13.34677]]]]}}]}}
