{"type":"FeatureCollection","features":[{"type":"Feature","properties":{"id":"VGB:ADM0:91551643B65959272112957","name":"British Virgin Islands","countryCode":"VGB","adminLevel":0,"sourceCode":"91551643B65959272112957","parentId":"VGB:ADM1:VGB+00?"},"geometry":{"type":"MultiPolygon","coordinates":[[[[-64.57737,18.35646],[-64.57508,18.35935],[-64.57127,18.35449],[-64.56896,18.35526],[-64.56819,18.3509],[-64.56786,18.33739],[-64.57091,18.33466],[-64.57126,18.33542],[-64.57018,18.33869],[-64.57714,18.35215],[-64.59019,18.35132],[-64.5916,18.34985],[-64.60074,18.35163],[-64.60131,18.35263],[-64.59873,18.35388],[-64.60048,18.35624],[-64.59779,18.3569],[-64.5923,18.35771],[-64.58889,18.35396],[-64.57943,18.35513],[-64.58192,18.35968],[-64.58078,18.35996],[-64.57737,18.35646]]],[[[-64.69727,18.39701],[-64.70103,18.39712],[-64.69903,18.39819],[-64.69742,18.39832],[-64.69727,18.39701]]],[[[-64.53735,18.43935],[-64.53948,18.4401],[-64.53854,18.44048],[-64.53735,18.43935]]],[[[-64.55087,18.44319],[-64.5473,18.44385],[-64.54959,18.44636],[-64.553,18.4447],[-64.5533,18.45112],[-64.54862,18.45124],[-64.54815,18.44636],[-64.53515,18.44945],[-64.53564,18.4463],[-64.53151,18.44433],[-64.52766,18.44919],[-64.5272,18.44912],[-64.51685,18.43929],[-64.52013,18.43412],[-64.52619,18.43495],[-64.52803,18.43886],[-64.53921,18.44248],[-64.54137,18.43856],[-64.54375,18.43896],[-64.54461,18.4392],[-64.55087,18.44319]],[[-64.52589,18.43897],[-64.52646,18.44057],[-64.52899,18.44003],[-64.52589,18.43897]]],[[[-64.76178,18.44948],[-64.76002,18.45141],[-64.74291,18.45498],[-64.72981,18.45344],[-64.72753,18.4499],[-64.72669,18.44806],[-64.72835,18.4467],[-64.72558,18.44564],[-64.72423,18.44269],[-64.72806,18.43968],[-64.73253,18.44108],[-64.73122,18.43801],[-64.74671,18.44012],[-64.75042,18.44527],[-64.75337,18.44102],[-64.75939,18.44184],[-64.76174,18.44191],[-64.76536,18.44428],[-64.76725,18.44208],[-64.774,18.44229],[-64.77208,18.44482],[-64.76999,18.44504],[-64.76965,18.44803],[-64.76935,18.44842],[-64.76178,18.44948]]],[[[-64.57533,18.42254],[-64.57664,18.41835],[-64.57716,18.41819],[-64.58011,18.41806],[-64.57971,18.41742],[-64.58332,18.41633],[-64.59118,18.41779],[-64.597,18.4208],[-64.60338,18.42304],[-64.60363,18.42303],[-64.60387,18.42391],[-64.61155,18.42857],[-64.61294,18.42525],[-64.61774,18.42712],[-64.61887,18.4241],[-64.61344,18.42286],[-64.61829,18.41838],[-64.61665,18.41567],[-64.62072,18.41157],[-64.62815,18.40639],[-64.63145,18.40611],[-64.63391,18.40986],[-64.63393,18.40534],[-64.63512,18.4055],[-64.64367,18.39395],[-64.64531,18.39283],[-64.65225,18.39307],[-64.6643,18.3835],[-64.66494,18.38342],[-64.67236,18.3839],[-64.67854,18.39041],[-64.68361,18.3903],[-64.69784,18.38706],[-64.6961,18.38505],[-64.70001,18.3853],[-64.69937,18.38556],[-64.70003,18.38821],[-64.71109,18.38885],[-64.70769,18.39182],[-64.68318,18.3995],[-64.68255,18.39955],[-64.68244,18.39973],[-64.67751,18.40128],[-64.67205,18.40867],[-64.67091,18.41719],[-64.67055,18.41768],[-64.65772,18.42448],[-64.65795,18.42981],[-64.6637,18.43256],[-64.66311,18.43501],[-64.66068,18.44102],[-64.65713,18.44292],[-64.64846,18.43985],[-64.64719,18.44589],[-64.64936,18.44707],[-64.64683,18.44842],[-64.64488,18.44838],[-64.6445,18.44966],[-64.64171,18.45116],[-64.62727,18.44709],[-64.61648,18.44915],[-64.61265,18.44853],[-64.60605,18.44985],[-64.60514,18.45133],[-64.60363,18.45162],[-64.60052,18.45074],[-64.59778,18.44657],[-64.59248,18.44555],[-64.58917,18.44916],[-64.58385,18.45007],[-64.58161,18.44943],[-64.57992,18.45074],[-64.56016,18.4541],[-64.55757,18.45371],[-64.55455,18.43909],[-64.56637,18.43816],[-64.56833,18.4326],[-64.56422,18.43129],[-64.56391,18.42945],[-64.5658,18.42663],[-64.56843,18.42559],[-64.56908,18.42341],[-64.57198,18.42092],[-64.57533,18.42254]],[[-64.58785,18.446],[-64.5866,18.44308],[-64.58328,18.4441],[-64.58785,18.446]]],[[[-64.53602,18.46536],[-64.53296,18.47121],[-64.53742,18.47312],[-64.53396,18.47601],[-64.53888,18.48007],[-64.53592,18.48661],[-64.53765,18.49071],[-64.5327,18.49413],[-64.53086,18.49323],[-64.53187,18.49034],[-64.5293,18.48859],[-64.52892,18.48184],[-64.52908,18.47833],[-64.53133,18.47092],[-64.53073,18.47038],[-64.53161,18.46703],[-64.53653,18.46239],[-64.53822,18.46513],[-64.53602,18.46536]]],[[[-64.39725,18.50518],[-64.39095,18.49727],[-64.3839,18.49891],[-64.38035,18.49655],[-64.38259,18.48874],[-64.35476,18.49175],[-64.35818,18.4953],[-64.3551,18.50217],[-64.34787,18.50204],[-64.35117,18.49647],[-64.34928,18.49515],[-64.34145,18.50097],[-64.33148,18.50215],[-64.3343,18.49706],[-64.33771,18.49527],[-64.34949,18.49418],[-64.35562,18.49022],[-64.35638,18.48629],[-64.36522,18.48381],[-64.36893,18.48591],[-64.37407,18.48167],[-64.37626,18.48141],[-64.38659,18.48521],[-64.39052,18.47503],[-64.38738,18.47301],[-64.38903,18.4711],[-64.39305,18.46807],[-64.40831,18.46866],[-64.4252,18.45942],[-64.42807,18.44559],[-64.42931,18.44489],[-64.44296,18.44311],[-64.4358,18.45063],[-64.43675,18.45164],[-64.4263,18.46523],[-64.42118,18.46336],[-64.41511,18.46711],[-64.41246,18.47571],[-64.41526,18.48015],[-64.41497,18.48371],[-64.41173,18.49136],[-64.41226,18.49435],[-64.40999,18.49923],[-64.41368,18.50228],[-64.41394,18.50375],[-64.39725,18.50518]]],[[[-64.3593,18.50466],[-64.36833,18.50284],[-64.37007,18.50643],[-64.36398,18.50655],[-64.3593,18.50466]]],[[[-64.36741,18.74206],[-64.3569,18.74431],[-64.34608,18.74121],[-64.34091,18.74588],[-64.32423,18.74617],[-64.31374,18.74291],[-64.29548,18.73098],[-64.27259,18.70433],[-64.27174,18.70073],[-64.27277,18.7008],[-64.27713,18.70726],[-64.27963,18.70128],[-64.33654,18.72427],[-64.35298,18.72497],[-64.34522,18.73019],[-64.3554,18.72643],[-64.3548,18.73161],[-64.35245,18.73087],[-64.34875,18.73655],[-64.35827,18.738],[-64.35679,18.74136],[-64.36031,18.74176],[-64.36052,18.73433],[-64.35672,18.73517],[-64.35589,18.73042],[-64.36425,18.72945],[-64.36696,18.73304],[-64.36319,18.73496],[-64.36606,18.73853],[-64.37294,18.74202],[-64.37416,18.73872],[-64.37267,18.73606],[-64.36766,18.73712],[-64.36849,18.73177],[-64.36539,18.72809],[-64.37842,18.73202],[-64.37563,18.73747],[-64.38066,18.73755],[-64.37936,18.73963],[-64.38412,18.74202],[-64.38731,18.73985],[-64.38988,18.74199],[-64.38904,18.73898],[-64.39496,18.73698],[-64.39485,18.73428],[-64.40029,18.73415],[-64.40856,18.7447],[-64.4073,18.74472],[-64.40528,18.74385],[-64.40188,18.74481],[-64.37761,18.74524],[-64.36741,18.74206]]],[[[-64.36045,18.72909],[-64.35665,18.72513],[-64.36281,18.72539],[-64.36045,18.72909]]],[[[-64.37732,18.72928],[-64.36958,18.72568],[-64.38052,18.72614],[-64.3885,18.72875],[-64.37732,18.72928]]],[[[-64.39568,18.73366],[-64.3946,18.73075],[-64.39867,18.73208],[-64.39872,18.73214],[-64.39568,18.73366]]]]}}],"admin1":{"type":"FeatureCollection","features":[{"type":"Feature","properties":{"id":"VGB:ADM1:VGB+00?","name":"British Virgin Islands","countryCode":"VGB"},"geometry":{"type":"MultiPolygon","coordinates":[[[[-64.56896,18.35526],[-64.56819,18.3509],[-64.56786,18.33739],[-64.57091,18.33466],[-64.57126,18.33542],[-64.57018,18.33869],[-64.57714,18.35215],[-64.59019,18.35132],[-64.5916,18.34985],[-64.60074,18.35163],[-64.60131,18.35263],[-64.59873,18.35388],[-64.60048,18.35624],[-64.59779,18.3569],[-64.5923,18.35771],[-64.58889,18.35396],[-64.57943,18.35513],[-64.58192,18.35968],[-64.58078,18.35996],[-64.57737,18.35646],[-64.57508,18.35935],[-64.57127,18.35449],[-64.56896,18.35526]]],[[[-64.69727,18.39701],[-64.70103,18.39712],[-64.69903,18.39819],[-64.69742,18.39832],[-64.69727,18.39701]]],[[[-64.57971,18.41742],[-64.58332,18.41633],[-64.59118,18.41779],[-64.597,18.4208],[-64.60338,18.42304],[-64.60363,18.42303],[-64.60387,18.42391],[-64.61155,18.42857],[-64.61294,18.42525],[-64.61774,18.42712],[-64.61887,18.4241],[-64.61344,18.42286],[-64.61829,18.41838],[-64.61665,18.41567],[-64.62072,18.41157],[-64.62815,18.40639],[-64.63145,18.40611],[-64.63391,18.40986],[-64.63393,18.40534],[-64.63512,18.4055],[-64.64367,18.39395],[-64.64531,18.39283],[-64.65225,18.39307],[-64.6643,18.3835],[-64.66494,18.38342],[-64.67236,18.3839],[-64.67854,18.39041],[-64.68361,18.3903],[-64.69784,18.38706],[-64.6961,18.38505],[-64.70001,18.3853],[-64.69937,18.38556],[-64.70003,18.38821],[-64.71109,18.38885],[-64.70769,18.39182],[-64.68318,18.3995],[-64.68255,18.39955],[-64.68244,18.39973],[-64.67751,18.40128],[-64.67205,18.40867],[-64.67091,18.41719],[-64.67055,18.41768],[-64.65772,18.42448],[-64.65795,18.42981],[-64.6637,18.43256],[-64.66311,18.43501],[-64.66068,18.44102],[-64.65713,18.44292],[-64.64846,18.43985],[-64.64719,18.44589],[-64.64936,18.44707],[-64.64683,18.44842],[-64.64488,18.44838],[-64.6445,18.44966],[-64.64171,18.45116],[-64.62727,18.44709],[-64.61648,18.44915],[-64.61265,18.44853],[-64.60605,18.44985],[-64.60514,18.45133],[-64.60363,18.45162],[-64.60052,18.45074],[-64.59778,18.44657],[-64.59248,18.44555],[-64.58917,18.44916],[-64.58385,18.45007],[-64.58161,18.44943],[-64.57992,18.45074],[-64.56016,18.4541],[-64.55757,18.45371],[-64.55455,18.43909],[-64.56637,18.43816],[-64.56833,18.4326],[-64.56422,18.43129],[-64.56391,18.42945],[-64.5658,18.42663],[-64.56843,18.42559],[-64.56908,18.42341],[-64.57198,18.42092],[-64.57533,18.42254],[-64.57664,18.41835],[-64.57716,18.41819],[-64.58011,18.41806],[-64.57971,18.41742]],[[-64.5866,18.44308],[-64.58328,18.4441],[-64.58785,18.446],[-64.5866,18.44308]]],[[[-64.53735,18.43935],[-64.53948,18.4401],[-64.53854,18.44048],[-64.53735,18.43935]]],[[[-64.5533,18.45112],[-64.54862,18.45124],[-64.54815,18.44636],[-64.53515,18.44945],[-64.53564,18.4463],[-64.53151,18.44433],[-64.52766,18.44919],[-64.5272,18.44912],[-64.51685,18.43929],[-64.52013,18.43412],[-64.52619,18.43495],[-64.52803,18.43886],[-64.53921,18.44248],[-64.54137,18.43856],[-64.54375,18.43896],[-64.54461,18.4392],[-64.55087,18.44319],[-64.5473,18.44385],[-64.54959,18.44636],[-64.553,18.4447],[-64.5533,18.45112]],[[-64.52646,18.44057],[-64.52899,18.44003],[-64.52589,18.43897],[-64.52646,18.44057]]],[[[-64.72753,18.4499],[-64.72669,18.44806],[-64.72835,18.4467],[-64.72558,18.44564],[-64.72423,18.44269],[-64.72806,18.43968],[-64.73253,18.44108],[-64.73122,18.43801],[-64.74671,18.44012],[-64.75042,18.44527],[-64.75337,18.44102],[-64.75939,18.44184],[-64.76174,18.44191],[-64.76536,18.44428],[-64.76725,18.44208],[-64.774,18.44229],[-64.77208,18.44482],[-64.76999,18.44504],[-64.76965,18.44803],[-64.76935,18.44842],[-64.76178,18.44948],[-64.76002,18.45141],[-64.74291,18.45498],[-64.72981,18.45344],[-64.72753,18.4499]]],[[[-64.53396,18.47601],[-64.53888,18.48007],[-64.53592,18.48661],[-64.53765,18.49071],[-64.5327,18.49413],[-64.53086,18.49323],[-64.53187,18.49034],[-64.5293,18.48859],[-64.52892,18.48184],[-64.52908,18.47833],[-64.53133,18.47092],[-64.53073,18.47038],[-64.53161,18.46703],[-64.53653,18.46239],[-64.53822,18.46513],[-64.53602,18.46536],[-64.53296,18.47121],[-64.53742,18.47312],[-64.53396,18.47601]]],[[[-64.38259,18.48874],[-64.35476,18.49175],[-64.35818,18.4953],[-64.3551,18.50217],[-64.34787,18.50204],[-64.35117,18.49647],[-64.34928,18.49515],[-64.34145,18.50097],[-64.33148,18.50215],[-64.3343,18.49706],[-64.33771,18.49527],[-64.34949,18.49418],[-64.35562,18.49022],[-64.35638,18.48629],[-64.36522,18.48381],[-64.36893,18.48591],[-64.37407,18.48167],[-64.37626,18.48141],[-64.38659,18.48521],[-64.39052,18.47503],[-64.38738,18.47301],[-64.38903,18.4711],[-64.39305,18.46807],[-64.40831,18.46866],[-64.4252,18.45942],[-64.42807,18.44559],[-64.42931,18.44489],[-64.44296,18.44311],[-64.4358,18.45063],[-64.43675,18.45164],[-64.4263,18.46523],[-64.42118,18.46336],[-64.41511,18.46711],[-64.41246,18.47571],[-64.41526,18.48015],[-64.41497,18.48371],[-64.41173,18.49136],[-64.41226,18.49435],[-64.40999,18.49923],[-64.41368,18.50228],[-64.41394,18.50375],[-64.39725,18.50518],[-64.39095,18.49727],[-64.3839,18.49891],[-64.38035,18.49655],[-64.38259,18.48874]]],[[[-64.3593,18.50466],[-64.36833,18.50284],[-64.37007,18.50643],[-64.36398,18.50655],[-64.3593,18.50466]]],[[[-64.32423,18.74617],[-64.31374,18.74291],[-64.29548,18.73098],[-64.27259,18.70433],[-64.27174,18.70073],[-64.27277,18.7008],[-64.27713,18.70726],[-64.27963,18.70128],[-64.33654,18.72427],[-64.35298,18.72497],[-64.34522,18.73019],[-64.3554,18.72643],[-64.3548,18.73161],[-64.35245,18.73087],[-64.34875,18.73655],[-64.35827,18.738],[-64.35679,18.74136],[-64.36031,18.74176],[-64.36052,18.73433],[-64.35672,18.73517],[-64.35589,18.73042],[-64.36425,18.72945],[-64.36696,18.73304],[-64.36319,18.73496],[-64.36606,18.73853],[-64.37294,18.74202],[-64.37416,18.73872],[-64.37267,18.73606],[-64.36766,18.73712],[-64.36849,18.73177],[-64.36539,18.72809],[-64.37842,18.73202],[-64.37563,18.73747],[-64.38066,18.73755],[-64.37936,18.73963],[-64.38412,18.74202],[-64.38731,18.73985],[-64.38988,18.74199],[-64.38904,18.73898],[-64.39496,18.73698],[-64.39485,18.73428],[-64.40029,18.73415],[-64.40856,18.7447],[-64.4073,18.74472],[-64.40528,18.74385],[-64.40188,18.74481],[-64.37761,18.74524],[-64.36741,18.74206],[-64.3569,18.74431],[-64.34608,18.74121],[-64.34091,18.74588],[-64.32423,18.74617]]],[[[-64.35665,18.72513],[-64.36281,18.72539],[-64.36045,18.72909],[-64.35665,18.72513]]],[[[-64.37732,18.72928],[-64.36958,18.72568],[-64.38052,18.72614],[-64.3885,18.72875],[-64.37732,18.72928]]],[[[-64.39568,18.73366],[-64.3946,18.73075],[-64.39867,18.73208],[-64.39872,18.73214],[-64.39568,18.73366]]]]}}]}}
