{"type":"FeatureCollection","features":[{"type":"Feature","properties":{"id":"VIR:ADM0:52830179B95356041448855","name":"Virgin Islands","countryCode":"VIR","adminLevel":0,"sourceCode":"52830179B95356041448855","parentId":"VIR:ADM1:VIR-4870"},"geometry":{"type":"MultiPolygon","coordinates":[[[[-64.70259,17.7487],[-64.70334,17.74978],[-64.70188,17.75042],[-64.70259,17.7487]]],[[[-64.66843,17.76075],[-64.66935,17.75831],[-64.66787,17.76083],[-64.6592,17.75948],[-64.65503,17.76333],[-64.64707,17.76164],[-64.64483,17.75741],[-64.64645,17.76104],[-64.63273,17.75877],[-64.61623,17.76131],[-64.60079,17.75452],[-64.59997,17.7571],[-64.5921,17.75589],[-64.58274,17.76161],[-64.56547,17.75526],[-64.57158,17.75037],[-64.58519,17.74897],[-64.59579,17.74566],[-64.60204,17.74567],[-64.60373,17.74318],[-64.60668,17.74226],[-64.64879,17.7237],[-64.65089,17.72308],[-64.65296,17.72324],[-64.65883,17.72071],[-64.67052,17.71723],[-64.76812,17.7039],[-64.77118,17.70902],[-64.77242,17.70331],[-64.87637,17.68911],[-64.88358,17.68668],[-64.88488,17.6873],[-64.88513,17.68616],[-64.8889,17.68489],[-64.89146,17.68523],[-64.88474,17.69986],[-64.88746,17.69862],[-64.88365,17.71703],[-64.88693,17.72604],[-64.88769,17.75528],[-64.88594,17.76247],[-64.87732,17.7697],[-64.83543,17.76151],[-64.81333,17.77056],[-64.8054,17.77902],[-64.79223,17.77931],[-64.78175,17.78369],[-64.75807,17.7788],[-64.76098,17.77503],[-64.7595,17.76787],[-64.75671,17.7746],[-64.75422,17.7751],[-64.75227,17.77062],[-64.75042,17.77794],[-64.73667,17.76908],[-64.73574,17.7664],[-64.70923,17.74686],[-64.69871,17.74585],[-64.69634,17.75048],[-64.68977,17.74478],[-64.68375,17.74954],[-64.67973,17.74878],[-64.68176,17.75112],[-64.66927,17.76101],[-64.66843,17.76075]],[[-64.66428,17.7578],[-64.66675,17.75966],[-64.66601,17.75766],[-64.66428,17.7578]],[[-64.8152,17.7424],[-64.81745,17.74387],[-64.81582,17.74165],[-64.8152,17.7424]],[[-64.78985,17.73397],[-64.78811,17.73397],[-64.78896,17.73473],[-64.78985,17.73397]],[[-64.74648,17.70712],[-64.74863,17.70823],[-64.74855,17.70698],[-64.74648,17.70712]]],[[[-64.75265,17.778],[-64.75251,17.77929],[-64.75122,17.77846],[-64.75265,17.778]]],[[[-64.89444,17.68301],[-64.89517,17.68277],[-64.89468,17.68391],[-64.89444,17.68301]]]]}}],"admin1":{"type":"FeatureCollection","features":[{"type":"Feature","properties":{"id":"VIR:ADM1:VIR-4870","name":"Saint Croix","countryCode":"VIR"},"geometry":{"type":"MultiPolygon","coordinates":[[[[-64.89468,17.68391],[-64.89444,17.68301],[-64.89517,17.68277],[-64.89468,17.68391]]],[[[-64.66787,17.76083],[-64.6592,17.75948],[-64.65503,17.76333],[-64.64707,17.76164],[-64.64483,17.75741],[-64.64645,17.76104],[-64.63273,17.75877],[-64.61623,17.76131],[-64.60079,17.75452],[-64.59997,17.7571],[-64.5921,17.75589],[-64.58274,17.76161],[-64.56547,17.75526],[-64.57158,17.75037],[-64.58519,17.74897],[-64.59579,17.74566],[-64.60204,17.74567],[-64.60373,17.74318],[-64.60668,17.74226],[-64.64879,17.7237],[-64.65089,17.72308],[-64.65296,17.72324],[-64.65883,17.72071],[-64.67052,17.71723],[-64.76812,17.7039],[-64.77118,17.70902],[-64.77242,17.70331],[-64.87637,17.68911],[-64.88358,17.68668],[-64.88488,17.6873],[-64.88513,17.68616],[-64.8889,17.68489],[-64.89146,17.68523],[-64.88474,17.69986],[-64.88746,17.69862],[-64.88365,17.71703],[-64.88693,17.72604],[-64.88769,17.75528],[-64.88594,17.76247],[-64.87732,17.7697],[-64.83543,17.76151],[-64.81333,17.77056],[-64.8054,17.77902],[-64.79223,17.77931],[-64.78175,17.78369],[-64.75807,17.7788],[-64.76098,17.77503],[-64.7595,17.76787],[-64.75671,17.7746],[-64.75422,17.7751],[-64.75227,17.77062],[-64.75042,17.77794],[-64.73667,17.76908],[-64.73574,17.7664],[-64.70923,17.74686],[-64.69871,17.74585],[-64.69634,17.75048],[-64.68977,17.74478],[-64.68375,17.74954],[-64.67973,17.74878],[-64.68176,17.75112],[-64.66927,17.76101],[-64.66843,17.76075],[-64.66935,17.75831],[-64.66787,17.76083]],[[-64.66601,17.75766],[-64.66428,17.7578],[-64.66675,17.75966],[-64.66601,17.75766]],[[-64.81582,17.74165],[-64.8152,17.7424],[-64.81745,17.74387],[-64.81582,17.74165]],[[-64.78896,17.73473],[-64.78985,17.73397],[-64.78811,17.73397],[-64.78896,17.73473]],[[-64.74855,17.70698],[-64.74648,17.70712],[-64.74863,17.70823],[-64.74855,17.70698]]],[[[-64.70188,17.75042],[-64.70259,17.7487],[-64.70334,17.74978],[-64.70188,17.75042]]],[[[-64.75122,17.77846],[-64.75265,17.778],[-64.75251,17.77929],[-64.75122,17.77846]]]]}}]}}
