{"type":"FeatureCollection","features":[{"type":"Feature","properties":{"id":"WLF:ADM0:48161578B5331342262671","name":"Wallis and Futuna","countryCode":"WLF","adminLevel":0,"sourceCode":"48161578B5331342262671","parentId":"WLF:ADM1:WLF-4995"},"geometry":{"type":"MultiPolygon","coordinates":[[[[-178.02388,-14.33201],[-178.01648,-14.33278],[-178.01508,-14.3331],[-178.00458,-14.33827],[-178.02057,-14.34516],[-178.04222,-14.36189],[-178.04747,-14.36026],[-178.04837,-14.35441],[-178.05407,-14.35068],[-178.06389,-14.35047],[-178.05915,-14.34596],[-178.02554,-14.33066],[-178.02477,-14.33084],[-178.02388,-14.33201]]],[[[-178.17644,-14.24087],[-178.16438,-14.24803],[-178.15529,-14.24747],[-178.15255,-14.25433],[-178.13361,-14.25876],[-178.12473,-14.26423],[-178.11622,-14.27537],[-178.1059,-14.28359],[-178.10509,-14.28525],[-178.10305,-14.28586],[-178.08899,-14.29706],[-178.07316,-14.29973],[-178.06431,-14.30624],[-178.05672,-14.30745],[-178.05505,-14.30831],[-178.06588,-14.31244],[-178.08464,-14.31212],[-178.09568,-14.30787],[-178.10775,-14.31136],[-178.12842,-14.30916],[-178.13162,-14.31142],[-178.15481,-14.30359],[-178.1602,-14.29591],[-178.15906,-14.29283],[-178.16669,-14.28992],[-178.16972,-14.28535],[-178.17153,-14.2757],[-178.18163,-14.25404],[-178.17644,-14.24087]]],[[[-176.14767,-13.28243],[-176.14799,-13.27925],[-176.14495,-13.27884],[-176.14435,-13.28208],[-176.14767,-13.28243]]],[[[-176.15139,-13.27358],[-176.15097,-13.27206],[-176.14623,-13.27095],[-176.14726,-13.27394],[-176.15139,-13.27358]]],[[[-176.17549,-13.34145],[-176.17601,-13.34436],[-176.18281,-13.33929],[-176.18283,-13.33901],[-176.17549,-13.34145]]],[[[-176.17902,-13.24558],[-176.17461,-13.25198],[-176.1664,-13.25529],[-176.16226,-13.26584],[-176.1708,-13.28248],[-176.17649,-13.28536],[-176.18232,-13.29426],[-176.17992,-13.30539],[-176.18746,-13.30749],[-176.18408,-13.31198],[-176.18785,-13.31763],[-176.19477,-13.30674],[-176.19957,-13.29062],[-176.18281,-13.27793],[-176.19018,-13.25701],[-176.18403,-13.23789],[-176.18239,-13.23591],[-176.17902,-13.24558]],[[-176.16976,-13.25934],[-176.16994,-13.25746],[-176.17129,-13.25764],[-176.16976,-13.25934]],[[-176.19307,-13.29787],[-176.18811,-13.29882],[-176.18746,-13.2968],[-176.19012,-13.29497],[-176.19307,-13.29787]]],[[[-176.16782,-13.22034],[-176.16841,-13.21978],[-176.16778,-13.21925],[-176.16782,-13.22034]]]]}}],"admin1":{"type":"FeatureCollection","features":[{"type":"Feature","properties":{"id":"WLF:ADM1:WLF-4995","name":"Sigave","countryCode":"WLF"},"geometry":{"type":"MultiPolygon","coordinates":[[[[-178.01508,-14.3331],[-178.00458,-14.33827],[-178.02057,-14.34516],[-178.04222,-14.36189],[-178.04747,-14.36026],[-178.04837,-14.35441],[-178.05407,-14.35068],[-178.06389,-14.35047],[-178.05915,-14.34596],[-178.02554,-14.33066],[-178.02477,-14.33084],[-178.02388,-14.33201],[-178.01648,-14.33278],[-178.01508,-14.3331]]],[[[-178.15255,-14.25433],[-178.13361,-14.25876],[-178.12473,-14.26423],[-178.11622,-14.27537],[-178.1059,-14.28359],[-178.10509,-14.28525],[-178.10305,-14.28586],[-178.08899,-14.29706],[-178.07316,-14.29973],[-178.06431,-14.30624],[-178.05672,-14.30745],[-178.05505,-14.30831],[-178.06588,-14.31244],[-178.08464,-14.31212],[-178.09568,-14.30787],[-178.10775,-14.31136],[-178.12842,-14.30916],[-178.13162,-14.31142],[-178.15481,-14.30359],[-178.1602,-14.29591],[-178.15906,-14.29283],[-178.16669,-14.28992],[-178.16972,-14.28535],[-178.17153,-14.2757],[-178.18163,-14.25404],[-178.17644,-14.24087],[-178.16438,-14.24803],[-178.15529,-14.24747],[-178.15255,-14.25433]]],[[[-176.18283,-13.33901],[-176.17549,-13.34145],[-176.17601,-13.34436],[-176.18281,-13.33929],[-176.18283,-13.33901]]],[[[-176.14435,-13.28208],[-176.14767,-13.28243],[-176.14799,-13.27925],[-176.14495,-13.27884],[-176.14435,-13.28208]]],[[[-176.16226,-13.26584],[-176.1708,-13.28248],[-176.17649,-13.28536],[-176.18232,-13.29426],[-176.17992,-13.30539],[-176.18746,-13.30749],[-176.18408,-13.31198],[-176.18785,-13.31763],[-176.19477,-13.30674],[-176.19957,-13.29062],[-176.18281,-13.27793],[-176.19018,-13.25701],[-176.18403,-13.23789],[-176.18239,-13.23591],[-176.17902,-13.24558],[-176.17461,-13.25198],[-176.1664,-13.25529],[-176.16226,-13.26584]],[[-176.16976,-13.25934],[-176.16994,-13.25746],[-176.17129,-13.25764],[-176.16976,-13.25934]],[[-176.19012,-13.29497],[-176.19307,-13.29787],[-176.18811,-13.29882],[-176.18746,-13.2968],[-176.19012,-13.29497]]],[[[-176.14726,-13.27394],[-176.15139,-13.27358],[-176.15097,-13.27206],[-176.14623,-13.27095],[-176.14726,-13.27394]]],[[[-176.16782,-13.22034],[-176.16841,-13.21978],[-176.16778,-13.21925],[-176.16782,-13.22034]]]]}}]}}
