{"type":"FeatureCollection","features":[{"type":"Feature","properties":{"id":"WSM:ADM0:28090321B55178747691292","name":"Samoa","countryCode":"WSM","adminLevel":0,"sourceCode":"28090321B55178747691292","parentId":"WSM:ADM1:WSM-4991"},"geometry":{"type":"MultiPolygon","coordinates":[[[[-171.56625,-13.90204],[-171.56483,-13.90174],[-171.56311,-13.90489],[-171.56388,-13.90919],[-171.5602,-13.91169],[-171.5595,-13.91146],[-171.55744,-13.91522],[-171.55907,-13.92539],[-171.56574,-13.93141],[-171.57002,-13.93816],[-171.56918,-13.93981],[-171.571,-13.94199],[-171.56796,-13.94219],[-171.56428,-13.9494],[-171.51948,-13.94476],[-171.51525,-13.94684],[-171.51601,-13.95092],[-171.50796,-13.95042],[-171.46968,-13.96925],[-171.46985,-13.97471],[-171.46317,-13.97786],[-171.46235,-13.97754],[-171.43769,-14.00612],[-171.44819,-14.03753],[-171.4453,-14.04144],[-171.44265,-14.04751],[-171.46106,-14.04453],[-171.46742,-14.04615],[-171.49326,-14.03983],[-171.5071,-14.04258],[-171.53033,-14.03977],[-171.53996,-14.04502],[-171.54771,-14.04297],[-171.58353,-14.04586],[-171.58532,-14.04296],[-171.6069,-14.04055],[-171.61047,-14.03612],[-171.60815,-14.0323],[-171.61109,-14.0359],[-171.61614,-14.03451],[-171.65391,-14.04365],[-171.67297,-14.04021],[-171.67874,-14.03881],[-171.69442,-14.02866],[-171.70176,-14.02917],[-171.70525,-14.0345],[-171.71669,-14.03539],[-171.72963,-14.04434],[-171.76475,-14.04389],[-171.76931,-14.03862],[-171.76934,-14.03849],[-171.76594,-14.03168],[-171.77307,-14.02809],[-171.77551,-14.01767],[-171.78107,-14.01188],[-171.78964,-14.0088],[-171.80235,-14.01032],[-171.82426,-14.00779],[-171.82993,-14.00589],[-171.83988,-13.99178],[-171.83132,-13.99847],[-171.82743,-14.00599],[-171.8128,-14.006],[-171.82649,-14.00215],[-171.83149,-13.99553],[-171.83345,-13.98526],[-171.83745,-13.99117],[-171.84141,-13.98814],[-171.85192,-13.98977],[-171.85408,-13.98431],[-171.85783,-13.98357],[-171.8633,-13.98947],[-171.87685,-13.99126],[-171.87084,-13.99106],[-171.88856,-14.00274],[-171.89987,-14.00111],[-171.90323,-14.00517],[-171.9173,-14.00434],[-171.91736,-14.00432],[-171.93346,-13.98994],[-171.93342,-13.9863],[-171.93757,-13.98826],[-171.94659,-13.98177],[-171.94891,-13.97818],[-171.95174,-13.9691],[-171.96014,-13.95802],[-171.96071,-13.94867],[-171.9717,-13.93811],[-171.97124,-13.93524],[-171.9789,-13.93523],[-171.98074,-13.93752],[-171.97618,-13.94616],[-171.98336,-13.9494],[-171.98884,-13.9494],[-171.99125,-13.94602],[-171.9892,-13.94073],[-171.9936,-13.93958],[-171.99524,-13.93504],[-171.99885,-13.93539],[-172.0063,-13.92498],[-172.00699,-13.92456],[-172.00658,-13.92438],[-172.00472,-13.91686],[-172.02166,-13.91179],[-172.02732,-13.91356],[-172.03775,-13.90751],[-172.04545,-13.90693],[-172.06233,-13.89575],[-172.06367,-13.88502],[-172.05561,-13.86191],[-172.04406,-13.84637],[-171.99578,-13.82933],[-171.97075,-13.82936],[-171.95102,-13.81634],[-171.8802,-13.80535],[-171.83454,-13.80739],[-171.80792,-13.81313],[-171.808,-13.81671],[-171.79987,-13.81617],[-171.80303,-13.81767],[-171.80223,-13.82074],[-171.79623,-13.8211],[-171.79289,-13.8269],[-171.77676,-13.82878],[-171.77584,-13.82452],[-171.77875,-13.82173],[-171.77464,-13.82331],[-171.7704,-13.82924],[-171.7666,-13.82775],[-171.76474,-13.83236],[-171.76171,-13.83296],[-171.7595,-13.82915],[-171.7429,-13.83555],[-171.74227,-13.84081],[-171.72219,-13.84446],[-171.72125,-13.85101],[-171.7118,-13.85509],[-171.70815,-13.86374],[-171.69906,-13.85981],[-171.68619,-13.86476],[-171.67348,-13.8623],[-171.66249,-13.86654],[-171.64897,-13.8757],[-171.64092,-13.87232],[-171.6368,-13.87278],[-171.6313,-13.87377],[-171.62224,-13.885],[-171.61144,-13.87564],[-171.60692,-13.87615],[-171.58515,-13.88388],[-171.58491,-13.88406],[-171.58956,-13.89546],[-171.58706,-13.8911],[-171.57519,-13.89178],[-171.57483,-13.89144],[-171.57099,-13.89424],[-171.571,-13.89438],[-171.57064,-13.8945],[-171.56758,-13.89674],[-171.56624,-13.89917],[-171.56625,-13.90204]]],[[[-172.7354,-13.57706],[-172.74681,-13.57317],[-172.75341,-13.567],[-172.76,-13.56641],[-172.76118,-13.56504],[-172.77648,-13.54209],[-172.78258,-13.52028],[-172.76655,-13.51051],[-172.73237,-13.51051],[-172.69514,-13.52418],[-172.6612,-13.52516],[-172.63899,-13.52207],[-172.61535,-13.50937],[-172.60399,-13.50644],[-172.58186,-13.50449],[-172.5692,-13.5014],[-172.54223,-13.48789],[-172.53063,-13.48398],[-172.45185,-13.48398],[-172.43147,-13.48089],[-172.38923,-13.46697],[-172.36616,-13.46282],[-172.34443,-13.46299],[-172.32238,-13.46689],[-172.30077,-13.47649],[-172.28632,-13.48868],[-172.27366,-13.50597],[-172.2671,-13.50863],[-172.26287,-13.51337],[-172.25847,-13.52299],[-172.23799,-13.54346],[-172.2355,-13.55476],[-172.22766,-13.5582],[-172.22601,-13.57057],[-172.22334,-13.57227],[-172.22358,-13.57391],[-172.22277,-13.5783],[-172.21752,-13.58278],[-172.21451,-13.58398],[-172.21482,-13.58419],[-172.20489,-13.59583],[-172.2006,-13.61512],[-172.19542,-13.62129],[-172.19527,-13.62561],[-172.19761,-13.63136],[-172.19496,-13.63505],[-172.1949,-13.6369],[-172.19026,-13.65602],[-172.18139,-13.66766],[-172.17784,-13.67546],[-172.17928,-13.67845],[-172.19358,-13.68912],[-172.19943,-13.6969],[-172.19812,-13.7016],[-172.2042,-13.70476],[-172.20111,-13.70915],[-172.20412,-13.7127],[-172.19906,-13.7139],[-172.19626,-13.7216],[-172.22056,-13.73685],[-172.21622,-13.74433],[-172.22339,-13.75284],[-172.22055,-13.75307],[-172.21466,-13.76366],[-172.21532,-13.76767],[-172.21352,-13.78161],[-172.21444,-13.78234],[-172.21413,-13.79028],[-172.22601,-13.80192],[-172.23892,-13.80106],[-172.24424,-13.8036],[-172.25328,-13.79518],[-172.26259,-13.7983],[-172.26395,-13.79789],[-172.27261,-13.79064],[-172.27812,-13.78126],[-172.28764,-13.7723],[-172.28538,-13.76887],[-172.28944,-13.75868],[-172.3004,-13.7602],[-172.3087,-13.75476],[-172.3227,-13.76107],[-172.32701,-13.77422],[-172.32715,-13.77434],[-172.33792,-13.77814],[-172.34894,-13.77776],[-172.35486,-13.77243],[-172.36646,-13.77321],[-172.37337,-13.77907],[-172.38668,-13.77749],[-172.39075,-13.78238],[-172.40577,-13.78517],[-172.41383,-13.78086],[-172.4196,-13.78575],[-172.44664,-13.78942],[-172.45277,-13.79468],[-172.47258,-13.78673],[-172.48883,-13.79726],[-172.5075,-13.79827],[-172.51258,-13.7951],[-172.5181,-13.80169],[-172.52719,-13.80257],[-172.53291,-13.7986],[-172.54316,-13.78525],[-172.55114,-13.77752],[-172.56737,-13.76881],[-172.57514,-13.76279],[-172.57848,-13.754],[-172.58056,-13.74481],[-172.58996,-13.72479],[-172.59211,-13.71266],[-172.59712,-13.70062],[-172.60896,-13.69305],[-172.62255,-13.68776],[-172.63305,-13.6819],[-172.65453,-13.64918],[-172.66747,-13.63388],[-172.67812,-13.62986],[-172.67811,-13.62736],[-172.6846,-13.6193],[-172.68984,-13.61758],[-172.69212,-13.62102],[-172.6939,-13.61727],[-172.70377,-13.61381],[-172.71921,-13.60205],[-172.72187,-13.59783],[-172.72301,-13.58733],[-172.72557,-13.58196],[-172.73127,-13.57887],[-172.73412,-13.57912],[-172.7354,-13.57706]]]]}}],"admin1":{"type":"FeatureCollection","features":[{"type":"Feature","properties":{"id":"WSM:ADM1:WSM-4991","name":"Gaga'ifomauga","countryCode":"WSM"},"geometry":{"type":"MultiPolygon","coordinates":[[[[-171.56483,-13.90174],[-171.56311,-13.90489],[-171.56388,-13.90919],[-171.5602,-13.91169],[-171.5595,-13.91146],[-171.55744,-13.91522],[-171.55907,-13.92539],[-171.56574,-13.93141],[-171.57002,-13.93816],[-171.56918,-13.93981],[-171.571,-13.94199],[-171.56796,-13.94219],[-171.56428,-13.9494],[-171.51948,-13.94476],[-171.51525,-13.94684],[-171.51601,-13.95092],[-171.50796,-13.95042],[-171.46968,-13.96925],[-171.46985,-13.97471],[-171.46317,-13.97786],[-171.46235,-13.97754],[-171.43769,-14.00612],[-171.44819,-14.03753],[-171.4453,-14.04144],[-171.44265,-14.04751],[-171.46106,-14.04453],[-171.46742,-14.04615],[-171.49326,-14.03983],[-171.5071,-14.04258],[-171.53033,-14.03977],[-171.53996,-14.04502],[-171.54771,-14.04297],[-171.58353,-14.04586],[-171.58532,-14.04296],[-171.6069,-14.04055],[-171.61047,-14.03612],[-171.60815,-14.0323],[-171.61109,-14.0359],[-171.61614,-14.03451],[-171.65391,-14.04365],[-171.67297,-14.04021],[-171.67874,-14.03881],[-171.69442,-14.02866],[-171.70176,-14.02917],[-171.70525,-14.0345],[-171.71669,-14.03539],[-171.72963,-14.04434],[-171.76475,-14.04389],[-171.76931,-14.03862],[-171.76934,-14.03849],[-171.76594,-14.03168],[-171.77307,-14.02809],[-171.77551,-14.01767],[-171.78107,-14.01188],[-171.78964,-14.0088],[-171.80235,-14.01032],[-171.82426,-14.00779],[-171.82993,-14.00589],[-171.83988,-13.99178],[-171.83132,-13.99847],[-171.82743,-14.00599],[-171.8128,-14.006],[-171.82649,-14.00215],[-171.83149,-13.99553],[-171.83345,-13.98526],[-171.83745,-13.99117],[-171.84141,-13.98814],[-171.85192,-13.98977],[-171.85408,-13.98431],[-171.85783,-13.98357],[-171.8633,-13.98947],[-171.87685,-13.99126],[-171.87084,-13.99106],[-171.88856,-14.00274],[-171.89987,-14.00111],[-171.90323,-14.00517],[-171.9173,-14.00434],[-171.91736,-14.00432],[-171.93346,-13.98994],[-171.93342,-13.9863],[-171.93757,-13.98826],[-171.94659,-13.98177],[-171.94891,-13.97818],[-171.95174,-13.9691],[-171.96014,-13.95802],[-171.96071,-13.94867],[-171.9717,-13.93811],[-171.97124,-13.93524],[-171.9789,-13.93523],[-171.98074,-13.93752],[-171.97618,-13.94616],[-171.98336,-13.9494],[-171.98884,-13.9494],[-171.99125,-13.94602],[-171.9892,-13.94073],[-171.9936,-13.93958],[-171.99524,-13.93504],[-171.99885,-13.93539],[-172.0063,-13.92498],[-172.00699,-13.92456],[-172.00658,-13.92438],[-172.00472,-13.91686],[-172.02166,-13.91179],[-172.02732,-13.91356],[-172.03775,-13.90751],[-172.04545,-13.90693],[-172.06233,-13.89575],[-172.06367,-13.88502],[-172.05561,-13.86191],[-172.04406,-13.84637],[-171.99578,-13.82933],[-171.97075,-13.82936],[-171.95102,-13.81634],[-171.8802,-13.80535],[-171.83454,-13.80739],[-171.80792,-13.81313],[-171.808,-13.81671],[-171.79987,-13.81617],[-171.80303,-13.81767],[-171.80223,-13.82074],[-171.79623,-13.8211],[-171.79289,-13.8269],[-171.77676,-13.82878],[-171.77584,-13.82452],[-171.77875,-13.82173],[-171.77464,-13.82331],[-171.7704,-13.82924],[-171.7666,-13.82775],[-171.76474,-13.83236],[-171.76171,-13.83296],[-171.7595,-13.82915],[-171.7429,-13.83555],[-171.74227,-13.84081],[-171.72219,-13.84446],[-171.72125,-13.85101],[-171.7118,-13.85509],[-171.70815,-13.86374],[-171.69906,-13.85981],[-171.68619,-13.86476],[-171.67348,-13.8623],[-171.66249,-13.86654],[-171.64897,-13.8757],[-171.64092,-13.87232],[-171.6368,-13.87278],[-171.6313,-13.87377],[-171.62224,-13.885],[-171.61144,-13.87564],[-171.60692,-13.87615],[-171.58515,-13.88388],[-171.58491,-13.88406],[-171.58956,-13.89546],[-171.58706,-13.8911],[-171.57519,-13.89178],[-171.57483,-13.89144],[-171.57099,-13.89424],[-171.571,-13.89438],[-171.57064,-13.8945],[-171.56758,-13.89674],[-171.56624,-13.89917],[-171.56625,-13.90204],[-171.56483,-13.90174]]],[[[-172.74681,-13.57317],[-172.75341,-13.567],[-172.76,-13.56641],[-172.76118,-13.56504],[-172.77648,-13.54209],[-172.78258,-13.52028],[-172.76655,-13.51051],[-172.73237,-13.51051],[-172.69514,-13.52418],[-172.6612,-13.52516],[-172.63899,-13.52207],[-172.61535,-13.50937],[-172.60399,-13.50644],[-172.58186,-13.50449],[-172.5692,-13.5014],[-172.54223,-13.48789],[-172.53063,-13.48398],[-172.45185,-13.48398],[-172.43147,-13.48089],[-172.38923,-13.46697],[-172.36616,-13.46282],[-172.34443,-13.46299],[-172.32238,-13.46689],[-172.30077,-13.47649],[-172.28632,-13.48868],[-172.27366,-13.50597],[-172.2671,-13.50863],[-172.26287,-13.51337],[-172.25847,-13.52299],[-172.23799,-13.54346],[-172.2355,-13.55476],[-172.22766,-13.5582],[-172.22601,-13.57057],[-172.22334,-13.57227],[-172.22358,-13.57391],[-172.22277,-13.5783],[-172.21752,-13.58278],[-172.21451,-13.58398],[-172.21482,-13.58419],[-172.20489,-13.59583],[-172.2006,-13.61512],[-172.19542,-13.62129],[-172.19527,-13.62561],[-172.19761,-13.63136],[-172.19496,-13.63505],[-172.1949,-13.6369],[-172.19026,-13.65602],[-172.18139,-13.66766],[-172.17784,-13.67546],[-172.17928,-13.67845],[-172.19358,-13.68912],[-172.19943,-13.6969],[-172.19812,-13.7016],[-172.2042,-13.70476],[-172.20111,-13.70915],[-172.20412,-13.7127],[-172.19906,-13.7139],[-172.19626,-13.7216],[-172.22056,-13.73685],[-172.21622,-13.74433],[-172.22339,-13.75284],[-172.22055,-13.75307],[-172.21466,-13.76366],[-172.21532,-13.76767],[-172.21352,-13.78161],[-172.21444,-13.78234],[-172.21413,-13.79028],[-172.22601,-13.80192],[-172.23892,-13.80106],[-172.24424,-13.8036],[-172.25328,-13.79518],[-172.26259,-13.7983],[-172.26395,-13.79789],[-172.27261,-13.79064],[-172.27812,-13.78126],[-172.28764,-13.7723],[-172.28538,-13.76887],[-172.28944,-13.75868],[-172.3004,-13.7602],[-172.3087,-13.75476],[-172.3227,-13.76107],[-172.32701,-13.77422],[-172.32715,-13.77434],[-172.33792,-13.77814],[-172.34894,-13.77776],[-172.35486,-13.77243],[-172.36646,-13.77321],[-172.37337,-13.77907],[-172.38668,-13.77749],[-172.39075,-13.78238],[-172.40577,-13.78517],[-172.41383,-13.78086],[-172.4196,-13.78575],[-172.44664,-13.78942],[-172.45277,-13.79468],[-172.47258,-13.78673],[-172.48883,-13.79726],[-172.5075,-13.79827],[-172.51258,-13.7951],[-172.5181,-13.80169],[-172.52719,-13.80257],[-172.53291,-13.7986],[-172.54316,-13.78525],[-172.55114,-13.77752],[-172.56737,-13.76881],[-172.57514,-13.76279],[-172.57848,-13.754],[-172.58056,-13.74481],[-172.58996,-13.72479],[-172.59211,-13.71266],[-172.59712,-13.70062],[-172.60896,-13.69305],[-172.62255,-13.68776],[-172.63305,-13.6819],[-172.65453,-13.64918],[-172.66747,-13.63388],[-172.67812,-13.62986],[-172.67811,-13.62736],[-172.6846,-13.6193],[-172.68984,-13.61758],[-172.69212,-13.62102],[-172.6939,-13.61727],[-172.70377,-13.61381],[-172.71921,-13.60205],[-172.72187,-13.59783],[-172.72301,-13.58733],[-172.72557,-13.58196],[-172.73127,-13.57887],[-172.73412,-13.57912],[-172.7354,-13.57706],[-172.74681,-13.57317]]]]}}]}}
